{"type": "FeatureCollection", "features": [{"type": "Feature", "properties": {"name": "Bezirk Spittal an der Drau", "admin": "bezirk", "source": "\u00a9 OpenStreetMap contributors, ODbL 1.0", "osm_relation": 376676}, "geometry": {"type": "Polygon", "coordinates": [[[12.841235, 46.74934], [12.845291, 46.752247], [12.847366, 46.753672], [12.853969, 46.7582], [12.856849, 46.760173], [12.85995, 46.760626], [12.8668, 46.760622], [12.872686, 46.76205], [12.876999, 46.762693], [12.877925, 46.76315], [12.878265, 46.763276], [12.878745, 46.763455], [12.87929, 46.763749], [12.879871, 46.764092], [12.879843, 46.764287], [12.879932, 46.764305], [12.8805, 46.764419], [12.88136, 46.764972], [12.881431, 46.765053], [12.8828, 46.766618], [12.885312, 46.7683], [12.886552, 46.769006], [12.898556, 46.775835], [12.899391, 46.776851], [12.909232, 46.772854], [12.910455, 46.772281], [12.911145, 46.77188], [12.911762, 46.771412], [12.91239, 46.770671], [12.913233, 46.769512], [12.913849, 46.76889], [12.915688, 46.767502], [12.916347, 46.767067], [12.919417, 46.765844], [12.92129, 46.765217], [12.922952, 46.764953], [12.924588, 46.7649], [12.926902, 46.764987], [12.928568, 46.7648], [12.929808, 46.764406], [12.931433, 46.764046], [12.93376, 46.765184], [12.940548, 46.768336], [12.940705, 46.768477], [12.941732, 46.768816], [12.942514, 46.768985], [12.943286, 46.769023], [12.943887, 46.769254], [12.944013, 46.769374], [12.944228, 46.769759], [12.944433, 46.769682], [12.944789, 46.769503], [12.945793, 46.770848], [12.94532, 46.771064], [12.944941, 46.771268], [12.944671, 46.771493], [12.94558, 46.7723], [12.946654, 46.772694], [12.946733, 46.773432], [12.946349, 46.77446], [12.946024, 46.774844], [12.946259, 46.775384], [12.946398, 46.775752], [12.946483, 46.7759], [12.946511, 46.776028], [12.946725, 46.776492], [12.946823, 46.776589], [12.947098, 46.776789], [12.947471, 46.777023], [12.947663, 46.777212], [12.947963, 46.777366], [12.948927, 46.778022], [12.950331, 46.779101], [12.950515, 46.779388], [12.950632, 46.779637], [12.951193, 46.780344], [12.95176, 46.780535], [12.951961, 46.780783], [12.952398, 46.781157], [12.952554, 46.781315], [12.953029, 46.781961], [12.953295, 46.782184], [12.953972, 46.782452], [12.954975, 46.781956], [12.955341, 46.781971], [12.955687, 46.782048], [12.956185, 46.782568], [12.957328, 46.78239], [12.958099, 46.782729], [12.958172, 46.783139], [12.958395, 46.783165], [12.959225, 46.783163], [12.959404, 46.78321], [12.959576, 46.783267], [12.960255, 46.783761], [12.960609, 46.783872], [12.960643, 46.784041], [12.96085, 46.784118], [12.961614, 46.784471], [12.962376, 46.784959], [12.96269, 46.785086], [12.962961, 46.785303], [12.963285, 46.785337], [12.963934, 46.785334], [12.964062, 46.78552], [12.963885, 46.785663], [12.965155, 46.786927], [12.965169, 46.787108], [12.965788, 46.7877], [12.966003, 46.789557], [12.965095, 46.791087], [12.964686, 46.79147], [12.965102, 46.793437], [12.964769, 46.796622], [12.963493, 46.798652], [12.962442, 46.799247], [12.960373, 46.799453], [12.958758, 46.799788], [12.956405, 46.799881], [12.952957, 46.801053], [12.951131, 46.802396], [12.949627, 46.803088], [12.948743, 46.803535], [12.947884, 46.803972], [12.946256, 46.804624], [12.944568, 46.804916], [12.943791, 46.805574], [12.943294, 46.805617], [12.940929, 46.806969], [12.938873, 46.80833], [12.9363, 46.809331], [12.935144, 46.81023], [12.934835, 46.810471], [12.934116, 46.811191], [12.931719, 46.812136], [12.930202, 46.812361], [12.92757, 46.813521], [12.926317, 46.814072], [12.924436, 46.814302], [12.91884, 46.818868], [12.917268, 46.819529], [12.914084, 46.821353], [12.909267, 46.822088], [12.907796, 46.822312], [12.907121, 46.822676], [12.905732, 46.822593], [12.905471, 46.822633], [12.903939, 46.822974], [12.900422, 46.823843], [12.897879, 46.8245], [12.895604, 46.82581], [12.89235, 46.828971], [12.892018, 46.829724], [12.893855, 46.83216], [12.893935, 46.832783], [12.892134, 46.834174], [12.890726, 46.835776], [12.889897, 46.836632], [12.889577, 46.836897], [12.889327, 46.837325], [12.888645, 46.837804], [12.888033, 46.838426], [12.88773, 46.838413], [12.887412, 46.838923], [12.887596, 46.839221], [12.887624, 46.839515], [12.887821, 46.839847], [12.886926, 46.841213], [12.886482, 46.842507], [12.885756, 46.842627], [12.881539, 46.843538], [12.880733, 46.843808], [12.879905, 46.844184], [12.878927, 46.844336], [12.876616, 46.844475], [12.873424, 46.846083], [12.873232, 46.846287], [12.872872, 46.847163], [12.872526, 46.847622], [12.872381, 46.84793], [12.87178, 46.848505], [12.871469, 46.848535], [12.871279, 46.848828], [12.868041, 46.849881], [12.865944, 46.850944], [12.864252, 46.851684], [12.862929, 46.852394], [12.861237, 46.853217], [12.860431, 46.853453], [12.858545, 46.854339], [12.858248, 46.854478], [12.856377, 46.855353], [12.85358, 46.856517], [12.852319, 46.857084], [12.849716, 46.858799], [12.84383, 46.859676], [12.842613, 46.86038], [12.841164, 46.860983], [12.841232, 46.861604], [12.841167, 46.861878], [12.84125, 46.862172], [12.841119, 46.862441], [12.841211, 46.862766], [12.841377, 46.86295], [12.841667, 46.86314], [12.841988, 46.864088], [12.842224, 46.864534], [12.842735, 46.866712], [12.8427, 46.867474], [12.842851, 46.868258], [12.842783, 46.868967], [12.842878, 46.869277], [12.842758, 46.869727], [12.842767, 46.870025], [12.842986, 46.870801], [12.843091, 46.871622], [12.843634, 46.87336], [12.843342, 46.874814], [12.843448, 46.875745], [12.843005, 46.876658], [12.842721, 46.877863], [12.84248, 46.878388], [12.842194, 46.878832], [12.84195, 46.879852], [12.842024, 46.880552], [12.842136, 46.880887], [12.842007, 46.882492], [12.842101, 46.883135], [12.841899, 46.884096], [12.842, 46.884664], [12.841793, 46.885112], [12.841526, 46.88645], [12.841348, 46.88705], [12.841501, 46.887415], [12.841261, 46.889862], [12.84192, 46.892982], [12.839876, 46.892888], [12.838653, 46.893922], [12.838242, 46.894372], [12.837906, 46.894634], [12.837307, 46.894968], [12.837192, 46.895077], [12.836659, 46.895339], [12.836191, 46.896192], [12.835695, 46.896635], [12.835588, 46.896822], [12.833642, 46.89851], [12.833109, 46.898814], [12.832523, 46.899257], [12.831991, 46.899796], [12.831762, 46.900832], [12.832071, 46.902683], [12.832394, 46.903199], [12.836103, 46.908018], [12.836818, 46.908676], [12.838431, 46.909971], [12.837763, 46.911491], [12.837321, 46.911692], [12.837004, 46.911902], [12.837062, 46.912493], [12.830958, 46.915176], [12.825253, 46.916995], [12.822513, 46.917028], [12.821833, 46.916821], [12.82002, 46.920779], [12.81727, 46.920502], [12.811956, 46.922883], [12.808466, 46.922604], [12.802412, 46.922546], [12.801988, 46.922617], [12.798829, 46.923568], [12.794908, 46.925648], [12.793685, 46.926481], [12.791008, 46.927925], [12.789317, 46.928836], [12.782949, 46.931895], [12.784173, 46.936934], [12.786216, 46.939332], [12.78628, 46.939408], [12.786414, 46.939565], [12.782672, 46.939873], [12.780178, 46.940077], [12.777609, 46.942185], [12.772649, 46.944209], [12.76965, 46.944786], [12.768837, 46.946551], [12.766633, 46.947787], [12.762483, 46.951062], [12.760715, 46.953413], [12.760552, 46.953873], [12.759577, 46.956614], [12.754039, 46.956649], [12.750551, 46.956663], [12.747186, 46.958837], [12.744579, 46.960525], [12.743975, 46.967462], [12.742166, 46.968591], [12.74109, 46.968991], [12.741799, 46.972929], [12.738975, 46.978788], [12.736341, 46.982872], [12.733821, 46.984871], [12.732091, 46.986592], [12.729437, 46.988869], [12.727397, 46.991705], [12.725909, 46.99237], [12.724643, 46.995789], [12.729384, 46.997497], [12.731779, 46.998872], [12.733561, 47.001095], [12.736239, 47.002678], [12.737458, 47.00385], [12.737575, 47.00578], [12.735863, 47.007627], [12.736181, 47.010451], [12.735777, 47.013001], [12.738715, 47.014059], [12.740369, 47.014404], [12.742279, 47.014542], [12.744551, 47.018285], [12.745619, 47.018755], [12.746516, 47.019981], [12.747829, 47.021057], [12.754889, 47.024865], [12.754141, 47.026328], [12.754404, 47.026724], [12.756133, 47.033517], [12.759663, 47.034911], [12.760805, 47.035164], [12.766467, 47.037171], [12.768673, 47.039298], [12.772282, 47.040153], [12.765932, 47.044431], [12.760694, 47.044537], [12.759093, 47.045157], [12.757823, 47.045826], [12.75464, 47.04549], [12.753942, 47.044806], [12.753749, 47.044308], [12.753434, 47.044015], [12.753237, 47.043996], [12.752865, 47.043765], [12.751335, 47.043169], [12.750956, 47.043179], [12.750271, 47.043084], [12.750038, 47.04295], [12.749633, 47.042952], [12.749383, 47.043108], [12.749105, 47.04307], [12.748945, 47.042945], [12.748165, 47.04273], [12.747578, 47.042956], [12.747387, 47.04296], [12.746122, 47.042366], [12.745553, 47.042313], [12.744905, 47.0424], [12.744732, 47.042361], [12.744257, 47.042021], [12.743892, 47.0419], [12.74352, 47.041918], [12.743229, 47.041982], [12.742731, 47.041799], [12.742427, 47.041753], [12.741814, 47.041944], [12.741433, 47.041996], [12.738639, 47.042257], [12.73803, 47.042093], [12.735875, 47.041848], [12.734839, 47.04168], [12.733952, 47.041711], [12.7336, 47.041661], [12.733048, 47.04173], [12.732848, 47.041883], [12.732557, 47.041881], [12.732017, 47.041984], [12.731355, 47.042319], [12.730798, 47.042385], [12.728034, 47.042475], [12.724032, 47.043051], [12.723329, 47.043096], [12.722532, 47.043277], [12.717063, 47.04349], [12.716882, 47.043613], [12.716798, 47.043794], [12.71651, 47.043829], [12.716411, 47.043898], [12.716423, 47.044094], [12.716365, 47.044162], [12.714585, 47.044709], [12.713968, 47.045095], [12.713495, 47.045537], [12.712786, 47.046446], [12.712589, 47.046588], [12.712214, 47.046671], [12.711896, 47.047137], [12.711478, 47.047389], [12.711365, 47.047589], [12.711321, 47.047884], [12.711117, 47.048172], [12.710522, 47.048436], [12.710138, 47.049738], [12.701679, 47.069697], [12.701391, 47.070222], [12.701291, 47.070584], [12.701055, 47.070835], [12.700723, 47.070937], [12.700527, 47.071266], [12.700029, 47.07171], [12.69993, 47.072625], [12.699827, 47.072824], [12.699594, 47.07306], [12.699233, 47.073133], [12.698666, 47.073494], [12.697422, 47.073864], [12.696692, 47.073711], [12.696013, 47.073725], [12.695695, 47.073919], [12.694971, 47.073942], [12.69449, 47.074135], [12.694045, 47.074485], [12.693884, 47.074528], [12.693781, 47.074547], [12.692509, 47.075223], [12.692142, 47.075608], [12.692141, 47.076079], [12.691605, 47.076359], [12.690886, 47.076647], [12.689303, 47.07718], [12.689065, 47.077426], [12.68759, 47.07836], [12.687172, 47.078749], [12.687018, 47.079059], [12.686485, 47.079567], [12.686025, 47.079902], [12.685898, 47.080275], [12.68605, 47.080883], [12.685975, 47.081629], [12.6857, 47.081897], [12.683725, 47.083189], [12.682638, 47.083116], [12.681636, 47.083492], [12.680861, 47.084048], [12.679362, 47.085566], [12.679234, 47.085808], [12.679303, 47.086465], [12.679507, 47.086832], [12.679862, 47.087042], [12.678739, 47.087279], [12.677819, 47.087765], [12.67735, 47.088157], [12.677309, 47.088751], [12.67651, 47.089338], [12.676411, 47.089616], [12.675962, 47.089941], [12.675626, 47.090053], [12.674366, 47.090951], [12.671862, 47.091024], [12.670893, 47.090928], [12.669406, 47.0912], [12.668568, 47.091438], [12.668433, 47.091608], [12.66706, 47.092291], [12.665379, 47.09332], [12.664973, 47.093442], [12.664794, 47.09371], [12.664156, 47.094329], [12.663575, 47.094649], [12.66238, 47.095176], [12.662053, 47.095383], [12.661374, 47.096195], [12.659661, 47.097689], [12.658735, 47.098329], [12.65822, 47.098582], [12.657826, 47.098898], [12.657516, 47.098979], [12.656837, 47.099521], [12.656829, 47.09984], [12.656917, 47.100023], [12.65741, 47.100417], [12.65754, 47.1006], [12.657711, 47.100734], [12.657939, 47.100889], [12.658043, 47.101054], [12.658393, 47.101227], [12.658785, 47.101386], [12.658917, 47.101609], [12.66068, 47.102395], [12.661405, 47.102553], [12.661901, 47.102615], [12.662449, 47.103048], [12.663342, 47.103651], [12.663717, 47.103866], [12.664069, 47.104094], [12.664491, 47.104273], [12.665235, 47.104678], [12.665399, 47.104765], [12.66573, 47.104918], [12.666062, 47.105139], [12.666334, 47.105206], [12.667591, 47.105688], [12.668359, 47.105967], [12.66939, 47.106396], [12.66952, 47.106321], [12.670274, 47.106589], [12.670736, 47.106815], [12.670904, 47.10712], [12.670998, 47.107391], [12.671068, 47.108335], [12.671102, 47.108476], [12.671642, 47.108756], [12.672955, 47.109271], [12.672884, 47.109471], [12.672648, 47.109731], [12.672555, 47.109911], [12.672274, 47.110075], [12.672031, 47.110564], [12.671847, 47.110865], [12.67046, 47.111862], [12.670117, 47.112484], [12.669608, 47.112831], [12.668677, 47.113598], [12.668143, 47.113884], [12.668044, 47.114206], [12.667711, 47.114818], [12.667547, 47.115211], [12.667311, 47.115617], [12.666839, 47.11611], [12.666796, 47.116612], [12.666666, 47.117257], [12.666496, 47.117951], [12.666821, 47.118987], [12.667324, 47.119839], [12.666257, 47.12105], [12.666289, 47.121213], [12.666051, 47.12241], [12.666144, 47.122833], [12.667217, 47.121704], [12.667775, 47.12147], [12.669281, 47.120966], [12.670402, 47.120751], [12.671388, 47.120698], [12.672334, 47.120711], [12.674017, 47.120912], [12.674408, 47.121003], [12.676773, 47.1213], [12.677316, 47.121474], [12.680502, 47.121854], [12.681707, 47.121858], [12.682671, 47.121902], [12.683913, 47.122124], [12.684854, 47.122405], [12.685588, 47.122565], [12.686428, 47.122947], [12.686898, 47.123226], [12.687903, 47.123601], [12.688382, 47.123974], [12.689024, 47.124315], [12.689681, 47.124094], [12.690686, 47.123905], [12.691908, 47.123505], [12.692044, 47.123245], [12.6921, 47.122828], [12.693081, 47.122455], [12.694238, 47.122121], [12.696724, 47.121653], [12.697138, 47.121626], [12.697433, 47.121685], [12.698421, 47.122019], [12.700643, 47.122441], [12.7026, 47.122173], [12.702943, 47.122215], [12.703345, 47.122182], [12.703932, 47.121495], [12.704487, 47.122016], [12.708427, 47.124557], [12.709399, 47.124845], [12.710361, 47.124437], [12.711114, 47.124689], [12.711781, 47.124978], [12.712402, 47.125669], [12.71272, 47.126267], [12.713009, 47.127249], [12.713024, 47.128067], [12.713413, 47.12798], [12.713911, 47.127717], [12.714612, 47.127809], [12.716309, 47.128551], [12.717482, 47.129195], [12.717966, 47.129379], [12.718618, 47.129299], [12.719331, 47.129464], [12.720288, 47.129434], [12.721246, 47.129799], [12.723558, 47.130421], [12.7246, 47.130777], [12.724873, 47.130898], [12.725417, 47.131284], [12.725859, 47.131298], [12.727688, 47.131052], [12.728941, 47.130995], [12.729724, 47.130911], [12.730904, 47.130994], [12.732559, 47.126161], [12.733126, 47.121932], [12.734393, 47.113585], [12.735006, 47.113041], [12.734922, 47.112907], [12.735666, 47.1115], [12.735553, 47.111363], [12.734569, 47.108804], [12.733771, 47.106458], [12.733802, 47.106146], [12.733911, 47.105928], [12.733823, 47.105444], [12.73321, 47.104684], [12.733068, 47.104386], [12.733403, 47.104155], [12.733952, 47.103567], [12.734594, 47.103144], [12.735081, 47.102934], [12.736688, 47.101471], [12.738857, 47.100318], [12.742273, 47.099877], [12.744717, 47.099162], [12.744989, 47.099034], [12.747249, 47.099518], [12.748892, 47.099659], [12.74941, 47.099335], [12.751236, 47.098684], [12.754407, 47.097926], [12.756207, 47.097723], [12.757568, 47.097983], [12.759657, 47.099151], [12.761797, 47.100023], [12.76322, 47.100146], [12.764173, 47.100315], [12.764875, 47.10021], [12.766392, 47.09945], [12.766654, 47.099518], [12.768692, 47.099447], [12.769794, 47.099452], [12.771457, 47.100451], [12.772776, 47.100943], [12.773409, 47.100703], [12.773672, 47.100572], [12.774062, 47.100062], [12.775179, 47.099222], [12.775389, 47.098753], [12.775831, 47.098447], [12.775893, 47.098312], [12.776237, 47.098223], [12.776329, 47.097943], [12.776503, 47.097828], [12.777256, 47.097694], [12.777366, 47.097556], [12.778429, 47.097386], [12.779676, 47.096638], [12.779792, 47.096646], [12.78027, 47.096246], [12.780545, 47.095841], [12.781166, 47.093603], [12.781339, 47.093273], [12.781602, 47.092991], [12.78204, 47.092788], [12.782376, 47.092843], [12.782626, 47.093004], [12.783493, 47.092717], [12.783783, 47.092527], [12.784879, 47.092453], [12.785684, 47.092617], [12.786337, 47.092569], [12.787148, 47.092806], [12.787436, 47.092813], [12.787783, 47.093027], [12.788385, 47.093132], [12.788711, 47.093418], [12.789774, 47.093738], [12.790216, 47.093751], [12.790527, 47.093619], [12.794379, 47.093], [12.79498, 47.092891], [12.795333, 47.093052], [12.7958, 47.093325], [12.797032, 47.093762], [12.798285, 47.094312], [12.798527, 47.094318], [12.798732, 47.094403], [12.798844, 47.094525], [12.803921, 47.095509], [12.80405, 47.096523], [12.804181, 47.096884], [12.804676, 47.097701], [12.804793, 47.098004], [12.805738, 47.097972], [12.806195, 47.097817], [12.806688, 47.097842], [12.809514, 47.097519], [12.810275, 47.097651], [12.812685, 47.097508], [12.812802, 47.097573], [12.812894, 47.097601], [12.813018, 47.09764], [12.813568, 47.09777], [12.814033, 47.098056], [12.814465, 47.098193], [12.814789, 47.09818], [12.814756, 47.098031], [12.816336, 47.09739], [12.816812, 47.097387], [12.817374, 47.096959], [12.817801, 47.096892], [12.818145, 47.096838], [12.818761, 47.096928], [12.819448, 47.097277], [12.819956, 47.097411], [12.820287, 47.097666], [12.821576, 47.096356], [12.822828, 47.095074], [12.824608, 47.092805], [12.827195, 47.09167], [12.83023, 47.091428], [12.831773, 47.09071], [12.833099, 47.087834], [12.834229, 47.086094], [12.834862, 47.084274], [12.835952, 47.083874], [12.836763, 47.0828], [12.838812, 47.082555], [12.839029, 47.082529], [12.839173, 47.08251], [12.84007, 47.082501], [12.840702, 47.082509], [12.841896, 47.082358], [12.842397, 47.082222], [12.842733, 47.082273], [12.845406, 47.081882], [12.846097, 47.081778], [12.846378, 47.0813], [12.846456, 47.081168], [12.847047, 47.081313], [12.848505, 47.081671], [12.850486, 47.081635], [12.853187, 47.081585], [12.855277, 47.081291], [12.856659, 47.081097], [12.857242, 47.081018], [12.859724, 47.080681], [12.860665, 47.081947], [12.860912, 47.082055], [12.863489, 47.083382], [12.863781, 47.083532], [12.865549, 47.084659], [12.866364, 47.084556], [12.867001, 47.084606], [12.867805, 47.084878], [12.868154, 47.085117], [12.868841, 47.085586], [12.869931, 47.085792], [12.8708, 47.086225], [12.870876, 47.086262], [12.871696, 47.086038], [12.872131, 47.085919], [12.872636, 47.085781], [12.872892, 47.085711], [12.874409, 47.085169], [12.875876, 47.084644], [12.877282, 47.08428], [12.87769, 47.084174], [12.878242, 47.084336], [12.878482, 47.084407], [12.878615, 47.084446], [12.879193, 47.084482], [12.87994, 47.084529], [12.880388, 47.084557], [12.881925, 47.084379], [12.882558, 47.084306], [12.883115, 47.084367], [12.885117, 47.084589], [12.885697, 47.084445], [12.885852, 47.084404], [12.887193, 47.083794], [12.887724, 47.083552], [12.887943, 47.083421], [12.888181, 47.083279], [12.889683, 47.082384], [12.890227, 47.082172], [12.891715, 47.081595], [12.892099, 47.081445], [12.892512, 47.081285], [12.894333, 47.081241], [12.894981, 47.081127], [12.895452, 47.081044], [12.895736, 47.081331], [12.895825, 47.081323], [12.896092, 47.081297], [12.896428, 47.081266], [12.89791, 47.081125], [12.898923, 47.081029], [12.901539, 47.08078], [12.903247, 47.081209], [12.903449, 47.08126], [12.904051, 47.081411], [12.904505, 47.081358], [12.904657, 47.08134], [12.907548, 47.081002], [12.910483, 47.081152], [12.912888, 47.081287], [12.913418, 47.081317], [12.914532, 47.081577], [12.916562, 47.081457], [12.919332, 47.081606], [12.919605, 47.081535], [12.920691, 47.081253], [12.921119, 47.081141], [12.925758, 47.079935], [12.926356, 47.079647], [12.926731, 47.079466], [12.928505, 47.079086], [12.929366, 47.078901], [12.929466, 47.07888], [12.931273, 47.078248], [12.932464, 47.077832], [12.932555, 47.0778], [12.932856, 47.077694], [12.934237, 47.077244], [12.937531, 47.076169], [12.937273, 47.07599], [12.936462, 47.073093], [12.937647, 47.072018], [12.939197, 47.070649], [12.940755, 47.06798], [12.940951, 47.067641], [12.941254, 47.067125], [12.941319, 47.067013], [12.941742, 47.066293], [12.943053, 47.063659], [12.943127, 47.061005], [12.943174, 47.059316], [12.945153, 47.058008], [12.946509, 47.057517], [12.955618, 47.054219], [12.955556, 47.054068], [12.953048, 47.049308], [12.953011, 47.049263], [12.953922, 47.047833], [12.954415, 47.047058], [12.954593, 47.046779], [12.954812, 47.046435], [12.955273, 47.045712], [12.955531, 47.045308], [12.956855, 47.043229], [12.961112, 47.041519], [12.964845, 47.039], [12.971739, 47.037861], [12.976144, 47.038598], [12.97997, 47.038767], [12.982644, 47.038393], [12.985352, 47.035607], [12.988263, 47.036445], [12.995856, 47.038671], [12.997106, 47.039507], [13.00309, 47.043872], [13.003653, 47.043764], [13.014215, 47.041943], [13.017883, 47.041466], [13.021239, 47.039324], [13.021599, 47.035709], [13.019863, 47.030176], [13.023617, 47.028644], [13.025125, 47.028084], [13.027935, 47.027774], [13.031878, 47.02716], [13.033208, 47.02712], [13.034977, 47.026367], [13.03929, 47.023657], [13.045013, 47.021411], [13.047115, 47.022544], [13.04914, 47.022417], [13.054669, 47.019561], [13.05785, 47.017559], [13.060081, 47.01731], [13.069392, 47.014184], [13.073031, 47.013413], [13.075615, 47.015283], [13.076186, 47.015695], [13.078568, 47.018252], [13.078612, 47.018299], [13.079533, 47.019871], [13.079783, 47.020299], [13.079454, 47.022249], [13.079533, 47.024417], [13.080342, 47.026811], [13.086063, 47.027605], [13.086797, 47.02711], [13.087489, 47.026556], [13.088567, 47.026988], [13.08884, 47.027331], [13.089256, 47.027699], [13.089653, 47.027736], [13.090917, 47.026943], [13.091805, 47.026285], [13.093739, 47.026026], [13.095647, 47.025427], [13.096073, 47.025375], [13.09636, 47.025341], [13.098008, 47.025333], [13.100723, 47.025067], [13.10344, 47.025212], [13.103658, 47.025256], [13.10646, 47.026289], [13.112203, 47.025457], [13.115422, 47.025844], [13.118207, 47.026074], [13.120162, 47.026373], [13.123644, 47.026578], [13.126973, 47.027051], [13.128227, 47.028927], [13.12917, 47.02983], [13.130459, 47.032233], [13.133211, 47.034806], [13.133827, 47.034903], [13.137966, 47.034779], [13.139242, 47.035353], [13.140044, 47.035962], [13.1467, 47.03497], [13.151859, 47.035619], [13.155596, 47.03548], [13.161983, 47.037042], [13.166387, 47.039632], [13.167714, 47.040815], [13.171244, 47.041746], [13.176365, 47.040876], [13.178884, 47.042148], [13.184626, 47.043741], [13.188202, 47.042623], [13.190744, 47.042657], [13.197029, 47.042575], [13.204269, 47.043934], [13.20922, 47.044275], [13.214721, 47.044075], [13.222548, 47.045825], [13.227957, 47.047033], [13.248131, 47.050577], [13.248612, 47.051306], [13.246949, 47.060518], [13.245546, 47.067847], [13.239388, 47.071529], [13.239792, 47.071784], [13.241308, 47.074879], [13.243149, 47.076636], [13.245466, 47.078611], [13.248015, 47.08392], [13.248154, 47.085781], [13.249811, 47.087509], [13.250893, 47.087409], [13.25469, 47.087871], [13.260691, 47.089365], [13.265942, 47.091102], [13.268491, 47.091722], [13.27184, 47.093024], [13.277307, 47.095155], [13.284251, 47.094751], [13.290146, 47.094406], [13.296821, 47.091208], [13.299934, 47.087759], [13.301752, 47.087096], [13.302844, 47.086732], [13.304651, 47.08649], [13.310063, 47.086101], [13.310132, 47.086208], [13.311001, 47.087535], [13.311376, 47.088108], [13.312227, 47.08835], [13.314469, 47.088988], [13.315366, 47.089232], [13.315964, 47.089394], [13.316159, 47.089434], [13.319608, 47.090134], [13.321191, 47.090455], [13.32359, 47.090855], [13.32439, 47.091931], [13.324467, 47.092035], [13.325219, 47.093047], [13.328753, 47.094273], [13.331981, 47.095393], [13.332604, 47.095609], [13.335726, 47.095596], [13.338328, 47.095575], [13.33956, 47.095385], [13.344191, 47.096], [13.346312, 47.09556], [13.348035, 47.095885], [13.349086, 47.096082], [13.350116, 47.096276], [13.351478, 47.096532], [13.352805, 47.096781], [13.354519, 47.097104], [13.354831, 47.09709], [13.355149, 47.0974], [13.355905, 47.097715], [13.358683, 47.098275], [13.35885, 47.098394], [13.359862, 47.098558], [13.359976, 47.098577], [13.360374, 47.098465], [13.360779, 47.098448], [13.360904, 47.0985], [13.361163, 47.098491], [13.36118, 47.09863], [13.361485, 47.098621], [13.361815, 47.098885], [13.361956, 47.098869], [13.362163, 47.098754], [13.362346, 47.098731], [13.362976, 47.098786], [13.363126, 47.098756], [13.363345, 47.098627], [13.363779, 47.098567], [13.364077, 47.098439], [13.36411, 47.098373], [13.364259, 47.098341], [13.364706, 47.097972], [13.365121, 47.097537], [13.365265, 47.097538], [13.366475, 47.096636], [13.367252, 47.096305], [13.367387, 47.096173], [13.368135, 47.095863], [13.368675, 47.095739], [13.369858, 47.095559], [13.37034, 47.095522], [13.370919, 47.095564], [13.371371, 47.095369], [13.37264, 47.09495], [13.3729, 47.094811], [13.373451, 47.094719], [13.375565, 47.093993], [13.375733, 47.093889], [13.3774, 47.093509], [13.377592, 47.093418], [13.378212, 47.093286], [13.378935, 47.093014], [13.379069, 47.093023], [13.379586, 47.092769], [13.379744, 47.092577], [13.379919, 47.092555], [13.380186, 47.09262], [13.380129, 47.092455], [13.380354, 47.09212], [13.380517, 47.091454], [13.380853, 47.091092], [13.38096, 47.090625], [13.380913, 47.08994], [13.380803, 47.08973], [13.380886, 47.08933], [13.380833, 47.08902], [13.380712, 47.088811], [13.380756, 47.088589], [13.38135, 47.087345], [13.381353, 47.087033], [13.381506, 47.086648], [13.381477, 47.086205], [13.381574, 47.085977], [13.38151, 47.085959], [13.381599, 47.085858], [13.38172, 47.085815], [13.381553, 47.085496], [13.381431, 47.085414], [13.381406, 47.085238], [13.38154, 47.085185], [13.38143, 47.083748], [13.381309, 47.083507], [13.381243, 47.083032], [13.381018, 47.08276], [13.381316, 47.08174], [13.381632, 47.081422], [13.38192, 47.081013], [13.382055, 47.080444], [13.381993, 47.080172], [13.382407, 47.080204], [13.383111, 47.080072], [13.383122, 47.07986], [13.383245, 47.079719], [13.384575, 47.078745], [13.384861, 47.078591], [13.385006, 47.078306], [13.385509, 47.078029], [13.386128, 47.077579], [13.386556, 47.077465], [13.38691, 47.07721], [13.386897, 47.077143], [13.387529, 47.076794], [13.387579, 47.076611], [13.387457, 47.076338], [13.387127, 47.076205], [13.387102, 47.076195], [13.387515, 47.075987], [13.387529, 47.075914], [13.3878, 47.075768], [13.388003, 47.075542], [13.388917, 47.075251], [13.389217, 47.075101], [13.390121, 47.074931], [13.390591, 47.074739], [13.390665, 47.074749], [13.390724, 47.074666], [13.390871, 47.074634], [13.391519, 47.074099], [13.392226, 47.073713], [13.392772, 47.073437], [13.39318, 47.07334], [13.393445, 47.073333], [13.393608, 47.073264], [13.394372, 47.073236], [13.394902, 47.073187], [13.395557, 47.072686], [13.395534, 47.072736], [13.395656, 47.072661], [13.395835, 47.072517], [13.395946, 47.072467], [13.395945, 47.072406], [13.395939, 47.072289], [13.395995, 47.072243], [13.396087, 47.072157], [13.396187, 47.072111], [13.396231, 47.071984], [13.396303, 47.071906], [13.396457, 47.071722], [13.396482, 47.071618], [13.396722, 47.071552], [13.396696, 47.07149], [13.396931, 47.071413], [13.396963, 47.071335], [13.396951, 47.071309], [13.396859, 47.071295], [13.396945, 47.071154], [13.397075, 47.071088], [13.397302, 47.07103], [13.397411, 47.070921], [13.397606, 47.070767], [13.397774, 47.070666], [13.397942, 47.070592], [13.398087, 47.070501], [13.398311, 47.070431], [13.39839, 47.070384], [13.398479, 47.070358], [13.398537, 47.070354], [13.398647, 47.070337], [13.398738, 47.070308], [13.398816, 47.070258], [13.398897, 47.070212], [13.398956, 47.070201], [13.398979, 47.070209], [13.399011, 47.070265], [13.399015, 47.070345], [13.399041, 47.070358], [13.399171, 47.070297], [13.399235, 47.070288], [13.399279, 47.070314], [13.399493, 47.070285], [13.3999, 47.070217], [13.400232, 47.070148], [13.400304, 47.070124], [13.400412, 47.070111], [13.400648, 47.070088], [13.400742, 47.070047], [13.400849, 47.070038], [13.400984, 47.070021], [13.401017, 47.069973], [13.401105, 47.069983], [13.401211, 47.070006], [13.401266, 47.06999], [13.40138, 47.069947], [13.401566, 47.069906], [13.401777, 47.069849], [13.401809, 47.069854], [13.401893, 47.069818], [13.402117, 47.069769], [13.402352, 47.069686], [13.40244, 47.069685], [13.402555, 47.069636], [13.402717, 47.069536], [13.402799, 47.069507], [13.402922, 47.069548], [13.403007, 47.069521], [13.403038, 47.069584], [13.403072, 47.069615], [13.403147, 47.069628], [13.403207, 47.069628], [13.403261, 47.069684], [13.403306, 47.069682], [13.403598, 47.069561], [13.403771, 47.069504], [13.40391, 47.069474], [13.403975, 47.069482], [13.40414, 47.069437], [13.404325, 47.069413], [13.404423, 47.069389], [13.404551, 47.069374], [13.404688, 47.069371], [13.404851, 47.069364], [13.405085, 47.069324], [13.405358, 47.069283], [13.405427, 47.069291], [13.405556, 47.069283], [13.405725, 47.069261], [13.405809, 47.069237], [13.405887, 47.069235], [13.405952, 47.069239], [13.406011, 47.069233], [13.406076, 47.069217], [13.406119, 47.069212], [13.406255, 47.069229], [13.40637, 47.069254], [13.406941, 47.069531], [13.407076, 47.069641], [13.407202, 47.069663], [13.407715, 47.069909], [13.407983, 47.070038], [13.408724, 47.070701], [13.409135, 47.070925], [13.409548, 47.071071], [13.40967, 47.071158], [13.410481, 47.071237], [13.410875, 47.071377], [13.410877, 47.071594], [13.411085, 47.071675], [13.411141, 47.071749], [13.411217, 47.07217], [13.411336, 47.072344], [13.411581, 47.07243], [13.411767, 47.072657], [13.411983, 47.072803], [13.41232, 47.07289], [13.412405, 47.072966], [13.41256, 47.072994], [13.413007, 47.073231], [13.413334, 47.073649], [13.413941, 47.073831], [13.414438, 47.074241], [13.414558, 47.07447], [13.414924, 47.074801], [13.415282, 47.074951], [13.415403, 47.075245], [13.415586, 47.075415], [13.415624, 47.075585], [13.415719, 47.075616], [13.416152, 47.076049], [13.416195, 47.076132], [13.416057, 47.076288], [13.416071, 47.076346], [13.416707, 47.076893], [13.4172, 47.077452], [13.417357, 47.077561], [13.417758, 47.077742], [13.41847, 47.077955], [13.418695, 47.078082], [13.418949, 47.07815], [13.41933, 47.078157], [13.41982, 47.078164], [13.420577, 47.078387], [13.421163, 47.078788], [13.421608, 47.079325], [13.422384, 47.079576], [13.42262, 47.079596], [13.423045, 47.079762], [13.423334, 47.07978], [13.423424, 47.079876], [13.423853, 47.079939], [13.425294, 47.080335], [13.425778, 47.080526], [13.426188, 47.081026], [13.426422, 47.081098], [13.426607, 47.081085], [13.427122, 47.081163], [13.427578, 47.081376], [13.427708, 47.081363], [13.427917, 47.081133], [13.428298, 47.080954], [13.428579, 47.080957], [13.428738, 47.08103], [13.429196, 47.081002], [13.429332, 47.080905], [13.429343, 47.080889], [13.429594, 47.080484], [13.429859, 47.080312], [13.43078, 47.080195], [13.431196, 47.079975], [13.432009, 47.079669], [13.43258, 47.0795], [13.432809, 47.079499], [13.433252, 47.079385], [13.43377, 47.079137], [13.434298, 47.079074], [13.434902, 47.078873], [13.435014, 47.07888], [13.435843, 47.078624], [13.436304, 47.078551], [13.436529, 47.078469], [13.436823, 47.078441], [13.437283, 47.078489], [13.437494, 47.078453], [13.437683, 47.078384], [13.438145, 47.078217], [13.438309, 47.078204], [13.438638, 47.078036], [13.439195, 47.077912], [13.439717, 47.07795], [13.440034, 47.077918], [13.440343, 47.077983], [13.440766, 47.077926], [13.441573, 47.077948], [13.441911, 47.078074], [13.442916, 47.078108], [13.443449, 47.078282], [13.444681, 47.078449], [13.44503, 47.078449], [13.445853, 47.078338], [13.447188, 47.078939], [13.447296, 47.078894], [13.448943, 47.079138], [13.449222, 47.079121], [13.449905, 47.079235], [13.450602, 47.079283], [13.451729, 47.079541], [13.452493, 47.079446], [13.452844, 47.079467], [13.453059, 47.079565], [13.453255, 47.079586], [13.453709, 47.079735], [13.453859, 47.079738], [13.453933, 47.079793], [13.454175, 47.079777], [13.454403, 47.079839], [13.454899, 47.079814], [13.45537, 47.079999], [13.455641, 47.079986], [13.456, 47.080088], [13.456987, 47.080194], [13.457687, 47.080332], [13.457962, 47.080309], [13.459431, 47.079463], [13.460997, 47.078901], [13.461675, 47.078705], [13.462298, 47.078767], [13.463083, 47.078705], [13.463935, 47.078742], [13.464742, 47.07858], [13.465321, 47.078524], [13.466182, 47.078288], [13.467163, 47.077847], [13.467516, 47.077608], [13.468766, 47.077576], [13.469013, 47.077661], [13.469394, 47.077678], [13.469446, 47.077765], [13.469747, 47.077821], [13.470996, 47.0778], [13.471545, 47.077723], [13.47232, 47.07758], [13.472818, 47.077304], [13.473255, 47.077293], [13.474275, 47.077033], [13.474754, 47.076841], [13.474881, 47.076586], [13.475707, 47.076624], [13.476287, 47.076562], [13.477433, 47.076267], [13.477908, 47.07623], [13.479472, 47.075753], [13.479796, 47.075826], [13.479933, 47.075969], [13.480488, 47.07598], [13.480676, 47.07589], [13.480746, 47.075902], [13.4808, 47.075815], [13.481016, 47.075769], [13.481337, 47.075792], [13.481554, 47.075923], [13.481999, 47.075947], [13.482326, 47.075898], [13.48249, 47.075981], [13.482895, 47.076018], [13.48305, 47.075952], [13.483174, 47.075659], [13.483528, 47.075505], [13.483545, 47.075397], [13.483697, 47.075319], [13.484384, 47.075159], [13.484596, 47.075063], [13.484866, 47.075023], [13.485019, 47.074841], [13.485334, 47.07465], [13.486012, 47.074522], [13.48675, 47.074287], [13.487289, 47.0743], [13.487454, 47.074266], [13.487686, 47.074084], [13.487928, 47.073996], [13.488462, 47.073637], [13.488634, 47.073592], [13.489658, 47.073497], [13.489765, 47.073424], [13.490331, 47.073459], [13.49082, 47.073372], [13.491429, 47.0734], [13.492001, 47.073337], [13.492617, 47.073332], [13.493384, 47.073104], [13.493431, 47.073137], [13.493688, 47.073028], [13.493935, 47.073013], [13.494193, 47.072889], [13.494878, 47.072701], [13.4953, 47.072787], [13.495762, 47.072799], [13.496149, 47.072742], [13.496631, 47.072813], [13.496818, 47.072697], [13.497012, 47.072686], [13.497075, 47.072595], [13.498314, 47.072578], [13.498842, 47.072523], [13.499174, 47.072431], [13.499641, 47.072192], [13.500046, 47.072137], [13.500875, 47.071893], [13.501314, 47.07186], [13.50147, 47.071897], [13.501616, 47.071857], [13.501867, 47.071888], [13.501881, 47.071832], [13.502073, 47.071805], [13.502062, 47.071619], [13.50223, 47.071407], [13.502184, 47.071314], [13.502528, 47.071132], [13.50268, 47.070982], [13.5028, 47.070705], [13.502954, 47.070522], [13.502967, 47.070343], [13.503119, 47.070085], [13.50432, 47.070117], [13.505904, 47.070327], [13.506029, 47.070259], [13.506323, 47.070205], [13.506917, 47.070301], [13.507426, 47.070262], [13.507517, 47.070313], [13.507708, 47.070316], [13.508081, 47.070253], [13.508135, 47.070327], [13.508789, 47.070203], [13.509168, 47.070231], [13.509947, 47.070421], [13.510167, 47.070409], [13.510658, 47.070084], [13.511118, 47.07003], [13.512043, 47.069647], [13.512738, 47.068969], [13.512758, 47.068787], [13.512902, 47.068749], [13.513457, 47.068809], [13.514676, 47.068829], [13.515348, 47.068749], [13.516395, 47.068473], [13.516683, 47.068476], [13.517073, 47.068416], [13.51741, 47.068442], [13.517713, 47.068405], [13.518012, 47.068458], [13.518563, 47.068433], [13.518949, 47.068634], [13.519363, 47.068624], [13.519531, 47.068675], [13.520625, 47.068461], [13.520786, 47.06851], [13.521555, 47.068513], [13.522139, 47.068271], [13.522761, 47.067867], [13.523583, 47.067031], [13.523734, 47.067023], [13.524109, 47.066884], [13.524442, 47.066848], [13.524713, 47.066691], [13.525162, 47.066597], [13.526891, 47.065907], [13.527648, 47.065536], [13.528486, 47.065308], [13.528772, 47.065114], [13.529348, 47.065075], [13.530041, 47.064908], [13.531122, 47.064508], [13.531521, 47.064303], [13.531831, 47.064305], [13.532633, 47.064165], [13.533509, 47.064118], [13.533652, 47.064158], [13.533685, 47.064231], [13.534061, 47.064307], [13.534559, 47.064523], [13.534908, 47.064596], [13.535182, 47.06444], [13.535545, 47.06441], [13.535811, 47.064313], [13.536196, 47.064278], [13.536454, 47.064327], [13.536678, 47.064194], [13.536845, 47.06416], [13.536969, 47.064015], [13.537175, 47.064018], [13.537585, 47.063905], [13.537679, 47.063942], [13.537924, 47.063671], [13.538018, 47.063684], [13.538044, 47.063749], [13.538143, 47.063787], [13.538449, 47.063539], [13.538754, 47.063083], [13.539035, 47.062837], [13.539689, 47.062567], [13.540423, 47.062169], [13.54084, 47.062145], [13.54093, 47.062172], [13.541535, 47.062022], [13.541871, 47.062002], [13.542628, 47.061779], [13.542796, 47.061814], [13.542835, 47.061883], [13.543191, 47.061825], [13.543224, 47.061766], [13.543539, 47.06176], [13.543839, 47.061685], [13.543996, 47.0617], [13.544511, 47.061323], [13.544829, 47.061217], [13.544861, 47.061116], [13.545284, 47.060798], [13.545268, 47.060724], [13.545339, 47.060649], [13.545489, 47.060621], [13.54681, 47.059951], [13.547348, 47.059763], [13.548101, 47.059597], [13.548224, 47.059464], [13.548446, 47.059369], [13.549155, 47.059198], [13.549367, 47.059312], [13.549414, 47.059429], [13.549842, 47.059593], [13.550478, 47.05956], [13.55083, 47.059404], [13.551141, 47.05935], [13.55129, 47.059379], [13.551711, 47.059215], [13.552098, 47.059224], [13.552338, 47.059414], [13.552396, 47.059412], [13.552733, 47.059317], [13.552923, 47.059332], [13.553141, 47.059258], [13.553463, 47.059016], [13.553691, 47.058903], [13.553858, 47.058916], [13.554004, 47.058811], [13.554294, 47.058819], [13.554487, 47.058753], [13.554752, 47.058772], [13.554849, 47.05869], [13.554789, 47.058496], [13.554924, 47.05819], [13.555016, 47.058028], [13.555139, 47.057984], [13.555284, 47.057797], [13.557183, 47.056837], [13.557632, 47.056772], [13.557903, 47.056595], [13.558057, 47.056621], [13.558307, 47.056356], [13.558395, 47.056368], [13.558502, 47.056251], [13.558676, 47.056211], [13.558658, 47.056006], [13.558946, 47.05591], [13.560673, 47.055639], [13.561139, 47.055624], [13.561227, 47.055664], [13.561329, 47.055602], [13.561842, 47.055602], [13.562287, 47.055512], [13.562426, 47.055527], [13.562575, 47.055476], [13.562649, 47.055395], [13.563049, 47.055393], [13.563403, 47.055305], [13.563847, 47.055265], [13.564094, 47.055166], [13.564427, 47.055133], [13.564515, 47.055048], [13.564847, 47.054973], [13.565305, 47.054725], [13.565846, 47.054599], [13.567236, 47.054413], [13.567523, 47.05427], [13.567785, 47.054237], [13.568352, 47.054276], [13.56877, 47.054171], [13.568922, 47.05407], [13.569698, 47.054173], [13.57069, 47.053963], [13.571284, 47.053773], [13.572042, 47.05368], [13.574063, 47.053229], [13.576377, 47.052561], [13.577109, 47.052408], [13.578831, 47.052188], [13.579514, 47.052171], [13.58078, 47.052009], [13.582083, 47.052175], [13.582469, 47.052299], [13.583587, 47.053111], [13.583803, 47.053021], [13.58599, 47.053411], [13.586324, 47.05363], [13.587814, 47.05424], [13.58856, 47.054832], [13.589238, 47.05465], [13.589748, 47.05445], [13.591212, 47.054686], [13.592115, 47.054716], [13.593077, 47.055143], [13.59335, 47.055451], [13.594232, 47.055964], [13.594381, 47.055516], [13.594671, 47.055203], [13.595663, 47.054627], [13.595826, 47.0545], [13.596053, 47.054493], [13.596612, 47.054543], [13.596776, 47.054536], [13.597106, 47.054487], [13.597908, 47.054471], [13.59872, 47.054667], [13.599017, 47.054811], [13.599759, 47.054901], [13.600583, 47.054856], [13.600979, 47.054928], [13.602069, 47.055313], [13.602699, 47.055482], [13.603124, 47.055695], [13.604842, 47.055856], [13.606169, 47.055883], [13.608461, 47.056437], [13.611591, 47.057081], [13.612757, 47.057808], [13.614741, 47.058596], [13.615671, 47.059152], [13.637639, 47.055502], [13.64396, 47.042952], [13.643784, 47.042497], [13.643684, 47.042016], [13.64404, 47.041541], [13.645534, 47.040308], [13.647031, 47.039642], [13.648003, 47.039356], [13.648995, 47.039178], [13.649451, 47.03919], [13.650758, 47.03934], [13.65256, 47.039448], [13.655187, 47.039694], [13.655946, 47.040065], [13.656298, 47.040486], [13.656733, 47.040667], [13.656805, 47.040729], [13.656874, 47.041049], [13.656989, 47.041182], [13.657758, 47.041432], [13.658053, 47.04143], [13.658461, 47.041519], [13.658971, 47.041418], [13.659914, 47.040976], [13.660231, 47.040689], [13.660283, 47.040431], [13.660188, 47.040233], [13.660284, 47.04012], [13.660971, 47.039975], [13.66154, 47.039974], [13.661928, 47.040093], [13.662518, 47.040138], [13.663525, 47.040035], [13.663846, 47.039814], [13.66393, 47.03952], [13.664979, 47.039981], [13.665301, 47.04003], [13.665429, 47.040233], [13.665641, 47.040388], [13.665893, 47.040419], [13.666229, 47.040372], [13.666881, 47.040623], [13.668119, 47.040235], [13.66853, 47.039935], [13.669052, 47.039195], [13.669971, 47.039279], [13.670357, 47.03926], [13.670679, 47.039193], [13.671057, 47.039192], [13.67149, 47.039346], [13.671832, 47.039533], [13.671886, 47.03965], [13.672279, 47.039675], [13.672587, 47.039776], [13.672838, 47.039794], [13.673085, 47.039749], [13.673431, 47.039818], [13.673465, 47.039893], [13.673897, 47.040206], [13.673984, 47.040444], [13.674208, 47.040712], [13.674285, 47.041003], [13.674477, 47.041078], [13.674464, 47.041116], [13.674815, 47.041188], [13.675141, 47.041253], [13.675376, 47.041282], [13.67554, 47.041214], [13.675761, 47.040977], [13.676396, 47.040131], [13.67651, 47.039854], [13.677683, 47.040072], [13.678981, 47.040175], [13.679975, 47.04017], [13.680329, 47.040682], [13.680496, 47.040795], [13.681163, 47.041021], [13.681993, 47.041213], [13.682369, 47.041145], [13.682028, 47.040485], [13.682032, 47.0402], [13.682278, 47.039887], [13.682353, 47.039912], [13.682706, 47.039764], [13.68272, 47.039828], [13.682877, 47.039857], [13.686559, 47.03982], [13.69334, 47.04021], [13.692901, 47.039127], [13.692908, 47.038996], [13.693025, 47.038732], [13.692913, 47.038475], [13.693073, 47.038183], [13.693362, 47.037993], [13.693565, 47.03773], [13.693378, 47.037616], [13.69333, 47.037368], [13.693327, 47.037225], [13.693381, 47.037183], [13.693879, 47.03698], [13.694065, 47.036727], [13.694394, 47.036602], [13.695225, 47.036867], [13.695451, 47.035643], [13.695449, 47.035222], [13.695326, 47.034947], [13.695194, 47.034212], [13.695164, 47.033925], [13.69518, 47.033752], [13.695232, 47.03367], [13.695405, 47.033527], [13.6955, 47.033336], [13.695073, 47.033221], [13.694643, 47.033045], [13.693859, 47.032948], [13.69309, 47.032382], [13.692865, 47.032062], [13.692194, 47.031666], [13.691759, 47.031322], [13.691384, 47.031191], [13.690809, 47.030732], [13.69033, 47.030457], [13.689642, 47.030174], [13.689246, 47.030163], [13.688414, 47.029692], [13.687932, 47.029245], [13.687488, 47.029115], [13.688127, 47.027331], [13.690075, 47.022877], [13.689804, 47.021657], [13.691191, 47.019437], [13.691052, 47.018284], [13.690553, 47.018029], [13.690547, 47.017778], [13.690809, 47.0173], [13.690613, 47.017134], [13.690858, 47.016919], [13.690645, 47.01549], [13.689914, 47.015174], [13.689602, 47.014896], [13.692428, 47.013191], [13.691393, 47.011886], [13.694004, 47.010326], [13.692089, 47.009133], [13.692255, 47.008852], [13.692513, 47.008684], [13.693359, 47.007395], [13.693204, 47.006809], [13.693667, 47.006121], [13.694396, 47.005767], [13.695161, 47.005285], [13.695586, 47.005278], [13.697107, 47.004999], [13.697364, 47.00477], [13.697832, 47.004897], [13.698722, 47.00434], [13.698958, 47.003731], [13.699218, 47.003287], [13.699867, 47.003253], [13.700244, 47.003028], [13.700989, 47.002379], [13.701557, 47.002166], [13.701812, 47.001907], [13.702052, 47.001868], [13.701706, 47.001479], [13.701716, 47.000805], [13.70197, 46.99958], [13.703475, 46.998798], [13.70498, 46.997786], [13.705846, 46.997102], [13.706216, 46.996348], [13.705982, 46.996159], [13.705965, 46.995992], [13.706068, 46.995889], [13.706226, 46.995845], [13.70636, 46.995994], [13.706605, 46.996027], [13.706736, 46.995854], [13.706722, 46.995607], [13.706846, 46.995577], [13.706969, 46.995457], [13.708703, 46.995475], [13.709837, 46.995188], [13.711617, 46.994618], [13.714063, 46.994131], [13.715362, 46.993702], [13.717548, 46.992745], [13.717916, 46.992583], [13.720543, 46.992121], [13.722371, 46.991229], [13.72507, 46.990916], [13.726287, 46.990802], [13.728005, 46.990876], [13.728742, 46.990723], [13.729081, 46.99058], [13.729762, 46.990143], [13.730268, 46.989922], [13.730433, 46.989704], [13.731147, 46.989505], [13.732691, 46.9893], [13.733713, 46.989246], [13.734959, 46.989477], [13.735236, 46.989782], [13.736201, 46.990002], [13.737405, 46.990049], [13.737799, 46.990164], [13.738672, 46.990629], [13.739543, 46.99125], [13.739673, 46.991322], [13.742144, 46.992685], [13.743229, 46.993358], [13.744694, 46.993891], [13.744872, 46.993865], [13.745269, 46.99391], [13.747881, 46.993533], [13.748869, 46.993332], [13.750319, 46.992922], [13.751385, 46.992566], [13.752791, 46.992025], [13.754213, 46.99113], [13.755019, 46.990476], [13.756018, 46.989989], [13.756594, 46.989638], [13.756931, 46.989365], [13.757592, 46.988996], [13.758388, 46.989182], [13.758435, 46.988411], [13.758891, 46.987781], [13.758628, 46.987437], [13.758367, 46.986834], [13.758296, 46.986264], [13.758079, 46.984528], [13.758569, 46.983835], [13.758307, 46.983753], [13.758317, 46.983493], [13.758085, 46.983279], [13.758156, 46.982979], [13.758569, 46.982287], [13.759669, 46.981857], [13.761063, 46.982053], [13.76307, 46.981785], [13.763906, 46.981464], [13.765236, 46.981165], [13.765817, 46.980938], [13.766947, 46.980695], [13.76763, 46.980297], [13.768274, 46.979816], [13.769203, 46.979343], [13.769826, 46.978713], [13.77056, 46.978295], [13.770998, 46.977762], [13.771017, 46.977613], [13.771199, 46.97754], [13.771742, 46.977085], [13.771888, 46.976403], [13.771934, 46.976183], [13.772255, 46.975255], [13.77248, 46.974414], [13.772591, 46.974018], [13.772699, 46.973612], [13.77437, 46.968596], [13.774346, 46.967433], [13.773613, 46.962107], [13.774923, 46.960516], [13.775478, 46.960115], [13.777563, 46.958937], [13.778013, 46.957417], [13.778053, 46.9555], [13.776819, 46.954371], [13.774418, 46.952646], [13.776329, 46.94898], [13.775573, 46.948254], [13.775939, 46.94793], [13.77596, 46.947912], [13.776432, 46.947742], [13.776712, 46.947359], [13.777113, 46.947232], [13.777361, 46.947092], [13.778024, 46.946425], [13.778105, 46.945838], [13.778243, 46.945413], [13.77892, 46.944797], [13.780647, 46.944367], [13.782267, 46.944075], [13.782842, 46.944093], [13.78348, 46.943924], [13.783716, 46.944038], [13.784669, 46.943858], [13.784724, 46.94369], [13.784808, 46.943408], [13.784824, 46.94281], [13.784377, 46.941806], [13.784058, 46.940679], [13.783465, 46.939745], [13.78378, 46.938334], [13.784802, 46.937565], [13.785912, 46.937452], [13.787571, 46.937283], [13.789101, 46.936673], [13.790325, 46.936584], [13.791705, 46.936218], [13.79245, 46.936253], [13.794159, 46.935508], [13.794545, 46.935235], [13.795046, 46.933686], [13.799868, 46.930038], [13.800423, 46.929618], [13.80125, 46.929556], [13.803307, 46.929577], [13.804399, 46.929243], [13.80474, 46.928816], [13.806428, 46.927869], [13.806885, 46.927283], [13.807538, 46.927049], [13.808601, 46.926394], [13.810187, 46.925517], [13.810345, 46.925492], [13.810968, 46.924604], [13.811157, 46.923199], [13.811791, 46.922099], [13.81345, 46.920403], [13.814477, 46.919775], [13.815359, 46.918512], [13.815424, 46.918414], [13.814943, 46.917891], [13.813562, 46.917835], [13.813267, 46.917625], [13.812438, 46.917654], [13.810658, 46.917096], [13.810364, 46.917112], [13.810683, 46.917555], [13.810188, 46.918663], [13.809899, 46.918661], [13.809398, 46.918901], [13.807666, 46.918532], [13.80698, 46.918383], [13.806473, 46.918364], [13.806098, 46.918308], [13.805696, 46.918162], [13.805344, 46.917895], [13.805259, 46.917691], [13.804589, 46.917376], [13.803682, 46.917338], [13.802485, 46.916694], [13.801596, 46.916473], [13.80143, 46.916222], [13.800993, 46.916346], [13.800499, 46.916342], [13.799674, 46.916182], [13.79903, 46.91588], [13.798676, 46.915479], [13.798671, 46.915318], [13.798182, 46.915148], [13.797936, 46.915109], [13.797334, 46.914672], [13.79718, 46.914642], [13.796773, 46.914715], [13.796269, 46.913532], [13.795047, 46.912618], [13.794453, 46.911592], [13.794122, 46.909315], [13.795052, 46.908626], [13.795172, 46.90759], [13.79495, 46.906794], [13.795971, 46.904486], [13.796307, 46.90418], [13.796879, 46.903745], [13.797702, 46.902818], [13.797237, 46.901623], [13.796936, 46.901477], [13.796428, 46.900848], [13.796295, 46.900127], [13.796153, 46.899967], [13.795915, 46.899952], [13.795815, 46.899254], [13.7953, 46.898829], [13.7952, 46.898689], [13.795273, 46.898494], [13.795115, 46.898281], [13.795207, 46.898035], [13.79492, 46.897831], [13.795016, 46.897196], [13.796284, 46.896354], [13.79683, 46.895305], [13.797005, 46.894329], [13.796883, 46.893575], [13.796236, 46.892356], [13.793886, 46.890648], [13.793615, 46.890133], [13.793373, 46.889995], [13.793104, 46.889533], [13.793139, 46.889114], [13.79339, 46.888712], [13.793136, 46.888044], [13.792835, 46.887484], [13.792346, 46.887026], [13.790112, 46.885611], [13.788725, 46.883389], [13.788813, 46.882841], [13.787981, 46.881524], [13.790492, 46.879331], [13.793117, 46.877364], [13.794767, 46.877351], [13.795384, 46.876757], [13.795708, 46.876773], [13.796327, 46.876691], [13.798017, 46.876865], [13.798892, 46.876402], [13.799316, 46.876698], [13.800041, 46.875878], [13.800932, 46.874959], [13.802192, 46.874264], [13.802906, 46.873735], [13.803221, 46.873102], [13.803669, 46.872751], [13.804537, 46.872612], [13.804924, 46.87287], [13.805242, 46.872954], [13.805764, 46.872768], [13.80625, 46.87276], [13.80653, 46.872902], [13.80753, 46.872777], [13.808372, 46.872553], [13.809402, 46.872123], [13.810537, 46.871933], [13.811068, 46.871801], [13.811703, 46.871297], [13.8123, 46.87075], [13.812532, 46.87035], [13.813159, 46.86986], [13.813415, 46.869219], [13.813848, 46.868804], [13.815212, 46.868577], [13.816173, 46.868578], [13.816215, 46.867447], [13.816586, 46.86666], [13.816966, 46.866183], [13.817277, 46.865491], [13.817273, 46.864953], [13.817134, 46.864089], [13.816638, 46.862436], [13.816786, 46.861919], [13.816802, 46.861366], [13.816633, 46.860699], [13.816453, 46.860259], [13.815333, 46.859988], [13.814369, 46.85968], [13.812513, 46.859434], [13.811799, 46.859297], [13.81096, 46.858753], [13.810531, 46.85788], [13.810447, 46.857709], [13.81057, 46.857444], [13.810606, 46.857198], [13.810339, 46.856567], [13.810233, 46.85591], [13.810522, 46.854673], [13.810976, 46.854092], [13.811541, 46.853628], [13.812331, 46.853414], [13.812917, 46.853178], [13.814523, 46.852877], [13.816283, 46.853215], [13.817875, 46.853317], [13.819491, 46.854094], [13.824167, 46.85438], [13.824558, 46.854443], [13.824928, 46.854475], [13.826283, 46.854359], [13.828945, 46.854335], [13.829236, 46.854126], [13.828881, 46.85406], [13.828333, 46.853822], [13.828376, 46.853714], [13.827947, 46.853056], [13.828224, 46.852703], [13.828946, 46.852193], [13.829143, 46.851672], [13.829563, 46.851109], [13.830772, 46.850711], [13.831886, 46.850511], [13.833256, 46.849956], [13.835155, 46.848942], [13.837881, 46.848671], [13.838524, 46.848349], [13.839235, 46.847894], [13.839615, 46.847596], [13.839972, 46.847271], [13.840359, 46.846837], [13.840754, 46.84644], [13.840994, 46.846075], [13.842344, 46.844688], [13.843159, 46.843896], [13.843387, 46.843584], [13.842807, 46.84302], [13.842669, 46.843056], [13.842332, 46.842937], [13.842176, 46.842687], [13.841976, 46.842672], [13.841823, 46.842658], [13.841721, 46.842554], [13.841598, 46.842136], [13.841256, 46.841491], [13.841166, 46.841004], [13.840967, 46.841028], [13.840642, 46.841201], [13.8403, 46.841277], [13.840064, 46.841293], [13.839807, 46.84121], [13.839592, 46.841371], [13.839275, 46.841453], [13.838776, 46.84143], [13.838531, 46.84128], [13.83813, 46.841157], [13.837977, 46.84099], [13.837946, 46.840629], [13.837834, 46.840262], [13.837549, 46.840003], [13.837525, 46.83974], [13.836036, 46.839706], [13.835701, 46.839535], [13.835155, 46.83912], [13.834695, 46.838099], [13.834629, 46.837877], [13.834619, 46.837637], [13.834753, 46.837316], [13.83506, 46.836726], [13.835235, 46.836588], [13.835781, 46.836377], [13.836072, 46.836301], [13.836317, 46.836001], [13.837433, 46.836112], [13.838081, 46.836113], [13.838703, 46.835945], [13.839038, 46.835718], [13.839329, 46.835575], [13.839985, 46.835481], [13.84, 46.835417], [13.84071, 46.835303], [13.841052, 46.8353], [13.841918, 46.83523], [13.842805, 46.835002], [13.842895, 46.835023], [13.843412, 46.834834], [13.843677, 46.834632], [13.844059, 46.83448], [13.844876, 46.833766], [13.844907, 46.833618], [13.844983, 46.833551], [13.844762, 46.833324], [13.844899, 46.833147], [13.845074, 46.833035], [13.845134, 46.833047], [13.845113, 46.832966], [13.845629, 46.832391], [13.846204, 46.831188], [13.845947, 46.831112], [13.845995, 46.831011], [13.845901, 46.830478], [13.845704, 46.829962], [13.845691, 46.829754], [13.845209, 46.829194], [13.844997, 46.828808], [13.844795, 46.828112], [13.844327, 46.827423], [13.844031, 46.827225], [13.843907, 46.827072], [13.844065, 46.826944], [13.843887, 46.826769], [13.843734, 46.826249], [13.843083, 46.825064], [13.842695, 46.824254], [13.842624, 46.82399], [13.842545, 46.823986], [13.842341, 46.824272], [13.841914, 46.824016], [13.84166, 46.823928], [13.841724, 46.823378], [13.842094, 46.823055], [13.842557, 46.822463], [13.843086, 46.821594], [13.84283, 46.821257], [13.842842, 46.821071], [13.842588, 46.820896], [13.842327, 46.820358], [13.842379, 46.819982], [13.842348, 46.819658], [13.841989, 46.819139], [13.841219, 46.818428], [13.840782, 46.818422], [13.840495, 46.818489], [13.840371, 46.818396], [13.840044, 46.81851], [13.839739, 46.818213], [13.839757, 46.818145], [13.839396, 46.817521], [13.839432, 46.817298], [13.839561, 46.817123], [13.839199, 46.816882], [13.83905, 46.816705], [13.83974, 46.816251], [13.840104, 46.816099], [13.8402, 46.815983], [13.840362, 46.815916], [13.840772, 46.815605], [13.841311, 46.815552], [13.84169, 46.815315], [13.841459, 46.814893], [13.841241, 46.814979], [13.840886, 46.815032], [13.840427, 46.814154], [13.839606, 46.812913], [13.839042, 46.812498], [13.838931, 46.81206], [13.839719, 46.81175], [13.840044, 46.8113], [13.84055, 46.811234], [13.840523, 46.810793], [13.840442, 46.810664], [13.840056, 46.810457], [13.839877, 46.810469], [13.839792, 46.810564], [13.83953, 46.810522], [13.839349, 46.810309], [13.839167, 46.809728], [13.839528, 46.808428], [13.839786, 46.80786], [13.839881, 46.807471], [13.840045, 46.807249], [13.840249, 46.806587], [13.840642, 46.806074], [13.840805, 46.805243], [13.840647, 46.804901], [13.840719, 46.804544], [13.841273, 46.80389], [13.841311, 46.80322], [13.841844, 46.801942], [13.842354, 46.801662], [13.842431, 46.801558], [13.842383, 46.801423], [13.842072, 46.8011], [13.841862, 46.800363], [13.841897, 46.79986], [13.842465, 46.799505], [13.843179, 46.799292], [13.843246, 46.799105], [13.843214, 46.798447], [13.84341, 46.798453], [13.843506, 46.798304], [13.843596, 46.798082], [13.843887, 46.797808], [13.844159, 46.79761], [13.844055, 46.797555], [13.843645, 46.797557], [13.843244, 46.797634], [13.843214, 46.797559], [13.843082, 46.797514], [13.843007, 46.797428], [13.842905, 46.797405], [13.84266, 46.797157], [13.842401, 46.796999], [13.842253, 46.796458], [13.8421, 46.796363], [13.841937, 46.796147], [13.841886, 46.796], [13.841585, 46.795585], [13.841368, 46.795409], [13.841106, 46.795304], [13.840818, 46.794963], [13.840538, 46.794798], [13.83982, 46.794162], [13.839454, 46.79392], [13.838872, 46.793677], [13.838841, 46.793573], [13.83891, 46.793334], [13.83904, 46.793168], [13.837463, 46.792974], [13.836299, 46.792394], [13.834953, 46.79239], [13.834517, 46.792184], [13.834024, 46.792032], [13.833193, 46.791607], [13.8326, 46.790907], [13.832198, 46.789785], [13.83193, 46.789319], [13.831879, 46.789085], [13.831957, 46.789058], [13.83153, 46.787387], [13.831364, 46.787035], [13.831172, 46.786823], [13.830623, 46.786429], [13.82989, 46.785741], [13.82962, 46.785343], [13.829208, 46.785234], [13.828255, 46.784694], [13.82796, 46.784308], [13.827785, 46.783706], [13.82782, 46.783217], [13.827805, 46.782652], [13.826693, 46.78248], [13.825506, 46.782089], [13.824818, 46.781977], [13.82364, 46.781927], [13.823537, 46.781983], [13.823718, 46.782308], [13.823584, 46.782917], [13.823342, 46.783127], [13.822171, 46.783905], [13.821954, 46.783991], [13.821445, 46.784355], [13.821372, 46.784363], [13.820707, 46.784891], [13.8186, 46.78579], [13.81832, 46.785863], [13.81812, 46.785977], [13.818077, 46.785937], [13.817694, 46.786259], [13.817232, 46.786487], [13.816963, 46.78659], [13.816144, 46.786737], [13.81494, 46.787228], [13.813821, 46.787565], [13.813329, 46.787526], [13.811376, 46.788037], [13.811136, 46.788068], [13.810927, 46.78819], [13.810274, 46.788305], [13.8097, 46.788355], [13.808938, 46.788271], [13.80808, 46.788502], [13.80777, 46.788467], [13.807074, 46.788467], [13.806696, 46.788539], [13.806481, 46.788618], [13.805982, 46.78861], [13.80567, 46.788699], [13.805282, 46.788735], [13.80502, 46.788832], [13.804651, 46.788819], [13.804452, 46.78887], [13.804145, 46.788888], [13.803943, 46.788957], [13.803591, 46.789114], [13.803218, 46.789175], [13.802699, 46.789307], [13.802006, 46.789389], [13.801208, 46.789569], [13.80079, 46.789826], [13.800478, 46.789942], [13.798454, 46.789652], [13.797034, 46.78952], [13.795825, 46.789256], [13.795526, 46.789274], [13.795175, 46.789363], [13.794933, 46.789271], [13.794763, 46.78927], [13.794234, 46.789269], [13.793566, 46.789462], [13.792948, 46.78947], [13.792388, 46.789281], [13.791438, 46.789245], [13.791125, 46.789158], [13.790153, 46.789078], [13.788915, 46.789332], [13.78768, 46.789739], [13.78714, 46.789987], [13.786805, 46.790082], [13.786472, 46.790346], [13.786163, 46.790741], [13.785813, 46.791044], [13.785495, 46.79126], [13.784945, 46.791449], [13.784144, 46.791893], [13.783424, 46.791791], [13.782576, 46.791744], [13.781977, 46.791513], [13.780722, 46.792269], [13.779763, 46.79267], [13.778728, 46.793217], [13.777998, 46.793356], [13.777397, 46.79335], [13.775742, 46.793704], [13.774953, 46.793825], [13.774277, 46.793819], [13.77409, 46.793799], [13.773993, 46.793741], [13.773516, 46.793616], [13.773311, 46.793573], [13.772914, 46.793579], [13.772255, 46.793394], [13.772066, 46.793246], [13.772084, 46.793103], [13.771878, 46.792854], [13.771815, 46.792282], [13.771002, 46.792248], [13.770119, 46.791906], [13.769629, 46.791687], [13.769253, 46.791245], [13.768624, 46.790881], [13.768326, 46.790616], [13.768291, 46.790529], [13.768268, 46.790205], [13.768336, 46.789953], [13.76813, 46.789838], [13.767724, 46.789172], [13.767404, 46.788893], [13.767346, 46.788333], [13.766378, 46.78766], [13.76575, 46.7875], [13.764313, 46.787432], [13.763545, 46.787607], [13.763219, 46.787723], [13.763127, 46.787673], [13.763157, 46.787591], [13.763074, 46.787535], [13.762674, 46.787489], [13.762546, 46.787389], [13.762394, 46.787435], [13.761548, 46.786649], [13.76132, 46.786325], [13.761172, 46.786194], [13.760999, 46.78614], [13.760939, 46.786055], [13.760588, 46.786014], [13.760339, 46.786087], [13.760013, 46.786307], [13.759597, 46.786497], [13.759337, 46.786449], [13.75919, 46.786334], [13.759054, 46.786084], [13.758859, 46.785935], [13.758561, 46.785717], [13.758057, 46.785489], [13.75662, 46.786477], [13.756424, 46.786881], [13.756464, 46.786979], [13.756232, 46.787278], [13.756177, 46.787513], [13.755567, 46.788054], [13.755056, 46.788623], [13.754699, 46.788852], [13.75309, 46.788318], [13.752506, 46.789246], [13.752507, 46.789755], [13.751928, 46.789671], [13.751884, 46.78971], [13.750559, 46.789421], [13.750119, 46.789412], [13.749767, 46.789596], [13.748987, 46.789886], [13.748785, 46.790025], [13.748476, 46.790098], [13.748153, 46.790176], [13.747709, 46.790182], [13.746807, 46.790123], [13.746384, 46.789909], [13.745126, 46.789414], [13.744329, 46.790263], [13.743707, 46.790295], [13.743374, 46.790168], [13.743353, 46.790149], [13.7432, 46.79], [13.743273, 46.789909], [13.743029, 46.789652], [13.742941, 46.789511], [13.742981, 46.789423], [13.742743, 46.78916], [13.742687, 46.789041], [13.742739, 46.788927], [13.742482, 46.788992], [13.742433, 46.788965], [13.742223, 46.789071], [13.741881, 46.789374], [13.741518, 46.789194], [13.7414, 46.789079], [13.741199, 46.788862], [13.741041, 46.78851], [13.740374, 46.788635], [13.740319, 46.788584], [13.739524, 46.788782], [13.739546, 46.788821], [13.739314, 46.788847], [13.739095, 46.788649], [13.73872, 46.788737], [13.738655, 46.788703], [13.738495, 46.788724], [13.738143, 46.788907], [13.73761, 46.78845], [13.737214, 46.788236], [13.736407, 46.787652], [13.736361, 46.787672], [13.736467, 46.787418], [13.736445, 46.787323], [13.736312, 46.787196], [13.736228, 46.787212], [13.736139, 46.787232], [13.735142, 46.786399], [13.735253, 46.786231], [13.735096, 46.786353], [13.73493, 46.786269], [13.732722, 46.787828], [13.732275, 46.788046], [13.730973, 46.786665], [13.728763, 46.787545], [13.728648, 46.787446], [13.728391, 46.78729], [13.728102, 46.786874], [13.727671, 46.786485], [13.727769, 46.786094], [13.727774, 46.785981], [13.727699, 46.785977], [13.726958, 46.786599], [13.726688, 46.786422], [13.723646, 46.787777], [13.723398, 46.787419], [13.723224, 46.787323], [13.71997, 46.789153], [13.719831, 46.789018], [13.717011, 46.790054], [13.716695, 46.789716], [13.713864, 46.791066], [13.713984, 46.791347], [13.713834, 46.79149], [13.712871, 46.790372], [13.712944, 46.790292], [13.712489, 46.78952], [13.712304, 46.789339], [13.711971, 46.78914], [13.711794, 46.788807], [13.709827, 46.788682], [13.704672, 46.790664], [13.70484, 46.790857], [13.701239, 46.791686], [13.699744, 46.79194], [13.699503, 46.791156], [13.699368, 46.790373], [13.698648, 46.790577], [13.697665, 46.79075], [13.696941, 46.790765], [13.697705, 46.792568], [13.697112, 46.792238], [13.696339, 46.792234], [13.694186, 46.792351], [13.694216, 46.792563], [13.693313, 46.792575], [13.690417, 46.792356], [13.690468, 46.792877], [13.690147, 46.79286], [13.689933, 46.793147], [13.688783, 46.793097], [13.687305, 46.793278], [13.686879, 46.793362], [13.686232, 46.793698], [13.686141, 46.793653], [13.686139, 46.793437], [13.685836, 46.793358], [13.685574, 46.793027], [13.685481, 46.792814], [13.685044, 46.792398], [13.684581, 46.792403], [13.684307, 46.792457], [13.682526, 46.793095], [13.681768, 46.793853], [13.681294, 46.794179], [13.680352, 46.794625], [13.679709, 46.794276], [13.679624, 46.79364], [13.679519, 46.793495], [13.678653, 46.79309], [13.678235, 46.792705], [13.677951, 46.792581], [13.677305, 46.792512], [13.676085, 46.791489], [13.675043, 46.791375], [13.674496, 46.791161], [13.674746, 46.79083], [13.673949, 46.790729], [13.673327, 46.790104], [13.673331, 46.789997], [13.67311, 46.789727], [13.672941, 46.7896], [13.672622, 46.789465], [13.672352, 46.789259], [13.672106, 46.789239], [13.67204, 46.788522], [13.672165, 46.788263], [13.672255, 46.788192], [13.671892, 46.788144], [13.671689, 46.78829], [13.670683, 46.787578], [13.670573, 46.787605], [13.670525, 46.787556], [13.670617, 46.787534], [13.670192, 46.78725], [13.670266, 46.787199], [13.67045, 46.78682], [13.670421, 46.786769], [13.670476, 46.786754], [13.670481, 46.786445], [13.67031, 46.786231], [13.670433, 46.785884], [13.670244, 46.785714], [13.669536, 46.785359], [13.66983, 46.785188], [13.66956, 46.784377], [13.668905, 46.784363], [13.668894, 46.784306], [13.668796, 46.784318], [13.668345, 46.783499], [13.668344, 46.783222], [13.66768, 46.782903], [13.666936, 46.782642], [13.666735, 46.782466], [13.666329, 46.781846], [13.665486, 46.781664], [13.665488, 46.781768], [13.664904, 46.78168], [13.663726, 46.781905], [13.663447, 46.781855], [13.663357, 46.782043], [13.662985, 46.782117], [13.662913, 46.781994], [13.663051, 46.781666], [13.662634, 46.781471], [13.662512, 46.781238], [13.662534, 46.781174], [13.662889, 46.781155], [13.663318, 46.780908], [13.663227, 46.780843], [13.66243, 46.780675], [13.662253, 46.7806], [13.662137, 46.780338], [13.662136, 46.780079], [13.662217, 46.779904], [13.662499, 46.779688], [13.662404, 46.779601], [13.662224, 46.779573], [13.662067, 46.779448], [13.661737, 46.778993], [13.661725, 46.778459], [13.661645, 46.778264], [13.661484, 46.77808], [13.6614, 46.777692], [13.661428, 46.777058], [13.661147, 46.776531], [13.660858, 46.776645], [13.660415, 46.776395], [13.660215, 46.775325], [13.65992, 46.774922], [13.660147, 46.774677], [13.659974, 46.774581], [13.659783, 46.774289], [13.659302, 46.774194], [13.659016, 46.774055], [13.658758, 46.773996], [13.658462, 46.773162], [13.658195, 46.772936], [13.658235, 46.772552], [13.65779, 46.772397], [13.657417, 46.77253], [13.656971, 46.772356], [13.655883, 46.771659], [13.655422, 46.771442], [13.655205, 46.771098], [13.655275, 46.770922], [13.655464, 46.770795], [13.655159, 46.770393], [13.655033, 46.769944], [13.654632, 46.769593], [13.654481, 46.7692], [13.654145, 46.769026], [13.653846, 46.768686], [13.653698, 46.768645], [13.653507, 46.768494], [13.652212, 46.767799], [13.651212, 46.767184], [13.650515, 46.766491], [13.650205, 46.766275], [13.649537, 46.766839], [13.648704, 46.767379], [13.648724, 46.7674], [13.648695, 46.767423], [13.648854, 46.767671], [13.648956, 46.767664], [13.649148, 46.767744], [13.649303, 46.767861], [13.649357, 46.767988], [13.649279, 46.768028], [13.648773, 46.767677], [13.648561, 46.76767], [13.648339, 46.767565], [13.648267, 46.767645], [13.64777, 46.767539], [13.647303, 46.767729], [13.646949, 46.768033], [13.646621, 46.768419], [13.646198, 46.76817], [13.645741, 46.768068], [13.61911, 46.776455], [13.608024, 46.771492], [13.606942, 46.770818], [13.606662, 46.770419], [13.606219, 46.770061], [13.604949, 46.767098], [13.60454, 46.7665], [13.603809, 46.765223], [13.604355, 46.764651], [13.604876, 46.764342], [13.605674, 46.764056], [13.606586, 46.763539], [13.606979, 46.763371], [13.607131, 46.763434], [13.60756, 46.763261], [13.607767, 46.763285], [13.608238, 46.763156], [13.609421, 46.762948], [13.609658, 46.762812], [13.611108, 46.762254], [13.611781, 46.76194], [13.612278, 46.761795], [13.612549, 46.761774], [13.613141, 46.761551], [13.614464, 46.76116], [13.613988, 46.760505], [13.61472, 46.76001], [13.615255, 46.759723], [13.615974, 46.759033], [13.616463, 46.758726], [13.615775, 46.75835], [13.615045, 46.758034], [13.613815, 46.757588], [13.613369, 46.757344], [13.613048, 46.757438], [13.610622, 46.756436], [13.61069, 46.756022], [13.610992, 46.755702], [13.610808, 46.755637], [13.610891, 46.755536], [13.610928, 46.755226], [13.611172, 46.754734], [13.610673, 46.754654], [13.610413, 46.754441], [13.610335, 46.754214], [13.610259, 46.754204], [13.610097, 46.754314], [13.608186, 46.753398], [13.608126, 46.753567], [13.607918, 46.753683], [13.607518, 46.753269], [13.607329, 46.752576], [13.607106, 46.752449], [13.607106, 46.752278], [13.606787, 46.751865], [13.606362, 46.751596], [13.606354, 46.751458], [13.605246, 46.751167], [13.604928, 46.750839], [13.604668, 46.750792], [13.603822, 46.750934], [13.603681, 46.75074], [13.602786, 46.751129], [13.602096, 46.749846], [13.600686, 46.750282], [13.600445, 46.74997], [13.600011, 46.749787], [13.599722, 46.749846], [13.59927, 46.750056], [13.599094, 46.749921], [13.59726, 46.750923], [13.596882, 46.750689], [13.596078, 46.751292], [13.594992, 46.750428], [13.59495, 46.750153], [13.594205, 46.74941], [13.594226, 46.74916], [13.593938, 46.748832], [13.593688, 46.748706], [13.593244, 46.748337], [13.592483, 46.747583], [13.591929, 46.747144], [13.591672, 46.746836], [13.590657, 46.745906], [13.590795, 46.745851], [13.590422, 46.74546], [13.59016, 46.745602], [13.589919, 46.745733], [13.588702, 46.745072], [13.587883, 46.744395], [13.587623, 46.744044], [13.586678, 46.744279], [13.585335, 46.744754], [13.584872, 46.744988], [13.582728, 46.746283], [13.581282, 46.746935], [13.57905, 46.747805], [13.577427, 46.748513], [13.575822, 46.749062], [13.575088, 46.749363], [13.57136, 46.750315], [13.569696, 46.750922], [13.56866, 46.751402], [13.567997, 46.751816], [13.567032, 46.752595], [13.56528, 46.75191], [13.564832, 46.752168], [13.564637, 46.752027], [13.563589, 46.752444], [13.563147, 46.752775], [13.56269, 46.752834], [13.56227, 46.752971], [13.561209, 46.753437], [13.560855, 46.753526], [13.560398, 46.753444], [13.560106, 46.75348], [13.559433, 46.753634], [13.558927, 46.753862], [13.558501, 46.753973], [13.557767, 46.754064], [13.557448, 46.754055], [13.55651, 46.753872], [13.555945, 46.753338], [13.556424, 46.7527], [13.555732, 46.751416], [13.555246, 46.751466], [13.554854, 46.751552], [13.550828, 46.752537], [13.549774, 46.752949], [13.548935, 46.753147], [13.547882, 46.753311], [13.543946, 46.754655], [13.543835, 46.754922], [13.542607, 46.755427], [13.541825, 46.755831], [13.541429, 46.756149], [13.540693, 46.756526], [13.540211, 46.756056], [13.5398, 46.755827], [13.539564, 46.755689], [13.538951, 46.755328], [13.53852, 46.755204], [13.53802, 46.754852], [13.538124, 46.754654], [13.538009, 46.75449], [13.537634, 46.754219], [13.537437, 46.753985], [13.537282, 46.753717], [13.537027, 46.753448], [13.536746, 46.752898], [13.535558, 46.752245], [13.535654, 46.751802], [13.534857, 46.751224], [13.534117, 46.751149], [13.533963, 46.751005], [13.533721, 46.750605], [13.533468, 46.750595], [13.533456, 46.750345], [13.533313, 46.750059], [13.532874, 46.750114], [13.53244, 46.750233], [13.532713, 46.750402], [13.532603, 46.750496], [13.532156, 46.750676], [13.532123, 46.750767], [13.532592, 46.7511], [13.533049, 46.752591], [13.533016, 46.752959], [13.532751, 46.753699], [13.530993, 46.7536], [13.531009, 46.753379], [13.530933, 46.753167], [13.530781, 46.752946], [13.529892, 46.752941], [13.529787, 46.75307], [13.52959, 46.753231], [13.529356, 46.75304], [13.529272, 46.752942], [13.528987, 46.752865], [13.5288, 46.752848], [13.528639, 46.752714], [13.52837, 46.752325], [13.52796, 46.752299], [13.527714, 46.75219], [13.527453, 46.752054], [13.526836, 46.75157], [13.524886, 46.751407], [13.524286, 46.751036], [13.523487, 46.750764], [13.523214, 46.750301], [13.522511, 46.749667], [13.522076, 46.749396], [13.521346, 46.749064], [13.518711, 46.749032], [13.517722, 46.748601], [13.516632, 46.748237], [13.51349, 46.747059], [13.513188, 46.747001], [13.512317, 46.746663], [13.510542, 46.746163], [13.508872, 46.745636], [13.507373, 46.745711], [13.505912, 46.745878], [13.50378, 46.746956], [13.503312, 46.747612], [13.50169, 46.748348], [13.501479, 46.748558], [13.501455, 46.748581], [13.50149, 46.748641], [13.501409, 46.748816], [13.501242, 46.749023], [13.500607, 46.749462], [13.500017, 46.749766], [13.49942, 46.74986], [13.498455, 46.750283], [13.497539, 46.750798], [13.497291, 46.751006], [13.496309, 46.75177], [13.495575, 46.752419], [13.495347, 46.753035], [13.494775, 46.753267], [13.493589, 46.754217], [13.492977, 46.754599], [13.49257, 46.754734], [13.491123, 46.754767], [13.489629, 46.754589], [13.488436, 46.754251], [13.487483, 46.75415], [13.486887, 46.754158], [13.485297, 46.75418], [13.484884, 46.754353], [13.483756, 46.754434], [13.483559, 46.754686], [13.48282, 46.75486], [13.481958, 46.754844], [13.481661, 46.75508], [13.481087, 46.755062], [13.480859, 46.755206], [13.480348, 46.755095], [13.47907, 46.755932], [13.479005, 46.756029], [13.478457, 46.756034], [13.478047, 46.756187], [13.476548, 46.756513], [13.47581, 46.757043], [13.47556, 46.757337], [13.475432, 46.757411], [13.475142, 46.757579], [13.473532, 46.757355], [13.472129, 46.757418], [13.471097, 46.757465], [13.469725, 46.757937], [13.468905, 46.757614], [13.46777, 46.757518], [13.466629, 46.756828], [13.465488, 46.756462], [13.464561, 46.756384], [13.462557, 46.756881], [13.462309, 46.757108], [13.461132, 46.757769], [13.459935, 46.758287], [13.459372, 46.75858], [13.459354, 46.75859], [13.459166, 46.758676], [13.459159, 46.758679], [13.458838, 46.758826], [13.45872, 46.759635], [13.458123, 46.759953], [13.457563, 46.761347], [13.457538, 46.761898], [13.456855, 46.762524], [13.456474, 46.763362], [13.456359, 46.764269], [13.456388, 46.765047], [13.456237, 46.765756], [13.456631, 46.76659], [13.456066, 46.767855], [13.454679, 46.769572], [13.453798, 46.769495], [13.452921, 46.769326], [13.451269, 46.768471], [13.451056, 46.768266], [13.450526, 46.767923], [13.44931, 46.76768], [13.448487, 46.767264], [13.447909, 46.766642], [13.447664, 46.766213], [13.445584, 46.766001], [13.444444, 46.766375], [13.44424, 46.76635], [13.443983, 46.766185], [13.443465, 46.765748], [13.443246, 46.765288], [13.4432, 46.76504], [13.443231, 46.764513], [13.443152, 46.763667], [13.442959, 46.763351], [13.442912, 46.763025], [13.443306, 46.762531], [13.442736, 46.760778], [13.442727, 46.760256], [13.442253, 46.759391], [13.442074, 46.759166], [13.441626, 46.759009], [13.441252, 46.758762], [13.440889, 46.758737], [13.440201, 46.758737], [13.439957, 46.758635], [13.439782, 46.758574], [13.439505, 46.758385], [13.439351, 46.758163], [13.439228, 46.757941], [13.439253, 46.757647], [13.439111, 46.75748], [13.439008, 46.757289], [13.439024, 46.757165], [13.43898, 46.757077], [13.438781, 46.756837], [13.438401, 46.756625], [13.438109, 46.756226], [13.438061, 46.755963], [13.437878, 46.755677], [13.437669, 46.755441], [13.437217, 46.755157], [13.437043, 46.754876], [13.43677, 46.754542], [13.436597, 46.754341], [13.436351, 46.754208], [13.43619, 46.754039], [13.43606, 46.753879], [13.435987, 46.753775], [13.436159, 46.753146], [13.435542, 46.752915], [13.434587, 46.752402], [13.433649, 46.751612], [13.433598, 46.751008], [13.433786, 46.750662], [13.433771, 46.750566], [13.432866, 46.75036], [13.432328, 46.750191], [13.431855, 46.750093], [13.430152, 46.749873], [13.429569, 46.749671], [13.429498, 46.749241], [13.429355, 46.749131], [13.429035, 46.749012], [13.42875, 46.748931], [13.42818, 46.748861], [13.42804, 46.748833], [13.427872, 46.748623], [13.427765, 46.748392], [13.42768, 46.747935], [13.427705, 46.747773], [13.4285, 46.747322], [13.429333, 46.746979], [13.429542, 46.746769], [13.430033, 46.746421], [13.431208, 46.745733], [13.431777, 46.745506], [13.432213, 46.745222], [13.433151, 46.745005], [13.433452, 46.744576], [13.433975, 46.743975], [13.43446, 46.742995], [13.434724, 46.7426], [13.434851, 46.742505], [13.435017, 46.742164], [13.435657, 46.741349], [13.435809, 46.741006], [13.435989, 46.740883], [13.435877, 46.740724], [13.436537, 46.739306], [13.436792, 46.738381], [13.437471, 46.735929], [13.436855, 46.735888], [13.436446, 46.73578], [13.435857, 46.735724], [13.434938, 46.735425], [13.434318, 46.735078], [13.432498, 46.734573], [13.432174, 46.734522], [13.43151, 46.73424], [13.43136, 46.734056], [13.430978, 46.733854], [13.429281, 46.733317], [13.42899, 46.733294], [13.428409, 46.733312], [13.427375, 46.733227], [13.42727, 46.733128], [13.426752, 46.733044], [13.426565, 46.732886], [13.426286, 46.732801], [13.425863, 46.73223], [13.42533, 46.731651], [13.424637, 46.731052], [13.42356, 46.730337], [13.423033, 46.729594], [13.422592, 46.729287], [13.42274, 46.729133], [13.42299, 46.728524], [13.423104, 46.727876], [13.424022, 46.726417], [13.424109, 46.726108], [13.424111, 46.72536], [13.424214, 46.725208], [13.42438, 46.724962], [13.42514, 46.72418], [13.425286, 46.723721], [13.425968, 46.723218], [13.426494, 46.722909], [13.427898, 46.722396], [13.428785, 46.722201], [13.430283, 46.72163], [13.431189, 46.721413], [13.432172, 46.721601], [13.432521, 46.720786], [13.432427, 46.720419], [13.432221, 46.720334], [13.433012, 46.719667], [13.435082, 46.718288], [13.436936, 46.71732], [13.437405, 46.716639], [13.438092, 46.715364], [13.438967, 46.714123], [13.439163, 46.714079], [13.440274, 46.713792], [13.440738, 46.713394], [13.440741, 46.712897], [13.440212, 46.711285], [13.440221, 46.710084], [13.439891, 46.70725], [13.44054, 46.705032], [13.441612, 46.70344], [13.441597, 46.70232], [13.44046, 46.702077], [13.43976, 46.702076], [13.439444, 46.701987], [13.438972, 46.701946], [13.437166, 46.701929], [13.436751, 46.70204], [13.435643, 46.702184], [13.435316, 46.702147], [13.435311, 46.702198], [13.435122, 46.702238], [13.435208, 46.702487], [13.435187, 46.7027], [13.435065, 46.702753], [13.434695, 46.702759], [13.434281, 46.702661], [13.433114, 46.70209], [13.431651, 46.702074], [13.431458, 46.701992], [13.430896, 46.701841], [13.430432, 46.701975], [13.429445, 46.702161], [13.428996, 46.702393], [13.42861, 46.702367], [13.427922, 46.702199], [13.426938, 46.702289], [13.426711, 46.702498], [13.42653, 46.70255], [13.426299, 46.702618], [13.426008, 46.702676], [13.425434, 46.702563], [13.425091, 46.702551], [13.424973, 46.702665], [13.424841, 46.702797], [13.424932, 46.702948], [13.424335, 46.703078], [13.424386, 46.703305], [13.423906, 46.703338], [13.423018, 46.703502], [13.422774, 46.703741], [13.421774, 46.703702], [13.42137, 46.703867], [13.420953, 46.704125], [13.420815, 46.704318], [13.4203, 46.704296], [13.419379, 46.704339], [13.419009, 46.704466], [13.418127, 46.70515], [13.417898, 46.705331], [13.417643, 46.705454], [13.41725, 46.706049], [13.417343, 46.706094], [13.417129, 46.706176], [13.41701, 46.706233], [13.417219, 46.706557], [13.416679, 46.706636], [13.416469, 46.706891], [13.416169, 46.706652], [13.415878, 46.706896], [13.415433, 46.706999], [13.4156, 46.705302], [13.414616, 46.705471], [13.41377, 46.705603], [13.413259, 46.705592], [13.412528, 46.705445], [13.41204, 46.70523], [13.411808, 46.705179], [13.411637, 46.705137], [13.410955, 46.705126], [13.410842, 46.70523], [13.410417, 46.705249], [13.410153, 46.705296], [13.410271, 46.705535], [13.410057, 46.70558], [13.409853, 46.705411], [13.409751, 46.705459], [13.409071, 46.70549], [13.408814, 46.699382], [13.408856, 46.697747], [13.413689, 46.697953], [13.416164, 46.697914], [13.418383, 46.697591], [13.418645, 46.697406], [13.419108, 46.697324], [13.419757, 46.697311], [13.419838, 46.697225], [13.420143, 46.697256], [13.419287, 46.695137], [13.419421, 46.693643], [13.421173, 46.690414], [13.420998, 46.689301], [13.420006, 46.688439], [13.418312, 46.687078], [13.419189, 46.686395], [13.41958, 46.686144], [13.420707, 46.685872], [13.423783, 46.685279], [13.425102, 46.684797], [13.425831, 46.684605], [13.426424, 46.684349], [13.427717, 46.68394], [13.428473, 46.683791], [13.429495, 46.683445], [13.430684, 46.682715], [13.433664, 46.682005], [13.435614, 46.681813], [13.436353, 46.681686], [13.437507, 46.681342], [13.437778, 46.681238], [13.438232, 46.680989], [13.438269, 46.680995], [13.438396, 46.680883], [13.438403, 46.680747], [13.438344, 46.680655], [13.437995, 46.680543], [13.437916, 46.680457], [13.437929, 46.680211], [13.437861, 46.680133], [13.437775, 46.680103], [13.437343, 46.680185], [13.437192, 46.680159], [13.437094, 46.680069], [13.436941, 46.679744], [13.436506, 46.679581], [13.436402, 46.67921], [13.436266, 46.679167], [13.436049, 46.679274], [13.435477, 46.678954], [13.435316, 46.679028], [13.435062, 46.678993], [13.434939, 46.678834], [13.434612, 46.67896], [13.434444, 46.678914], [13.433674, 46.679125], [13.433323, 46.678976], [13.433272, 46.678876], [13.432822, 46.678582], [13.43263, 46.678525], [13.432507, 46.678364], [13.432076, 46.678193], [13.431265, 46.677402], [13.431026, 46.677414], [13.430814, 46.677334], [13.430403, 46.677027], [13.430177, 46.676793], [13.429979, 46.67642], [13.430238, 46.675326], [13.430652, 46.675229], [13.43133, 46.674114], [13.432041, 46.673937], [13.432449, 46.673452], [13.43246, 46.67307], [13.433419, 46.672338], [13.433121, 46.663449], [13.433334, 46.663417], [13.432842, 46.659089], [13.432764, 46.657163], [13.432619, 46.657211], [13.430639, 46.657139], [13.428096, 46.656942], [13.427655, 46.657029], [13.424743, 46.656855], [13.424554, 46.656979], [13.424217, 46.656947], [13.423662, 46.656806], [13.422757, 46.656784], [13.422078, 46.656444], [13.421619, 46.656439], [13.417172, 46.655438], [13.414944, 46.655551], [13.414313, 46.655406], [13.414066, 46.655408], [13.413672, 46.655482], [13.412847, 46.655121], [13.410247, 46.655149], [13.409785, 46.65541], [13.409624, 46.655141], [13.409448, 46.655186], [13.409399, 46.655399], [13.408867, 46.6556], [13.406494, 46.655809], [13.405397, 46.656345], [13.404351, 46.656609], [13.404277, 46.657096], [13.4038, 46.657342], [13.403286, 46.658153], [13.40319, 46.658455], [13.402107, 46.659003], [13.401686, 46.659091], [13.401253, 46.659244], [13.400474, 46.660796], [13.399528, 46.663739], [13.397947, 46.664109], [13.396775, 46.664256], [13.39535, 46.664147], [13.394144, 46.664185], [13.391143, 46.664378], [13.389841, 46.665025], [13.389277, 46.665481], [13.389082, 46.666484], [13.387981, 46.667764], [13.38655, 46.668945], [13.38557, 46.669275], [13.385365, 46.669603], [13.384608, 46.669704], [13.383766, 46.669893], [13.382778, 46.670657], [13.381308, 46.671315], [13.380182, 46.671548], [13.374123, 46.673249], [13.372957, 46.67397], [13.371299, 46.674327], [13.368207, 46.673357], [13.366722, 46.673173], [13.36548, 46.671756], [13.365425, 46.671694], [13.365259, 46.671961], [13.363702, 46.672815], [13.362361, 46.672316], [13.360901, 46.672186], [13.36049, 46.67215], [13.360429, 46.672172], [13.357394, 46.67329], [13.353132, 46.675439], [13.349661, 46.677284], [13.347877, 46.67812], [13.346065, 46.678756], [13.344568, 46.679062], [13.343272, 46.679164], [13.34242, 46.679541], [13.341408, 46.680242], [13.340787, 46.680786], [13.34047, 46.680948], [13.338444, 46.680864], [13.336393, 46.6804], [13.334496, 46.680269], [13.332278, 46.680778], [13.328382, 46.682296], [13.326833, 46.682755], [13.326826, 46.683153], [13.326573, 46.683468], [13.324959, 46.685015], [13.324877, 46.68563], [13.324656, 46.686007], [13.324165, 46.686509], [13.324029, 46.686529], [13.322951, 46.687433], [13.320794, 46.689423], [13.321436, 46.689564], [13.320727, 46.689843], [13.320249, 46.689924], [13.314006, 46.695602], [13.313385, 46.695927], [13.313109, 46.696249], [13.311854, 46.696879], [13.311479, 46.696746], [13.310918, 46.697122], [13.310578, 46.697036], [13.310093, 46.696784], [13.309262, 46.696898], [13.308264, 46.697217], [13.30796, 46.697479], [13.307714, 46.697613], [13.30739, 46.697761], [13.306803, 46.697937], [13.306253, 46.698204], [13.30609, 46.69819], [13.305453, 46.697909], [13.305467, 46.697642], [13.305006, 46.697259], [13.304645, 46.697144], [13.303842, 46.696402], [13.303521, 46.696417], [13.303259, 46.696274], [13.302913, 46.696276], [13.302665, 46.69673], [13.301465, 46.697098], [13.301166, 46.696848], [13.301188, 46.696551], [13.300057, 46.696374], [13.299793, 46.69672], [13.299474, 46.69672], [13.298874, 46.696718], [13.298593, 46.696562], [13.298244, 46.696445], [13.297788, 46.696514], [13.297252, 46.696699], [13.297073, 46.696414], [13.296852, 46.696351], [13.29624, 46.694927], [13.296597, 46.69449], [13.297125, 46.694296], [13.297441, 46.69391], [13.296001, 46.693757], [13.295107, 46.693076], [13.291208, 46.693093], [13.288691, 46.691904], [13.287914, 46.690828], [13.286363, 46.691688], [13.28514, 46.691821], [13.283324, 46.692478], [13.282607, 46.692928], [13.282691, 46.693819], [13.282143, 46.694363], [13.281803, 46.694541], [13.279405, 46.695437], [13.278951, 46.695867], [13.278379, 46.696189], [13.27796, 46.696402], [13.277582, 46.696493], [13.277241, 46.696632], [13.276814, 46.696956], [13.276537, 46.69739], [13.275919, 46.697663], [13.274863, 46.698327], [13.27407, 46.699188], [13.273968, 46.699618], [13.273381, 46.700194], [13.272832, 46.700427], [13.272411, 46.70068], [13.272318, 46.701042], [13.270933, 46.701454], [13.269116, 46.701794], [13.267078, 46.702573], [13.266237, 46.702731], [13.265888, 46.702925], [13.26549, 46.703011], [13.265312, 46.703104], [13.265134, 46.703308], [13.264527, 46.703663], [13.264214, 46.70392], [13.263238, 46.704432], [13.262358, 46.705168], [13.261833, 46.705284], [13.26125, 46.705598], [13.260267, 46.7065], [13.259629, 46.706695], [13.259034, 46.706741], [13.258627, 46.706844], [13.25819, 46.707093], [13.257672, 46.706975], [13.256806, 46.707424], [13.256393, 46.707444], [13.255998, 46.707641], [13.255717, 46.707962], [13.255671, 46.70814], [13.255535, 46.708283], [13.254641, 46.708633], [13.254173, 46.708703], [13.253925, 46.708968], [13.253795, 46.709207], [13.253256, 46.709668], [13.252613, 46.710071], [13.252395, 46.710402], [13.251502, 46.71126], [13.250598, 46.711508], [13.250118, 46.711578], [13.248227, 46.712005], [13.247393, 46.712525], [13.246921, 46.71321], [13.246578, 46.713559], [13.246116, 46.713709], [13.245676, 46.714106], [13.245396, 46.714055], [13.244905, 46.713674], [13.243496, 46.713418], [13.243132, 46.713271], [13.242723, 46.713173], [13.242046, 46.71309], [13.241722, 46.713355], [13.240996, 46.713443], [13.240034, 46.713776], [13.239513, 46.713792], [13.238405, 46.713975], [13.23753, 46.713563], [13.2366, 46.713051], [13.236581, 46.712907], [13.235521, 46.712463], [13.234782, 46.712047], [13.234301, 46.712021], [13.232848, 46.712673], [13.232018, 46.712424], [13.228649, 46.711963], [13.225982, 46.712631], [13.223656, 46.713359], [13.221387, 46.708385], [13.221287, 46.707869], [13.221286, 46.707775], [13.221284, 46.707395], [13.221668, 46.707154], [13.222154, 46.706949], [13.222326, 46.706776], [13.222458, 46.706442], [13.22237, 46.706208], [13.222036, 46.705898], [13.222052, 46.705826], [13.2224, 46.70558], [13.222403, 46.705517], [13.222356, 46.705274], [13.222105, 46.705005], [13.222167, 46.704855], [13.222061, 46.704682], [13.222123, 46.704539], [13.222064, 46.704426], [13.221816, 46.704352], [13.221232, 46.704529], [13.220844, 46.704502], [13.22032, 46.704718], [13.219539, 46.704648], [13.219281, 46.704519], [13.219229, 46.704561], [13.219171, 46.704526], [13.21884, 46.705034], [13.218519, 46.705296], [13.217605, 46.705219], [13.216335, 46.705328], [13.216176, 46.705411], [13.215715, 46.705548], [13.214734, 46.705841], [13.213431, 46.70392], [13.21258, 46.702665], [13.211312, 46.698659], [13.206021, 46.694671], [13.202593, 46.695426], [13.199576, 46.695619], [13.197925, 46.695271], [13.194326, 46.694729], [13.18726, 46.693953], [13.184911, 46.69382], [13.183043, 46.693063], [13.177169, 46.692849], [13.167564, 46.690482], [13.158193, 46.687341], [13.147873, 46.68594], [13.143063, 46.684671], [13.139288, 46.684569], [13.13406, 46.684428], [13.133519, 46.684531], [13.132948, 46.68445], [13.132759, 46.684216], [13.132266, 46.68402], [13.131866, 46.683658], [13.131129, 46.683551], [13.130618, 46.68356], [13.128639, 46.684156], [13.12802, 46.684162], [13.127681, 46.684087], [13.127483, 46.683976], [13.126906, 46.683896], [13.125716, 46.684135], [13.125409, 46.684154], [13.124129, 46.683495], [13.123578, 46.683754], [13.123258, 46.683763], [13.122259, 46.68404], [13.121821, 46.684229], [13.121166, 46.684417], [13.120954, 46.684584], [13.119838, 46.684923], [13.119405, 46.685108], [13.113587, 46.684242], [13.112506, 46.683227], [13.111353, 46.683258], [13.10866, 46.683634], [13.107313, 46.683983], [13.105204, 46.684228], [13.102358, 46.68448], [13.102188, 46.684592], [13.1024, 46.686065], [13.10208, 46.688795], [13.101535, 46.68969], [13.100286, 46.690262], [13.098324, 46.690786], [13.09787, 46.691101], [13.09649, 46.692392], [13.096085, 46.693091], [13.095734, 46.6943], [13.094594, 46.695805], [13.094988, 46.696579], [13.094604, 46.697027], [13.09431, 46.698425], [13.0926, 46.698774], [13.090126, 46.698798], [13.087294, 46.699678], [13.087108, 46.699736], [13.086503, 46.700028], [13.084582, 46.700954], [13.084111, 46.700873], [13.081512, 46.700422], [13.079199, 46.700617], [13.076393, 46.701959], [13.072107, 46.701333], [13.070526, 46.701507], [13.069382, 46.701508], [13.066755, 46.701217], [13.062809, 46.701426], [13.056862, 46.701173], [13.056506, 46.701385], [13.048462, 46.701116], [13.046587, 46.701703], [13.042956, 46.701428], [13.036979, 46.701115], [13.035803, 46.701589], [13.034572, 46.702408], [13.034074, 46.702503], [13.033377, 46.702563], [13.032415, 46.702515], [13.032239, 46.7027], [13.031421, 46.703071], [13.03049, 46.703817], [13.029582, 46.704156], [13.028437, 46.704909], [13.027917, 46.705421], [13.027385, 46.706247], [13.026522, 46.706675], [13.023787, 46.70738], [13.022138, 46.707464], [13.02035, 46.707418], [13.018964, 46.707871], [13.01828, 46.70767], [13.017061, 46.707701], [13.016519, 46.707914], [13.016092, 46.70782], [13.01571, 46.708122], [13.012657, 46.708793], [13.011728, 46.70872], [13.01089, 46.708705], [13.010469, 46.708722], [13.009743, 46.70875], [13.008994, 46.708853], [13.005185, 46.708528], [13.004614, 46.70848], [13.00112, 46.709097], [12.998029, 46.709366], [12.997117, 46.710093], [12.9963, 46.710258], [12.996266, 46.710275], [12.99566, 46.710597], [12.9945, 46.711352], [12.993254, 46.711843], [12.992734, 46.711954], [12.991287, 46.712125], [12.99007, 46.712052], [12.989654, 46.712451], [12.988303, 46.713411], [12.988028, 46.713769], [12.987736, 46.714017], [12.98665, 46.715729], [12.986471, 46.715874], [12.985827, 46.716158], [12.98422, 46.716747], [12.983237, 46.717439], [12.98256, 46.717995], [12.981564, 46.718596], [12.980169, 46.719609], [12.97943, 46.719968], [12.979269, 46.72011], [12.977576, 46.720098], [12.976935, 46.719983], [12.975653, 46.719892], [12.975148, 46.720166], [12.975282, 46.720702], [12.97427, 46.721195], [12.974058, 46.721215], [12.972068, 46.722011], [12.970342, 46.723039], [12.969279, 46.723375], [12.968033, 46.723636], [12.966039, 46.724195], [12.9651, 46.72429], [12.964603, 46.725762], [12.964421, 46.725823], [12.963646, 46.72553], [12.961547, 46.725486], [12.96044, 46.724678], [12.960178, 46.724626], [12.958892, 46.725337], [12.95809, 46.7254], [12.957083, 46.725113], [12.954425, 46.725761], [12.952346, 46.72567], [12.951027, 46.725405], [12.949445, 46.725233], [12.948289, 46.725387], [12.946945, 46.725461], [12.945142, 46.725147], [12.944509, 46.725143], [12.943973, 46.725045], [12.94349, 46.724828], [12.942709, 46.724765], [12.942019, 46.724708], [12.940807, 46.724495], [12.938133, 46.724144], [12.936897, 46.724198], [12.934575, 46.72397], [12.933452, 46.723748], [12.932103, 46.72327], [12.93142, 46.723114], [12.928313, 46.722719], [12.926515, 46.722441], [12.922305, 46.721791], [12.912542, 46.721556], [12.911639, 46.721293], [12.909782, 46.721997], [12.907685, 46.722693], [12.905407, 46.723715], [12.905738, 46.724779], [12.903007, 46.727754], [12.89931, 46.728455], [12.897812, 46.728676], [12.897527, 46.728485], [12.898725, 46.726618], [12.898442, 46.72513], [12.889315, 46.718345], [12.888841, 46.718494], [12.888041, 46.718924], [12.887976, 46.719077], [12.887992, 46.719228], [12.887884, 46.719373], [12.887068, 46.719587], [12.885846, 46.720079], [12.885413, 46.720328], [12.885076, 46.7206], [12.88461, 46.720635], [12.88417, 46.720939], [12.88374, 46.721074], [12.883478, 46.721577], [12.882274, 46.722021], [12.881802, 46.722258], [12.881195, 46.722485], [12.880696, 46.722833], [12.880077, 46.722742], [12.87929, 46.722922], [12.879062, 46.723042], [12.878093, 46.723251], [12.877469, 46.723162], [12.876768, 46.723272], [12.876547, 46.723332], [12.875953, 46.723701], [12.874925, 46.723843], [12.874229, 46.72401], [12.873272, 46.723877], [12.872456, 46.723956], [12.871393, 46.724159], [12.871124, 46.724491], [12.869727, 46.727203], [12.872656, 46.729653], [12.872696, 46.729986], [12.876986, 46.736136], [12.878048, 46.737487], [12.873947, 46.738028], [12.871116, 46.738314], [12.870519, 46.738294], [12.868499, 46.738228], [12.867298, 46.738605], [12.865991, 46.738797], [12.864089, 46.738736], [12.8608, 46.739718], [12.860615, 46.73974], [12.860337, 46.73971], [12.859591, 46.739515], [12.859754, 46.739746], [12.859206, 46.739926], [12.85899, 46.739921], [12.85878, 46.740145], [12.858269, 46.740296], [12.858026, 46.740277], [12.857629, 46.740551], [12.857396, 46.740897], [12.857212, 46.740941], [12.856972, 46.741292], [12.855855, 46.741375], [12.850053, 46.741633], [12.849896, 46.741417], [12.846481, 46.741698], [12.84325, 46.742092], [12.841621, 46.743047], [12.84134, 46.744772], [12.84351, 46.745603], [12.844269, 46.746837], [12.843465, 46.747673], [12.842477, 46.748232], [12.841235, 46.74934]]]}}]}