{"type":"FeatureCollection","features":[{"type":"Feature","properties":{"name":"Kazbek","admin":"mukh","source":"© OpenStreetMap contributors, ODbL 1.0","osm_relation":1858725},"geometry":{"type":"MultiPolygon","coordinates":[[[[46.7637777,42.9149493],[46.7658806,42.9157664],[46.7677903,42.9160179],[46.7699146,42.9157822],[46.7710304,42.9148393],[46.7706871,42.9136292],[46.7689705,42.9126392],[46.7653656,42.912482],[46.7630482,42.912702],[46.7628979,42.9140221],[46.7637777,42.9149493]]],[[[46.6994369,42.9189721],[46.69801,42.92019],[46.6984015,42.9210071],[46.6992545,42.9212938],[46.7006224,42.9212113],[46.7009899,42.9210189],[46.7007995,42.9201428],[46.6994369,42.9189721]]],[[[46.6932034,42.9231254],[46.6929929,42.923583],[46.6931283,42.9242596],[46.6937184,42.9250413],[46.6955048,42.9257523],[46.6962504,42.9255794],[46.6972268,42.9243735],[46.6957676,42.9232422],[46.6930827,42.9219125],[46.6926911,42.9221973],[46.6932034,42.9231254]]],[[[46.6265088,42.8857551],[46.625879,42.885781],[46.62521,42.8863789],[46.6242485,42.8859682],[46.6216952,42.8853364],[46.6204028,42.8842986],[46.6182586,42.8832589],[46.6135157,42.8837115],[46.6115895,42.8837346],[46.6094384,42.8844656],[46.6054308,42.8862546],[46.6043149,42.8874508],[46.6025712,42.8881827],[46.6004214,42.8885048],[46.5991598,42.8890741],[46.5981565,42.8898891],[46.5960772,42.8911104],[46.5931418,42.8933922],[46.5931372,42.8945362],[46.5924667,42.8954608],[46.5907494,42.898753],[46.5902217,42.9009308],[46.5891048,42.902263],[46.5887311,42.9030521],[46.5874314,42.9037848],[46.5871222,42.9069437],[46.5874894,42.9077617],[46.5884894,42.9078728],[46.5888953,42.9083095],[46.5896356,42.9085289],[46.5896384,42.9078208],[46.5900464,42.9077127],[46.5905614,42.9086672],[46.591486,42.9091049],[46.591779,42.9100044],[46.5913322,42.9105209],[46.5916267,42.9110118],[46.5921817,42.9112308],[46.5927323,42.9125395],[46.5941332,42.9143946],[46.594758,42.9157578],[46.596602,42.9179409],[46.5974895,42.9184604],[46.5983136,42.9185847],[46.5980516,42.9192106],[46.5983058,42.9205186],[46.5980035,42.921948],[46.5975016,42.9223692],[46.5956274,42.9230599],[46.5944929,42.9241335],[46.5922643,42.9253409],[46.5916692,42.9258981],[46.5911122,42.9261557],[46.5904265,42.9261543],[46.5896286,42.926384],[46.5887725,42.927322],[46.5862654,42.9286377],[46.5858562,42.9290182],[46.5863728,42.9295914],[46.5864826,42.9299593],[46.586165,42.9305851],[46.5865907,42.9307222],[46.5867996,42.9318122],[46.5865534,42.9347507],[46.5862584,42.9351867],[46.5855181,42.9352181],[46.5847939,42.9346408],[46.5843219,42.9348293],[46.58378,42.9344601],[46.584059,42.9341027],[46.5836513,42.9339613],[46.5834206,42.9341852],[46.583147,42.9340556],[46.5831792,42.9337846],[46.582911,42.9336667],[46.582616,42.9337689],[46.5825999,42.9340556],[46.5820634,42.9339181],[46.5819347,42.9343069],[46.5813822,42.9342598],[46.5801215,42.9348803],[46.5799069,42.9348686],[46.5798855,42.9345386],[46.5794778,42.9344562],[46.5795153,42.933871],[46.5793008,42.9338945],[46.5790325,42.9344954],[46.5777773,42.9351042],[46.5763074,42.9340281],[46.5761411,42.9343383],[46.5749931,42.9350806],[46.5738559,42.9345661],[46.5722895,42.9351238],[46.5706694,42.9354852],[46.5689528,42.9353202],[46.5679443,42.9349353],[46.5672576,42.9343462],[46.5635669,42.9322175],[46.5575588,42.931047],[46.5553486,42.9293424],[46.5541775,42.929214],[46.5528866,42.9298057],[46.5505822,42.9304207],[46.5490082,42.9304683],[46.5466905,42.9308507],[46.5446627,42.9297273],[46.5430426,42.9295074],[46.5379465,42.9290989],[46.5355003,42.929366],[46.5335777,42.9237805],[46.5278567,42.9267262],[46.5265734,42.9276898],[46.5251053,42.9284032],[46.5231605,42.9299437],[46.5205461,42.9303081],[46.5197865,42.9314293],[46.5186376,42.9313892],[46.5181158,42.9317869],[46.5162513,42.9325834],[46.5161324,42.9333292],[46.5154552,42.9336987],[46.5151936,42.9334512],[46.514254,42.9332226],[46.5123311,42.934515],[46.5112605,42.9349712],[46.5109674,42.935517],[46.5111252,42.9367714],[46.5104577,42.9374895],[46.5065471,42.9398448],[46.5059356,42.9400333],[46.5052014,42.94076],[46.5003805,42.9431547],[46.497639,42.9442681],[46.4975003,42.9445878],[46.4962596,42.9450091],[46.4955707,42.9454631],[46.4950881,42.9461044],[46.4953914,42.9468737],[46.4951694,42.9472235],[46.4948843,42.9473551],[46.4952087,42.9479635],[46.4947335,42.9481327],[46.4946396,42.9491317],[46.4941246,42.9497934],[46.4941837,42.9503608],[46.4938762,42.9507985],[46.4946218,42.9515013],[46.4950617,42.9524298],[46.4951099,42.9528854],[46.4949572,42.9531431],[46.495798,42.9538115],[46.4965008,42.9550542],[46.4960116,42.9551471],[46.4961992,42.9566235],[46.4957755,42.9571884],[46.4957623,42.9575069],[46.4965403,42.9575869],[46.4971074,42.9580974],[46.4972056,42.95834],[46.4970735,42.958787],[46.4972913,42.959382],[46.4976023,42.9594057],[46.498128,42.9597526],[46.4986841,42.9613673],[46.4998212,42.9623887],[46.4999341,42.9627263],[46.4998804,42.96306],[46.4987549,42.9633596],[46.4976607,42.9643551],[46.4976758,42.965505],[46.4981245,42.9665631],[46.4980709,42.9679605],[46.4975077,42.9705983],[46.4968246,42.9712425],[46.4965343,42.9724388],[46.4965795,42.9730638],[46.4973384,42.9743579],[46.4972863,42.974511],[46.4961986,42.9748667],[46.4953699,42.9754535],[46.495681,42.9772059],[46.4946749,42.9775844],[46.4942031,42.9779574],[46.4941921,42.9785558],[46.4938626,42.9791856],[46.4932817,42.979073],[46.4930308,42.9791877],[46.4934198,42.9799472],[46.4923467,42.9815031],[46.4924716,42.9821047],[46.4921726,42.9826649],[46.4912955,42.9827454],[46.4909387,42.9832438],[46.4899628,42.983326],[46.4890679,42.9839962],[46.4876615,42.9841777],[46.4874275,42.985397],[46.4869092,42.985695],[46.4851615,42.9880881],[46.4842832,42.9886158],[46.4843072,42.9887748],[46.4851468,42.9890161],[46.4852862,42.9893124],[46.484981,42.9897413],[46.4838914,42.9909826],[46.4834813,42.9909566],[46.4831865,42.9904654],[46.4827916,42.9904367],[46.4826903,42.9906138],[46.4831053,42.9917519],[46.4827405,42.9918822],[46.4818815,42.9917932],[46.4815167,42.9920051],[46.4816159,42.9924975],[46.4811453,42.9928281],[46.4810785,42.9935263],[46.4805043,42.9938375],[46.479892,42.995029],[46.4785251,42.9967538],[46.4785478,42.9972099],[46.4790476,42.9980081],[46.4778294,42.999834],[46.4782308,43.0006263],[46.477657,43.0012055],[46.4776502,43.0015134],[46.4795306,43.0027786],[46.4792744,43.004926],[46.4790819,43.0053738],[46.4783579,43.0057911],[46.4762368,43.0064044],[46.4754315,43.0069597],[46.4751745,43.0073154],[46.4750236,43.0085233],[46.4742914,43.0091814],[46.4740186,43.0093056],[46.4731973,43.009247],[46.4714112,43.0100861],[46.471131,43.0107437],[46.4713784,43.0115862],[46.4717536,43.0118227],[46.4726314,43.0119185],[46.4726215,43.0126274],[46.472308,43.0128861],[46.4712912,43.0130575],[46.4708531,43.0137189],[46.4699223,43.0145269],[46.4709173,43.014967],[46.4731554,43.0155733],[46.4754029,43.0166579],[46.4758652,43.0171102],[46.4770622,43.0174834],[46.47743,43.0173696],[46.4779335,43.0179505],[46.4790578,43.0181224],[46.4794301,43.0185125],[46.4806444,43.0188971],[46.4823142,43.0191911],[46.4827571,43.0190895],[46.4844784,43.0192503],[46.4861051,43.0187264],[46.4887787,43.0194298],[46.4900932,43.0192257],[46.4929746,43.0195651],[46.4941172,43.0192425],[46.4961144,43.0193555],[46.4972831,43.0189716],[46.4990742,43.0187477],[46.5008162,43.0182424],[46.5023544,43.0176618],[46.5032137,43.017121],[46.5059902,43.0159086],[46.5063941,43.0152238],[46.5093207,43.0168309],[46.5087405,43.0177006],[46.5074182,43.0187139],[46.5043935,43.0199488],[46.5050145,43.0221805],[46.5071343,43.0265321],[46.5089201,43.0265863],[46.5129202,43.0261037],[46.5163793,43.0246605],[46.5192377,43.0227272],[46.5219877,43.0229953],[46.5209069,43.0287255],[46.5108642,43.0283134],[46.510007,43.0285824],[46.5081925,43.0300688],[46.5063509,43.0322036],[46.5031995,43.0322171],[46.4985247,43.0247824],[46.4976787,43.0243706],[46.495557,43.0275184],[46.4940407,43.0303726],[46.4926866,43.0334542],[46.4920502,43.0353398],[46.4916971,43.0378975],[46.4917087,43.0394365],[46.4980537,43.0357756],[46.5197709,43.0424848],[46.523663,43.0391797],[46.5242754,43.0391544],[46.5246573,43.0409013],[46.5242215,43.0418869],[46.5239998,43.0428705],[46.524578,43.0430032],[46.5256631,43.0443383],[46.525024,43.0465457],[46.5250925,43.0469403],[46.5247491,43.0477099],[46.5248859,43.0484792],[46.5254679,43.0491125],[46.5254651,43.049486],[46.5245413,43.0508375],[46.5237984,43.0525673],[46.5233223,43.0529642],[46.5230428,43.053568],[46.5231794,43.0542357],[46.5229656,43.0550197],[46.5230223,43.0553709],[46.5224171,43.0570823],[46.5223292,43.0580081],[46.5217197,43.05895],[46.5216926,43.0593324],[46.5207923,43.0602035],[46.520019,43.060322],[46.5196609,43.0606318],[46.5201209,43.0623773],[46.5200512,43.0630234],[46.5190122,43.0647696],[46.5182014,43.0653995],[46.5177937,43.066229],[46.5169344,43.0668304],[46.5155439,43.0671261],[46.514945,43.0677484],[46.5144995,43.0679451],[46.5142926,43.0685655],[46.5136813,43.0691738],[46.5132499,43.0692511],[46.5126611,43.0690352],[46.5119035,43.069379],[46.5113301,43.0692976],[46.5091104,43.0698715],[46.508871,43.0699625],[46.5084282,43.0705695],[46.5077161,43.0707805],[46.506051,43.071907],[46.5050158,43.0720101],[46.5011358,43.0716083],[46.5018771,43.0738517],[46.5063924,43.0846485],[46.513079,43.0851058],[46.5151322,43.0846808],[46.5203228,43.0797366],[46.528663,43.0780829],[46.5320647,43.078268],[46.531362,43.0800094],[46.5301253,43.0846902],[46.5327258,43.0872346],[46.5268572,43.094348],[46.5297828,43.0967053],[46.534709,43.1010502],[46.5392501,43.1017765],[46.5413534,43.1014502],[46.5376734,43.1161036],[46.5504779,43.1172956],[46.5535487,43.1301254],[46.5554471,43.1342336],[46.5594318,43.1481201],[46.5643683,43.147819],[46.5669974,43.1480246],[46.5707116,43.1479414],[46.5725555,43.1475537],[46.5780162,43.1459804],[46.5804881,43.1451613],[46.5832705,43.14401],[46.583475,43.144172],[46.5838901,43.1476954],[46.5892125,43.1442149],[46.5935062,43.139849],[46.5986557,43.1380899],[46.6014604,43.1381968],[46.6041294,43.1371293],[46.6071957,43.1361588],[46.6079441,43.1354281],[46.6241886,43.1325448],[46.6235033,43.1305554],[46.6191511,43.1281623],[46.6192154,43.127004],[46.6225694,43.1269001],[46.6218845,43.1234631],[46.6207804,43.119267],[46.6152735,43.1175493],[46.6291397,43.1147434],[46.6344834,43.116882],[46.6361601,43.1138412],[46.6383695,43.1107531],[46.6423998,43.1108019],[46.6442135,43.1110385],[46.6442092,43.1119507],[46.6466769,43.1122505],[46.64665,43.1134872],[46.6479385,43.1131967],[46.6476029,43.112763],[46.6486605,43.1122556],[46.6494602,43.1122949],[46.6498355,43.112726],[46.654976,43.1123377],[46.6597262,43.1127597],[46.6589005,43.1139454],[46.6560115,43.1140202],[46.6573499,43.1147607],[46.6572168,43.1152928],[46.6565221,43.1164516],[46.6609373,43.1158364],[46.6607653,43.1166667],[46.6599639,43.1174032],[46.662538,43.1177941],[46.6646632,43.1184183],[46.6651704,43.1177358],[46.6685744,43.1163084],[46.6647546,43.1148901],[46.6674918,43.1145231],[46.6701446,43.113299],[46.6715592,43.1155778],[46.6740946,43.1141359],[46.6719936,43.1134346],[46.6713176,43.1128113],[46.6738977,43.1126436],[46.6757971,43.1128722],[46.6754867,43.1139157],[46.6766756,43.1136949],[46.6764426,43.1127495],[46.6765128,43.1122027],[46.6777029,43.1117083],[46.6812683,43.1136363],[46.6806385,43.1144995],[46.6783972,43.1153136],[46.6782838,43.1159322],[46.677652,43.1162612],[46.6774333,43.1166104],[46.677431,43.117119],[46.6781655,43.1178201],[46.6816974,43.1173151],[46.6818371,43.1183963],[46.6828211,43.1183139],[46.6860278,43.1193181],[46.6862823,43.1205903],[46.6881179,43.1202987],[46.6908284,43.1203621],[46.6938544,43.1191214],[46.7005164,43.1187414],[46.704391,43.1193736],[46.7049198,43.119692],[46.7045934,43.1203746],[46.7193037,43.1212138],[46.7227462,43.1242989],[46.7304561,43.1254451],[46.7306125,43.1250122],[46.732772,43.1239143],[46.7352256,43.1236641],[46.7365867,43.122497],[46.7398614,43.1223158],[46.7415947,43.1227057],[46.7436682,43.1223497],[46.7434181,43.1220188],[46.7437539,43.1202909],[46.7452144,43.120183],[46.7458309,43.1200145],[46.7464253,43.1196172],[46.7467917,43.1191178],[46.7469894,43.1177794],[46.7473322,43.1175681],[46.7478112,43.1176197],[46.7491137,43.116893],[46.752269,43.1164961],[46.7529588,43.1165428],[46.7536134,43.1163604],[46.7543615,43.1167058],[46.7550005,43.1166389],[46.755571,43.1165635],[46.755435,43.1162498],[46.7561314,43.116039],[46.7574659,43.1160917],[46.7590408,43.1158059],[46.7599316,43.1154004],[46.7610044,43.1151647],[46.7621387,43.1145825],[46.7626829,43.1145833],[46.7635222,43.1137449],[46.7640269,43.1127973],[46.7651503,43.1131808],[46.7664662,43.1140742],[46.7670307,43.1138003],[46.7698363,43.1139819],[46.7717973,43.1143658],[46.7731533,43.1149437],[46.775867,43.1154216],[46.780723,43.1169019],[46.7818895,43.1170844],[46.7846943,43.1119537],[46.7833236,43.1119018],[46.7802232,43.1109745],[46.7784897,43.1106674],[46.7774697,43.1101019],[46.775923,43.1096141],[46.7756922,43.1077446],[46.77719,43.1052737],[46.7782327,43.1041824],[46.784142,43.1029104],[46.7832626,43.1020699],[46.7815386,43.1015484],[46.7813565,43.1014084],[46.7813859,43.1009204],[46.7818599,43.1006549],[46.7829266,43.1004783],[46.7837245,43.1006656],[46.7840957,43.1004204],[46.7847175,43.1003025],[46.7858293,43.1003419],[46.7864104,43.1005904],[46.787069,43.1005721],[46.7873088,43.1004051],[46.7879986,43.1005012],[46.7884379,43.1003704],[46.7887693,43.100053],[46.7893455,43.0999308],[46.7918963,43.1003213],[46.7920972,43.0996734],[46.792785,43.0993872],[46.7928312,43.0991119],[46.7926888,43.0989973],[46.7918727,43.0993607],[46.7913825,43.0992839],[46.7911748,43.0990441],[46.789509,43.0993943],[46.7896955,43.0989219],[46.789981,43.0987062],[46.7908166,43.0986139],[46.7911023,43.0983262],[46.7920146,43.098306],[46.7925473,43.0984832],[46.7933601,43.0982618],[46.7935605,43.0979625],[46.7939944,43.097741],[46.7952716,43.0977144],[46.7961172,43.0968596],[46.7968017,43.0966908],[46.7973845,43.0960687],[46.798268,43.0962179],[46.7995684,43.0960202],[46.7998931,43.0961392],[46.8000988,43.095936],[46.8000539,43.0955801],[46.8006547,43.0956404],[46.8009491,43.0955175],[46.8012482,43.0948912],[46.8014977,43.0949123],[46.8016434,43.0944986],[46.8025488,43.0938204],[46.8031623,43.0935054],[46.8035671,43.093546],[46.8039465,43.0933791],[46.8043283,43.0934727],[46.8048247,43.0932783],[46.8051259,43.0923106],[46.8059522,43.0925084],[46.8074975,43.0923574],[46.8087301,43.0917401],[46.8092148,43.0916855],[46.8096138,43.0917579],[46.8101147,43.092182],[46.8109878,43.092432],[46.8110986,43.0919671],[46.8119978,43.0912772],[46.8113545,43.091157],[46.8111041,43.0908303],[46.8073216,43.0884169],[46.8061315,43.0871409],[46.8061532,43.0867523],[46.8043766,43.085033],[46.8036302,43.0850513],[46.8015815,43.0843496],[46.799871,43.0826271],[46.7964196,43.0821272],[46.7952454,43.0823673],[46.797992,43.0799224],[46.7999732,43.0799074],[46.8013979,43.0800953],[46.8017022,43.0803492],[46.8029987,43.0805926],[46.8045843,43.0805697],[46.8054266,43.0808069],[46.8072395,43.080707],[46.8077414,43.0805592],[46.8086946,43.0798442],[46.8100058,43.0797396],[46.8130965,43.0790435],[46.8130173,43.0787384],[46.8119814,43.0778605],[46.8124091,43.077738],[46.8132239,43.0778955],[46.8170678,43.0744776],[46.8200551,43.0740566],[46.8209888,43.0737368],[46.8216737,43.0700513],[46.8247981,43.0647495],[46.8264787,43.065075],[46.8275848,43.0647264],[46.8286191,43.0649673],[46.8293071,43.0648307],[46.8303126,43.0660071],[46.831482,43.0667951],[46.8317395,43.0678689],[46.8317382,43.0732239],[46.8345158,43.0759929],[46.8379569,43.0782924],[46.8412506,43.0820382],[46.8416239,43.0831654],[46.8464798,43.083525],[46.8468908,43.0831542],[46.8481611,43.0832382],[46.8492075,43.0827561],[46.850333,43.0828399],[46.8509125,43.0825813],[46.8525049,43.0824534],[46.8542736,43.0825969],[46.8582486,43.0812575],[46.861916,43.0808607],[46.8631714,43.0802962],[46.8647481,43.0799206],[46.8659062,43.0798275],[46.8680303,43.0790517],[46.8689926,43.08042],[46.8695718,43.0803263],[46.8697975,43.0799729],[46.8701515,43.0799025],[46.8704406,43.0800678],[46.8711487,43.0798092],[46.8714713,43.0792437],[46.8720505,43.0791028],[46.8722762,43.0787965],[46.8733057,43.0786325],[46.8743682,43.0779734],[46.875076,43.077809],[46.8773935,43.0767031],[46.8779091,43.0761378],[46.8785527,43.0759262],[46.8788426,43.0756436],[46.87926,43.0760447],[46.8797424,43.0760216],[46.8798399,43.0754087],[46.8805477,43.0752915],[46.8811275,43.0747497],[46.8816098,43.0747737],[46.8818344,43.0750804],[46.8823174,43.0747036],[46.883154,43.0744686],[46.8845049,43.0743519],[46.8855023,43.0740699],[46.8860175,43.0736224],[46.8871109,43.0736233],[46.8873045,43.0732462],[46.8876908,43.0729872],[46.887392,43.0648497],[46.883617,43.0581382],[46.8827296,43.0571911],[46.8827881,43.0564551],[46.8820482,43.0530057],[46.8814761,43.052143],[46.8817649,43.0509236],[46.8822241,43.0506716],[46.8826561,43.0495259],[46.8818411,43.0482003],[46.8819,43.0472541],[46.8821011,43.0470229],[46.8824022,43.0469812],[46.8827194,43.0459195],[46.8825747,43.0423391],[46.8792077,43.0328309],[46.878071,43.0270469],[46.8659839,43.0224507],[46.8674282,43.0203125],[46.8675455,43.0188826],[46.8656198,43.0143318],[46.8534907,43.0108343],[46.8525546,43.0063541],[46.8459112,43.0044747],[46.8462574,43.0016969],[46.8453848,43.0007798],[46.8460308,43.0002765],[46.8449496,42.9997715],[46.8449918,42.9994203],[46.8463041,42.9984897],[46.8466178,42.9976194],[46.8467235,42.9965962],[46.8476194,42.9958791],[46.8524041,42.9948397],[46.8522194,42.9947531],[46.8526157,42.9941731],[46.8517594,42.9919486],[46.8537081,42.9904508],[46.8553014,42.9898145],[46.856622,42.9885995],[46.8573943,42.9884348],[46.85783,42.9875733],[46.859182,42.9869488],[46.8616762,42.9861363],[46.8644251,42.9869179],[46.866775,42.9858575],[46.8676295,42.9845949],[46.8662964,42.9834249],[46.8645656,42.9814475],[46.8641518,42.9806479],[46.8642821,42.9799436],[46.8635952,42.9796905],[46.8626072,42.9796159],[46.8612193,42.9790045],[46.8611767,42.9788152],[46.8614922,42.9786158],[46.8611779,42.9782474],[46.8592307,42.9780666],[46.8581718,42.9776554],[46.8569284,42.9764448],[46.8569885,42.975078],[46.8564315,42.9743834],[46.8544004,42.9733191],[46.8541722,42.9728562],[46.8534273,42.9730446],[46.852053,42.9728748],[46.8512223,42.972958],[46.8512215,42.973347],[46.8509633,42.973536],[46.8497614,42.973135],[46.8493173,42.9732397],[46.8489311,42.9730394],[46.8483722,42.9732491],[46.8473125,42.9732794],[46.8472418,42.9728692],[46.8465974,42.9729105],[46.8462255,42.9727103],[46.8456665,42.9729619],[46.8452802,42.9728458],[46.8448663,42.9722144],[46.8445802,42.9721194],[46.8431623,42.9722754],[46.8428055,42.9717177],[46.8424905,42.9717384],[46.8421747,42.972085],[46.8416592,42.9720738],[46.841603,42.9716216],[46.8408439,42.9717258],[46.8400836,42.9723137],[46.8389232,42.9725646],[46.838478,42.9731002],[46.837276,42.9727728],[46.8361296,42.9731288],[46.8355572,42.9730019],[46.8353002,42.9726966],[46.8346994,42.972454],[46.8339121,42.9723583],[46.8336252,42.9725683],[46.8318492,42.9727447],[46.8311622,42.9726071],[46.8303888,42.9726796],[46.8293727,42.9724469],[46.8286704,42.9727404],[46.8287412,42.9730559],[46.8284819,42.973676],[46.8283241,42.9737704],[46.8277232,42.9735803],[46.8268911,42.9742206],[46.8264181,42.9743881],[46.8255305,42.9743238],[46.8251862,42.9745547],[46.8240988,42.9742272],[46.82311,42.9745097],[46.8220791,42.9744767],[46.8216932,42.9742028],[46.8212923,42.9742022],[46.8209928,42.9737287],[46.819948,42.9735379],[46.8189475,42.9728635],[46.8183599,42.9730414],[46.8179883,42.972778],[46.8175301,42.9727774],[46.8173881,42.9723566],[46.8171024,42.9721038],[46.8157418,42.9721964],[46.8155705,42.9720174],[46.8156714,42.9717547],[46.8148993,42.971354],[46.8145998,42.970933],[46.8140544,42.9714054],[46.8139528,42.9718784],[46.8136806,42.9719516],[46.8122494,42.9717076],[46.8115065,42.9710861],[46.8104335,42.9707796],[46.8094579,42.9714615],[46.8090998,42.9715031],[46.8087144,42.9710819],[46.8066687,42.9704584],[46.8060241,42.9705205],[46.8060786,42.9715194],[46.8058629,42.9718345],[46.8045598,42.9718641],[46.8035581,42.9716417],[46.8030852,42.9717776],[46.8027571,42.971346],[46.8024854,42.9712404],[46.8024002,42.9709774],[46.8016282,42.9705872],[46.8006822,42.9709011],[46.7981791,42.9700454],[46.791576,42.9753759],[46.7875777,42.9808683],[46.7870291,42.9822553],[46.7865787,42.9820285],[46.7863672,42.9809872],[46.7857243,42.9805234],[46.7843083,42.9799847],[46.7830766,42.9800036],[46.7825299,42.9807912],[46.7806145,42.9796838],[46.780218,42.9783477],[46.779519,42.9775158],[46.7786468,42.9771252],[46.7773726,42.9770493],[46.777302,42.9767338],[46.7775056,42.9758194],[46.7771062,42.975356],[46.7758763,42.9748701],[46.7761538,42.9732514],[46.7760059,42.9725203],[46.7733139,42.9704493],[46.7724406,42.9704056],[46.7729953,42.9756745],[46.7751993,42.9802839],[46.7760724,42.9847017],[46.77082,42.9877623],[46.7651073,42.9831672],[46.7629411,42.9801979],[46.7615277,42.9750219],[46.7616622,42.9694704],[46.7536026,42.9652066],[46.7498867,42.9621848],[46.7497328,42.9617089],[46.7481135,42.9601836],[46.7463388,42.9593589],[46.7452524,42.9592944],[46.7437215,42.9600771],[46.7426849,42.9603119],[46.7420406,42.9600736],[46.7408225,42.9589239],[46.7400752,42.9589847],[46.7388328,42.9597927],[46.7371241,42.9582178],[46.7361044,42.95849],[46.7357319,42.9582025],[46.7350359,42.9582011],[46.7342687,42.9590226],[46.7335222,42.958884],[46.7321157,42.9581454],[46.7322537,42.9575845],[46.7329021,42.9567005],[46.7341108,42.9558675],[46.7362539,42.9548869],[46.7365001,42.9545273],[46.7365826,42.9537439],[46.7350634,42.9514016],[46.7343484,42.9510025],[46.7331795,42.9506785],[46.7324255,42.9501097],[46.7320451,42.9496703],[46.7319039,42.949132],[46.7320571,42.9486119],[46.7317707,42.9485587],[46.7312761,42.9488208],[46.7304417,42.9484682],[46.7296529,42.9486478],[46.7296058,42.9484781],[46.7299264,42.9479233],[46.7295378,42.9475307],[46.729247,42.9465478],[46.7286585,42.9464472],[46.7277336,42.9468546],[46.7270408,42.9469233],[46.7261351,42.9464479],[46.7255779,42.9464233],[46.7254419,42.9466043],[46.7254799,42.9470663],[46.724858,42.9472989],[46.7243061,42.9458885],[46.7240051,42.9455137],[46.7239038,42.9449696],[46.723593,42.945045],[46.7231323,42.944781],[46.7225903,42.9450021],[46.721015,42.9447943],[46.7201313,42.944851],[46.7188138,42.9445039],[46.7195378,42.9441868],[46.7206113,42.9431908],[46.7220858,42.9431727],[46.7227521,42.9428343],[46.7235618,42.9427723],[46.724229,42.9422214],[46.7233062,42.9415824],[46.7216308,42.9411968],[46.7207942,42.9407489],[46.7205074,42.9401748],[46.7198726,42.9398549],[46.7194999,42.939047],[46.7186631,42.9386417],[46.7184917,42.9380891],[46.7174531,42.9375559],[46.7168768,42.9370238],[46.7165917,42.9359824],[46.715524,42.9355129],[46.7139638,42.935276],[46.7107817,42.9359069],[46.7098881,42.9352466],[46.7090509,42.9349476],[46.7081584,42.9340324],[46.7070316,42.9338813],[46.7063121,42.9330726],[46.705127,42.9330914],[46.7045788,42.9328142],[46.7044389,42.931667],[46.7039788,42.9310501],[46.7048744,42.9290103],[46.7020511,42.9286504],[46.7002322,42.9290327],[46.6996194,42.928951],[46.6981723,42.9294147],[46.6976257,42.9292044],[46.6965338,42.9284138],[46.6952216,42.9280249],[46.6931199,42.9279401],[46.6906487,42.9271465],[46.6894049,42.9260175],[46.6881802,42.9255967],[46.6867364,42.9252718],[46.684897,42.9253164],[46.6775881,42.9241592],[46.6751469,42.9213221],[46.6741401,42.9212074],[46.6722812,42.9206564],[46.6704401,42.9211353],[46.6697839,42.9209891],[46.6694782,42.9207472],[46.6678592,42.9204381],[46.6670077,42.9198409],[46.6663555,42.9195962],[46.664462,42.9192695],[46.6621557,42.9192041],[46.6616059,42.9193442],[46.6611947,42.9191617],[46.6598635,42.9190379],[46.6586378,42.9187823],[46.6576113,42.9182215],[46.6555118,42.9176092],[46.6534151,42.9162902],[46.6523213,42.9158114],[46.6510286,42.9147077],[46.6498221,42.9145079],[46.6487977,42.9133884],[46.6483096,42.9123849],[46.6463714,42.9105732],[46.6450374,42.9086476],[46.6407629,42.9098224],[46.6394282,42.9080613],[46.6356851,42.9047832],[46.6352412,42.903977],[46.6351541,42.9033688],[46.6340447,42.9012793],[46.6332217,42.9002259],[46.6323191,42.8966579],[46.629591,42.8910813],[46.6286927,42.8865196],[46.6299219,42.8862354],[46.6320729,42.8848088],[46.6340401,42.8846318],[46.6377716,42.8848366],[46.6392486,42.8842973],[46.6413059,42.8839566],[46.6432766,42.8828925],[46.6487534,42.8824105],[46.6526681,42.8813832],[46.6549531,42.8805543],[46.6565375,42.8782083],[46.658466,42.8774239],[46.6611153,42.876882],[46.666924,42.8767889],[46.6687898,42.8763738],[46.6698421,42.8765282],[46.6709654,42.8761877],[46.671813,42.8757324],[46.6737021,42.8737051],[46.6753465,42.8725025],[46.6779169,42.8711702],[46.6782598,42.8710814],[46.6789274,42.8712038],[46.680985,42.8708209],[46.6847002,42.8687668],[46.686628,42.8684385],[46.6972653,42.8674231],[46.6991026,42.8669902],[46.7003852,42.8664551],[46.7027766,42.8666853],[46.7051332,42.867247],[46.7065889,42.8673492],[46.7113029,42.8673759],[46.7132095,42.8668921],[46.7169528,42.8668931],[46.7141583,42.8595496],[46.7166415,42.8580486],[46.7155407,42.8545055],[46.7178658,42.8504541],[46.7163432,42.8464885],[46.7072381,42.8470348],[46.6987796,42.8462609],[46.6959491,42.848613],[46.6929913,42.8507762],[46.6897932,42.8489766],[46.6867169,42.848781],[46.6801726,42.8500872],[46.6719937,42.8479292],[46.668107,42.8474631],[46.6648117,42.8476469],[46.6622227,42.8470965],[46.6604163,42.8452948],[46.653757,42.8443277],[46.6518597,42.8466933],[46.6509985,42.8490612],[46.6484022,42.8503906],[46.6479852,42.8528957],[46.6464601,42.8546627],[46.6439353,42.8565641],[46.6455947,42.858202],[46.6456457,42.8593734],[46.644718,42.8599162],[46.6447156,42.8605155],[46.6451947,42.8610613],[46.6445968,42.8624765],[46.6435546,42.8638634],[46.6424039,42.8645691],[46.6399569,42.8653538],[46.6373646,42.8654299],[46.6364381,42.8656459],[46.6337641,42.8675466],[46.6327634,42.8677896],[46.6315418,42.867678],[46.6296484,42.8689543],[46.6271634,42.8699843],[46.6258305,42.8699269],[46.6234218,42.8703577],[46.6198985,42.8716849],[46.6186738,42.8723634],[46.6179696,42.8725254],[46.6161122,42.873965],[46.6118906,42.8738748],[46.6219536,42.876484],[46.6286339,42.8864397],[46.6276177,42.8863566],[46.6265088,42.8857551]]],[[[46.9594712,43.4249445],[46.9663429,43.4294822],[46.9669917,43.4301918],[46.979441,43.4303219],[46.9795288,43.4404483],[46.9846113,43.4456148],[46.9891185,43.4438668],[47.0010947,43.4308796],[46.9978342,43.4283109],[46.9951347,43.4264299],[46.9934712,43.4246422],[46.9878333,43.4200557],[46.9859897,43.4180348],[46.9845297,43.41682],[46.9834197,43.4152449],[46.9833499,43.4145303],[46.9836154,43.4136165],[46.9846034,43.4123158],[46.9852669,43.4110365],[46.9431968,43.4120399],[46.9559326,43.4222562],[46.9594712,43.4249445]]],[[[47.1267082,43.4983112],[47.1288042,43.4979431],[47.1321682,43.4967993],[47.1329862,43.4932078],[47.1299123,43.4920937],[47.1230576,43.4905544],[47.1194252,43.4904512],[47.1174176,43.4906256],[47.1159404,43.4903263],[47.1161536,43.493293],[47.1153895,43.4950139],[47.117108,43.4975703],[47.1180846,43.4984507],[47.1201225,43.4984698],[47.1239904,43.4980351],[47.1267082,43.4983112]]]]}}]}
