{"type":"FeatureCollection","features":[{"type":"Feature","properties":{"name":"Čačerski","admin":"rajon","source":"© OpenStreetMap contributors, ODbL 1.0","osm_relation":59178},"geometry":{"type":"Polygon","coordinates":[[[30.9450855,52.7159125],[30.9449458,52.7167079],[30.9442806,52.7172928],[30.9429288,52.7180077],[30.940209,52.7183456],[30.9380661,52.7189461],[30.9370279,52.7202107],[30.9367061,52.7208346],[30.93733,52.72133],[30.936437,52.7223036],[30.9340848,52.7231311],[30.9318352,52.7235639],[30.9308075,52.7234181],[30.930129,52.723025],[30.9298825,52.7225891],[30.9298621,52.7222856],[30.9306038,52.7216438],[30.9303704,52.7213348],[30.9296892,52.7213667],[30.9278928,52.7221336],[30.9244886,52.7222309],[30.9229661,52.7227022],[30.91956,52.72545],[30.914349,52.7286016],[30.9139223,52.7292743],[30.9140229,52.7297748],[30.9143686,52.7300484],[30.9162562,52.7309078],[30.9165468,52.7313182],[30.9166002,52.7318936],[30.9171581,52.7327771],[30.9169328,52.732933],[30.9160101,52.732907],[30.9151415,52.7325639],[30.9146308,52.7318575],[30.9137296,52.7318575],[30.9130724,52.7316825],[30.9126762,52.7318634],[30.9120834,52.7329395],[30.9112619,52.733735],[30.9108664,52.7371584],[30.9038007,52.7439629],[30.9032965,52.744145],[30.900902,52.7438772],[30.8965798,52.7425846],[30.8926045,52.7422186],[30.8916067,52.7416276],[30.8907377,52.7416081],[30.8900081,52.7409715],[30.8889889,52.7413483],[30.8873388,52.740804],[30.8859955,52.7408481],[30.8849977,52.7403804],[30.8846437,52.7399258],[30.8832489,52.7393022],[30.8824014,52.7392177],[30.8810583,52.7387821],[30.8800946,52.7391138],[30.8784428,52.7385797],[30.8778631,52.7381654],[30.8736252,52.7374963],[30.8718337,52.7370426],[30.8651568,52.7382115],[30.8622947,52.7392544],[30.8570868,52.7400146],[30.8393581,52.7373891],[30.8242902,52.7360874],[30.8220517,52.7356579],[30.8101484,52.7314041],[30.7988761,52.7294228],[30.7900297,52.730702],[30.7838106,52.7327187],[30.780881,52.7373151],[30.7329709,52.7342278],[30.7321529,52.7365453],[30.7258237,52.7604727],[30.7390163,52.7605805],[30.7393381,52.7690607],[30.7421922,52.7699547],[30.741527,52.7705682],[30.7229018,52.7760819],[30.7205194,52.7761913],[30.7423639,52.7909289],[30.7377076,52.7972608],[30.7389092,52.7974943],[30.7393813,52.7969234],[30.7442307,52.7984933],[30.74408,52.7988846],[30.7622123,52.8111149],[30.7609248,52.8134494],[30.7616114,52.8141627],[30.7614612,52.8147463],[30.7602381,52.815732],[30.7637136,52.8225373],[30.7380724,52.832536],[30.7341241,52.8347916],[30.7221916,52.8389707],[30.7073917,52.8391432],[30.7060891,52.8409998],[30.6912786,52.8432398],[30.69244,52.8456029],[30.6886957,52.8459769],[30.6867237,52.8447305],[30.6748299,52.8517188],[30.6710074,52.8568981],[30.6697682,52.8569159],[30.6631843,52.860717],[30.6655454,52.8643629],[30.665956,52.8668203],[30.6676054,52.8684562],[30.6668114,52.8703602],[30.6675839,52.8719274],[30.6711566,52.8745048],[30.6716072,52.8751847],[30.6722617,52.875502],[30.6749353,52.87521],[30.677044,52.877167],[30.6750592,52.879388],[30.6759349,52.8792617],[30.677744,52.8793621],[30.7024517,52.8702275],[30.7165066,52.8693532],[30.7243711,52.8713932],[30.724082,52.8751134],[30.723792,52.8766419],[30.7216352,52.9045077],[30.7067012,52.9161224],[30.7041907,52.9181796],[30.7029247,52.9194475],[30.7001352,52.9216339],[30.6991482,52.9215045],[30.6985473,52.9222937],[30.6986546,52.9229664],[30.6973457,52.9240143],[30.6965518,52.9237038],[30.6949639,52.92448],[30.6944275,52.9252561],[30.694685,52.9261616],[30.6944053,52.9264798],[30.6844067,52.9270412],[30.6575632,52.9291367],[30.6482076,52.9297317],[30.6482291,52.9290591],[30.6437123,52.9299839],[30.642811,52.9304884],[30.6415343,52.9307859],[30.6429613,52.9327389],[30.6436264,52.932713],[30.643508,52.9343655],[30.6314699,52.9406323],[30.6292383,52.9438499],[30.6274362,52.943281],[30.6175375,52.9570608],[30.6098841,52.9671677],[30.5970311,52.9677297],[30.5838771,52.9668075],[30.5805731,52.9652484],[30.5805513,52.9570483],[30.5631702,52.9533771],[30.5533213,52.9500158],[30.5435371,52.9612288],[30.5435799,52.9664457],[30.539546,52.969862],[30.5403184,52.9848754],[30.5386018,52.9872006],[30.5391597,52.9892931],[30.5368638,52.9902668],[30.5342245,52.9962418],[30.5416274,53.008651],[30.540812,53.0101357],[30.5414557,53.0123563],[30.5369282,53.0140603],[30.5353188,53.0150027],[30.5343962,53.0192754],[30.5317996,53.0232458],[30.5298257,53.0231734],[30.525941,53.0235297],[30.5236452,53.0349378],[30.5416197,53.0542953],[30.5581927,53.0335232],[30.5624413,53.0347103],[30.5630636,53.03542],[30.5621036,53.0376852],[30.5672046,53.0374741],[30.5822897,53.0184622],[30.588684,53.0070887],[30.58936,53.0034217],[30.5903363,53.0034346],[30.5986404,52.9903831],[30.6085539,52.9915406],[30.6088006,52.991392],[30.6173193,52.9921412],[30.6261706,52.9931938],[30.6283372,52.9939608],[30.6171794,53.0016418],[30.6246042,53.0030989],[30.6287884,53.0056814],[30.633509,53.0082454],[30.6380367,53.0071275],[30.6429934,53.0070371],[30.646019,53.0065206],[30.649538,53.0056039],[30.656898,53.0053327],[30.6641292,53.005436],[30.6923669,53.0050692],[30.6939247,53.004572],[30.6978392,53.002647],[30.6989765,52.9987859],[30.7000279,52.9978561],[30.7035255,52.9961643],[30.7080745,52.9932455],[30.7145977,52.9910498],[30.7173226,52.9891009],[30.7071732,52.9810094],[30.7073265,52.9717316],[30.7041324,52.9684488],[30.7061193,52.9663423],[30.7051341,52.9652159],[30.7041265,52.9600493],[30.7029891,52.9592642],[30.7094478,52.9570476],[30.7191133,52.9549262],[30.7204962,52.953335],[30.7251119,52.9514434],[30.7233953,52.9500213],[30.788233,52.9372418],[30.7894582,52.9385425],[30.7903004,52.938717],[30.7902574,52.9392763],[30.7925749,52.9411385],[30.7913947,52.9481595],[30.7899785,52.9483922],[30.7890558,52.9481595],[30.7884121,52.9519346],[30.7854938,52.9518959],[30.7846781,52.9547603],[30.7746362,52.9543466],[30.7733917,52.961539],[30.7739067,52.9624438],[30.7730483,52.9681886],[30.7622981,52.9687118],[30.7641211,52.9743025],[30.8075952,52.971516],[30.8098697,52.9707148],[30.8127021,52.9702496],[30.8271646,52.9693968],[30.8301442,52.9720541],[30.8355546,52.9708911],[30.8541584,52.9650028],[30.855875,52.9654681],[30.8587711,52.9653455],[30.8603811,52.9681432],[30.8691358,52.9784029],[30.8703589,52.9888942],[30.8725261,52.9907914],[30.8704662,52.9920701],[30.8692002,52.993168],[30.8686852,52.9948082],[30.8688569,52.996203],[30.8758947,52.9967117],[30.8749938,53.0024275],[30.8751869,53.0065206],[30.8857221,53.0179726],[30.8949494,53.0172746],[30.9120297,53.0078763],[30.9131301,53.0077849],[30.9143257,53.0120206],[30.9130382,53.0201531],[30.9077596,53.0242317],[30.9074592,53.0278195],[30.9014082,53.0326458],[30.9014511,53.0364394],[30.8991336,53.0401552],[30.898726,53.0418839],[30.8934259,53.0430837],[30.8917992,53.0451823],[30.89446,53.0485427],[30.8958224,53.0508083],[30.8944053,53.052848],[30.8940494,53.0542848],[30.8993911,53.0560727],[30.906515,53.0531322],[30.9126948,53.0534417],[30.9173297,53.0552989],[30.9229087,53.0541124],[30.9310626,53.0545251],[30.9461688,53.0608185],[30.9645366,53.0592194],[30.9865951,53.0606122],[30.9920024,53.0581878],[31.0009288,53.0624175],[31.000843,53.065409],[30.9971522,53.0663373],[30.9932899,53.0675751],[30.9905433,53.071082],[30.9815311,53.072268],[30.9821319,53.0768058],[31.0473773,53.0746806],[31.0665173,53.0958179],[31.0609377,53.1348259],[31.0684936,53.132607],[31.0783788,53.135681],[31.120393,53.1386813],[31.2101298,53.1444739],[31.2101298,53.1442373],[31.2106905,53.1440932],[31.2110541,53.1435868],[31.210746,53.1434649],[31.2107213,53.1432024],[31.2116457,53.142685],[31.2111465,53.1424262],[31.2119599,53.1423819],[31.2122434,53.1422119],[31.2121017,53.1420086],[31.2116333,53.1419494],[31.2114362,53.1413506],[31.2119784,53.1411436],[31.2120832,53.1409256],[31.2130013,53.1407777],[31.2126624,53.1400273],[31.2131184,53.1396207],[31.2131677,53.1394507],[31.2129767,53.1392955],[31.2130999,53.1388925],[31.2121263,53.1383787],[31.2124652,53.1379166],[31.2123605,53.1377614],[31.2127302,53.1375026],[31.2126378,53.137255],[31.2123385,53.1371825],[31.2124288,53.1370055],[31.2120961,53.1366654],[31.2122563,53.1361959],[31.2118804,53.1358743],[31.2126014,53.1355453],[31.2120653,53.1354196],[31.2118989,53.1351756],[31.2119482,53.1350425],[31.2117937,53.134971],[31.2123681,53.1344809],[31.2118443,53.1340927],[31.2129658,53.133919],[31.2128796,53.1337526],[31.2131261,53.1337341],[31.2129104,53.1335308],[31.2132123,53.1335123],[31.2130521,53.1333533],[31.2131507,53.1331204],[31.2126824,53.1330687],[31.2126454,53.132943],[31.2130213,53.1327581],[31.2131261,53.1321851],[31.2132863,53.1322035],[31.2132616,53.1319669],[31.2130275,53.1318449],[31.213391,53.1317155],[31.2132924,53.1316231],[31.2134826,53.1313233],[31.2139139,53.1308944],[31.2138646,53.1305765],[31.2150046,53.1294784],[31.2147396,53.1292898],[31.2148875,53.1289386],[31.2154852,53.1287241],[31.2152203,53.1283655],[31.2152388,53.1279625],[31.2157564,53.1275816],[31.216009,53.1276815],[31.2167361,53.1275373],[31.2170196,53.127711],[31.2173941,53.1275398],[31.2174448,53.127101],[31.2176612,53.1269734],[31.220045,53.1233612],[31.2239224,53.1163035],[31.2259252,53.1161411],[31.2271269,53.1174908],[31.2272127,53.118861],[31.2265947,53.1202518],[31.2289458,53.122679],[31.2311525,53.1231305],[31.2391269,53.1224488],[31.2430596,53.1193754],[31.2431111,53.1176076],[31.2469366,53.1178245],[31.2468586,53.1215984],[31.2484642,53.1221124],[31.2507686,53.1193661],[31.250421,53.1147528],[31.3034566,53.1119455],[31.312357,53.1118265],[31.3127859,53.1143406],[31.3274457,53.1138632],[31.3307423,53.113508],[31.3302947,53.1106621],[31.338729,53.1100687],[31.3409881,53.0939543],[31.3606592,53.0958467],[31.3605719,53.0925478],[31.3416316,53.0917249],[31.33478,53.0912324],[31.3358237,53.0837],[31.3367267,53.0820127],[31.3352368,53.0797076],[31.332694,53.0740873],[31.327519,53.0664254],[31.3306093,53.0418068],[31.3068786,53.0365498],[31.27653,53.04053],[31.2629861,53.042587],[31.2628841,53.0428966],[31.2623113,53.0429779],[31.2619758,53.0428224],[31.2620927,53.04206],[31.2625138,53.0417504],[31.2632319,53.0415465],[31.2636324,53.0417891],[31.2637946,53.0416781],[31.2632049,53.0410568],[31.2622458,53.040397],[31.2618941,53.0403508],[31.2612839,53.0407239],[31.2600803,53.0407292],[31.2599227,53.0405349],[31.2601054,53.0402325],[31.2595738,53.0401577],[31.2597047,53.0397251],[31.2588233,53.0394261],[31.2588275,53.039955],[31.2585991,53.0399823],[31.2584048,53.0396842],[31.2584512,53.0394051],[31.2580991,53.0389327],[31.2574875,53.0387714],[31.2580822,53.0385652],[31.257804,53.0381715],[31.257337,53.0378861],[31.2560826,53.038092],[31.2543786,53.037678],[31.2540935,53.037208],[31.2549731,53.0370767],[31.2548507,53.0367074],[31.2542414,53.0365311],[31.2541081,53.0362548],[31.2533538,53.0361654],[31.2532389,53.0357974],[31.2515123,53.0358839],[31.2513828,53.0356297],[31.2515867,53.0353329],[31.251474,53.0351458],[31.2497862,53.0346461],[31.2488079,53.0347329],[31.2481829,53.0351174],[31.2472821,53.0350665],[31.2466514,53.0347426],[31.2475213,53.0341285],[31.2474671,53.0339127],[31.2433164,53.0331587],[31.2440834,53.032933],[31.2445186,53.032602],[31.2448836,53.0326934],[31.2446807,53.0319202],[31.2430031,53.0324024],[31.2422583,53.0323238],[31.242282,53.0321745],[31.2434861,53.0313132],[31.2424618,53.0311909],[31.2424135,53.0308586],[31.2426227,53.0306198],[31.243121,53.0304909],[31.2442484,53.0306115],[31.2444545,53.0303935],[31.2425065,53.0297961],[31.2423742,53.0295035],[31.2426686,53.0288597],[31.2420928,53.0289941],[31.2419296,53.0289171],[31.241959,53.0286842],[31.2425691,53.0282583],[31.243787,53.0279382],[31.2438921,53.0276908],[31.243583,53.0274065],[31.2436724,53.0272103],[31.2441765,53.0270786],[31.2454136,53.0275527],[31.2455424,53.0273107],[31.2454312,53.0270194],[31.2450099,53.0265096],[31.2459381,53.025876],[31.2463835,53.0258163],[31.2464583,53.0263289],[31.2466246,53.0264064],[31.2482929,53.0255836],[31.2487274,53.026074],[31.2495067,53.0261656],[31.2498271,53.0255223],[31.250444,53.025261],[31.2503853,53.0249872],[31.24973,53.0247821],[31.2498736,53.0244249],[31.2503218,53.024168],[31.2515405,53.024179],[31.2522541,53.0238641],[31.2537882,53.0240258],[31.254629,53.0246121],[31.2551755,53.0243253],[31.2570369,53.0240284],[31.2573427,53.0237122],[31.2577826,53.0236864],[31.2581152,53.0240058],[31.2587482,53.0240542],[31.2587267,53.0236154],[31.259849,53.0231476],[31.2602931,53.0231508],[31.2618449,53.0222381],[31.2620087,53.0218196],[31.2615716,53.0214882],[31.2615162,53.0211599],[31.2616738,53.0210213],[31.262627,53.0207695],[31.2626864,53.0211024],[31.262894,53.0211595],[31.263501,53.0204597],[31.264016,53.0205823],[31.2646544,53.020408],[31.2649564,53.0195273],[31.2663013,53.0187817],[31.2676322,53.0183621],[31.2679998,53.0180911],[31.2682283,53.0175824],[31.2684733,53.0175922],[31.2686348,53.0179556],[31.2690049,53.0179265],[31.2701207,53.0168035],[31.2700242,53.0163969],[31.2702423,53.0161742],[31.2712787,53.0158623],[31.2712532,53.0161907],[31.2718551,53.0164464],[31.2720627,53.0163097],[31.2720144,53.0158289],[31.2722403,53.0153741],[31.2740475,53.0150253],[31.273849,53.0147607],[31.2731624,53.0145573],[31.2728083,53.0141636],[31.2728459,53.013857],[31.2739563,53.0136569],[31.2740745,53.013739],[31.2739152,53.0140584],[31.2744766,53.0142185],[31.2765064,53.0139498],[31.2766376,53.0138553],[31.2762469,53.013615],[31.2762684,53.0133632],[31.2770998,53.013389],[31.2771812,53.0132569],[31.2770198,53.0130695],[31.2773605,53.0130028],[31.2780165,53.0130096],[31.2789291,53.0137247],[31.2797151,53.0135706],[31.2801179,53.0132549],[31.2796675,53.0131397],[31.2802656,53.0130688],[31.2806909,53.0126638],[31.2819189,53.0123014],[31.281322,53.0119813],[31.2820198,53.0118251],[31.2825352,53.0114713],[31.2821998,53.0111805],[31.2828241,53.0112851],[31.2829154,53.0111867],[31.2827242,53.0109323],[31.2836046,53.0108015],[31.2835318,53.010583],[31.2839017,53.0103747],[31.2840032,53.0101095],[31.2846424,53.0100023],[31.2855607,53.0103718],[31.2859844,53.0100158],[31.2867697,53.0099864],[31.2867758,53.0095767],[31.2871936,53.0090864],[31.2880111,53.0090996],[31.288172,53.008425],[31.2883866,53.0083121],[31.2888318,53.0084993],[31.289223,53.0077572],[31.2896043,53.0080183],[31.2897405,53.0085329],[31.2905377,53.0086058],[31.2906163,53.0085096],[31.2903299,53.0080271],[31.2896633,53.0073954],[31.289602,53.0070096],[31.2903982,53.0067014],[31.2908176,53.0069379],[31.291239,53.0068012],[31.2915377,53.0070242],[31.291838,53.0070127],[31.2923649,53.0060022],[31.2919664,53.0055991],[31.2930033,53.0058359],[31.2928927,53.0062462],[31.2932698,53.0063876],[31.293771,53.0058315],[31.2937134,53.0055329],[31.2942338,53.0051386],[31.2952447,53.0050872],[31.2954304,53.0052532],[31.2949687,53.0054619],[31.2950843,53.0057306],[31.294692,53.0059476],[31.2948733,53.0061455],[31.2958002,53.0060267],[31.296165,53.0055845],[31.296204,53.0053676],[31.2959883,53.0051697],[31.2960624,53.0049574],[31.2965778,53.0050822],[31.297323,53.0048412],[31.296327,53.0047562],[31.296371,53.0045793],[31.2970527,53.0044107],[31.2976187,53.0046387],[31.2980706,53.0044536],[31.2994893,53.0047041],[31.299874,53.0045951],[31.2999201,53.0049906],[31.3001139,53.0051367],[31.3003975,53.0050842],[31.3005045,53.0048673],[31.3010966,53.0049619],[31.3010185,53.0046087],[31.3012649,53.0041787],[31.3019751,53.0040018],[31.302089,53.0037945],[31.3024386,53.0037223],[31.302637,53.0033594],[31.3031932,53.0035355],[31.3035274,53.0040337],[31.3028983,53.004177],[31.3029755,53.0043179],[31.3040346,53.0042836],[31.3041258,53.0040964],[31.3039434,53.0038511],[31.3048202,53.0029566],[31.3048379,53.0025719],[31.3053024,53.0026264],[31.3054005,53.0031633],[31.3058692,53.0036057],[31.3063306,53.0036283],[31.3065022,53.0034927],[31.3066558,53.0026089],[31.3076799,53.0026317],[31.3086487,53.0022483],[31.3100052,53.0010909],[31.3098032,53.0007476],[31.310234,53.0001853],[31.3100677,52.9997927],[31.3110658,52.9996681],[31.3109387,52.9994619],[31.3102788,52.9993024],[31.3102706,52.9991397],[31.3118469,52.9986478],[31.3118613,52.9991133],[31.3122851,52.9991636],[31.3125261,52.9988187],[31.3143504,52.9980498],[31.3158953,52.9969682],[31.3167107,52.9969876],[31.3166571,52.996542],[31.3170772,52.9962327],[31.3175046,52.9964129],[31.317848,52.9961265],[31.3190603,52.9958059],[31.3194323,52.9953035],[31.3191371,52.9950883],[31.3197069,52.994839],[31.3199923,52.9941409],[31.3207233,52.9939849],[31.3209432,52.9937556],[31.3210401,52.993541],[31.3206406,52.9935052],[31.3206023,52.9933557],[31.3227816,52.9924036],[31.3228106,52.9922688],[31.3224377,52.9922066],[31.3225264,52.9920296],[31.3249129,52.9919797],[31.3256432,52.9918187],[31.3259896,52.9920641],[31.3266188,52.9918247],[31.3272035,52.9918118],[31.3273633,52.9917084],[31.3270801,52.9910207],[31.3278365,52.9909529],[31.3288502,52.9899848],[31.329808,52.9900405],[31.3298359,52.989886],[31.3295996,52.9898452],[31.3297642,52.9897466],[31.3307869,52.9901165],[31.3308907,52.9900132],[31.3305073,52.9898768],[31.330583,52.9897104],[31.3309037,52.9894278],[31.3314915,52.9892847],[31.3316022,52.9893351],[31.3313878,52.9896354],[31.3321649,52.9896897],[31.3321808,52.9898776],[31.3317012,52.9900759],[31.3326675,52.9900619],[31.3333331,52.9894183],[31.3332868,52.9888475],[31.3339536,52.9886473],[31.3341334,52.9887215],[31.3342421,52.9891563],[31.3340454,52.9894158],[31.3341031,52.9896031],[31.3359401,52.9899226],[31.3365204,52.9895592],[31.3367414,52.9898453],[31.3373637,52.9900035],[31.33775,52.9898324],[31.3379323,52.9895385],[31.3384688,52.9894739],[31.339488,52.9900499],[31.3402013,52.9897872],[31.3409847,52.9899712],[31.3416392,52.9897],[31.3414279,52.9894449],[31.3424331,52.9894901],[31.3422185,52.9889766],[31.3418162,52.9888959],[31.3417304,52.9887118],[31.341961,52.9885762],[31.342698,52.9887289],[31.3432324,52.9885536],[31.3437635,52.9876591],[31.3440853,52.9874492],[31.3448373,52.987682],[31.3452988,52.9873841],[31.3457859,52.9873329],[31.3457756,52.9875139],[31.3454259,52.9877028],[31.3458663,52.9878529],[31.3461989,52.9876946],[31.3463706,52.9870972],[31.3467702,52.9870326],[31.34765,52.987291],[31.3480228,52.9876252],[31.3484386,52.9873701],[31.3492539,52.9875751],[31.3501978,52.9864115],[31.350646,52.9861298],[31.3509747,52.9860839],[31.3514373,52.986419],[31.3514062,52.985867],[31.3518136,52.9855126],[31.3508365,52.9853969],[31.350756,52.9851983],[31.3510215,52.984898],[31.3529929,52.9846202],[31.353642,52.9847478],[31.3533685,52.9850239],[31.3534436,52.9852128],[31.3547498,52.9853614],[31.3549885,52.9848802],[31.3557689,52.9848624],[31.3563959,52.984486],[31.3563618,52.9843296],[31.3556698,52.9840922],[31.3556537,52.9838726],[31.3560202,52.9835274],[31.3560235,52.9831687],[31.3566279,52.982898],[31.3567495,52.9822206],[31.357196,52.9817636],[31.357145,52.981326],[31.3581669,52.9812662],[31.3581646,52.9802602],[31.3586633,52.9802754],[31.3589665,52.9800534],[31.3588858,52.9799178],[31.3582742,52.9799452],[31.3580462,52.9795253],[31.3590242,52.9794709],[31.358926,52.9792217],[31.3583145,52.9790069],[31.3582167,52.9787784],[31.3591057,52.9785967],[31.3592586,52.9782673],[31.3592285,52.9780182],[31.3567614,52.9769688],[31.3535339,52.9765647],[31.3438439,52.9757801],[31.3410544,52.9758576],[31.3401317,52.9764778],[31.3384143,52.976733],[31.3358617,52.9763228],[31.3346815,52.9744105],[31.3319778,52.9731312],[31.3294673,52.9729633],[31.3274073,52.9726014],[31.3272571,52.9714902],[31.327343,52.9702496],[31.3269996,52.9691512],[31.3245959,52.9670256],[31.3220215,52.9660238],[31.3197469,52.9657136],[31.3177728,52.964964],[31.3147902,52.9648089],[31.3099193,52.9634907],[31.3089537,52.963439],[31.3063788,52.9627606],[31.293869,52.9405695],[31.2840733,52.9342789],[31.2820351,52.9354031],[31.2775397,52.933489],[31.2768531,52.9313938],[31.2749112,52.9308893],[31.2739872,52.9294177],[31.2714618,52.9268666],[31.2704122,52.9260084],[31.269654,52.9256992],[31.266598,52.9261658],[31.2595298,52.9251163],[31.2593329,52.9245964],[31.2576914,52.9238267],[31.2544942,52.923044],[31.251361,52.9216724],[31.2499559,52.9215563],[31.2493229,52.9217374],[31.2484002,52.9208706],[31.2480822,52.920854],[31.2481896,52.917094],[31.2484109,52.9170216],[31.248486,52.9166141],[31.2488723,52.9163488],[31.2498783,52.9161247],[31.2521635,52.9150198],[31.2531209,52.9134634],[31.2541291,52.9126508],[31.2427654,52.9028588],[31.2406324,52.9017816],[31.2410402,52.8972926],[31.2438512,52.8952603],[31.2462222,52.8926008],[31.261475,52.8899399],[31.2614434,52.8856326],[31.2586995,52.8825476],[31.2565107,52.8796436],[31.2492149,52.874098],[31.252347,52.8725242],[31.2623736,52.8701245],[31.2576976,52.8634229],[31.2482184,52.8651779],[31.2472737,52.8647969],[31.2416836,52.8637051],[31.2383473,52.8634691],[31.2295818,52.8643111],[31.2256544,52.8649729],[31.2235737,52.8647709],[31.2248719,52.8621153],[31.2249577,52.8597963],[31.2238955,52.8586303],[31.2246358,52.8585396],[31.2247753,52.8582352],[31.2234766,52.8548742],[31.2051691,52.8441784],[31.2010995,52.8427124],[31.1936397,52.8411818],[31.1906862,52.8436906],[31.1881792,52.8443896],[31.1812956,52.844061],[31.1803883,52.8534404],[31.1624302,52.8528941],[31.1565331,52.8561354],[31.1501601,52.8583639],[31.1386588,52.8562132],[31.1452443,52.8519159],[31.1444485,52.8517114],[31.1424422,52.852599],[31.1406612,52.8528517],[31.1345887,52.8531432],[31.132164,52.8534477],[31.1303011,52.8541531],[31.1284879,52.8542243],[31.127415,52.854451],[31.1232054,52.8567128],[31.1224476,52.8577485],[31.1210957,52.8579493],[31.1168003,52.8595113],[31.1131847,52.8603534],[31.1123264,52.8610077],[31.1125878,52.8618683],[31.1105025,52.8626918],[31.1105883,52.8631258],[31.1101913,52.8636439],[31.1093974,52.863333],[31.1084235,52.8632417],[31.1081857,52.8630664],[31.1078138,52.8621473],[31.1088366,52.8619341],[31.1089385,52.8617811],[31.1086969,52.8614175],[31.1078364,52.8607717],[31.1066056,52.8609523],[31.1059557,52.8604044],[31.1043409,52.8600285],[31.1030044,52.8600652],[31.102333,52.8597126],[31.1024417,52.8594068],[31.103635,52.8589116],[31.1038174,52.8587043],[31.1033775,52.8581277],[31.1023583,52.8577132],[31.1019077,52.8567544],[31.1009743,52.8558345],[31.1004378,52.8543509],[31.0991074,52.8542732],[31.0991396,52.8540335],[31.1001803,52.8533662],[31.1004056,52.8533791],[31.1006309,52.853865],[31.1009313,52.8539557],[31.1017682,52.8537679],[31.101854,52.8535217],[31.1015529,52.8525867],[31.1015903,52.8521778],[31.1009692,52.8518929],[31.1006142,52.8510018],[31.1003714,52.8510272],[31.1001379,52.8513599],[31.099853,52.8513656],[31.0996429,52.8511202],[31.099839,52.8506492],[31.0990965,52.8505167],[31.099302,52.8501614],[31.0992273,52.8499583],[31.0985594,52.8501585],[31.0982279,52.8498963],[31.09834,52.8496537],[31.0976675,52.8494535],[31.0977329,52.8490474],[31.0983867,52.8490107],[31.0984427,52.8487061],[31.0983867,52.8485764],[31.0970277,52.8482718],[31.0970837,52.84797],[31.0978403,52.8479869],[31.097887,52.847609],[31.0968409,52.8471944],[31.096514,52.8467008],[31.0957201,52.8463765],[31.0949635,52.84632],[31.0933057,52.8470167],[31.0922783,52.8471041],[31.0916105,52.8475892],[31.0911575,52.8476118],[31.0908399,52.8472959],[31.0912509,52.8467347],[31.0911622,52.8465344],[31.0903636,52.8464554],[31.0889486,52.8468982],[31.0880239,52.8463229],[31.0877764,52.8459111],[31.0873701,52.8456798],[31.0884582,52.845567],[31.088561,52.8451806],[31.0877344,52.8447744],[31.0850305,52.8447603],[31.0849557,52.8449662],[31.0861513,52.8452652],[31.0860625,52.8454626],[31.0851612,52.8454372],[31.0843813,52.8450536],[31.0838723,52.8451354],[31.0834006,52.8456516],[31.08348,52.8458095],[31.0840498,52.8457785],[31.0841572,52.8460916],[31.0838536,52.8463652],[31.0833633,52.8462298],[31.082943,52.8458124],[31.08341,52.8447941],[31.0833072,52.8446926],[31.0827702,52.8447406],[31.0829196,52.8450424],[31.0817008,52.8449972],[31.0822145,52.8455557],[31.0816307,52.8459759],[31.081145,52.8459816],[31.0799121,52.8455106],[31.079249,52.845739],[31.0786045,52.8451044],[31.0785018,52.84445],[31.077848,52.8434431],[31.0789875,52.8433049],[31.0791696,52.8430284],[31.0788474,52.8428],[31.0766105,52.8424248],[31.0755223,52.8420638],[31.075102,52.8414375],[31.0740653,52.8411442],[31.0754009,52.8402246],[31.0754663,52.8399115],[31.0745183,52.8391103],[31.0747331,52.8387577],[31.0734629,52.8384954],[31.0727203,52.8379876],[31.0724261,52.8375842],[31.0719124,52.8375503],[31.0709131,52.838659],[31.0706235,52.8387239],[31.0702546,52.8385123],[31.069853,52.837776],[31.0686575,52.8377139],[31.0680083,52.8374629],[31.0670136,52.8376096],[31.0669109,52.8373698],[31.0674199,52.8370397],[31.0664952,52.8368394],[31.0653604,52.8369777],[31.0644218,52.8366419],[31.0639501,52.8361821],[31.0632169,52.8358661],[31.062834,52.8360918],[31.0632683,52.8363429],[31.0633196,52.8365545],[31.0625584,52.8368338],[31.0628947,52.8370397],[31.0635018,52.8368027],[31.063768,52.8368958],[31.0632729,52.8374149],[31.0629274,52.8374544],[31.0609706,52.8367407],[31.0597424,52.8367717],[31.0588785,52.8370482],[31.0585095,52.8379819],[31.0574448,52.8378014],[31.0567209,52.8383035],[31.0561419,52.8383064],[31.0554367,52.8375842],[31.0537602,52.8369692],[31.0528635,52.8359113],[31.0515139,52.8355614],[31.0515513,52.8349126],[31.0512244,52.8346305],[31.0506873,52.8344781],[31.0497953,52.8346333],[31.0495105,52.8345232],[31.0496039,52.8340972],[31.0500755,52.8335612],[31.0494684,52.8328051],[31.0491509,52.8319841],[31.0487352,52.8317527],[31.0473342,52.8314395],[31.0476518,52.831211],[31.0490995,52.8311658],[31.0492022,52.8310417],[31.0490995,52.8308555],[31.0488053,52.8304915],[31.0477872,52.8302319],[31.047423,52.8292246],[31.0464983,52.8290074],[31.046475,52.8287139],[31.0466431,52.8285475],[31.0462928,52.8279662],[31.0463909,52.82721],[31.0456297,52.8273257],[31.0453542,52.827179],[31.0456857,52.8268742],[31.046942,52.8269024],[31.0470494,52.8260644],[31.046022,52.8252178],[31.0453028,52.8249864],[31.0458679,52.8245434],[31.0452841,52.8242273],[31.0454149,52.8239734],[31.0453075,52.8238323],[31.0442567,52.8238633],[31.0439786,52.824374],[31.0433349,52.8244907],[31.0429272,52.8248278],[31.042541,52.8247889],[31.0420045,52.8240887],[31.041275,52.8241406],[31.0408887,52.824361],[31.0403952,52.8243351],[31.0403523,52.8239591],[31.0406741,52.8234793],[31.039494,52.823207],[31.0384855,52.8231811],[31.0370907,52.8238294],[31.0367688,52.8237127],[31.0373053,52.8231033],[31.036168,52.8228958],[31.0356745,52.8236609],[31.0351166,52.8237775],[31.0339579,52.8224939],[31.0343227,52.8223123],[31.0343227,52.8221438],[31.0287008,52.8218066],[31.0287222,52.8220919],[31.0289797,52.8223123],[31.0289368,52.8225457],[31.0286793,52.8226495],[31.0279927,52.8225587],[31.028057,52.8221049],[31.0282287,52.8219752],[31.0276708,52.8216251],[31.0256752,52.8221956],[31.0254607,52.8221049],[31.0255894,52.8217029],[31.0254821,52.8215603],[31.0246023,52.8215603],[31.0243878,52.8217418],[31.024538,52.8222216],[31.024023,52.8222345],[31.0237655,52.8217807],[31.0234865,52.8217677],[31.0232505,52.8220919],[31.0230359,52.822053],[31.0229072,52.821664],[31.0226926,52.8216381],[31.02192,52.8222945],[31.0194937,52.8218959],[31.0194525,52.8215603],[31.0200962,52.8213398],[31.0200533,52.8211064],[31.0186371,52.8210157],[31.0175857,52.8213528],[31.0176286,52.8211713],[31.017414,52.820873],[31.0159334,52.8209119],[31.0157618,52.8205359],[31.0159549,52.8198616],[31.0158476,52.81968],[31.0154399,52.8197319],[31.0149464,52.8201858],[31.0144529,52.8203025],[31.0135516,52.8201339],[31.0132727,52.81968],[31.0121784,52.8194985],[31.0117277,52.8198616],[31.0112986,52.8199005],[31.0102686,52.8194077],[31.0083374,52.8192391],[31.0084018,52.8189279],[31.0082516,52.8185389],[31.0077152,52.8184222],[31.0074577,52.8185],[31.00705,52.8189668],[31.0066852,52.8190317],[31.0049042,52.8188631],[31.003724,52.8190965],[31.0032734,52.819304],[31.0028872,52.8197967],[31.0025224,52.8199264],[31.0021362,52.8205618],[31.0017714,52.8207563],[31.0013208,52.8207044],[31.0005698,52.8195893],[30.9978875,52.8194337],[30.9976944,52.8190187],[30.9988746,52.8184351],[30.9985796,52.8179715],[30.9974423,52.8172324],[30.9973296,52.816853],[30.9951839,52.8151023],[30.9942663,52.8152586],[30.9941482,52.8142535],[30.9945989,52.8138644],[30.9942984,52.8135078],[30.9935474,52.8134624],[30.9925389,52.8128269],[30.9917664,52.8126064],[30.9910798,52.8126064],[30.9904146,52.8129307],[30.9900713,52.8135661],[30.9888911,52.8135791],[30.9886551,52.8128788],[30.9867895,52.8122536],[30.9818315,52.813216],[30.9780348,52.815029],[30.9744182,52.8155335],[30.9730878,52.8148664],[30.9696049,52.8140944],[30.9684631,52.8135748],[30.9667311,52.8115701],[30.9654584,52.8103959],[30.9617969,52.807831],[30.9607896,52.8070146],[30.9601811,52.8062162],[30.9599,52.8052074],[30.9602174,52.8034874],[30.9610843,52.8015344],[30.9608214,52.8008213],[30.9590116,52.7989045],[30.9537259,52.7957093],[30.953159,52.7947782],[30.9523702,52.7922124],[30.9513851,52.791081],[30.9500653,52.7904787],[30.9484631,52.7902059],[30.9466971,52.7903293],[30.9454813,52.7906045],[30.9445277,52.7905015],[30.9440641,52.79026],[30.9436811,52.7895304],[30.943366,52.7882935],[30.9409118,52.7845623],[30.9405672,52.7838042],[30.9405764,52.7833641],[30.9408681,52.782924],[30.94136,52.7826104],[30.9419528,52.7825417],[30.94488,52.7834456],[30.9465223,52.7835983],[30.9484875,52.7834825],[30.9506114,52.7830522],[30.9519282,52.7826464],[30.9529606,52.7820721],[30.9539123,52.7812538],[30.9546555,52.7797683],[30.9544921,52.7791652],[30.9540664,52.7786353],[30.951589,52.776619],[30.9514452,52.776346],[30.9518259,52.776073],[30.9532607,52.775797],[30.9557854,52.7757044],[30.9567117,52.7753838],[30.9594785,52.7712227],[30.9595639,52.7703863],[30.9594129,52.7697142],[30.9574985,52.768241],[30.9512758,52.7683708],[30.9490013,52.7675659],[30.9487867,52.7666571],[30.951147,52.7627879],[30.9501669,52.7613945],[30.9482288,52.7615154],[30.9459114,52.76432],[30.9444093,52.7671504],[30.941534,52.7683968],[30.9387445,52.768241],[30.9368133,52.7662416],[30.9362125,52.7642161],[30.937936,52.753395],[30.9364056,52.750373],[30.9338522,52.7473467],[30.9337449,52.7465544],[30.9341955,52.7459179],[30.9355902,52.7455672],[30.9392166,52.7463076],[30.9405255,52.7458789],[30.9411692,52.7446319],[30.938015,52.7436057],[30.9376502,52.7421768],[30.9395385,52.7415922],[30.9426927,52.7430991],[30.944581,52.7428393],[30.94486,52.7415013],[30.9436798,52.7402801],[30.9406757,52.7397345],[30.9387016,52.738981],[30.9386158,52.7377987],[30.9405899,52.7363566],[30.9426713,52.735772],[30.9455037,52.7354861],[30.9481645,52.7360383],[30.9502098,52.7369891],[30.9496021,52.7398644],[30.9517479,52.7420858],[30.9543941,52.743017],[30.955903,52.7425439],[30.9560677,52.7418743],[30.9559723,52.7412834],[30.9546497,52.7367918],[30.9545429,52.7360355],[30.9548264,52.7352398],[30.9556618,52.7340356],[30.9572888,52.7328117],[30.9612478,52.7315392],[30.9624724,52.7305129],[30.9628609,52.7299839],[30.9628422,52.7295211],[30.9622381,52.7289796],[30.9598133,52.7276735],[30.9584235,52.7271763],[30.9571964,52.726807],[30.9544133,52.7266967],[30.9524669,52.7262442],[30.9519064,52.7259121],[30.9516711,52.7254619],[30.9518642,52.7246995],[30.9538273,52.7222831],[30.9543518,52.7218481],[30.9551365,52.7214721],[30.9566995,52.7211112],[30.9613245,52.7223817],[30.9630114,52.7233241],[30.9637534,52.7241169],[30.9636936,52.7249874],[30.9624428,52.7259233],[30.9621102,52.7265339],[30.9620264,52.7269965],[30.962567,52.7277194],[30.9634793,52.7277797],[30.9653289,52.726885],[30.9662877,52.7263114],[30.9668888,52.7257574],[30.9672047,52.7252083],[30.9672279,52.7243638],[30.9669167,52.723727],[30.9671061,52.7220321],[30.9670453,52.7210993],[30.9667547,52.7203572],[30.9667568,52.7194475],[30.9668999,52.7184709],[30.9679755,52.7161725],[30.967967,52.7155447],[30.9671089,52.7146316],[30.9654041,52.7135535],[30.963182,52.7132274],[30.9624954,52.7128505],[30.9622486,52.7123175],[30.9615405,52.7120445],[30.9606393,52.7127205],[30.9601887,52.7137864],[30.9594806,52.7140594],[30.9560259,52.7142154],[30.9545239,52.7127595],[30.9545882,52.7119795],[30.955468,52.7106795],[30.9550603,52.70988],[30.9545024,52.7096005],[30.9534295,52.7097825],[30.95235,52.71034],[30.95098,52.71189],[30.9509519,52.712765],[30.9516229,52.714369],[30.9505435,52.7150408],[30.94977,52.71523],[30.9464021,52.7152228],[30.9450855,52.7159125]]]}}]}
