{"type":"FeatureCollection","features":[{"type":"Feature","properties":{"name":"Barnim","admin":"landkreis","source":"© OpenStreetMap contributors, ODbL 1.0","osm_relation":62553},"geometry":{"type":"Polygon","coordinates":[[[13.5175627,52.9885354],[13.5204638,52.9882758],[13.5217555,52.9878224],[13.5230001,52.9878586],[13.5240356,52.9882618],[13.5251941,52.9893714],[13.5265428,52.9899023],[13.5286392,52.9903117],[13.5293365,52.989777],[13.5305326,52.9895087],[13.536114,52.9890621],[13.5373928,52.9886797],[13.5405246,52.9885034],[13.5412101,52.9911274],[13.5402628,52.9923783],[13.5408046,52.9924829],[13.5412692,52.9924797],[13.541149,52.9918991],[13.5422036,52.9906179],[13.5538777,52.9886713],[13.5585919,52.9888425],[13.5648941,52.989425],[13.5669411,52.9897531],[13.5712783,52.9910309],[13.5738494,52.9913954],[13.5719761,52.9956004],[13.5734192,52.9961651],[13.5777933,52.9962878],[13.5784478,52.9960999],[13.577641,52.9954212],[13.5771979,52.9946037],[13.577053,52.9939618],[13.5773824,52.993214],[13.5780819,52.9925695],[13.5799187,52.9921394],[13.581395,52.9925243],[13.5825387,52.9931836],[13.5877787,52.9939644],[13.5896659,52.9944958],[13.590905,52.9944952],[13.59167,52.9947574],[13.5926459,52.9965085],[13.5942186,52.9961806],[13.5945174,52.9964763],[13.5969572,52.9959184],[13.5974196,52.9961444],[13.5995289,52.9965041],[13.5984485,52.9967385],[13.5972844,52.9972389],[13.5964433,52.9978401],[13.5958213,52.9985303],[13.5956998,52.9991521],[13.5959701,52.9994756],[13.5965862,52.9993949],[13.5966302,52.9990685],[13.5972883,52.9981741],[13.5980032,52.9976309],[13.599373,52.9974051],[13.6020169,52.9980848],[13.6040043,52.9988558],[13.6059283,52.998624],[13.6080266,52.9994791],[13.6082993,52.9998375],[13.6085496,53.0009543],[13.6089557,53.0015172],[13.6099995,53.001651],[13.6121718,53.0004033],[13.6131341,52.9996261],[13.613972,52.9996435],[13.6150578,52.9998727],[13.6171167,53.0006445],[13.6172909,53.0008939],[13.6186723,53.0014223],[13.6188955,53.0020338],[13.6205166,53.0030145],[13.6213342,53.0029176],[13.6225712,53.0033328],[13.6284903,53.0023521],[13.6455288,53.0007276],[13.664742,53.0010924],[13.6753893,53.0010892],[13.6756435,53.002241],[13.6887445,53.0098454],[13.6904445,53.0109168],[13.6913409,53.0116696],[13.6893732,53.0145498],[13.6870397,53.0141573],[13.6868487,53.0144039],[13.6839015,53.0143413],[13.6818877,53.0140674],[13.680102,53.0141634],[13.6732617,53.013468],[13.6688146,53.0141534],[13.6667708,53.0136338],[13.6657129,53.0136513],[13.6645167,53.0158549],[13.6642087,53.016936],[13.6646765,53.017735],[13.6666667,53.0189696],[13.6753088,53.025396],[13.6766059,53.0256418],[13.6779481,53.0255315],[13.6787899,53.025859],[13.6792538,53.0261807],[13.6793168,53.0281438],[13.6799906,53.0292157],[13.6805125,53.0294866],[13.6817793,53.0293917],[13.6814084,53.0305585],[13.6791088,53.0341462],[13.6767302,53.034521],[13.676286,53.0371306],[13.6782741,53.0370016],[13.6816848,53.0388292],[13.6815464,53.0400735],[13.6818522,53.0408199],[13.682071,53.0425022],[13.6848863,53.0421526],[13.6863111,53.0421855],[13.6888219,53.0417553],[13.6941442,53.0401032],[13.6960469,53.0390047],[13.6985016,53.0381078],[13.7027895,53.0374241],[13.7040705,53.0375151],[13.7060435,53.0364777],[13.709171,53.0354539],[13.7100969,53.0348068],[13.7111237,53.0346469],[13.7119111,53.035253],[13.7120588,53.0356877],[13.7128123,53.0358692],[13.7128444,53.0366465],[13.7126006,53.0371006],[13.7127616,53.037507],[13.7136467,53.0378779],[13.7148537,53.0380553],[13.7154813,53.0385327],[13.7156715,53.0389077],[13.7171711,53.0397971],[13.7175115,53.0398398],[13.71848,53.0395132],[13.7192632,53.0395842],[13.723485,53.0404164],[13.7260117,53.0397681],[13.7271811,53.0400229],[13.7295736,53.0411743],[13.7298604,53.0411138],[13.7305932,53.0403936],[13.7309493,53.0402623],[13.7319557,53.0401549],[13.7326962,53.0403508],[13.7332324,53.0420385],[13.7332754,53.04269],[13.7336959,53.0436102],[13.7341302,53.0442511],[13.7346057,53.0444316],[13.7364318,53.0440488],[13.7381892,53.0431738],[13.7395539,53.0430038],[13.7419335,53.0430319],[13.7442939,53.0421159],[13.7452166,53.0419095],[13.7452187,53.0416815],[13.7457369,53.0410806],[13.746107,53.0409032],[13.7463489,53.0403259],[13.7473742,53.04036],[13.7497557,53.0398445],[13.7506362,53.0400616],[13.7519886,53.0408069],[13.7523311,53.0412525],[13.7527911,53.041522],[13.7547035,53.0422266],[13.7578634,53.0429027],[13.7622655,53.0432683],[13.7664498,53.044352],[13.7689174,53.0444939],[13.7711877,53.0452163],[13.7773033,53.0453708],[13.77864,53.0456078],[13.7814456,53.0464927],[13.7830843,53.0466377],[13.7869627,53.0465917],[13.7877756,53.0468207],[13.7896653,53.0485485],[13.7918139,53.0490215],[13.7942786,53.0488695],[13.7960663,53.0489795],[13.798979,53.047814],[13.8015667,53.0482745],[13.8037619,53.0482829],[13.8051919,53.0480377],[13.8101732,53.045981],[13.8124941,53.0456553],[13.8158897,53.0470278],[13.8172061,53.0478509],[13.8193959,53.0502229],[13.8192565,53.0506447],[13.8191535,53.0529676],[13.8187297,53.0538117],[13.8156172,53.0572552],[13.8159949,53.0573112],[13.8164305,53.057704],[13.8190215,53.0580651],[13.8220652,53.057667],[13.8255381,53.0578979],[13.8273362,53.0578289],[13.8303017,53.0571589],[13.8324678,53.0573395],[13.8336727,53.0572808],[13.8359343,53.056634],[13.8378602,53.0568745],[13.8390017,53.0566289],[13.841778,53.057403],[13.844291,53.0586826],[13.854639,53.0585794],[13.8614196,53.0574272],[13.8643765,53.056222],[13.866386,53.0558912],[13.8722708,53.055385],[13.8749058,53.0545596],[13.8787005,53.0543229],[13.88551,53.0530256],[13.8850293,53.0520489],[13.8843525,53.0499324],[13.8844201,53.0491237],[13.8839727,53.0483343],[13.8835071,53.0479744],[13.8832605,53.0474031],[13.8808849,53.0474178],[13.8791651,53.0462594],[13.8784098,53.0454757],[13.8762029,53.0443109],[13.8754102,53.0436469],[13.8726999,53.040378],[13.8716149,53.0403812],[13.8703421,53.0406372],[13.8694582,53.0402212],[13.8656678,53.0397792],[13.8626116,53.0398925],[13.8611036,53.0395184],[13.8597792,53.0385798],[13.8587996,53.0384127],[13.8588393,53.0353712],[13.8565176,53.0353944],[13.8574735,53.0335351],[13.8533134,53.0322921],[13.8539739,53.0309971],[13.8542439,53.0292963],[13.8538129,53.0272184],[13.853616,53.0268515],[13.852998,53.0263872],[13.8519117,53.0246614],[13.8525313,53.02409],[13.8551357,53.0239683],[13.8554077,53.0233608],[13.8552189,53.0231597],[13.8535028,53.0227596],[13.85222,53.0197657],[13.8530619,53.0175619],[13.8544759,53.0177472],[13.8545929,53.0175368],[13.8523322,53.0166005],[13.8515321,53.0166817],[13.8511736,53.0169464],[13.8501838,53.0171545],[13.8494811,53.0171987],[13.8463949,53.0162361],[13.8441762,53.0168521],[13.8436854,53.0165191],[13.8389743,53.0168944],[13.8389647,53.0164923],[13.838726,53.0161015],[13.8382201,53.0158698],[13.8369895,53.0162574],[13.8365786,53.016644],[13.8371766,53.0168134],[13.837321,53.0177141],[13.8368162,53.0179351],[13.8343674,53.0180665],[13.8337912,53.0182353],[13.8333653,53.0189053],[13.8317746,53.0198702],[13.8303285,53.0204686],[13.8284397,53.020509],[13.8234535,53.0018111],[13.8227373,52.9966608],[13.8212808,52.9899971],[13.8208706,52.9874421],[13.8247513,52.9886422],[13.8265239,52.9885601],[13.841244,52.9869989],[13.8445677,52.9859779],[13.8500716,52.9850181],[13.8513865,52.9854382],[13.8519764,52.9843173],[13.8520457,52.9835176],[13.8532559,52.9823046],[13.8542923,52.9800573],[13.8560186,52.9797976],[13.8570056,52.9767627],[13.8571108,52.9759952],[13.8580457,52.9749679],[13.8620151,52.9735865],[13.8632902,52.9739098],[13.866859,52.974297],[13.868112,52.9746821],[13.8699176,52.9747626],[13.8752104,52.9762761],[13.881361,52.9775826],[13.8817781,52.9775676],[13.8815465,52.9762487],[13.8865159,52.9768375],[13.8877309,52.9767094],[13.8878655,52.9764521],[13.8877756,52.9760529],[13.8872712,52.9747443],[13.9002803,52.9733063],[13.9011995,52.9763248],[13.9016234,52.9761857],[13.9029744,52.9767632],[13.9055831,52.9772116],[13.9067438,52.9772279],[13.9089703,52.9777117],[13.9092928,52.9776656],[13.9103681,52.9767764],[13.9112556,52.9771422],[13.9117798,52.9767628],[13.9126014,52.9771627],[13.9122186,52.9776718],[13.912486,52.9778385],[13.911554,52.9786631],[13.9104959,52.9782681],[13.9094571,52.9795845],[13.9098272,52.980009],[13.9077717,52.9806542],[13.9057678,52.9810481],[13.9049435,52.9813871],[13.9028988,52.982408],[13.9030128,52.9828423],[13.9065626,52.9824917],[13.910952,52.9825593],[13.9122581,52.9835027],[13.9125611,52.9833337],[13.9127537,52.9827217],[13.9123008,52.9825045],[13.9124835,52.9821613],[13.9123677,52.9818636],[13.9125644,52.9811483],[13.9144885,52.9824573],[13.9182619,52.980483],[13.9236414,52.9818002],[13.9304446,52.9831246],[13.9310504,52.9833539],[13.9304804,52.9830606],[13.9269113,52.9823774],[13.9269778,52.9790785],[13.9280685,52.9794296],[13.9293336,52.9796111],[13.9306745,52.9797521],[13.9312478,52.9797342],[13.9312577,52.9795897],[13.9317847,52.9801149],[13.9319326,52.9798184],[13.9343441,52.979428],[13.93389,52.9783051],[13.9341306,52.9782637],[13.9348902,52.9770174],[13.935361,52.9768445],[13.9353126,52.976115],[13.9364232,52.9765028],[13.9375496,52.976678],[13.9376101,52.977746],[13.9377604,52.9777573],[13.938711,52.9766648],[13.9387942,52.9761886],[13.9392119,52.9761756],[13.9399294,52.9747787],[13.9387841,52.9745799],[13.9392722,52.9732143],[13.9367781,52.9727794],[13.9371273,52.9722513],[13.9376929,52.9705743],[13.9380505,52.9701531],[13.9391866,52.9691771],[13.939174,52.9690089],[13.941073,52.9676254],[13.942279,52.9662691],[13.9431198,52.9657693],[13.9440577,52.9661],[13.9452354,52.9656706],[13.9465527,52.9650234],[13.9452821,52.9647089],[13.9489352,52.9630944],[13.9514671,52.9621771],[13.9513568,52.9620852],[13.9531442,52.9613504],[13.9507179,52.9608435],[13.9498929,52.9610051],[13.9494545,52.9608771],[13.9479279,52.9611734],[13.9471928,52.9609304],[13.9471104,52.9607001],[13.9458892,52.9600904],[13.9455779,52.960057],[13.943997,52.9590453],[13.9430544,52.9589681],[13.9416096,52.958423],[13.9412389,52.9576864],[13.9416299,52.9574092],[13.9420621,52.9574091],[13.942129,52.9568221],[13.942405,52.9566067],[13.9421891,52.9560356],[13.9416708,52.9555811],[13.9421453,52.9553546],[13.9439674,52.955101],[13.9492439,52.9551531],[13.9499474,52.9556029],[13.9502633,52.9562024],[13.9506078,52.9564773],[13.9517535,52.9569697],[13.9521105,52.9568681],[13.950779,52.9556677],[13.952725,52.9550625],[13.9548932,52.9550644],[13.9555993,52.9547107],[13.9570702,52.9552881],[13.9582399,52.9559696],[13.9598596,52.9554678],[13.9635782,52.9583872],[13.9629584,52.9592319],[13.9628222,52.9600566],[13.9626655,52.9601852],[13.9650674,52.9620916],[13.9659386,52.9623456],[13.9668066,52.9623365],[13.968973,52.9638662],[13.9693954,52.9637524],[13.9702196,52.9641086],[13.9713888,52.9640743],[13.9734327,52.9648342],[13.9750066,52.9660006],[13.9761163,52.9671017],[13.9774316,52.9670765],[13.97782,52.9672774],[13.9797855,52.9673117],[13.9800795,52.9670765],[13.9813809,52.9669801],[13.981487,52.9674715],[13.9836527,52.9669066],[13.985019,52.9656509],[13.9851055,52.9647018],[13.9845952,52.9635494],[13.9846124,52.9632748],[13.9887033,52.962531],[13.9896245,52.9619787],[13.9907321,52.9616489],[13.9911741,52.9613122],[13.9911784,52.9598031],[13.9885295,52.9595459],[13.988346,52.9597572],[13.986033,52.9588768],[13.9850355,52.9584146],[13.9842605,52.9577731],[13.9835384,52.9575385],[13.9832198,52.9570195],[13.982743,52.955551],[13.9816512,52.9552085],[13.980883,52.9552246],[13.9804399,52.954979],[13.9807511,52.9540244],[13.9819463,52.9529397],[13.9816147,52.9528337],[13.9819723,52.9521402],[13.9818004,52.9513587],[13.9818807,52.9511312],[13.9811804,52.9505295],[13.9788289,52.9497336],[13.9782579,52.9489881],[13.9789329,52.9479362],[13.9801152,52.9469709],[13.9809244,52.945286],[13.981964,52.9444951],[13.9823229,52.9436431],[13.9836715,52.9424083],[13.9857432,52.9414979],[13.986461,52.9410117],[13.9865489,52.9407214],[13.9884469,52.9393623],[13.9896936,52.937546],[13.9914743,52.93682],[13.9943148,52.9364001],[13.9953877,52.9360192],[13.9955767,52.9352982],[13.9954088,52.9347687],[13.9945387,52.9342676],[13.9934765,52.9337813],[13.9911935,52.9335834],[13.990582,52.9332804],[13.9904811,52.9329975],[13.990583,52.9326839],[13.9917256,52.9319007],[13.9944303,52.9335175],[13.9957639,52.9335588],[13.9974724,52.9340434],[13.9985921,52.9332866],[13.9988538,52.9333998],[13.9995566,52.9328423],[14.0014749,52.931948],[14.0014974,52.9317714],[14.004921,52.9327996],[14.0062975,52.9328268],[14.0098118,52.9316788],[14.0116576,52.9328113],[14.0143109,52.9316136],[14.0153966,52.9333616],[14.0152668,52.9336578],[14.0157979,52.9345773],[14.0175907,52.936882],[14.0194704,52.9389207],[14.0198845,52.9396087],[14.0204134,52.9414611],[14.0221472,52.9439651],[14.022747,52.9456344],[14.0231295,52.9471811],[14.0229615,52.9492397],[14.0232469,52.9494343],[14.0235111,52.9506289],[14.0241535,52.9517297],[14.0257178,52.9534077],[14.0273389,52.9565231],[14.0306541,52.9564003],[14.0323847,52.9560448],[14.0427439,52.9554584],[14.0447506,52.9553865],[14.0475884,52.9555396],[14.0477397,52.9553877],[14.0495019,52.9554315],[14.0495186,52.951232],[14.049779,52.9502781],[14.0567799,52.9494013],[14.0636949,52.9490154],[14.0705804,52.9491136],[14.0739457,52.9496426],[14.0727942,52.9512888],[14.0720712,52.9542179],[14.0720472,52.9553147],[14.0725298,52.9554111],[14.0728982,52.9587546],[14.0741598,52.9592553],[14.0764018,52.9598412],[14.0781522,52.9600697],[14.0799148,52.9605781],[14.0814025,52.9606911],[14.0818413,52.9610033],[14.0820585,52.9608474],[14.082572,52.9609011],[14.0829452,52.9612037],[14.0829226,52.9613468],[14.0834649,52.9615586],[14.0840039,52.961553],[14.0839763,52.9617375],[14.0844248,52.9619487],[14.0850342,52.9619244],[14.0857615,52.9621795],[14.0876159,52.9620534],[14.0905288,52.9614731],[14.0914173,52.9609103],[14.0918591,52.9609189],[14.092173,52.9606545],[14.0932433,52.9604376],[14.0941748,52.9607771],[14.0966834,52.9610204],[14.098207,52.9609192],[14.0990071,52.9605805],[14.0992541,52.9607815],[14.1014767,52.9609797],[14.1015994,52.96115],[14.1032281,52.9607946],[14.1047393,52.9608332],[14.1050548,52.9606857],[14.1052011,52.9608263],[14.1054045,52.9606692],[14.1056703,52.9607733],[14.1059064,52.9606196],[14.106812,52.9605738],[14.1073191,52.9606356],[14.1081025,52.9623143],[14.1090268,52.9631266],[14.1105257,52.9652648],[14.1126442,52.9649117],[14.1201079,52.963157],[14.1204339,52.9636246],[14.1207949,52.9638065],[14.1217196,52.9638317],[14.1217105,52.9643268],[14.1221558,52.9647499],[14.1234087,52.9651702],[14.1239009,52.9663158],[14.1254698,52.9656133],[14.1252383,52.9650161],[14.1284236,52.9637233],[14.1336761,52.9627727],[14.1359957,52.962848],[14.1383406,52.9626031],[14.1393256,52.9630906],[14.1417242,52.9628588],[14.1436669,52.9613565],[14.1431961,52.9579641],[14.1409184,52.9549757],[14.1400695,52.9533125],[14.1390322,52.9523319],[14.1388469,52.9518793],[14.139232,52.9509842],[14.1403951,52.9503079],[14.1412415,52.9488905],[14.1426972,52.9474046],[14.1441339,52.9449012],[14.1443219,52.9440943],[14.1443072,52.9433838],[14.1440966,52.9427179],[14.1437111,52.9419081],[14.1425889,52.9404406],[14.1422297,52.9390053],[14.1421973,52.9367169],[14.1428108,52.9352972],[14.1426417,52.9331612],[14.1432878,52.9320867],[14.1445951,52.9306232],[14.1456989,52.9278452],[14.1457428,52.9272809],[14.1452518,52.925694],[14.1460846,52.9240314],[14.1467571,52.9206624],[14.1471558,52.920103],[14.1487033,52.9188349],[14.1498907,52.9170914],[14.150255,52.9161432],[14.1505369,52.9145888],[14.1509368,52.9135975],[14.1511496,52.91133],[14.1516731,52.9099266],[14.1520534,52.9076368],[14.1521301,52.9059607],[14.1518047,52.9042037],[14.1522109,52.9009045],[14.1539239,52.8973621],[14.1549456,52.8965231],[14.1560181,52.8960516],[14.1542775,52.8951569],[14.1518985,52.8944748],[14.1492151,52.8938718],[14.1489664,52.8941582],[14.1414814,52.891272],[14.1315528,52.8895911],[14.1312087,52.8917319],[14.1292793,52.8979952],[14.1274582,52.9017662],[14.1271075,52.9029418],[14.1255436,52.9026732],[14.1252091,52.9033751],[14.1221301,52.9030486],[14.1179829,52.9029071],[14.1163379,52.9021842],[14.1106315,52.9026038],[14.1032288,52.901957],[14.0953467,52.9027539],[14.0943414,52.9011081],[14.0928931,52.897448],[14.0895124,52.8956903],[14.0902313,52.8953291],[14.0895245,52.8951115],[14.0888159,52.8954025],[14.0849579,52.8925625],[14.0854071,52.8923342],[14.0811554,52.8909081],[14.0811115,52.8919206],[14.0807362,52.892718],[14.0795617,52.8932967],[14.0785417,52.8933377],[14.0782922,52.8936104],[14.0784348,52.8946039],[14.0788192,52.8948137],[14.0793531,52.8957694],[14.0797719,52.8970373],[14.0786743,52.8981653],[14.0810873,52.899195],[14.0796629,52.9000152],[14.0789548,52.9007892],[14.0746768,52.9003787],[14.0728696,52.8992125],[14.0729931,52.8991547],[14.0721751,52.8984377],[14.0708508,52.8967739],[14.0705989,52.8968374],[14.0698887,52.8960496],[14.0657978,52.8905713],[14.0660749,52.8905008],[14.0657126,52.8900361],[14.0654442,52.8901102],[14.0643645,52.8886991],[14.0647672,52.888017],[14.0628522,52.8854121],[14.0598561,52.8859388],[14.0588444,52.8843063],[14.0574612,52.8843586],[14.0576347,52.8826676],[14.0590435,52.8824546],[14.0607596,52.879705],[14.0611468,52.8798823],[14.0612923,52.8784403],[14.0609769,52.8778318],[14.0580905,52.8771123],[14.0588248,52.8746327],[14.0600943,52.8727699],[14.0587425,52.8724961],[14.0598402,52.8707442],[14.0613847,52.8690864],[14.0630605,52.869659],[14.0651615,52.8696009],[14.0661002,52.86983],[14.0658852,52.8702799],[14.0662589,52.8706234],[14.0664372,52.8713636],[14.067342,52.8715603],[14.0700778,52.871584],[14.0747155,52.8727798],[14.0779484,52.8732707],[14.0809476,52.8732439],[14.0812949,52.8718948],[14.0812276,52.8713874],[14.0824751,52.8714351],[14.083441,52.8716966],[14.0840372,52.8714907],[14.0846968,52.8715033],[14.0856327,52.871731],[14.0857344,52.8710994],[14.0859018,52.8710497],[14.0870132,52.8710291],[14.0875628,52.8713455],[14.0876576,52.8711451],[14.0871963,52.8708697],[14.0858615,52.8706717],[14.0865905,52.868266],[14.0898819,52.8689779],[14.0908737,52.8688969],[14.0931938,52.8695328],[14.097929,52.8696814],[14.1063316,52.8692737],[14.1062077,52.8684314],[14.0970327,52.8684187],[14.0944535,52.8652439],[14.0945018,52.8604565],[14.095108,52.8586816],[14.0944803,52.8585132],[14.0955082,52.8572973],[14.0953749,52.8566623],[14.0955284,52.8561858],[14.0953873,52.8560553],[14.0942207,52.8563398],[14.0907064,52.8565392],[14.0898616,52.8564221],[14.0893348,52.8565212],[14.0883649,52.8571295],[14.0840626,52.856503],[14.0811948,52.8575752],[14.0804663,52.8575596],[14.0799454,52.8573364],[14.0796934,52.8569745],[14.0796454,52.8559216],[14.0788806,52.8553526],[14.0735173,52.8542913],[14.0719907,52.8533158],[14.0683524,52.8528466],[14.0674354,52.8530028],[14.064475,52.8542194],[14.0630699,52.8551933],[14.0606242,52.8555351],[14.0588981,52.8554602],[14.0572684,52.8549767],[14.0554642,52.8553144],[14.0546523,52.8551734],[14.0524976,52.8552424],[14.0513687,52.8549055],[14.0483817,52.8544144],[14.0388916,52.8499369],[14.0357233,52.8500661],[14.0342849,52.84933],[14.0317917,52.8502007],[14.0290714,52.8487539],[14.0277726,52.8483299],[14.0234054,52.8475475],[14.0207065,52.8466475],[14.0203616,52.8469656],[14.0218456,52.8476782],[14.0200657,52.8518832],[14.0202304,52.8521138],[14.0226502,52.8535958],[14.0229512,52.8540522],[14.0216332,52.8544536],[14.021432,52.8542667],[14.0198766,52.8538192],[14.0199776,52.8541362],[14.0206315,52.8547231],[14.0206275,52.8549261],[14.0203779,52.8554186],[14.0198033,52.8553862],[14.0199986,52.8556923],[14.0199761,52.8561286],[14.0198001,52.8563731],[14.0193581,52.8564344],[14.018127,52.8556868],[14.0177149,52.855662],[14.0174194,52.8560262],[14.0163009,52.8561211],[14.0162543,52.8554409],[14.0160375,52.8551296],[14.0154474,52.8548229],[14.0146256,52.85475],[14.0145682,52.8546127],[14.0158323,52.8537812],[14.0159293,52.8529303],[14.0163392,52.8528883],[14.0168604,52.8531854],[14.017009,52.8530361],[14.0160483,52.8525953],[14.0150394,52.8528773],[14.0125958,52.8527203],[14.0105881,52.8527933],[14.0100032,52.8524503],[14.0092983,52.8524653],[14.0068556,52.8536321],[14.0058178,52.8544591],[14.0065817,52.8548948],[14.0064052,52.8549806],[14.005072,52.8542234],[14.0048672,52.8543253],[14.0062303,52.8550904],[14.0061665,52.8551818],[14.0053368,52.854987],[14.0049589,52.8552769],[14.0043592,52.8549852],[14.0043007,52.8552161],[14.0040566,52.8553152],[14.0012886,52.8548922],[14.0006416,52.8549729],[14.0006121,52.8553152],[14.0004056,52.8553195],[13.9993188,52.8546975],[13.9991933,52.8547633],[13.9997383,52.8552019],[14.0008755,52.8556139],[14.0008133,52.8558623],[14.0003943,52.8562504],[14.000139,52.8563757],[13.9996728,52.8562517],[13.9995747,52.8563693],[14.002494,52.8567554],[14.0031701,52.8569207],[14.0042283,52.8574793],[14.00387,52.8577964],[14.0039381,52.8586032],[14.0043227,52.8588215],[14.0053237,52.8588293],[14.0048157,52.8594823],[14.0022655,52.8579062],[14.0010944,52.8573714],[13.9982029,52.8568067],[13.9975324,52.8565367],[13.9947864,52.8545294],[13.993937,52.8533784],[13.9910944,52.8522119],[13.9891917,52.8516291],[13.9889257,52.8517262],[13.9879526,52.8515775],[13.9849564,52.8505484],[13.9835799,52.8496342],[13.9826256,52.8486098],[13.9809651,52.846061],[13.981199,52.845794],[13.9812451,52.8449036],[13.9810048,52.8444403],[13.9804748,52.843837],[13.9786059,52.8429266],[13.9779916,52.8423176],[13.9780031,52.8421132],[13.9784374,52.8416512],[13.9793258,52.8412384],[13.9796916,52.8401704],[13.9796433,52.8389955],[13.979498,52.8386146],[13.9781955,52.8372417],[13.9778082,52.8362533],[13.9779621,52.8349843],[13.9786745,52.8340186],[13.9786541,52.833408],[13.9777561,52.8324753],[13.97715,52.8302039],[13.975458,52.8298367],[13.9756273,52.829015],[13.9755474,52.828544],[13.9752475,52.8280415],[13.9745884,52.8275148],[13.9756495,52.8258349],[13.9756851,52.8256276],[13.9751334,52.8251976],[13.9732887,52.824906],[13.9719982,52.8250189],[13.9711621,52.8252675],[13.9700787,52.8252953],[13.9679292,52.824785],[13.9671302,52.8243229],[13.9658733,52.8241362],[13.9655281,52.8243279],[13.9645042,52.825732],[13.9628923,52.8256856],[13.9602833,52.8273562],[13.9588054,52.8272831],[13.9555174,52.8279855],[13.9542957,52.8276964],[13.9548612,52.8257527],[13.9394432,52.8245611],[13.9412211,52.8218677],[13.9412168,52.8208391],[13.9410768,52.8208498],[13.9409159,52.8216233],[13.9410656,52.8217429],[13.9409009,52.8217763],[13.9407898,52.8221572],[13.9400721,52.8230055],[13.9389096,52.8241478],[13.9380009,52.8241718],[13.9370595,52.8228148],[13.9382348,52.823353],[13.9395292,52.8213335],[13.9405001,52.8216087],[13.9406144,52.8213231],[13.9402561,52.8212651],[13.9403215,52.8208971],[13.9398903,52.8208266],[13.9399562,52.820643],[13.9403537,52.8207146],[13.9414813,52.81912],[13.9399901,52.818836],[13.9401553,52.8184865],[13.9390792,52.8184936],[13.9381072,52.8179918],[13.938752,52.8171767],[13.9393764,52.8172539],[13.9399944,52.8156867],[13.9406778,52.8146064],[13.9398506,52.8144702],[13.9397694,52.8147762],[13.9369549,52.8137673],[13.9375268,52.8132225],[13.9362962,52.8128289],[13.9358981,52.8120462],[13.9374163,52.8120028],[13.9376459,52.8116617],[13.938679,52.8116526],[13.9403967,52.8105086],[13.9407443,52.8095806],[13.9407347,52.8079424],[13.9397165,52.8071512],[13.9369807,52.8068152],[13.9358969,52.8064284],[13.934685,52.8049998],[13.9324749,52.803111],[13.9306711,52.8010056],[13.9291454,52.7999114],[13.9271368,52.798228],[13.926387,52.7973341],[13.9242305,52.7956397],[13.9224046,52.7947683],[13.9213718,52.7944893],[13.9183362,52.7942833],[13.9122532,52.7942763],[13.9075009,52.7934236],[13.9024659,52.7920735],[13.9022341,52.7914734],[13.9025346,52.7910621],[13.9031611,52.7893901],[13.8911255,52.788956],[13.8701024,52.7878478],[13.8633335,52.7877154],[13.8638764,52.7847469],[13.8635052,52.7823491],[13.8668998,52.7821129],[13.8670082,52.7808358],[13.8686497,52.7805899],[13.8720743,52.7796041],[13.8764002,52.7793588],[13.8760815,52.77858],[13.8748928,52.777125],[13.8748842,52.776768],[13.8741965,52.775089],[13.8720089,52.7751695],[13.8710755,52.7717736],[13.8628636,52.77198],[13.8628411,52.7710842],[13.8630664,52.7700567],[13.8627552,52.7694517],[13.8625729,52.7680016],[13.8625868,52.7664105],[13.8630267,52.7656588],[13.8630365,52.7631973],[13.8626598,52.7620719],[13.8632104,52.7609489],[13.8629969,52.7602626],[13.8625666,52.7600295],[13.8609798,52.759975],[13.8617255,52.758644],[13.8547719,52.7579549],[13.8445838,52.7562395],[13.839808,52.7556943],[13.8363408,52.7550988],[13.8313633,52.7539901],[13.8267853,52.7524901],[13.8248826,52.7513912],[13.8173304,52.7488828],[13.8160991,52.7485225],[13.8114231,52.7476982],[13.8114092,52.7470468],[13.8091551,52.7468331],[13.8054726,52.7457444],[13.8020279,52.7453978],[13.8010984,52.7446168],[13.8002056,52.7447838],[13.7995313,52.7444859],[13.7985118,52.7444528],[13.7968001,52.7447577],[13.7957542,52.7450627],[13.7942302,52.7460492],[13.7937678,52.7460154],[13.7935349,52.7463252],[13.7941443,52.7465214],[13.7945317,52.7469461],[13.7945789,52.7472877],[13.7941991,52.7475306],[13.7928279,52.7492159],[13.7878648,52.7481749],[13.784229,52.7468404],[13.7823287,52.7469344],[13.7805745,52.7463974],[13.7803803,52.7465188],[13.7768702,52.745218],[13.7756149,52.7451862],[13.7696143,52.7440132],[13.7640427,52.7438626],[13.7575933,52.742229],[13.7536652,52.7409676],[13.7434177,52.7366098],[13.740043,52.7355359],[13.7383789,52.7348282],[13.7367117,52.734408],[13.7300418,52.7337256],[13.7294806,52.7335273],[13.7306916,52.7326704],[13.7322893,52.7332077],[13.7369524,52.7297128],[13.7377708,52.7295975],[13.7390621,52.7288591],[13.7403043,52.7284476],[13.7452408,52.7280812],[13.7460421,52.728459],[13.7473164,52.7296875],[13.7495526,52.7279381],[13.7467408,52.7262395],[13.7482283,52.7253902],[13.7515881,52.7239734],[13.7592219,52.7163067],[13.7545592,52.713657],[13.7566205,52.7104365],[13.7581489,52.7066974],[13.7607661,52.7018531],[13.7617906,52.6985925],[13.7648329,52.6932751],[13.7672412,52.6884973],[13.7678448,52.6877259],[13.769542,52.6842348],[13.7713146,52.681464],[13.7716494,52.6805071],[13.7721408,52.6799182],[13.7720275,52.6795341],[13.7722579,52.6792575],[13.7729709,52.6790689],[13.7732393,52.6788306],[13.7731781,52.6773684],[13.7733273,52.6769329],[13.7759692,52.6748806],[13.7757354,52.6747625],[13.7771709,52.6729845],[13.7782645,52.6709664],[13.7787532,52.6694589],[13.7800932,52.666765],[13.7876804,52.6689279],[13.7920601,52.6703879],[13.7943235,52.6714358],[13.7975733,52.6725926],[13.8011682,52.6743144],[13.8015883,52.6740365],[13.8029328,52.6752457],[13.8040495,52.6757656],[13.8046006,52.6764103],[13.8055662,52.6783746],[13.8060542,52.6798213],[13.8144218,52.6780848],[13.8210343,52.681789],[13.8228956,52.6826387],[13.8253565,52.6840715],[13.8266939,52.6851677],[13.832833,52.6875857],[13.8333032,52.6879979],[13.8349267,52.6888418],[13.8330924,52.6906235],[13.8318743,52.6913791],[13.8360282,52.6906477],[13.8359696,52.6893566],[13.8362517,52.689501],[13.8363912,52.6922168],[13.842712,52.6912889],[13.8499438,52.6936945],[13.851167,52.693806],[13.850348,52.6930786],[13.8500541,52.6922365],[13.8504564,52.6912253],[13.8510175,52.6906251],[13.8493739,52.6901244],[13.8483868,52.6890631],[13.8496091,52.6882404],[13.8587715,52.6844377],[13.8579626,52.6837392],[13.857557,52.6836898],[13.8558662,52.68248],[13.8545594,52.6824794],[13.8541603,52.6818309],[13.8525091,52.6813424],[13.8509375,52.6801865],[13.8502775,52.6794405],[13.8503076,52.6790314],[13.8530316,52.6780797],[13.8522827,52.6776875],[13.8517538,52.6771248],[13.8516637,52.676501],[13.8507356,52.6746158],[13.8508268,52.6741123],[13.8506294,52.6734194],[13.8511122,52.6726193],[13.851094,52.6718926],[13.8507217,52.6718256],[13.8505139,52.6706506],[13.8495169,52.6706311],[13.8486943,52.6682653],[13.8493697,52.6639866],[13.8482599,52.6611875],[13.848136,52.6600959],[13.8483556,52.6594782],[13.8482405,52.6591622],[13.8441846,52.6562038],[13.8411673,52.6548099],[13.8388561,52.65358],[13.8380068,52.6529169],[13.8377249,52.6518437],[13.8394785,52.6495094],[13.8397178,52.6489743],[13.8408442,52.6484908],[13.8454899,52.64761],[13.8447483,52.6464602],[13.8444644,52.6455373],[13.8438805,52.6449954],[13.8389773,52.6418327],[13.8339412,52.6375031],[13.8326954,52.6368702],[13.8327134,52.6356573],[13.8318566,52.6334106],[13.8318707,52.6323807],[13.8332895,52.6313118],[13.8338164,52.6304619],[13.8335335,52.629607],[13.8329496,52.6290231],[13.8299471,52.6273482],[13.8279894,52.6247815],[13.824291,52.6253044],[13.8208655,52.6273071],[13.8193807,52.6279701],[13.8141555,52.6266432],[13.811209,52.6262272],[13.8055248,52.6261091],[13.8032412,52.6257841],[13.7944076,52.6239463],[13.791607,52.6236213],[13.7814206,52.6233012],[13.7763574,52.6223243],[13.7702433,52.6207184],[13.7612647,52.6193495],[13.7572596,52.6185245],[13.7544579,52.617734],[13.7485781,52.6167364],[13.7422125,52.6140766],[13.7350089,52.6125665],[13.729479,52.6123802],[13.7280733,52.6015018],[13.7154129,52.6022794],[13.7161209,52.6038885],[13.715882,52.6060189],[13.7152677,52.6060886],[13.715273,52.6052553],[13.7155352,52.6042006],[13.7142823,52.6013361],[13.7129696,52.6002452],[13.7125436,52.5994483],[13.7125767,52.5984294],[13.7129276,52.5979564],[13.7150244,52.5958357],[13.7162762,52.5950378],[13.7166451,52.5946448],[13.7172311,52.593489],[13.7171001,52.592871],[13.7173751,52.5922341],[13.7172071,52.5912352],[13.7173312,52.5893964],[13.7147996,52.5872256],[13.711853,52.5884425],[13.7085365,52.5892744],[13.7067288,52.5895793],[13.705271,52.5895603],[13.6996319,52.5905495],[13.699433,52.5901793],[13.6981801,52.5903822],[13.6991848,52.5895628],[13.698338,52.589173],[13.6996269,52.5881874],[13.6997189,52.5879624],[13.699383,52.5865846],[13.698501,52.5851911],[13.6980021,52.5847505],[13.6980901,52.5844245],[13.6974957,52.5842355],[13.6964894,52.5829493],[13.6952094,52.5830595],[13.6939928,52.5824122],[13.6935894,52.5823594],[13.6930293,52.5827407],[13.6925272,52.5818672],[13.6926171,52.5812061],[13.6922612,52.5798363],[13.6917253,52.5795123],[13.6896046,52.5795013],[13.6845482,52.5798847],[13.6843344,52.5796612],[13.6846084,52.5788103],[13.6841455,52.5784743],[13.682661,52.5784223],[13.6824239,52.5787855],[13.6802191,52.5788722],[13.6778523,52.5797627],[13.6771968,52.5802452],[13.6731026,52.5819617],[13.6718817,52.5823245],[13.6720907,52.5778594],[13.6859643,52.5768615],[13.6850976,52.5692694],[13.675646,52.5690616],[13.6757524,52.5670425],[13.6740527,52.5671521],[13.6734984,52.5658231],[13.6689263,52.5665335],[13.6686524,52.56605],[13.6653066,52.5671794],[13.6648717,52.5652612],[13.6645378,52.562368],[13.6582904,52.5615599],[13.656872,52.5624109],[13.658645,52.5690614],[13.6438569,52.56948],[13.6326176,52.5660423],[13.6270365,52.5645704],[13.6230032,52.5632845],[13.6208575,52.5628005],[13.6166422,52.5612366],[13.6159973,52.5612746],[13.6155224,52.5615946],[13.6142706,52.5587449],[13.6128379,52.5563042],[13.6107103,52.5514627],[13.6105904,52.5509477],[13.6107634,52.548384],[13.6105975,52.5455665],[13.5874276,52.5494492],[13.5863822,52.5497848],[13.5869311,52.5511772],[13.5869511,52.5517341],[13.5875454,52.5525653],[13.5877739,52.5533307],[13.5876011,52.5556265],[13.5873549,52.5562086],[13.5868942,52.5567143],[13.5864796,52.5576928],[13.584886,52.5590845],[13.5844341,52.5598521],[13.5843272,52.5612599],[13.5838329,52.5626057],[13.5839348,52.5637615],[13.583167,52.5652134],[13.5831183,52.5660505],[13.5834291,52.5667918],[13.5833487,52.5677482],[13.5815424,52.5711074],[13.5778863,52.5711279],[13.5769686,52.5729022],[13.5749716,52.5738347],[13.5714108,52.5732374],[13.5690806,52.5733672],[13.5691566,52.5730836],[13.5685707,52.5731035],[13.5682686,52.5737892],[13.5665022,52.5761759],[13.5645239,52.5781988],[13.5620501,52.5802375],[13.5594923,52.5819023],[13.5541811,52.5847607],[13.5469869,52.5876432],[13.5471255,52.5878538],[13.5276937,52.5922366],[13.5228816,52.5927494],[13.5081184,52.5921389],[13.4989735,52.6051636],[13.4966616,52.6050272],[13.4971188,52.6066677],[13.4985075,52.6107434],[13.5022591,52.6173298],[13.5033152,52.6190008],[13.5037008,52.6192616],[13.5054583,52.619974],[13.5058558,52.6257537],[13.5108509,52.6276184],[13.5178192,52.6295666],[13.5184356,52.6316476],[13.5204174,52.6357249],[13.5210581,52.6374949],[13.5217497,52.6387242],[13.5223505,52.6404861],[13.523022,52.6450365],[13.52039,52.6448809],[13.5192654,52.646947],[13.5151919,52.6461219],[13.512828,52.6454021],[13.5047225,52.6495635],[13.503142,52.649971],[13.4907625,52.6547958],[13.4853597,52.6594285],[13.4884252,52.6707899],[13.4852166,52.6696411],[13.4779722,52.6676789],[13.4758323,52.666549],[13.4755633,52.6668715],[13.4756826,52.6675386],[13.4751304,52.667992],[13.4745877,52.6680652],[13.474717,52.6685536],[13.4764685,52.6713619],[13.480083,52.6748585],[13.4794873,52.6755087],[13.4772739,52.6739036],[13.4754875,52.6750071],[13.4707132,52.6710259],[13.4705226,52.6710743],[13.4659262,52.6671206],[13.4595492,52.6689779],[13.4555009,52.6657485],[13.450782,52.6626681],[13.4539446,52.6618491],[13.4623824,52.6575394],[13.4735092,52.6565299],[13.4742597,52.6557534],[13.4740364,52.6548597],[13.4741126,52.6545137],[13.4739048,52.6541195],[13.4721724,52.6534138],[13.4704917,52.6523628],[13.4699645,52.6518641],[13.4692666,52.6516664],[13.467075,52.6516559],[13.4657202,52.6511704],[13.4630501,52.6499204],[13.4622091,52.6488971],[13.4604703,52.6484963],[13.4597316,52.6480828],[13.4520869,52.6487022],[13.4520978,52.6496723],[13.4487809,52.6500004],[13.4474896,52.6500258],[13.4449096,52.6495033],[13.443306,52.6495385],[13.4431981,52.6493508],[13.4428922,52.6493623],[13.4427715,52.6491267],[13.4416108,52.6490248],[13.4415437,52.6493866],[13.4408204,52.6492654],[13.4397877,52.6452681],[13.4340061,52.644282],[13.4333872,52.6414715],[13.4342584,52.6379548],[13.4327165,52.6373793],[13.42763,52.6375136],[13.4243513,52.6354682],[13.4208143,52.6373958],[13.4165593,52.63943],[13.4142585,52.6412391],[13.4147523,52.6417789],[13.4147347,52.6423866],[13.4144224,52.6425122],[13.4136322,52.6424647],[13.4122912,52.6434826],[13.4078856,52.6426845],[13.4065885,52.6438473],[13.4038925,52.6448627],[13.3979077,52.6481146],[13.3982623,52.6482379],[13.3990022,52.6481469],[13.400064,52.6484139],[13.4014908,52.6482419],[13.4016338,52.6491578],[13.4005419,52.6493178],[13.4003899,52.6494168],[13.4006069,52.6495428],[13.4005839,52.6497337],[13.4043553,52.6502527],[13.4056381,52.6512976],[13.4050132,52.6519305],[13.4029535,52.6524644],[13.4027955,52.6528424],[13.4030344,52.6536323],[13.4023525,52.6543412],[13.4035173,52.6549482],[13.3996141,52.6564484],[13.4000884,52.657228],[13.4012095,52.6578222],[13.4036417,52.6584235],[13.4055751,52.6598539],[13.4090953,52.6607316],[13.4095243,52.6610175],[13.4095842,52.6612045],[13.4093133,52.6617075],[13.4086444,52.6625314],[13.4092813,52.6627603],[13.4112509,52.6646951],[13.4113849,52.6653011],[13.410826,52.6654651],[13.410674,52.665629],[13.41072,52.665847],[13.4110499,52.666095],[13.4116418,52.666125],[13.4123837,52.6667389],[13.4137135,52.6673189],[13.4139674,52.6674989],[13.4141354,52.6680368],[13.4151972,52.6677048],[13.4162601,52.6679028],[13.4177948,52.6678648],[13.4181298,52.6670869],[13.4184278,52.667003],[13.4187087,52.666476],[13.4189307,52.666457],[13.4191756,52.6672769],[13.4201925,52.6677119],[13.42267,52.6694707],[13.4226277,52.6698948],[13.4220131,52.6698948],[13.4126435,52.6721208],[13.4132386,52.6729656],[13.4131889,52.6733462],[13.4137043,52.6736693],[13.4137703,52.6741536],[13.4143009,52.6746675],[13.4150952,52.6748862],[13.415426,52.6752593],[13.4182625,52.6760764],[13.4191398,52.6765631],[13.4240202,52.6761952],[13.4238362,52.6762115],[13.4235516,52.67675],[13.4222831,52.6769824],[13.4217757,52.6772677],[13.4176546,52.6768491],[13.4165808,52.6761508],[13.4152272,52.6759779],[13.4122624,52.6745756],[13.4121251,52.673347],[13.4123026,52.672792],[13.4119486,52.6722855],[13.4057002,52.6737115],[13.4028918,52.6726787],[13.4004814,52.6723665],[13.3998318,52.6719088],[13.3996747,52.6714029],[13.3992411,52.671617],[13.3988239,52.6722253],[13.39798,52.6721526],[13.3977022,52.6722646],[13.3972776,52.6730514],[13.3980343,52.6733813],[13.3978605,52.6737473],[13.3989149,52.6747324],[13.3990883,52.6757374],[13.3995978,52.6765022],[13.3996729,52.6768927],[13.4000541,52.6771076],[13.4016815,52.677469],[13.4030331,52.6775223],[13.4030406,52.6777678],[13.4044403,52.6780119],[13.4049005,52.6784219],[13.4058303,52.6813796],[13.3988453,52.6818393],[13.39622,52.6805204],[13.3937042,52.679533],[13.3967033,52.6798096],[13.3981297,52.6796071],[13.3985345,52.6792474],[13.3987325,52.6782756],[13.3997215,52.6771043],[13.3990675,52.6776412],[13.3986776,52.6782583],[13.3983894,52.6793534],[13.3978506,52.6796431],[13.3958042,52.6797194],[13.3922586,52.6791988],[13.3952666,52.6801779],[13.3987296,52.6818468],[13.3962902,52.6820284],[13.3981091,52.6819089],[13.4008311,52.6848712],[13.4010965,52.6853312],[13.4028285,52.6863874],[13.4044874,52.6884259],[13.3967845,52.6889516],[13.3967081,52.6893303],[13.3970687,52.6895961],[13.3970746,52.6897633],[13.3996648,52.691277],[13.4016951,52.6913252],[13.4032948,52.6918692],[13.403851,52.6924771],[13.4043003,52.6926883],[13.404411,52.6929437],[13.4043015,52.6933205],[13.4050736,52.6937141],[13.4052093,52.6945685],[13.4044238,52.6946751],[13.4055792,52.6954062],[13.4056417,52.6956789],[13.406118,52.696082],[13.4064949,52.6960525],[13.4072307,52.6967103],[13.4087435,52.6972956],[13.4088846,52.6981929],[13.4088105,52.699583],[13.4084319,52.7008472],[13.4081223,52.7013448],[13.4075446,52.7034459],[13.4055803,52.7059841],[13.4042535,52.7096818],[13.4206807,52.708601],[13.4211421,52.7095774],[13.4219044,52.709783],[13.4213396,52.7112342],[13.4195338,52.7113902],[13.4185222,52.7165617],[13.419587,52.7174145],[13.4197584,52.7178993],[13.4188319,52.7205125],[13.4179601,52.7212623],[13.4154531,52.7211386],[13.4131481,52.7218663],[13.4119912,52.721954],[13.4109548,52.722289],[13.4069684,52.7229123],[13.4077271,52.7255404],[13.4065692,52.7253717],[13.4060019,52.7256154],[13.4068051,52.7266622],[13.4078014,52.7268007],[13.4087971,52.7264731],[13.4111617,52.726885],[13.4116094,52.7267008],[13.4121507,52.7261487],[13.4129215,52.7260557],[13.4136844,52.7268142],[13.4154466,52.7279419],[13.4184994,52.7295049],[13.419821,52.7303639],[13.4223465,52.7328201],[13.4224816,52.7335818],[13.4242696,52.7344897],[13.423113,52.7347979],[13.4221169,52.7353238],[13.4194129,52.7360942],[13.4182011,52.7366441],[13.4168473,52.7369831],[13.4144087,52.737033],[13.4127989,52.737285],[13.4109792,52.737048],[13.4098584,52.736716],[13.4094944,52.737342],[13.4074297,52.7379489],[13.4056089,52.7392647],[13.4071547,52.7402866],[13.4075446,52.7409125],[13.4086314,52.7418285],[13.4094213,52.7427854],[13.4096502,52.7432513],[13.4090193,52.7441592],[13.4089763,52.7443722],[13.4091933,52.7446131],[13.4089515,52.7449976],[13.4082616,52.7449512],[13.4067566,52.7452731],[13.4057008,52.745276],[13.4034022,52.7440402],[13.401216,52.7433219],[13.4000262,52.7435366],[13.397913,52.7433312],[13.3970737,52.7437424],[13.3972227,52.7441138],[13.3967292,52.744773],[13.3967281,52.7453017],[13.3972249,52.7459245],[13.3986628,52.7465048],[13.4000594,52.7468533],[13.4014499,52.7476456],[13.4030091,52.7479237],[13.4044459,52.7489266],[13.4061926,52.7493656],[13.4064376,52.7501635],[13.4081743,52.7513644],[13.4099632,52.7514044],[13.4111808,52.7516124],[13.4117567,52.7515284],[13.4131815,52.7509185],[13.4144093,52.7512499],[13.4110769,52.7609987],[13.4094075,52.7637794],[13.4053533,52.7692064],[13.4047113,52.7703155],[13.4045698,52.7733469],[13.4041986,52.7744393],[13.4042995,52.7756134],[13.4055463,52.7790485],[13.4066384,52.7803686],[13.4073744,52.7809137],[13.4102412,52.781623],[13.4125208,52.7832058],[13.416726,52.7848299],[13.4191597,52.7859676],[13.4222857,52.787001],[13.4304171,52.7890319],[13.4306044,52.7902997],[13.4298538,52.7927865],[13.4285728,52.7925205],[13.4276701,52.7938427],[13.4263558,52.7963774],[13.4248666,52.7964468],[13.4225288,52.7990234],[13.4224029,52.8004955],[13.4236665,52.8007339],[13.4220428,52.8035782],[13.4217861,52.8043485],[13.4245724,52.8044639],[13.4269255,52.8042073],[13.4287796,52.8041881],[13.4300884,52.804352],[13.4326268,52.8040348],[13.4365806,52.8041147],[13.4385803,52.8042137],[13.4444214,52.8053156],[13.4513853,52.8055257],[13.4529198,52.8057211],[13.4545001,52.8063061],[13.4568862,52.8076207],[13.4588401,52.8078905],[13.4618047,52.8079515],[13.4623236,52.8078386],[13.4622436,52.8084665],[13.4649062,52.8087724],[13.4664549,52.8094054],[13.4666666,52.8098296],[13.4666216,52.8112071],[13.4668751,52.8117795],[13.4675972,52.8126303],[13.4683489,52.8127829],[13.4701721,52.8125499],[13.4750158,52.810447],[13.4795026,52.8088231],[13.4829004,52.8097945],[13.4896975,52.8108395],[13.4940573,52.8102239],[13.4970045,52.8129177],[13.4975012,52.8134819],[13.4979315,52.8144001],[13.4981729,52.8152152],[13.4981652,52.8160531],[13.4976236,52.8195894],[13.4977963,52.8204841],[13.4976798,52.821226],[13.498397,52.8215369],[13.503461,52.8321113],[13.5014558,52.8315792],[13.4990847,52.8300984],[13.4985247,52.8295682],[13.4952553,52.8352959],[13.4944166,52.8363141],[13.4939542,52.8376484],[13.493952,52.8389686],[13.4942557,52.8398882],[13.4966316,52.8420618],[13.5051203,52.8374164],[13.5093211,52.8383827],[13.520861,52.8455902],[13.5230803,52.8479093],[13.5082574,52.8512837],[13.4973456,52.849844],[13.4928834,52.8513828],[13.488873,52.8524719],[13.4853663,52.852709],[13.4822391,52.8550558],[13.4789244,52.8571994],[13.4784797,52.8579522],[13.4768744,52.859332],[13.4838621,52.8576309],[13.4839479,52.8574087],[13.4847837,52.857285],[13.4850884,52.8575564],[13.4845315,52.8575687],[13.4845348,52.8578499],[13.4779034,52.8595449],[13.4702078,52.8701396],[13.4701085,52.8705804],[13.4707254,52.8714132],[13.4718525,52.8735992],[13.4729355,52.8753096],[13.4740674,52.8765924],[13.4762518,52.8761281],[13.4771723,52.8763657],[13.4857563,52.8747782],[13.4891678,52.8739622],[13.4907138,52.8732926],[13.4955959,52.8724008],[13.501377,52.8727566],[13.5076637,52.8734783],[13.5047368,52.8762343],[13.5007049,52.8769181],[13.4953963,52.8782649],[13.4934634,52.8784892],[13.4857932,52.8801456],[13.4822711,52.8807314],[13.4709346,52.8831804],[13.4704089,52.883082],[13.4612109,52.8852524],[13.4627189,52.8874954],[13.4602042,52.8881519],[13.4602555,52.8884801],[13.4608622,52.8889993],[13.4625275,52.8889537],[13.4638514,52.88957],[13.4648878,52.8902678],[13.465761,52.8916828],[13.466025,52.8918808],[13.4673789,52.8918223],[13.4686635,52.8924931],[13.4708152,52.8925891],[13.4725489,52.893874],[13.4731008,52.8944849],[13.4736937,52.8947329],[13.4761911,52.8944712],[13.4780193,52.8947965],[13.4799322,52.8953499],[13.4816209,52.8967527],[13.4816891,52.8970644],[13.4797927,52.8954039],[13.4776926,52.8948447],[13.4779989,52.895501],[13.4776389,52.8967311],[13.4770735,52.8973349],[13.4761222,52.8977346],[13.475844,52.8994826],[13.4800331,52.8999049],[13.4802026,52.8986772],[13.4811682,52.8989102],[13.4819546,52.8995651],[13.4828344,52.9000052],[13.4839502,52.9001864],[13.4856743,52.9001269],[13.4875196,52.8998033],[13.4883275,52.9001476],[13.4891342,52.9008243],[13.4872025,52.9007293],[13.486721,52.9049051],[13.480597,52.9046656],[13.4805326,52.9040651],[13.4795541,52.9034219],[13.479361,52.902808],[13.4773099,52.902816],[13.4768544,52.9066835],[13.4729104,52.9065825],[13.4725135,52.9073933],[13.4714281,52.9137849],[13.4717995,52.9144086],[13.4724383,52.9162584],[13.4728612,52.9185022],[13.4715944,52.9183612],[13.468093,52.9187541],[13.4669021,52.9187081],[13.4655337,52.9183044],[13.465928,52.9191996],[13.4586501,52.9189759],[13.4555809,52.9193949],[13.4539197,52.9188019],[13.4512502,52.9185028],[13.4495724,52.9180541],[13.4495478,52.9177154],[13.4460212,52.9177827],[13.4466918,52.916049],[13.4478237,52.914506],[13.4487323,52.9136458],[13.4493261,52.9137839],[13.4542705,52.9129458],[13.4457755,52.9106186],[13.4437519,52.9099039],[13.4403586,52.9121135],[13.4376258,52.9126818],[13.433787,52.9145128],[13.4337425,52.9147466],[13.4343974,52.9160105],[13.4332903,52.916736],[13.4321105,52.9157441],[13.4298946,52.9131943],[13.4290589,52.9103876],[13.4290224,52.9096584],[13.4285921,52.9080324],[13.4285954,52.9068741],[13.428354,52.906141],[13.4323269,52.9070747],[13.4337903,52.9054234],[13.4289151,52.9034892],[13.4270107,52.9050888],[13.4242384,52.9065745],[13.420832,52.9077347],[13.4193911,52.9080097],[13.418609,52.9079521],[13.4194254,52.9114898],[13.4122768,52.9097671],[13.4111428,52.9106056],[13.4090518,52.911647],[13.4110612,52.911613],[13.4113509,52.911789],[13.4110721,52.9119446],[13.4109067,52.912282],[13.4109657,52.9126961],[13.4105913,52.9130028],[13.4081859,52.9132454],[13.4101637,52.9223702],[13.4104711,52.923099],[13.4138004,52.9251031],[13.4166837,52.9256659],[13.4193643,52.9254909],[13.4195874,52.9252567],[13.4208663,52.9251797],[13.4233826,52.925277],[13.4238135,52.9263789],[13.427987,52.9260827],[13.4288368,52.9262217],[13.4300995,52.9273937],[13.4281716,52.9282713],[13.4323923,52.9309837],[13.4327056,52.9308343],[13.4366743,52.9342906],[13.4314858,52.9361788],[13.4326853,52.9371603],[13.4310867,52.9378005],[13.4290804,52.9365137],[13.4261064,52.9341638],[13.4249552,52.9328571],[13.4168783,52.9371866],[13.4145887,52.9353438],[13.4217677,52.9314153],[13.4252562,52.9324562],[13.426982,52.9307124],[13.4264372,52.9293613],[13.4035556,52.9293053],[13.4027353,52.9338446],[13.4025433,52.9339196],[13.4009411,52.9326479],[13.4006783,52.9304621],[13.4002437,52.9298089],[13.3988304,52.929949],[13.3975664,52.9334138],[13.3979431,52.9340994],[13.400151,52.9356186],[13.4003431,52.9371192],[13.4017844,52.9384879],[13.4011858,52.9393111],[13.4012582,52.9396385],[13.4035048,52.9395561],[13.4044243,52.9397123],[13.4048196,52.9407248],[13.4059617,52.9415537],[13.407055,52.9412298],[13.4072127,52.9413083],[13.4072486,52.9424711],[13.4081965,52.9429509],[13.411759,52.9440378],[13.4124279,52.9440378],[13.4130248,52.9438168],[13.4159233,52.9444078],[13.4172581,52.9453077],[13.4186649,52.9458036],[13.4188529,52.9461824],[13.4192301,52.9463579],[13.4203705,52.9463682],[13.4216016,52.9468362],[13.4232611,52.9469581],[13.4236166,52.9473365],[13.4243675,52.947082],[13.4245563,52.9476404],[13.425007,52.9473727],[13.4251491,52.9475564],[13.4258479,52.947565],[13.4261515,52.9471716],[13.4263719,52.9473799],[13.4267576,52.9474084],[13.4265746,52.9477144],[13.4271883,52.9478049],[13.4271225,52.9480201],[13.4274267,52.9481354],[13.4280084,52.9480568],[13.4278023,52.9483902],[13.4273047,52.9484465],[13.427309,52.9486306],[13.4279418,52.9486824],[13.4277623,52.9489552],[13.4280509,52.949144],[13.429153,52.9491512],[13.4291172,52.9492742],[13.4293725,52.9494156],[13.429786,52.949365],[13.4298359,52.9495931],[13.4301241,52.9494923],[13.4306517,52.9501769],[13.4311172,52.9502275],[13.4310391,52.9505728],[13.431242,52.9510833],[13.4316497,52.9512177],[13.4320646,52.9516208],[13.4326057,52.9515162],[13.4332077,52.9516579],[13.4332306,52.9521302],[13.4340694,52.9521209],[13.4347968,52.9525273],[13.4352025,52.9525643],[13.4354331,52.9522005],[13.435966,52.9523304],[13.436063,52.9521345],[13.4369155,52.9523813],[13.4367839,52.9526771],[13.4377283,52.9531836],[13.4375125,52.9533048],[13.4376109,52.9534926],[13.438547,52.9539413],[13.4384827,52.954051],[13.4388866,52.9545463],[13.4388979,52.9549508],[13.4392175,52.9551939],[13.4391049,52.9553692],[13.4392699,52.9557144],[13.4390209,52.9556211],[13.4388888,52.9557608],[13.4393042,52.9563038],[13.4390391,52.9562848],[13.438799,52.9566203],[13.4391428,52.9566233],[13.4393869,52.9570814],[13.4394131,52.9572582],[13.4392202,52.9574124],[13.4394406,52.9576251],[13.4391958,52.9577887],[13.4395224,52.9580395],[13.4395705,52.9577675],[13.4397447,52.9577653],[13.4399128,52.9581985],[13.4404683,52.9585099],[13.4407803,52.9589423],[13.4411368,52.9589877],[13.4420103,52.9598473],[13.4420568,52.9601242],[13.4431666,52.9601994],[13.4432674,52.9605353],[13.4437533,52.9606563],[13.4440571,52.9609947],[13.4444589,52.960975],[13.4445129,52.9611335],[13.4449274,52.9611023],[13.445194,52.9612992],[13.445455,52.96109],[13.445615,52.9614517],[13.4458411,52.9614515],[13.4461141,52.9617134],[13.4466641,52.9616516],[13.4468078,52.9620079],[13.4476429,52.9619564],[13.447906,52.9621344],[13.4478769,52.9624366],[13.4480791,52.9626046],[13.4486262,52.9623663],[13.4495391,52.9625936],[13.4501516,52.9624983],[13.4506071,52.9628802],[13.4518483,52.963302],[13.4523594,52.9640516],[13.4530926,52.9645127],[13.4530126,52.9646489],[13.4533981,52.9650194],[13.4538886,52.9649854],[13.4545522,52.9651987],[13.4552341,52.9649892],[13.4553458,52.9652664],[13.4556771,52.9652861],[13.4560926,52.9656417],[13.4569755,52.9656848],[13.4574198,52.965875],[13.4577956,52.9657632],[13.4576759,52.9656299],[13.4580683,52.9655015],[13.4581077,52.9653203],[13.4590923,52.9658106],[13.4595454,52.965704],[13.4593866,52.9655594],[13.459574,52.9653108],[13.4600126,52.9654086],[13.4603761,52.9652035],[13.4608059,52.9651932],[13.4609457,52.9653601],[13.4613567,52.9653141],[13.4616449,52.9649969],[13.4625122,52.9650927],[13.4627091,52.9644968],[13.463044,52.9643419],[13.4629428,52.9642887],[13.4631417,52.9638109],[13.4640177,52.963689],[13.4645992,52.9639695],[13.4651783,52.9638102],[13.4657974,52.9638813],[13.4660492,52.9642169],[13.4663608,52.9641693],[13.4671306,52.9645806],[13.4674892,52.9644531],[13.4686441,52.9644868],[13.4689354,52.9649815],[13.4694089,52.96505],[13.4693709,52.9652396],[13.4700945,52.9654706],[13.4709043,52.9650619],[13.4720631,52.9649919],[13.4737354,52.9645818],[13.4730385,52.9669044],[13.4746463,52.9670221],[13.4764255,52.9666844],[13.4782164,52.9654878],[13.4805885,52.9651823],[13.4812301,52.9647321],[13.4827723,52.9641652],[13.4834385,52.9636439],[13.5132261,52.9749752],[13.5162817,52.9841202],[13.5175627,52.9885354]]]}}]}