{"type":"FeatureCollection","features":[{"type":"Feature","properties":{"name":"Primorsko","admin":"obshtina","source":"© OpenStreetMap contributors, ODbL 1.0","osm_relation":1937061},"geometry":{"type":"MultiPolygon","coordinates":[[[[27.49902,42.24084],[27.49938,42.23994],[27.50102,42.23845],[27.50088,42.23712],[27.50159,42.23636],[27.50299,42.23565],[27.50416,42.23455],[27.50632,42.23413],[27.50737,42.23428],[27.50787,42.2338],[27.50928,42.2339],[27.50976,42.23341],[27.51085,42.23338],[27.51013,42.2323],[27.51073,42.23181],[27.51059,42.23144],[27.51078,42.23101],[27.5102,42.23094],[27.50896,42.22998],[27.50831,42.22899],[27.50833,42.22837],[27.50915,42.22691],[27.50911,42.22602],[27.50777,42.22487],[27.50665,42.22437],[27.5063,42.2231],[27.50577,42.2224],[27.50307,42.22077],[27.50279,42.21946],[27.50342,42.21787],[27.50465,42.21605],[27.50592,42.21535],[27.50645,42.21479],[27.50712,42.21465],[27.50852,42.21306],[27.5097,42.21269],[27.51016,42.21176],[27.51167,42.21048],[27.51047,42.2089],[27.50773,42.20617],[27.5061,42.20566],[27.50448,42.20431],[27.50464,42.20315],[27.50351,42.20171],[27.50332,42.2005],[27.50257,42.19977],[27.50207,42.19788],[27.50236,42.19678],[27.50376,42.19564],[27.50412,42.19508],[27.50452,42.19308],[27.50407,42.19222],[27.5031,42.19156],[27.50251,42.19078],[27.50226,42.18984],[27.50271,42.18786],[27.50198,42.1864],[27.5021,42.18584],[27.50154,42.18464],[27.50134,42.18352],[27.50058,42.1827],[27.50252,42.18321],[27.50456,42.18058],[27.50847,42.17918],[27.50933,42.17928],[27.51044,42.17995],[27.51191,42.17996],[27.51452,42.18041],[27.51484,42.18014],[27.51499,42.17929],[27.51555,42.1788],[27.51891,42.17877],[27.52044,42.17831],[27.52094,42.17726],[27.52102,42.1764],[27.52132,42.17614],[27.52262,42.17659],[27.52468,42.17594],[27.52611,42.17735],[27.52674,42.17757],[27.52786,42.1767],[27.52903,42.17645],[27.52967,42.17585],[27.53043,42.17557],[27.53074,42.17507],[27.5308,42.17402],[27.53126,42.17355],[27.53126,42.17278],[27.53223,42.1706],[27.53276,42.17029],[27.53423,42.1701],[27.53425,42.16929],[27.53321,42.16798],[27.53317,42.16754],[27.53461,42.16617],[27.5348,42.16375],[27.53589,42.16322],[27.53665,42.16133],[27.53847,42.15999],[27.54148,42.15984],[27.54273,42.15941],[27.54278,42.15827],[27.54319,42.15787],[27.54379,42.15572],[27.54475,42.15445],[27.54579,42.15423],[27.54652,42.15297],[27.5492,42.15222],[27.55142,42.15244],[27.55237,42.1517],[27.55318,42.15163],[27.55488,42.15207],[27.55646,42.15279],[27.55742,42.15361],[27.55776,42.15472],[27.55826,42.15492],[27.55988,42.15359],[27.56209,42.15299],[27.56282,42.15219],[27.56439,42.15116],[27.56619,42.15055],[27.56626,42.15169],[27.56569,42.15318],[27.56595,42.15453],[27.56582,42.15666],[27.56693,42.1572],[27.56847,42.15723],[27.56992,42.15771],[27.57065,42.15805],[27.57134,42.15922],[27.57377,42.1595],[27.57448,42.15984],[27.57494,42.16051],[27.57518,42.16145],[27.57567,42.16194],[27.5773,42.16151],[27.57862,42.16042],[27.57988,42.16148],[27.58032,42.16253],[27.57994,42.16314],[27.5803,42.16364],[27.5806,42.16533],[27.58026,42.16594],[27.58006,42.16765],[27.57898,42.16974],[27.57885,42.17044],[27.58001,42.17378],[27.58147,42.17548],[27.58445,42.17636],[27.58417,42.17683],[27.5871,42.17877],[27.58779,42.17954],[27.58793,42.1803],[27.59058,42.18234],[27.5918,42.18582],[27.59099,42.1866],[27.5915,42.18682],[27.59086,42.18727],[27.59092,42.18758],[27.59149,42.18741],[27.59302,42.18765],[27.59346,42.18709],[27.59444,42.18686],[27.59512,42.18732],[27.59551,42.18826],[27.59608,42.1888],[27.59639,42.18896],[27.59841,42.18886],[27.59942,42.19002],[27.59964,42.18979],[27.59964,42.18869],[27.60053,42.18755],[27.6012,42.18706],[27.60277,42.18659],[27.60668,42.18634],[27.61196,42.18769],[27.61381,42.18776],[27.61478,42.18762],[27.61545,42.18702],[27.61688,42.18632],[27.6176,42.18635],[27.61822,42.18599],[27.61857,42.18398],[27.61792,42.18371],[27.61711,42.18283],[27.61924,42.17884],[27.6235,42.17569],[27.62456,42.17532],[27.62371,42.17298],[27.62281,42.17178],[27.62271,42.17108],[27.62348,42.1703],[27.6239,42.16932],[27.62389,42.16873],[27.62292,42.16685],[27.62348,42.16483],[27.62471,42.16435],[27.62562,42.165],[27.62672,42.16471],[27.62703,42.16536],[27.62765,42.16563],[27.62888,42.16433],[27.63051,42.16382],[27.63181,42.16434],[27.63475,42.1664],[27.63535,42.16696],[27.63506,42.16803],[27.63525,42.16837],[27.63612,42.16875],[27.63943,42.16833],[27.64071,42.16859],[27.6412,42.1681],[27.64193,42.16798],[27.6448,42.16779],[27.64606,42.168],[27.64659,42.16779],[27.64925,42.17065],[27.65064,42.1717],[27.65412,42.17332],[27.65494,42.17401],[27.65516,42.17442],[27.65497,42.17679],[27.65454,42.17777],[27.65475,42.17834],[27.65662,42.17999],[27.65797,42.18047],[27.65956,42.18151],[27.66056,42.1826],[27.66147,42.18412],[27.66319,42.18576],[27.66446,42.18609],[27.66678,42.18557],[27.67116,42.1856],[27.67232,42.18611],[27.67604,42.18703],[27.6786,42.18838],[27.68063,42.18852],[27.68106,42.18909],[27.68356,42.19083],[27.68621,42.19149],[27.68858,42.19156],[27.69159,42.1927],[27.6925,42.19394],[27.69271,42.19471],[27.69251,42.19503],[27.69109,42.19567],[27.68964,42.19599],[27.68637,42.19627],[27.68541,42.19696],[27.68527,42.19813],[27.6865,42.20042],[27.6866,42.20143],[27.68694,42.20172],[27.69126,42.2009],[27.69239,42.20135],[27.69284,42.20378],[27.69271,42.20493],[27.6941,42.20614],[27.69444,42.20718],[27.6939,42.20829],[27.69389,42.20904],[27.69308,42.21041],[27.69325,42.21328],[27.69448,42.21395],[27.69563,42.21421],[27.69718,42.21311],[27.69889,42.21235],[27.70088,42.21211],[27.70427,42.21261],[27.70671,42.2134],[27.70746,42.21401],[27.70822,42.21567],[27.70768,42.21622],[27.70765,42.2166],[27.70817,42.2178],[27.70648,42.21931],[27.70647,42.22075],[27.70776,42.22151],[27.7086,42.22161],[27.70865,42.22237],[27.70994,42.2235],[27.7106,42.22364],[27.7109,42.22412],[27.7115,42.22404],[27.71196,42.2243],[27.71268,42.22417],[27.71403,42.22449],[27.71526,42.22422],[27.71632,42.22361],[27.71698,42.22357],[27.71754,42.22361],[27.71935,42.22452],[27.72059,42.22449],[27.72187,42.22482],[27.72255,42.22534],[27.72446,42.22504],[27.72718,42.22514],[27.72888,42.22433],[27.72955,42.22494],[27.7307,42.22502],[27.73244,42.22462],[27.73455,42.22522],[27.73628,42.22524],[27.73937,42.22588],[27.73977,42.22561],[27.73966,42.22492],[27.73998,42.22431],[27.74037,42.2242],[27.74225,42.22462],[27.74322,42.22274],[27.74491,42.22078],[27.74509,42.22037],[27.74501,42.21925],[27.7474,42.21852],[27.74815,42.21853],[27.75016,42.21935],[27.7564,42.22077],[27.761,42.21934],[27.76459,42.22064],[27.76595,42.22049],[27.76877,42.21946],[27.7698,42.21932],[27.7763,42.2198],[27.77697,42.22008],[27.77704,42.22071],[27.7763,42.22168],[27.77627,42.22299],[27.77724,42.22502],[27.77865,42.22616],[27.77731,42.2277],[27.77692,42.22975],[27.77707,42.23126],[27.77803,42.23314],[27.77967,42.23438],[27.78036,42.23461],[27.7805,42.23442],[27.78111,42.23481],[27.78204,42.23462],[27.78227,42.23439],[27.78158,42.23318],[27.78229,42.23385],[27.78257,42.23471],[27.78328,42.23469],[27.78376,42.23442],[27.78402,42.23391],[27.78452,42.23418],[27.7855,42.23517],[27.7849,42.23656],[27.78494,42.23757],[27.7842,42.23831],[27.784,42.23801],[27.78446,42.23759],[27.78443,42.23685],[27.7813,42.23689],[27.77951,42.23744],[27.7788,42.23812],[27.77816,42.2381],[27.7776,42.23902],[27.77834,42.23947],[27.77765,42.23961],[27.77753,42.23987],[27.77765,42.24092],[27.77819,42.24084],[27.77746,42.24231],[27.77718,42.24247],[27.77767,42.24349],[27.77729,42.24351],[27.77687,42.24253],[27.77609,42.24253],[27.77418,42.24418],[27.77391,42.24495],[27.77302,42.24491],[27.77288,42.24523],[27.77268,42.24518],[27.77283,42.24489],[27.77219,42.24463],[27.77161,42.24522],[27.77107,42.24505],[27.77128,42.24385],[27.77169,42.24365],[27.77147,42.24345],[27.77155,42.24309],[27.77213,42.24234],[27.77165,42.2418],[27.76991,42.24138],[27.76776,42.24139],[27.76633,42.24201],[27.76607,42.24256],[27.76466,42.24383],[27.7643,42.24392],[27.76228,42.24336],[27.76125,42.2435],[27.76003,42.24413],[27.75957,42.24489],[27.75891,42.24524],[27.75631,42.2456],[27.75361,42.24889],[27.75293,42.25005],[27.75194,42.25265],[27.75203,42.25289],[27.75176,42.25316],[27.75125,42.25492],[27.75119,42.25617],[27.75132,42.2583],[27.75189,42.26065],[27.75234,42.26187],[27.75378,42.26415],[27.75446,42.26476],[27.75557,42.26428],[27.75503,42.26474],[27.75567,42.26512],[27.75666,42.26515],[27.75666,42.26483],[27.75709,42.26482],[27.75735,42.26437],[27.75831,42.26449],[27.7577,42.26434],[27.75751,42.26407],[27.75873,42.26408],[27.75892,42.26366],[27.75852,42.26349],[27.75861,42.26335],[27.75926,42.26359],[27.7592,42.26394],[27.76052,42.2641],[27.762,42.26477],[27.76458,42.26457],[27.76562,42.26521],[27.76671,42.26544],[27.76688,42.26582],[27.7667,42.26636],[27.76619,42.26656],[27.7642,42.26694],[27.76312,42.2675],[27.75993,42.26842],[27.75795,42.27124],[27.75559,42.27639],[27.75491,42.27742],[27.75459,42.27922],[27.75427,42.27981],[27.75422,42.2801],[27.75468,42.28021],[27.75423,42.2802],[27.75394,42.28307],[27.75431,42.28461],[27.75423,42.28559],[27.75476,42.28704],[27.75537,42.28762],[27.75652,42.28728],[27.75571,42.28784],[27.75599,42.28839],[27.75652,42.28875],[27.75766,42.289],[27.75902,42.28869],[27.75849,42.2879],[27.75914,42.28824],[27.75931,42.28906],[27.76034,42.28976],[27.7611,42.28957],[27.76179,42.28905],[27.76451,42.2895],[27.76526,42.2901],[27.76562,42.29082],[27.76631,42.29095],[27.7668,42.29183],[27.76736,42.29197],[27.76807,42.29324],[27.76911,42.2935],[27.76963,42.294],[27.76981,42.29477],[27.77093,42.29507],[27.77249,42.2946],[27.7731,42.29501],[27.77353,42.29655],[27.77316,42.29632],[27.77291,42.29655],[27.77278,42.29681],[27.77314,42.29713],[27.77265,42.29714],[27.77229,42.29771],[27.77158,42.29797],[27.77046,42.29906],[27.76952,42.29927],[27.76891,42.29967],[27.76874,42.30026],[27.76901,42.30066],[27.77162,42.30067],[27.7719,42.30118],[27.77244,42.3013],[27.773,42.30117],[27.77334,42.30078],[27.77508,42.3009],[27.7766,42.30259],[27.77835,42.3024],[27.77942,42.30266],[27.78047,42.30394],[27.78101,42.30556],[27.78166,42.30637],[27.78253,42.30624],[27.78457,42.30648],[27.78483,42.30699],[27.7864,42.30783],[27.78686,42.3077],[27.78708,42.3072],[27.78807,42.30711],[27.78825,42.30679],[27.78869,42.30723],[27.78933,42.30743],[27.79027,42.3074],[27.79051,42.30722],[27.7901,42.30709],[27.79073,42.307],[27.7914,42.30631],[27.79334,42.30659],[27.79388,42.30636],[27.79432,42.30676],[27.79409,42.30711],[27.79358,42.3072],[27.79384,42.30821],[27.79362,42.30862],[27.79316,42.30848],[27.79313,42.30924],[27.79236,42.30938],[27.79145,42.3091],[27.79117,42.30871],[27.79096,42.30939],[27.79025,42.30946],[27.79053,42.30965],[27.79035,42.30977],[27.78982,42.30969],[27.78999,42.31012],[27.78893,42.31096],[27.78795,42.3112],[27.78768,42.31064],[27.78735,42.31064],[27.78736,42.31122],[27.78579,42.3127],[27.78448,42.31305],[27.78387,42.31277],[27.78318,42.31291],[27.78282,42.31227],[27.78178,42.31215],[27.78145,42.31279],[27.78041,42.31254],[27.78007,42.31318],[27.77868,42.31319],[27.78062,42.31575],[27.78062,42.31626],[27.78012,42.31729],[27.78116,42.31728],[27.78187,42.31882],[27.77909,42.31833],[27.77928,42.31909],[27.77911,42.31961],[27.77738,42.31962],[27.77739,42.32013],[27.77427,42.32003],[27.77358,42.31977],[27.77323,42.32003],[27.77194,42.31998],[27.7716,42.32051],[27.77163,42.32082],[27.77205,42.32102],[27.77466,42.32162],[27.77499,42.32188],[27.77463,42.32195],[27.77622,42.32232],[27.77791,42.32308],[27.77825,42.32298],[27.77825,42.32278],[27.78009,42.32323],[27.78114,42.32383],[27.78157,42.3245],[27.78261,42.32476],[27.7813,42.32488],[27.78183,42.32516],[27.78059,42.32472],[27.7802,42.32495],[27.78045,42.32517],[27.78038,42.32552],[27.78004,42.32543],[27.77994,42.32504],[27.77987,42.32549],[27.77931,42.32512],[27.77894,42.32518],[27.77853,42.32567],[27.77944,42.32623],[27.77917,42.32637],[27.77951,42.32665],[27.7802,42.32685],[27.78042,42.32766],[27.78192,42.32814],[27.7819,42.32847],[27.78213,42.32824],[27.78266,42.32837],[27.78341,42.329],[27.7822,42.32885],[27.78202,42.3291],[27.78278,42.32956],[27.78175,42.32952],[27.78191,42.32989],[27.78141,42.32972],[27.78121,42.32995],[27.78226,42.33071],[27.78191,42.3307],[27.78223,42.33114],[27.78316,42.33149],[27.78327,42.33177],[27.78296,42.33192],[27.78402,42.33219],[27.7848,42.33292],[27.78491,42.3335],[27.78399,42.33342],[27.78345,42.33371],[27.78377,42.33366],[27.7851,42.33432],[27.78574,42.33489],[27.78442,42.33601],[27.78323,42.33567],[27.78216,42.33566],[27.78123,42.33528],[27.78162,42.33586],[27.78116,42.33562],[27.78076,42.33575],[27.78029,42.33498],[27.77957,42.33465],[27.77872,42.33503],[27.77845,42.33544],[27.77876,42.33568],[27.77867,42.33585],[27.7781,42.33569],[27.77798,42.3353],[27.77765,42.33517],[27.77743,42.33523],[27.77759,42.33563],[27.77673,42.33566],[27.77667,42.33596],[27.77617,42.33555],[27.77562,42.33552],[27.77552,42.33539],[27.77583,42.33516],[27.77566,42.33482],[27.77535,42.3348],[27.7756,42.33457],[27.7753,42.33361],[27.77453,42.33306],[27.77365,42.33308],[27.77335,42.33334],[27.77291,42.33427],[27.77305,42.33479],[27.77255,42.33477],[27.77259,42.33531],[27.7723,42.33514],[27.77242,42.33562],[27.77267,42.33573],[27.77235,42.33605],[27.77271,42.33654],[27.77313,42.33653],[27.77313,42.33678],[27.77229,42.33664],[27.7724,42.33679],[27.77195,42.33684],[27.77201,42.33701],[27.77163,42.33699],[27.77166,42.33678],[27.77046,42.33637],[27.7707,42.3363],[27.76968,42.33582],[27.76955,42.33601],[27.76839,42.33561],[27.76708,42.33556],[27.7672,42.33474],[27.76417,42.33287],[27.76329,42.33318],[27.76218,42.33262],[27.76175,42.3331],[27.76167,42.33282],[27.76134,42.3331],[27.76014,42.33301],[27.76012,42.3335],[27.75927,42.33387],[27.75936,42.33448],[27.75834,42.33435],[27.75803,42.33395],[27.75766,42.33387],[27.75777,42.33359],[27.75642,42.3332],[27.75642,42.33275],[27.75591,42.33243],[27.75534,42.33225],[27.75493,42.33239],[27.75492,42.33204],[27.75526,42.33193],[27.75606,42.33222],[27.7567,42.33163],[27.75673,42.33074],[27.75709,42.33015],[27.75648,42.32942],[27.75561,42.32903],[27.75542,42.32865],[27.75566,42.32832],[27.75553,42.3281],[27.7548,42.3279],[27.75351,42.32997],[27.75357,42.3294],[27.75468,42.32762],[27.75241,42.32654],[27.74945,42.32611],[27.74642,42.32671],[27.74575,42.32716],[27.7443,42.32723],[27.74319,42.32761],[27.74308,42.32828],[27.74332,42.32868],[27.74316,42.32872],[27.74142,42.32875],[27.74092,42.32792],[27.74004,42.32794],[27.73917,42.32829],[27.73422,42.33152],[27.73159,42.33388],[27.73109,42.33497],[27.73114,42.33556],[27.73155,42.33636],[27.73224,42.33692],[27.73316,42.33621],[27.73264,42.33706],[27.72964,42.33734],[27.72962,42.33763],[27.72904,42.33737],[27.72904,42.33541],[27.72825,42.33414],[27.72739,42.33353],[27.72455,42.3327],[27.72282,42.33203],[27.72237,42.33157],[27.72155,42.33143],[27.71984,42.32953],[27.72055,42.32717],[27.72217,42.3261],[27.72122,42.32345],[27.72165,42.32292],[27.72565,42.3228],[27.72985,42.32219],[27.72905,42.32165],[27.72441,42.31988],[27.72341,42.31888],[27.72194,42.31813],[27.72116,42.31713],[27.71656,42.31692],[27.71111,42.31506],[27.7027,42.31373],[27.70004,42.31307],[27.69931,42.31415],[27.69855,42.31418],[27.69704,42.31486],[27.6958,42.31494],[27.6942,42.31449],[27.69142,42.3153],[27.69102,42.3155],[27.69105,42.31571],[27.69277,42.3169],[27.69288,42.31779],[27.69252,42.31911],[27.6932,42.32147],[27.69573,42.32469],[27.6951,42.32482],[27.69275,42.32679],[27.69276,42.32728],[27.69171,42.3292],[27.69187,42.33098],[27.68934,42.33261],[27.6894,42.33341],[27.68844,42.3338],[27.68639,42.33314],[27.68504,42.33239],[27.68421,42.33227],[27.68232,42.333],[27.68213,42.33312],[27.68205,42.33568],[27.68102,42.33668],[27.67505,42.3398],[27.6702,42.34086],[27.66965,42.34117],[27.66451,42.34712],[27.66331,42.34882],[27.66277,42.35005],[27.6592,42.35169],[27.65304,42.35249],[27.65075,42.35256],[27.65014,42.35374],[27.64945,42.35419],[27.64673,42.35421],[27.64423,42.35353],[27.64174,42.35336],[27.64106,42.35419],[27.64071,42.35509],[27.63988,42.35523],[27.63871,42.35594],[27.63706,42.35625],[27.63641,42.35719],[27.63197,42.36179],[27.62927,42.36433],[27.62933,42.3662],[27.62863,42.36738],[27.62839,42.36876],[27.62719,42.37179],[27.62351,42.37199],[27.6177,42.37271],[27.61489,42.3748],[27.61499,42.37394],[27.61371,42.37373],[27.61324,42.37184],[27.61233,42.37206],[27.61207,42.37113],[27.6099,42.37058],[27.61058,42.37017],[27.61042,42.37007],[27.60823,42.37005],[27.60806,42.36882],[27.60739,42.36832],[27.60706,42.36772],[27.60564,42.36661],[27.6047,42.36633],[27.60156,42.36334],[27.60105,42.36212],[27.60034,42.36146],[27.60055,42.36121],[27.60036,42.36059],[27.60044,42.3597],[27.59967,42.35819],[27.59888,42.35744],[27.59742,42.35674],[27.59634,42.35661],[27.5932,42.35765],[27.59145,42.3579],[27.59025,42.35779],[27.58728,42.35626],[27.5861,42.35533],[27.58537,42.35436],[27.58411,42.35386],[27.58336,42.35305],[27.58227,42.35278],[27.58176,42.3519],[27.58287,42.35035],[27.58222,42.34901],[27.58392,42.3473],[27.58312,42.34651],[27.58267,42.34668],[27.58261,42.34707],[27.58223,42.34694],[27.58204,42.34719],[27.581,42.34645],[27.58077,42.34573],[27.57995,42.34506],[27.58019,42.34399],[27.57981,42.34381],[27.57953,42.34291],[27.579,42.34236],[27.57868,42.34155],[27.57735,42.34074],[27.57716,42.34028],[27.57437,42.33926],[27.57182,42.33644],[27.57137,42.33478],[27.56692,42.33203],[27.56589,42.33096],[27.56412,42.32984],[27.56284,42.32861],[27.55935,42.32726],[27.55852,42.32665],[27.55648,42.32628],[27.55929,42.32576],[27.56239,42.32577],[27.56378,42.326],[27.56386,42.3244],[27.56537,42.32243],[27.55822,42.31968],[27.55567,42.32141],[27.55409,42.32166],[27.55233,42.32019],[27.5488,42.31953],[27.54695,42.32127],[27.54661,42.32259],[27.54485,42.32203],[27.53984,42.31897],[27.53827,42.31876],[27.53859,42.31816],[27.53975,42.31704],[27.54004,42.31585],[27.5418,42.31454],[27.54275,42.31472],[27.54339,42.31339],[27.54315,42.31189],[27.54141,42.31196],[27.53872,42.31273],[27.5355,42.31311],[27.53354,42.31167],[27.5388,42.30668],[27.54096,42.30549],[27.54108,42.30519],[27.5398,42.3041],[27.53779,42.30391],[27.53628,42.30336],[27.53514,42.30241],[27.53496,42.302],[27.53289,42.30169],[27.53119,42.30049],[27.52606,42.29809],[27.52482,42.29852],[27.5245,42.29764],[27.52457,42.29586],[27.52394,42.29334],[27.52355,42.29032],[27.52372,42.28975],[27.52442,42.28927],[27.52459,42.28782],[27.52224,42.28186],[27.52241,42.28065],[27.52118,42.27809],[27.51902,42.27804],[27.51884,42.27695],[27.51733,42.2766],[27.51788,42.27583],[27.51772,42.27496],[27.5183,42.27458],[27.51806,42.27445],[27.51856,42.27428],[27.51801,42.27401],[27.5174,42.27404],[27.51573,42.27253],[27.51676,42.27239],[27.51708,42.27205],[27.51884,42.27189],[27.52017,42.27232],[27.52004,42.27196],[27.51902,42.27107],[27.52196,42.27017],[27.51834,42.26701],[27.51613,42.26473],[27.5157,42.26358],[27.51462,42.26344],[27.51258,42.26134],[27.50817,42.25903],[27.50776,42.25814],[27.50759,42.25588],[27.50796,42.2537],[27.50716,42.2535],[27.50451,42.252],[27.50325,42.25095],[27.50266,42.24974],[27.50144,42.24938],[27.50101,42.2486],[27.50093,42.24784],[27.50195,42.24589],[27.50223,42.24364],[27.50179,42.24309],[27.50117,42.24288],[27.50119,42.2425],[27.49928,42.24149],[27.49902,42.24093],[27.49902,42.24084]]],[[[27.76525,42.28964],[27.76564,42.28971],[27.7663,42.29028],[27.76583,42.2901],[27.76525,42.28964]]]]}},{"type":"Feature","properties":{"name":"Vidin","admin":"obshtina","source":"© OpenStreetMap contributors, ODbL 1.0","osm_relation":1916767},"geometry":{"type":"MultiPolygon","coordinates":[[[[22.59706,43.9965],[22.59897,43.99526],[22.60072,43.99596],[22.60141,43.9947],[22.60386,43.99598],[22.6058,43.99534],[22.60715,43.9961],[22.60839,43.99613],[22.60788,43.99545],[22.60813,43.99509],[22.60875,43.99529],[22.60865,43.99482],[22.60918,43.99457],[22.60879,43.99389],[22.60955,43.99418],[22.61056,43.99521],[22.61086,43.99514],[22.61089,43.99467],[22.61124,43.99469],[22.61437,43.9978],[22.6155,43.99768],[22.61662,43.99632],[22.6186,43.99571],[22.61868,43.99515],[22.61908,43.99542],[22.61994,43.99513],[22.62214,43.99524],[22.62438,43.99577],[22.62451,43.99762],[22.62479,43.99794],[22.62446,43.9982],[22.62446,43.9989],[22.6271,43.99894],[22.63116,43.99837],[22.62973,43.99693],[22.63079,43.99618],[22.6325,43.99627],[22.6341,43.99442],[22.63727,43.99542],[22.63793,43.99649],[22.63807,43.9962],[22.63922,43.99675],[22.64037,43.99581],[22.64158,43.99549],[22.64258,43.9948],[22.64438,43.99481],[22.64578,43.99342],[22.64851,43.99229],[22.64778,43.98959],[22.65657,43.98901],[22.65737,43.98699],[22.65938,43.98672],[22.65996,43.98616],[22.66184,43.98611],[22.66385,43.98692],[22.66552,43.98661],[22.66599,43.98606],[22.66603,43.98518],[22.66331,43.98478],[22.66326,43.98315],[22.66909,43.98418],[22.6697,43.98323],[22.67143,43.98342],[22.67263,43.98214],[22.67413,43.98127],[22.67643,43.9819],[22.68599,43.98279],[22.68603,43.98204],[22.67817,43.98023],[22.6786,43.97879],[22.68098,43.97713],[22.68146,43.97552],[22.68259,43.97528],[22.68388,43.97432],[22.68577,43.97366],[22.68419,43.97138],[22.6854,43.97061],[22.68632,43.96931],[22.68744,43.96884],[22.69182,43.96858],[22.69001,43.96766],[22.68952,43.96583],[22.6853,43.96604],[22.68612,43.96588],[22.6869,43.96446],[22.68664,43.96424],[22.68503,43.9637],[22.68291,43.9639],[22.67862,43.96329],[22.67874,43.96282],[22.68158,43.96287],[22.68475,43.96242],[22.68423,43.96094],[22.68601,43.96059],[22.68248,43.96064],[22.6801,43.96017],[22.67984,43.95952],[22.68023,43.95866],[22.68117,43.95846],[22.68187,43.959],[22.68198,43.95629],[22.68061,43.95639],[22.68031,43.95578],[22.67893,43.956],[22.67887,43.95511],[22.67771,43.95496],[22.67756,43.95422],[22.6765,43.95383],[22.67666,43.95345],[22.67597,43.95308],[22.6763,43.95267],[22.67587,43.95114],[22.67849,43.94964],[22.67789,43.94925],[22.67821,43.94904],[22.67791,43.94861],[22.67815,43.94846],[22.67866,43.94829],[22.6811,43.94904],[22.68595,43.94734],[22.68517,43.94705],[22.68234,43.94414],[22.68384,43.94387],[22.68422,43.94223],[22.68567,43.94122],[22.68403,43.94043],[22.68064,43.93979],[22.68078,43.93763],[22.68036,43.9373],[22.6797,43.93782],[22.67805,43.93751],[22.67722,43.93884],[22.67626,43.93877],[22.67532,43.93979],[22.673,43.93976],[22.67381,43.93599],[22.67248,43.93632],[22.67311,43.93278],[22.67376,43.93155],[22.67172,43.93096],[22.67174,43.93124],[22.67071,43.93116],[22.66938,43.93035],[22.67169,43.93028],[22.67461,43.92835],[22.66542,43.92537],[22.66511,43.92485],[22.66635,43.91923],[22.66629,43.91764],[22.66655,43.91733],[22.66956,43.91767],[22.66732,43.91522],[22.66526,43.91482],[22.66317,43.91331],[22.66257,43.91186],[22.66356,43.91108],[22.6665,43.91003],[22.6685,43.90989],[22.67077,43.9114],[22.67263,43.91117],[22.67295,43.91089],[22.67438,43.91184],[22.67578,43.91224],[22.67865,43.91257],[22.6806,43.91336],[22.68286,43.91352],[22.68532,43.91285],[22.68544,43.91198],[22.68493,43.91076],[22.68634,43.91083],[22.68681,43.91095],[22.68779,43.912],[22.69215,43.91321],[22.69333,43.91434],[22.69441,43.91603],[22.69518,43.91652],[22.69618,43.91632],[22.69638,43.91704],[22.69809,43.91708],[22.69903,43.91742],[22.69944,43.91789],[22.69972,43.91933],[22.70102,43.92076],[22.70148,43.92082],[22.70394,43.91946],[22.70561,43.91954],[22.70753,43.92075],[22.70867,43.92329],[22.70984,43.92363],[22.71111,43.92303],[22.7122,43.92007],[22.71388,43.91719],[22.71644,43.91529],[22.71739,43.91354],[22.72,43.91195],[22.72177,43.91143],[22.72393,43.91007],[22.72548,43.91064],[22.7309,43.91162],[22.73338,43.90647],[22.7313,43.90576],[22.74343,43.90552],[22.74727,43.90633],[22.75295,43.90407],[22.75315,43.90366],[22.7518,43.90364],[22.75186,43.90293],[22.75068,43.90272],[22.75032,43.90232],[22.75052,43.90198],[22.74963,43.9018],[22.74782,43.90049],[22.74729,43.89882],[22.74744,43.89829],[22.75006,43.89666],[22.74902,43.89357],[22.75087,43.89218],[22.74648,43.89272],[22.7461,43.89034],[22.74527,43.88973],[22.74584,43.88869],[22.74771,43.88787],[22.74768,43.88739],[22.74626,43.88573],[22.74421,43.88466],[22.74007,43.87754],[22.73486,43.87169],[22.74635,43.87082],[22.74998,43.87136],[22.75015,43.87032],[22.74842,43.86898],[22.75001,43.86696],[22.75019,43.86567],[22.7493,43.86458],[22.75012,43.86375],[22.75033,43.86256],[22.74993,43.86227],[22.7467,43.86197],[22.74628,43.86147],[22.7468,43.86066],[22.74698,43.85927],[22.74678,43.85804],[22.74598,43.85713],[22.7476,43.85475],[22.7478,43.85398],[22.7496,43.8532],[22.75183,43.85104],[22.75274,43.84862],[22.75617,43.84824],[22.75998,43.84653],[22.76048,43.84516],[22.76026,43.84408],[22.76168,43.84318],[22.7617,43.84193],[22.76256,43.8413],[22.76307,43.84027],[22.76415,43.84004],[22.76447,43.83904],[22.76641,43.83706],[22.77105,43.83496],[22.7726,43.83456],[22.76207,43.82413],[22.76296,43.82356],[22.75968,43.82097],[22.76138,43.81954],[22.7547,43.81652],[22.75376,43.81742],[22.75344,43.81717],[22.75416,43.81629],[22.75145,43.81523],[22.75091,43.81447],[22.75078,43.81355],[22.75029,43.81288],[22.74951,43.80879],[22.75418,43.80886],[22.75343,43.8081],[22.75134,43.80255],[22.75014,43.80162],[22.75975,43.80083],[22.76732,43.80069],[22.76812,43.80015],[22.7679,43.79752],[22.76694,43.7975],[22.76689,43.79724],[22.77236,43.79675],[22.77322,43.79723],[22.77622,43.79752],[22.77943,43.79614],[22.7812,43.79582],[22.78413,43.79414],[22.78742,43.79401],[22.78858,43.7935],[22.78907,43.7939],[22.79028,43.79382],[22.79059,43.7946],[22.79395,43.79568],[22.79529,43.79799],[22.79621,43.79872],[22.7983,43.79914],[22.79984,43.8001],[22.80184,43.80046],[22.80544,43.80017],[22.80642,43.80036],[22.80719,43.80123],[22.80719,43.80244],[22.80625,43.80491],[22.80543,43.80586],[22.80566,43.80632],[22.80826,43.80674],[22.81037,43.80587],[22.81076,43.80519],[22.81448,43.80601],[22.81663,43.80589],[22.81703,43.80647],[22.81662,43.80747],[22.81682,43.80789],[22.82185,43.80867],[22.82459,43.80974],[22.82475,43.80987],[22.82424,43.81031],[22.8241,43.81204],[22.82609,43.81204],[22.82694,43.81503],[22.82946,43.81917],[22.82997,43.82101],[22.83138,43.82352],[22.8327,43.82363],[22.8369,43.8227],[22.84022,43.82127],[22.84519,43.82555],[22.84519,43.82641],[22.84747,43.82569],[22.85022,43.82406],[22.84996,43.82676],[22.85024,43.82693],[22.86189,43.82657],[22.86469,43.82714],[22.86841,43.82721],[22.87723,43.82998],[22.87929,43.83248],[22.88054,43.83312],[22.86891,43.8379],[22.86313,43.84134],[22.8583,43.84471],[22.85508,43.84737],[22.84782,43.85546],[22.84587,43.85846],[22.84431,43.86174],[22.84313,43.86562],[22.84173,43.87335],[22.84145,43.88197],[22.84212,43.88783],[22.84373,43.89495],[22.8477,43.90698],[22.84917,43.91034],[22.86378,43.92825],[22.86548,43.93072],[22.86203,43.93392],[22.86219,43.93715],[22.86436,43.94132],[22.87269,43.96119],[22.87705,43.97473],[22.88073,43.98138],[22.88296,43.98431],[22.88562,43.98663],[22.89055,43.9895],[22.9057,43.99426],[22.91806,43.99754],[22.92639,44.00041],[22.92698,43.99978],[22.93712,44.00305],[22.9637,44.00739],[22.96995,44.00893],[22.97098,44.00588],[22.9728,44.00629],[22.97911,44.00675],[23.00405,44.01138],[23.0077,44.01255],[23.0143,44.01527],[23.01721,44.01761],[23.02391,44.02724],[23.03827,44.04599],[23.04342,44.05339],[23.04583,44.0572],[23.04774,44.06141],[23.04848,44.06408],[23.04808,44.06764],[23.04717,44.07062],[23.04541,44.07348],[23.04353,44.07551],[23.0365,44.08078],[23.03095,44.08405],[23.0252,44.08716],[23.01959,44.08949],[23.01322,44.09159],[23.00124,44.09491],[22.98928,44.09743],[22.97894,44.09814],[22.97225,44.09776],[22.96237,44.09602],[22.95377,44.09617],[22.93841,44.0984],[22.92808,44.09949],[22.92227,44.10076],[22.91985,44.09626],[22.91489,44.09796],[22.91352,44.09812],[22.90822,44.08721],[22.90365,44.08888],[22.9037,44.08951],[22.90312,44.08975],[22.90097,44.09038],[22.90016,44.09041],[22.89959,44.09007],[22.89642,44.0868],[22.89173,44.08122],[22.89063,44.07949],[22.88765,44.07341],[22.88809,44.069],[22.87659,44.06912],[22.87677,44.06815],[22.85855,44.06923],[22.85763,44.07513],[22.85371,44.07467],[22.8497,44.07525],[22.8493,44.08085],[22.84612,44.08174],[22.84548,44.08152],[22.84447,44.08172],[22.83784,44.08354],[22.83476,44.08156],[22.83166,44.08004],[22.83138,44.0795],[22.82915,44.08197],[22.82859,44.08223],[22.8283,44.08315],[22.81312,44.08124],[22.81105,44.08129],[22.80908,44.08067],[22.80032,44.07944],[22.79951,44.07872],[22.79845,44.07663],[22.7984,44.07585],[22.79958,44.07166],[22.80183,44.0683],[22.80167,44.06496],[22.80111,44.06354],[22.79563,44.05986],[22.79612,44.05884],[22.79726,44.05813],[22.7942,44.05341],[22.79575,44.05134],[22.79535,44.05068],[22.79378,44.05129],[22.79324,44.05203],[22.79332,44.0524],[22.79175,44.05247],[22.79154,44.05348],[22.79008,44.05325],[22.79026,44.05383],[22.78946,44.05365],[22.78981,44.05473],[22.78939,44.05511],[22.7884,44.05501],[22.78833,44.0556],[22.78649,44.05566],[22.78644,44.05628],[22.78552,44.05632],[22.78506,44.05668],[22.78464,44.0564],[22.78439,44.05706],[22.78361,44.05744],[22.78283,44.05691],[22.78154,44.05749],[22.78077,44.05734],[22.78055,44.05776],[22.77881,44.05839],[22.77816,44.05823],[22.77762,44.05873],[22.7758,44.0584],[22.77539,44.05932],[22.7745,44.05916],[22.77472,44.05943],[22.77456,44.0601],[22.77517,44.06038],[22.7743,44.06159],[22.77071,44.06298],[22.76897,44.06405],[22.76619,44.06416],[22.76284,44.05693],[22.76142,44.05729],[22.76144,44.05797],[22.76056,44.05877],[22.76105,44.05921],[22.75882,44.05945],[22.75789,44.05914],[22.75755,44.06032],[22.75567,44.05983],[22.75363,44.05872],[22.75302,44.05909],[22.75315,44.05955],[22.75077,44.0604],[22.75131,44.06109],[22.75062,44.06151],[22.75089,44.06313],[22.7506,44.06341],[22.75139,44.06458],[22.7531,44.06533],[22.75543,44.06424],[22.75653,44.06826],[22.74454,44.07109],[22.74115,44.0716],[22.7416,44.07037],[22.74209,44.07009],[22.74106,44.06834],[22.73719,44.06578],[22.73637,44.06501],[22.73642,44.06467],[22.73536,44.06409],[22.73487,44.064],[22.73238,44.06546],[22.73385,44.06668],[22.73334,44.06668],[22.72782,44.06505],[22.72686,44.06503],[22.72553,44.06583],[22.72292,44.06578],[22.72179,44.06513],[22.71131,44.06265],[22.71014,44.06215],[22.70869,44.06096],[22.70448,44.06007],[22.70186,44.05817],[22.70003,44.05795],[22.69809,44.05817],[22.69465,44.05703],[22.69157,44.05686],[22.69055,44.05652],[22.68749,44.05485],[22.68605,44.053],[22.68438,44.05184],[22.68329,44.05163],[22.68294,44.05097],[22.67868,44.04822],[22.67462,44.04778],[22.67082,44.04597],[22.66795,44.04539],[22.66454,44.04736],[22.66245,44.04817],[22.65925,44.04876],[22.65745,44.04874],[22.6552,44.05015],[22.65413,44.0504],[22.65342,44.04952],[22.65227,44.04953],[22.65026,44.04611],[22.64955,44.04545],[22.6479,44.04516],[22.64715,44.04351],[22.64344,44.04197],[22.64167,44.04221],[22.64077,44.04165],[22.64049,44.04068],[22.63936,44.04224],[22.6371,44.04049],[22.63542,44.03968],[22.63262,44.03577],[22.62979,44.03352],[22.62791,44.03156],[22.62757,44.02938],[22.62887,44.02882],[22.62982,44.02756],[22.62983,44.0273],[22.62897,44.027],[22.62945,44.02642],[22.62937,44.02594],[22.63122,44.02522],[22.63586,44.02472],[22.63607,44.02517],[22.63767,44.02571],[22.6376,44.02631],[22.63846,44.02672],[22.63941,44.02604],[22.6407,44.02572],[22.64084,44.02541],[22.6417,44.02562],[22.6431,44.02543],[22.64339,44.02476],[22.64389,44.02491],[22.64448,44.0244],[22.64526,44.02447],[22.64573,44.02411],[22.64983,44.02416],[22.65152,44.02457],[22.65225,44.02387],[22.6541,44.0242],[22.65599,44.02181],[22.6571,44.02116],[22.6564,44.02074],[22.65559,44.0191],[22.6517,44.01795],[22.65111,44.01851],[22.6478,44.01857],[22.644,44.01953],[22.64223,44.01945],[22.63575,44.01717],[22.6322,44.01545],[22.6297,44.01489],[22.62582,44.01459],[22.62287,44.01336],[22.6215,44.0123],[22.61325,44.00916],[22.61124,44.00736],[22.60432,44.00306],[22.60235,44.00125],[22.60154,44.00003],[22.59958,43.99874],[22.5979,43.99691],[22.59706,43.9965]]]]}},{"type":"Feature","properties":{"name":"Etropole","admin":"obshtina","source":"© OpenStreetMap contributors, ODbL 1.0","osm_relation":1978768},"geometry":{"type":"Polygon","coordinates":[[[24.156372,42.934422],[24.157,42.934161],[24.158276,42.93271],[24.159007,42.932615],[24.159995,42.932015],[24.159998,42.931734],[24.16085,42.931346],[24.162919,42.931232],[24.162958,42.93081],[24.163426,42.930767],[24.164169,42.929966],[24.164667,42.930059],[24.165286,42.92971],[24.165342,42.92943],[24.164867,42.928393],[24.164751,42.927634],[24.164889,42.926803],[24.165509,42.926047],[24.166527,42.925311],[24.167234,42.925126],[24.167498,42.924773],[24.167876,42.923896],[24.167873,42.922978],[24.168294,42.922453],[24.168366,42.921593],[24.169187,42.920735],[24.169136,42.920201],[24.169657,42.918243],[24.169472,42.917755],[24.168671,42.917253],[24.167131,42.916831],[24.165432,42.916641],[24.16194,42.916745],[24.159755,42.917691],[24.15959,42.917324],[24.159562,42.916325],[24.15991,42.915125],[24.159631,42.914524],[24.160057,42.913557],[24.160589,42.913084],[24.161804,42.91248],[24.165355,42.911684],[24.168677,42.910324],[24.170764,42.909874],[24.171055,42.909718],[24.171607,42.908993],[24.172776,42.90856],[24.171913,42.908234],[24.172566,42.907734],[24.172087,42.907639],[24.172119,42.907351],[24.171581,42.907346],[24.171998,42.905893],[24.171986,42.904911],[24.172937,42.90269],[24.173012,42.90155],[24.172251,42.901354],[24.171635,42.900783],[24.172368,42.900669],[24.172909,42.900835],[24.173489,42.900353],[24.174821,42.900954],[24.17526,42.900842],[24.175729,42.901072],[24.176539,42.901137],[24.17663,42.901024],[24.176423,42.898956],[24.176669,42.89745],[24.176176,42.896551],[24.175958,42.89555],[24.174714,42.894917],[24.172628,42.891526],[24.172018,42.889253],[24.169866,42.88677],[24.170627,42.884965],[24.170853,42.883668],[24.172394,42.882573],[24.174136,42.881013],[24.17465,42.87934],[24.17508,42.878616],[24.175761,42.877983],[24.176313,42.877878],[24.1759,42.877341],[24.173906,42.875891],[24.172842,42.874902],[24.171034,42.873904],[24.169565,42.873448],[24.169575,42.873257],[24.170184,42.87273],[24.171086,42.871354],[24.172139,42.870826],[24.172569,42.870295],[24.171036,42.870101],[24.171026,42.869471],[24.171729,42.869042],[24.171484,42.868561],[24.170468,42.867722],[24.169829,42.86771],[24.169021,42.867073],[24.168561,42.866998],[24.168592,42.866582],[24.168204,42.866173],[24.169012,42.86582],[24.170682,42.865549],[24.170731,42.861732],[24.171268,42.86013],[24.170686,42.858984],[24.167543,42.857544],[24.166171,42.855803],[24.165908,42.855219],[24.166958,42.854518],[24.16763,42.853684],[24.167997,42.852879],[24.167873,42.852043],[24.168133,42.85142],[24.168322,42.850212],[24.169043,42.849423],[24.169275,42.848628],[24.17034,42.848637],[24.172658,42.848239],[24.172828,42.848148],[24.17257,42.848078],[24.172934,42.847913],[24.173523,42.847251],[24.174532,42.847629],[24.174653,42.847538],[24.174454,42.847324],[24.174771,42.847285],[24.17438,42.845758],[24.174622,42.845576],[24.174525,42.845444],[24.172548,42.84517],[24.172521,42.844884],[24.171944,42.844441],[24.170431,42.843843],[24.16947,42.843269],[24.168968,42.842622],[24.168713,42.841729],[24.169144,42.841113],[24.170726,42.840613],[24.171526,42.840138],[24.173082,42.839549],[24.175102,42.83963],[24.179601,42.837989],[24.181928,42.837728],[24.183194,42.83782],[24.183954,42.837476],[24.185327,42.837282],[24.186418,42.836723],[24.187124,42.835718],[24.187715,42.835236],[24.188843,42.835361],[24.189116,42.834854],[24.18983,42.835],[24.191046,42.834684],[24.192381,42.834082],[24.191829,42.833621],[24.191637,42.832889],[24.190649,42.832842],[24.19046,42.832502],[24.18901,42.831353],[24.188311,42.831216],[24.187839,42.83077],[24.186954,42.830507],[24.186833,42.829941],[24.185158,42.829848],[24.184169,42.829208],[24.182926,42.829462],[24.182672,42.828933],[24.182142,42.828641],[24.181569,42.827969],[24.180586,42.828501],[24.177049,42.828307],[24.17642,42.828745],[24.175918,42.828857],[24.175573,42.828825],[24.175385,42.828277],[24.175189,42.828233],[24.17436,42.82842],[24.173609,42.828877],[24.172542,42.828715],[24.172012,42.828405],[24.170807,42.828802],[24.16978,42.828838],[24.169118,42.827953],[24.167882,42.827891],[24.16799,42.827737],[24.167789,42.827451],[24.167811,42.826478],[24.168662,42.824635],[24.1678,42.821978],[24.167879,42.820735],[24.1677,42.820295],[24.167739,42.819638],[24.167487,42.819181],[24.167343,42.817832],[24.167502,42.816282],[24.168425,42.815887],[24.171022,42.813839],[24.171836,42.813508],[24.17297,42.813345],[24.173289,42.814171],[24.173685,42.814482],[24.17514,42.814443],[24.176529,42.814143],[24.178185,42.814515],[24.17922,42.814956],[24.180897,42.815086],[24.181338,42.815928],[24.18292,42.816185],[24.183733,42.816565],[24.18423,42.817037],[24.185068,42.817444],[24.186829,42.818968],[24.187836,42.819247],[24.189433,42.820457],[24.191148,42.821415],[24.192018,42.821524],[24.194002,42.820957],[24.196371,42.820765],[24.197366,42.82027],[24.199216,42.81975],[24.199876,42.819708],[24.200178,42.81948],[24.201,42.819662],[24.203071,42.820752],[24.203333,42.820236],[24.202706,42.819269],[24.202444,42.81748],[24.201795,42.816684],[24.201899,42.816323],[24.202562,42.815723],[24.202246,42.815087],[24.202447,42.813951],[24.20037,42.813422],[24.199209,42.813499],[24.19844,42.812937],[24.19766,42.812647],[24.195297,42.809818],[24.195106,42.809121],[24.194916,42.808957],[24.191955,42.808703],[24.190669,42.8084],[24.190116,42.80787],[24.189631,42.807692],[24.182979,42.806733],[24.179236,42.804514],[24.178314,42.804234],[24.176924,42.804453],[24.176444,42.803602],[24.175638,42.803546],[24.174983,42.803084],[24.17398,42.803047],[24.173264,42.802639],[24.171225,42.802027],[24.170731,42.801698],[24.170328,42.800972],[24.169733,42.800428],[24.168842,42.800526],[24.166667,42.801382],[24.164469,42.800771],[24.164182,42.79963],[24.162966,42.799208],[24.16194,42.799289],[24.161255,42.800006],[24.16072,42.8002],[24.159727,42.800055],[24.158392,42.799067],[24.156395,42.798805],[24.155253,42.799238],[24.154886,42.799232],[24.153081,42.797951],[24.152531,42.797172],[24.152671,42.79673],[24.152537,42.796002],[24.151876,42.795108],[24.152229,42.79424],[24.153171,42.793539],[24.153164,42.793062],[24.152004,42.792361],[24.150205,42.79063],[24.149845,42.788715],[24.148831,42.787941],[24.148487,42.787089],[24.147811,42.786815],[24.145777,42.78649],[24.143803,42.785291],[24.142623,42.785625],[24.141852,42.785551],[24.141556,42.785382],[24.141092,42.784657],[24.140292,42.784268],[24.139172,42.784556],[24.138512,42.784562],[24.137315,42.783815],[24.13534,42.78331],[24.133146,42.783091],[24.131885,42.782803],[24.130377,42.782982],[24.129527,42.78271],[24.1279078,42.7827691],[24.12729,42.781571],[24.127372,42.778867],[24.127235,42.777558],[24.127539,42.776393],[24.127884,42.775841],[24.127976,42.774955],[24.127144,42.774689],[24.126023,42.77404],[24.12533,42.773982],[24.124018,42.773282],[24.123114,42.771912],[24.12277,42.771744],[24.122584,42.771277],[24.119071,42.77068],[24.117217,42.770556],[24.114948,42.769992],[24.114353,42.769699],[24.113024,42.767942],[24.111219,42.767319],[24.108227,42.766799],[24.104029,42.766774],[24.101807,42.766547],[24.098324,42.76572],[24.0941812,42.7653776],[24.093776,42.763972],[24.093196,42.763456],[24.088432,42.760902],[24.087397,42.76061],[24.086577,42.760583],[24.086342,42.760303],[24.082124,42.758237],[24.079893,42.757466],[24.078068,42.75733],[24.07645,42.757475],[24.076133,42.756091],[24.075605,42.755249],[24.075708,42.753977],[24.075568,42.753685],[24.075534,42.751122],[24.072365,42.750571],[24.066299,42.75007],[24.065338,42.74974],[24.063025,42.750169],[24.061357,42.750725],[24.060671,42.751833],[24.060355,42.751918],[24.060089,42.752468],[24.056918,42.752126],[24.056399,42.752453],[24.054037,42.753043],[24.052805,42.753607],[24.045248,42.755509],[24.043337,42.753675],[24.041329,42.752388],[24.040363,42.751017],[24.039902,42.750716],[24.038296,42.749859],[24.035694,42.749171],[24.032474,42.747898],[24.032398,42.746107],[24.032646,42.745084],[24.032146,42.743225],[24.032162,42.742498],[24.031567,42.741705],[24.031513,42.740926],[24.031189,42.740174],[24.031328,42.740018],[24.030785,42.739622],[24.030758,42.73938],[24.030969,42.739257],[24.030773,42.737328],[24.029907,42.736389],[24.022752,42.736002],[24.021556,42.736181],[24.020245,42.736639],[24.018317,42.737662],[24.015178,42.73844],[24.01108,42.739843],[24.009763,42.740132],[24.007744,42.740273],[24.005023,42.740989],[24.002303,42.742032],[24.00022,42.743256],[23.995598,42.744564],[23.995066,42.745002],[23.99472,42.746115],[23.992999,42.74585],[23.991598,42.745934],[23.987819,42.747552],[23.986765,42.748167],[23.986776,42.748521],[23.985617,42.749648],[23.982939,42.750581],[23.981832,42.751447],[23.981181,42.751685],[23.979206,42.752908],[23.9766348,42.754875],[23.9756667,42.7549826],[23.972267,42.754891],[23.971406,42.755439],[23.970718,42.756511],[23.966444,42.758039],[23.964712,42.757805],[23.96057,42.757672],[23.9576,42.758906],[23.957183,42.760087],[23.956135,42.760461],[23.954728,42.761615],[23.953938,42.762064],[23.950055,42.76228],[23.947852,42.763335],[23.946804,42.763573],[23.945381,42.764408],[23.943924,42.763974],[23.933612,42.766905],[23.931576,42.768953],[23.929408,42.769773],[23.928082,42.77049],[23.927138,42.771619],[23.926871,42.771751],[23.92656,42.772648],[23.925965,42.773056],[23.923486,42.773202],[23.920291,42.774057],[23.919031,42.77386],[23.917408,42.774083],[23.916557,42.77469],[23.915072,42.775344],[23.914078,42.776402],[23.913325,42.776945],[23.911694,42.77778],[23.908282,42.779015],[23.907378,42.779046],[23.906921,42.779256],[23.906362,42.77915],[23.905318,42.779406],[23.90487,42.779268],[23.903388,42.779507],[23.900846,42.779628],[23.89654,42.780644],[23.8956717,42.7812842],[23.896302,42.783014],[23.896427,42.784097],[23.896283,42.784452],[23.895529,42.785181],[23.895449,42.785514],[23.896948,42.78858],[23.897001,42.790094],[23.896676,42.791418],[23.896117,42.792357],[23.895673,42.792748],[23.894717,42.792994],[23.892284,42.794125],[23.888834,42.796672],[23.886336,42.797788],[23.885123,42.798786],[23.884687,42.799815],[23.884203,42.800401],[23.882547,42.801634],[23.881534,42.80255],[23.881313,42.802939],[23.88172,42.804679],[23.88229,42.805419],[23.881982,42.806702],[23.882048,42.806983],[23.883439,42.808157],[23.88713,42.810648],[23.887684,42.811331],[23.874863,42.818454],[23.871996,42.817586],[23.871381,42.817592],[23.869678,42.818227],[23.865119,42.818638],[23.864562,42.818879],[23.863359,42.819007],[23.862762,42.81933],[23.862115,42.820046],[23.861704,42.820137],[23.860743,42.81969],[23.859824,42.818934],[23.859044,42.818521],[23.857602,42.818285],[23.856447,42.8186],[23.851644,42.820559],[23.848378,42.822183],[23.846629,42.823903],[23.845003,42.824949],[23.843542,42.82784],[23.843577,42.828503],[23.844038,42.828926],[23.849574,42.830112],[23.851827,42.830392],[23.852404,42.830745],[23.852465,42.83246],[23.851644,42.834115],[23.851612,42.834718],[23.851017,42.835332],[23.850499,42.836464],[23.850628,42.837494],[23.850156,42.839985],[23.849116,42.841775],[23.848171,42.842985],[23.848345,42.843439],[23.849023,42.844157],[23.848981,42.845147],[23.849435,42.847148],[23.84982,42.848011],[23.849546,42.849155],[23.850139,42.84994],[23.851737,42.850979],[23.852588,42.851979],[23.853411,42.852512],[23.853795,42.853194],[23.853621,42.854577],[23.853857,42.855053],[23.854152,42.855254],[23.855009,42.855409],[23.856317,42.856907],[23.858084,42.857625],[23.859235,42.858395],[23.860644,42.858438],[23.861419,42.858279],[23.862208,42.856947],[23.86315,42.857008],[23.864217,42.85738],[23.866444,42.857505],[23.867665,42.856547],[23.867782,42.855663],[23.867909,42.855595],[23.870032,42.855691],[23.87244,42.855167],[23.874553,42.854999],[23.880035,42.856119],[23.881443,42.85594],[23.882587,42.856005],[23.883324,42.856544],[23.884187,42.857749],[23.884881,42.858431],[23.886873,42.858858],[23.88812,42.859598],[23.88952,42.860019],[23.890821,42.860212],[23.892086,42.860195],[23.893237,42.860738],[23.894013,42.860648],[23.895419,42.860076],[23.896526,42.858969],[23.898491,42.858285],[23.898864,42.857886],[23.89967,42.857778],[23.900497,42.857801],[23.903606,42.858458],[23.907535,42.858235],[23.911301,42.858755],[23.914293,42.859407],[23.915761,42.859049],[23.916639,42.859444],[23.918552,42.859698],[23.920438,42.860222],[23.922128,42.859878],[23.922777,42.85942],[23.92356,42.859361],[23.924071,42.85951],[23.924492,42.859227],[23.925362,42.859748],[23.926954,42.860327],[23.927715,42.860851],[23.928185,42.861465],[23.928939,42.862991],[23.9303229,42.8647483],[23.931418,42.866684],[23.931961,42.866982],[23.932603,42.867659],[23.933146,42.867915],[23.934061,42.86915],[23.935131,42.870163],[23.936385,42.870975],[23.938312,42.871728],[23.939453,42.871763],[23.941222,42.871306],[23.943686,42.871948],[23.944881,42.87194],[23.94682,42.872212],[23.948104,42.872479],[23.949803,42.873222],[23.950547,42.873197],[23.951755,42.872636],[23.954795,42.872899],[23.956245,42.872383],[23.958537,42.8725],[23.959433,42.87174],[23.960599,42.871331],[23.961247,42.871415],[23.962306,42.871971],[23.962829,42.871946],[23.96471,42.871252],[23.967098,42.870963],[23.968469,42.871006],[23.969211,42.870817],[23.969728,42.870435],[23.971553,42.86997],[23.972619,42.87001],[23.972454,42.870229],[23.971493,42.870594],[23.971009,42.872043],[23.970428,42.872488],[23.970087,42.873001],[23.970105,42.873404],[23.970693,42.874479],[23.970745,42.874877],[23.969264,42.875732],[23.968438,42.876527],[23.967402,42.877936],[23.967323,42.878208],[23.967512,42.87855],[23.968205,42.878972],[23.968825,42.879099],[23.969502,42.879695],[23.971252,42.880163],[23.971328,42.880582],[23.97163,42.880577],[23.975322,42.878189],[23.975581,42.877807],[23.976141,42.877764],[23.976259,42.877164],[23.977463,42.87751],[23.978051,42.877],[23.979256,42.876523],[23.979435,42.876758],[23.98068,42.877428],[23.982687,42.877147],[23.983779,42.877602],[23.98536,42.877704],[23.98521,42.877855],[23.985872,42.879109],[23.986889,42.879421],[23.986204,42.880477],[23.986127,42.881674],[23.986253,42.882529],[23.988708,42.884679],[23.990374,42.885586],[23.991211,42.886739],[23.9919368,42.8874429],[23.993457,42.886713],[23.99429,42.886124],[23.99594,42.883806],[23.997057,42.884217],[23.997811,42.886612],[24.000162,42.888515],[24.001317,42.888846],[24.003525,42.890046],[24.004775,42.89055],[24.007466,42.891105],[24.008166,42.891081],[24.008962,42.89177],[24.009064,42.892046],[24.008829,42.892315],[24.009798,42.893343],[24.009993,42.894173],[24.010959,42.895103],[24.014082,42.896279],[24.014291,42.895972],[24.014947,42.895854],[24.015239,42.896338],[24.015454,42.897722],[24.015638,42.898042],[24.015169,42.898657],[24.015386,42.899374],[24.017566,42.898913],[24.018248,42.89863],[24.019592,42.898482],[24.019705,42.899068],[24.020968,42.898973],[24.021332,42.89904],[24.021824,42.899413],[24.022712,42.899281],[24.024431,42.900463],[24.025578,42.900542],[24.026206,42.900776],[24.026199,42.90133],[24.026771,42.901727],[24.027938,42.901949],[24.030161,42.902041],[24.030601,42.904121],[24.031095,42.90485],[24.033868,42.904771],[24.036298,42.905466],[24.036513,42.905643],[24.036694,42.906216],[24.038473,42.907628],[24.03879,42.908106],[24.040022,42.908757],[24.039869,42.909253],[24.040223,42.909266],[24.040337,42.90888],[24.041124,42.9092],[24.041243,42.909417],[24.040516,42.911123],[24.041787,42.911703],[24.04445,42.913423],[24.044709,42.913992],[24.045026,42.914209],[24.045633,42.914313],[24.046083,42.914156],[24.047071,42.914159],[24.047041,42.914964],[24.047396,42.91524],[24.047323,42.915705],[24.047502,42.915922],[24.048051,42.915979],[24.048235,42.916784],[24.048548,42.916798],[24.049673,42.915552],[24.050493,42.916315],[24.053618,42.917377],[24.058096,42.918187],[24.060574,42.920765],[24.061044,42.920923],[24.062483,42.920668],[24.063948,42.920789],[24.064389,42.920997],[24.064566,42.921441],[24.066551,42.923254],[24.070108,42.925078],[24.070683,42.924604],[24.070556,42.924482],[24.071599,42.923944],[24.071804,42.924116],[24.072179,42.92399],[24.072176,42.923731],[24.073379,42.923352],[24.073958,42.923325],[24.07312,42.924133],[24.072184,42.924448],[24.072578,42.924643],[24.072037,42.925413],[24.07289,42.925782],[24.072109,42.925997],[24.0732,42.926158],[24.073399,42.926416],[24.074328,42.926625],[24.074737,42.927052],[24.074182,42.927223],[24.073621,42.926756],[24.072851,42.926438],[24.073106,42.926728],[24.073093,42.927062],[24.072652,42.927179],[24.072408,42.927045],[24.072271,42.927361],[24.071654,42.927224],[24.070788,42.927589],[24.07212,42.927918],[24.074966,42.929015],[24.076137,42.929062],[24.076742,42.929306],[24.077085,42.930193],[24.077893,42.930259],[24.077978,42.930657],[24.078139,42.930713],[24.077985,42.931307],[24.078403,42.931334],[24.078331,42.931506],[24.078011,42.931516],[24.077884,42.931832],[24.078338,42.931946],[24.078235,42.932249],[24.078378,42.932791],[24.077873,42.93365],[24.077442,42.934002],[24.077261,42.934485],[24.078137,42.934578],[24.07985,42.934367],[24.080551,42.933359],[24.080732,42.93171],[24.080847,42.931682],[24.08093,42.932167],[24.080841,42.933784],[24.080669,42.934335],[24.079487,42.935438],[24.078801,42.935643],[24.077692,42.935636],[24.077107,42.935289],[24.076387,42.934534],[24.076069,42.934667],[24.075576,42.93522],[24.075476,42.935841],[24.076154,42.937641],[24.075441,42.938728],[24.075523,42.939129],[24.076234,42.938935],[24.076146,42.939252],[24.076333,42.940024],[24.079105,42.940567],[24.080429,42.9393],[24.081558,42.939253],[24.082562,42.939475],[24.083339,42.939374],[24.085497,42.940205],[24.087546,42.941428],[24.088898,42.941731],[24.089516,42.942086],[24.089743,42.94207],[24.089299,42.941013],[24.089399,42.940968],[24.091251,42.940921],[24.09194,42.941079],[24.092626,42.940772],[24.093259,42.941252],[24.093953,42.941061],[24.096482,42.941401],[24.098501,42.941419],[24.102321,42.942672],[24.103127,42.942238],[24.103744,42.939932],[24.104702,42.938612],[24.105071,42.937829],[24.105611,42.937241],[24.108947,42.937181],[24.110216,42.936081],[24.111277,42.93581],[24.115003,42.934378],[24.114614,42.935526],[24.114607,42.937095],[24.115678,42.937401],[24.115548,42.936817],[24.116009,42.935609],[24.116847,42.934592],[24.119983,42.933892],[24.121294,42.932788],[24.122751,42.932024],[24.125394,42.932335],[24.128745,42.931608],[24.128843,42.931558],[24.128648,42.931114],[24.129427,42.93073],[24.129802,42.930035],[24.13065,42.929641],[24.131605,42.929451],[24.132256,42.929433],[24.132375,42.929945],[24.134048,42.930524],[24.133749,42.930683],[24.132669,42.930759],[24.132317,42.930979],[24.132509,42.931214],[24.133201,42.931481],[24.132837,42.932344],[24.134769,42.933102],[24.134595,42.93347],[24.135511,42.933726],[24.135908,42.934135],[24.137028,42.933507],[24.138342,42.933324],[24.138493,42.932973],[24.139203,42.932422],[24.140056,42.932268],[24.141389,42.932937],[24.141647,42.932604],[24.141834,42.931736],[24.142298,42.931786],[24.143067,42.931382],[24.14441,42.931546],[24.144804,42.931823],[24.145222,42.931644],[24.146774,42.932388],[24.149081,42.932601],[24.149568,42.932188],[24.150583,42.932695],[24.150933,42.933301],[24.151247,42.933502],[24.154673,42.934526],[24.155641,42.934183],[24.156372,42.934422]]]}}]}