{"type": "FeatureCollection", "features": [{"type": "Feature", "properties": {"name": "El Hierro Island", "admin": "island", "source": "\u00a9 OpenStreetMap contributors, ODbL 1.0", "osm_relation": 2214681}, "geometry": {"type": "Polygon", "coordinates": [[[-17.9928386, 27.8223907], [-17.9930336, 27.8220624], [-17.9926755, 27.8219348], [-17.9923981, 27.8221303], [-17.9928161, 27.8215717], [-17.9920082, 27.8219584], [-17.9920468, 27.8216171], [-17.9915869, 27.8214384], [-17.9913781, 27.8212104], [-17.9913965, 27.8208357], [-17.9909059, 27.8205437], [-17.9910471, 27.8200281], [-17.9908961, 27.8197171], [-17.9902834, 27.8192377], [-17.9900074, 27.8186395], [-17.9896271, 27.81845], [-17.9895875, 27.8174377], [-17.9891755, 27.8159992], [-17.989125, 27.8155308], [-17.9892432, 27.8154405], [-17.9889793, 27.8153891], [-17.9888534, 27.8149059], [-17.9884527, 27.8147507], [-17.9882521, 27.8140162], [-17.9873744, 27.8125932], [-17.986479, 27.8101062], [-17.9865802, 27.8086283], [-17.9861944, 27.8077433], [-17.9865598, 27.8060012], [-17.987669, 27.8026257], [-17.9888141, 27.800732], [-17.989203, 27.8009008], [-17.9888501, 27.8003546], [-17.9890057, 27.7998637], [-17.9892437, 27.7994282], [-17.9895196, 27.7994837], [-17.9894471, 27.7991764], [-17.9901585, 27.7993661], [-17.9897373, 27.7986297], [-17.9900227, 27.7988224], [-17.9901604, 27.7985519], [-17.9902085, 27.79882], [-17.9906482, 27.7989729], [-17.9903779, 27.7987743], [-17.9903787, 27.7984942], [-17.9901894, 27.7983002], [-17.9903675, 27.7983065], [-17.9903024, 27.7981801], [-17.9904949, 27.7980876], [-17.9903412, 27.7979763], [-17.9904557, 27.7979495], [-17.9908546, 27.7981631], [-17.9907807, 27.7979234], [-17.9910981, 27.7981732], [-17.9914733, 27.798016], [-17.9915524, 27.7974083], [-17.9913935, 27.7971483], [-17.9915013, 27.797082], [-17.9919192, 27.7970432], [-17.9921334, 27.7974626], [-17.9926756, 27.7976075], [-17.9923096, 27.7971006], [-17.9914641, 27.7968813], [-17.9919977, 27.7966154], [-17.991682, 27.7962274], [-17.9927466, 27.7966309], [-17.9923211, 27.7962962], [-17.9925748, 27.7961387], [-17.9929064, 27.7963016], [-17.9925399, 27.7956718], [-17.9930858, 27.7956488], [-17.9929665, 27.7947318], [-17.9936599, 27.7941953], [-17.9939833, 27.7941241], [-17.9942709, 27.7936206], [-17.9942312, 27.7940408], [-17.9947404, 27.7941731], [-17.9948426, 27.7937753], [-17.994685, 27.793278], [-17.9951119, 27.792996], [-17.9953742, 27.7930189], [-17.9955781, 27.7933643], [-17.9960308, 27.793535], [-17.9958784, 27.7929909], [-17.9954212, 27.7926411], [-17.9956962, 27.7926855], [-17.9955967, 27.7924927], [-17.9957032, 27.7923719], [-17.9963228, 27.792619], [-17.9969396, 27.7925971], [-17.9967172, 27.7923304], [-17.9967259, 27.7918556], [-17.9969209, 27.7917089], [-17.9971297, 27.7919479], [-17.9970534, 27.7917475], [-17.9973296, 27.7918837], [-17.9972162, 27.7915372], [-17.9974267, 27.7916912], [-17.997173, 27.7913828], [-17.9973953, 27.791372], [-17.9977085, 27.790831], [-17.9989127, 27.7905512], [-17.9994073, 27.7910927], [-17.9992909, 27.7908789], [-17.9994765, 27.7908709], [-17.9991859, 27.790281], [-17.9995915, 27.7901114], [-18.0005287, 27.79115], [-18.0007113, 27.7910407], [-18.0006508, 27.7903095], [-18.0007618, 27.7901339], [-18.001086, 27.7907142], [-18.0018194, 27.7909045], [-18.0019853, 27.7907324], [-18.0019964, 27.790211], [-18.0016546, 27.7900044], [-18.0018334, 27.7898422], [-18.0017549, 27.7893956], [-18.002247, 27.7895957], [-18.0024763, 27.7894803], [-18.0028683, 27.7897193], [-18.0027269, 27.7894869], [-18.0032732, 27.7891272], [-18.0062287, 27.7886806], [-18.006122, 27.7885057], [-18.0063161, 27.7883648], [-18.0064063, 27.7879674], [-18.0068898, 27.787483], [-18.0084459, 27.7866792], [-18.0087522, 27.7867418], [-18.0089154, 27.7866112], [-18.0088871, 27.7862625], [-18.0101597, 27.7853291], [-18.0105415, 27.7856806], [-18.010708, 27.7856058], [-18.0108749, 27.785968], [-18.0108171, 27.7855808], [-18.0111561, 27.7855547], [-18.0105225, 27.784902], [-18.0109503, 27.7846301], [-18.0112497, 27.7848861], [-18.0113532, 27.7847337], [-18.0122359, 27.7848372], [-18.0119179, 27.7846437], [-18.0119345, 27.7844062], [-18.0121052, 27.784319], [-18.0122666, 27.7837773], [-18.0126393, 27.7834531], [-18.0130663, 27.7835082], [-18.0131878, 27.783298], [-18.0135893, 27.7831714], [-18.0138908, 27.7832914], [-18.0141759, 27.7829934], [-18.0146276, 27.7830588], [-18.0147272, 27.7826003], [-18.0148927, 27.7825709], [-18.0148217, 27.7824502], [-18.0152398, 27.7820125], [-18.0151167, 27.7815969], [-18.0147897, 27.7813257], [-18.0151758, 27.7806235], [-18.0155762, 27.7802497], [-18.0163152, 27.7799858], [-18.0165331, 27.7802584], [-18.0164349, 27.7793245], [-18.0166758, 27.7790118], [-18.0164544, 27.7786147], [-18.0166027, 27.7783057], [-18.0165578, 27.7776291], [-18.0170301, 27.7772585], [-18.0176294, 27.777218], [-18.0180675, 27.7755582], [-18.0183127, 27.7755712], [-18.0184131, 27.7753578], [-18.0185727, 27.7754377], [-18.0185462, 27.7751711], [-18.0187961, 27.7748733], [-18.0215919, 27.7727579], [-18.0220574, 27.7725195], [-18.0222921, 27.7726555], [-18.0222382, 27.7724496], [-18.0234749, 27.7719489], [-18.0234961, 27.7718024], [-18.0247707, 27.7709256], [-18.0254097, 27.7706694], [-18.0258463, 27.7707989], [-18.0256817, 27.7705713], [-18.0260191, 27.7702626], [-18.0266819, 27.7702525], [-18.0268109, 27.770199], [-18.0267332, 27.7700302], [-18.0270267, 27.7702604], [-18.0272938, 27.7699491], [-18.0275572, 27.7702596], [-18.0276951, 27.7700649], [-18.0278439, 27.7701959], [-18.0285416, 27.7702231], [-18.0285915, 27.7699847], [-18.0283385, 27.7697192], [-18.0284606, 27.7694867], [-18.0283692, 27.7691764], [-18.0288054, 27.7685472], [-18.0290566, 27.7684919], [-18.0295209, 27.7687055], [-18.0295441, 27.7682857], [-18.029396, 27.7681406], [-18.0303075, 27.7679622], [-18.0301656, 27.7676496], [-18.0304796, 27.7678161], [-18.0305922, 27.7674291], [-18.0313341, 27.7669184], [-18.0319267, 27.7668265], [-18.0325913, 27.7671756], [-18.0323357, 27.7666061], [-18.0325055, 27.7658631], [-18.0328403, 27.7658857], [-18.0329526, 27.7656642], [-18.0334346, 27.7658463], [-18.0333309, 27.7656321], [-18.0335262, 27.7655371], [-18.0335783, 27.7650181], [-18.0337104, 27.7648574], [-18.0341782, 27.7648423], [-18.0340309, 27.7642981], [-18.0342726, 27.7643456], [-18.0348068, 27.7638719], [-18.0354546, 27.7636517], [-18.0354641, 27.7630909], [-18.0357256, 27.7627479], [-18.0359074, 27.7628417], [-18.0358806, 27.7625475], [-18.0365629, 27.7620263], [-18.0384258, 27.7621255], [-18.0387717, 27.7624834], [-18.0390378, 27.7621078], [-18.0393944, 27.762198], [-18.0395381, 27.7619835], [-18.0395819, 27.7622457], [-18.0401093, 27.7621042], [-18.0403337, 27.7620064], [-18.0403866, 27.7617865], [-18.0417983, 27.7612475], [-18.0426077, 27.7611438], [-18.0444522, 27.7612609], [-18.0444604, 27.7611033], [-18.0449129, 27.7610056], [-18.0450609, 27.7613165], [-18.0453207, 27.7611449], [-18.0454108, 27.7614662], [-18.045529, 27.7610539], [-18.045618, 27.761365], [-18.0457725, 27.7613093], [-18.0457891, 27.7606734], [-18.0466169, 27.7604613], [-18.0467726, 27.7607595], [-18.0471807, 27.760714], [-18.0474061, 27.7610012], [-18.0472179, 27.7602041], [-18.0473332, 27.760096], [-18.0477445, 27.7600061], [-18.0479337, 27.7602856], [-18.0480884, 27.7600206], [-18.0493327, 27.7602351], [-18.0497245, 27.7601226], [-18.0499668, 27.7596928], [-18.050544, 27.7601447], [-18.050229, 27.7596956], [-18.0504732, 27.7593922], [-18.0512681, 27.7591244], [-18.0516583, 27.7592719], [-18.0518649, 27.7590474], [-18.0523513, 27.7588955], [-18.0524907, 27.7590017], [-18.052481, 27.7587813], [-18.0531345, 27.7591486], [-18.0532919, 27.7587453], [-18.0543246, 27.7587181], [-18.0546499, 27.7585338], [-18.0549863, 27.7590031], [-18.0551897, 27.758797], [-18.0555374, 27.7590485], [-18.0553741, 27.7584972], [-18.0558647, 27.7582153], [-18.0572536, 27.7580117], [-18.0573752, 27.7581425], [-18.0574697, 27.75796], [-18.0576614, 27.7581895], [-18.05818, 27.7582632], [-18.0584315, 27.7578049], [-18.0584768, 27.7567439], [-18.0593068, 27.7564231], [-18.0596486, 27.7565964], [-18.0600628, 27.7560383], [-18.0609537, 27.7557336], [-18.0615322, 27.7558583], [-18.0616575, 27.7555208], [-18.0618387, 27.7557347], [-18.062287, 27.7557007], [-18.0623409, 27.7554134], [-18.0631065, 27.755188], [-18.0632712, 27.7554058], [-18.0637588, 27.7549108], [-18.064356, 27.7545992], [-18.0657591, 27.7544284], [-18.0670607, 27.7540188], [-18.0680723, 27.7539568], [-18.0694494, 27.7535347], [-18.0701281, 27.7531531], [-18.0704589, 27.7531674], [-18.070678, 27.7533585], [-18.0708287, 27.7531042], [-18.0712649, 27.7534893], [-18.0715337, 27.7529844], [-18.0721114, 27.7533201], [-18.0723849, 27.7529376], [-18.0726155, 27.7532059], [-18.0729708, 27.752889], [-18.0742271, 27.7528375], [-18.0746138, 27.7531544], [-18.0749914, 27.7529386], [-18.0752601, 27.7534878], [-18.0754656, 27.7536015], [-18.0755921, 27.7530485], [-18.0757173, 27.7533912], [-18.0758211, 27.7533169], [-18.0760466, 27.7535583], [-18.075997, 27.7531055], [-18.0769809, 27.7529027], [-18.0772593, 27.7530727], [-18.078165, 27.7530131], [-18.0796914, 27.7533698], [-18.0816017, 27.7532228], [-18.0818569, 27.7534694], [-18.0819299, 27.7532089], [-18.0824361, 27.753145], [-18.0830538, 27.7532824], [-18.0832054, 27.7535216], [-18.0833109, 27.7534002], [-18.0838722, 27.7534764], [-18.0841536, 27.7538083], [-18.0842109, 27.7536247], [-18.0845348, 27.7536848], [-18.0848704, 27.7542857], [-18.0849585, 27.7538756], [-18.0853813, 27.7538131], [-18.086471, 27.7539823], [-18.0871212, 27.7546883], [-18.0880709, 27.7543645], [-18.0886686, 27.7552233], [-18.0889153, 27.7552351], [-18.0893367, 27.7548953], [-18.0904252, 27.755525], [-18.090711, 27.7554134], [-18.0909256, 27.7546619], [-18.0917322, 27.7546064], [-18.0925129, 27.754841], [-18.0925533, 27.754987], [-18.0936072, 27.7550046], [-18.093905, 27.7554271], [-18.0944576, 27.7551991], [-18.0956363, 27.7555552], [-18.0968896, 27.7555], [-18.0974267, 27.7558312], [-18.0985103, 27.7559979], [-18.0986818, 27.756615], [-18.099061, 27.7562926], [-18.0996715, 27.7562643], [-18.0999939, 27.7565253], [-18.1003046, 27.7564043], [-18.1006815, 27.7565918], [-18.100934, 27.7563718], [-18.1013718, 27.7565994], [-18.1014291, 27.756368], [-18.1016696, 27.7564715], [-18.1017411, 27.7563037], [-18.1025808, 27.7561353], [-18.1028288, 27.7564072], [-18.1027394, 27.7566067], [-18.1030225, 27.7570981], [-18.1031628, 27.7563921], [-18.103617, 27.756608], [-18.1042639, 27.7566226], [-18.1044111, 27.7567866], [-18.1051567, 27.7565201], [-18.1053106, 27.7566704], [-18.105635, 27.7566055], [-18.1078493, 27.7578043], [-18.1092888, 27.7580862], [-18.1094028, 27.7585599], [-18.1098363, 27.7584664], [-18.1102834, 27.7580927], [-18.1101482, 27.7584367], [-18.1103566, 27.7587621], [-18.1105274, 27.7586264], [-18.1105409, 27.7588963], [-18.1107115, 27.7586087], [-18.1112712, 27.7586562], [-18.1115924, 27.7591582], [-18.111789, 27.7592762], [-18.1119685, 27.7590973], [-18.1122589, 27.7591965], [-18.1123448, 27.7594645], [-18.1124993, 27.7593299], [-18.1132925, 27.7592741], [-18.1133225, 27.7598374], [-18.1136805, 27.7593165], [-18.1145757, 27.7597284], [-18.1151398, 27.7601781], [-18.1161895, 27.7604552], [-18.1174546, 27.761551], [-18.1187407, 27.7620251], [-18.1197356, 27.7633659], [-18.1196506, 27.7635727], [-18.1198827, 27.7634694], [-18.1204842, 27.7640717], [-18.1205766, 27.7644392], [-18.1211024, 27.7650186], [-18.1210288, 27.7653276], [-18.1213664, 27.7656582], [-18.1212769, 27.7658167], [-18.1214897, 27.7670548], [-18.1211219, 27.7672207], [-18.1212628, 27.7673362], [-18.1210758, 27.7675514], [-18.121151, 27.768118], [-18.1214367, 27.768248], [-18.12122, 27.7683601], [-18.1212165, 27.7686364], [-18.1214735, 27.7686481], [-18.1214015, 27.7691788], [-18.1216195, 27.7693393], [-18.1218206, 27.7692776], [-18.1218192, 27.768821], [-18.1220385, 27.7687756], [-18.1220481, 27.7689749], [-18.1223197, 27.7687451], [-18.1228984, 27.7686497], [-18.1231059, 27.769097], [-18.1240677, 27.7689361], [-18.1242769, 27.7690064], [-18.1241793, 27.7692096], [-18.1243442, 27.7693022], [-18.1244144, 27.7690753], [-18.1245945, 27.7691008], [-18.1250783, 27.7693207], [-18.1253813, 27.7698734], [-18.1261286, 27.7701413], [-18.1268234, 27.7701195], [-18.1272883, 27.7706431], [-18.1280209, 27.7703296], [-18.1284591, 27.7711307], [-18.1284951, 27.7708526], [-18.1289173, 27.7707054], [-18.1291579, 27.7710236], [-18.1296, 27.7708583], [-18.1300569, 27.771204], [-18.1304253, 27.7711631], [-18.1305444, 27.7708759], [-18.130337, 27.7707185], [-18.130268, 27.7703649], [-18.1303809, 27.7702941], [-18.1309018, 27.7706383], [-18.1309221, 27.7709003], [-18.1312559, 27.7708886], [-18.1312888, 27.7711678], [-18.1317436, 27.771081], [-18.1318013, 27.7712387], [-18.1319289, 27.7711333], [-18.1321737, 27.7713236], [-18.1324486, 27.7711763], [-18.1322938, 27.7709234], [-18.1323077, 27.7703282], [-18.1326659, 27.7701818], [-18.1331415, 27.7705877], [-18.1334525, 27.770313], [-18.1338284, 27.7702589], [-18.1339023, 27.7700887], [-18.1337025, 27.7698922], [-18.1342775, 27.7697476], [-18.1345626, 27.7694505], [-18.1345765, 27.7691774], [-18.1352572, 27.7690413], [-18.1348461, 27.7688688], [-18.1348381, 27.7683375], [-18.1350481, 27.7682635], [-18.1356394, 27.7684893], [-18.1353422, 27.767971], [-18.1357922, 27.7679402], [-18.1357201, 27.7676344], [-18.1364335, 27.767051], [-18.1365399, 27.766479], [-18.1366675, 27.7665562], [-18.1366437, 27.766914], [-18.1370765, 27.7670589], [-18.137318, 27.7669365], [-18.1378051, 27.7671796], [-18.1378449, 27.7662274], [-18.1381807, 27.766163], [-18.1385257, 27.7658245], [-18.1389671, 27.7656659], [-18.1400614, 27.7664298], [-18.1401049, 27.7663143], [-18.1393482, 27.7655532], [-18.140511, 27.7660673], [-18.1396172, 27.7653229], [-18.1397818, 27.7647968], [-18.1395943, 27.7644936], [-18.1396191, 27.7640955], [-18.1398832, 27.7637349], [-18.1397234, 27.7635473], [-18.1409821, 27.7625003], [-18.1412657, 27.7623534], [-18.1413404, 27.7625912], [-18.1415532, 27.7626242], [-18.1416645, 27.762296], [-18.1426561, 27.7628432], [-18.1428752, 27.7627523], [-18.1429362, 27.7629927], [-18.1434312, 27.7629956], [-18.1436904, 27.7628454], [-18.1432359, 27.7624863], [-18.143199, 27.7621461], [-18.1439797, 27.7617061], [-18.1439403, 27.7618558], [-18.1441798, 27.761953], [-18.1436617, 27.762018], [-18.1435491, 27.7623779], [-18.1441748, 27.7624972], [-18.1444376, 27.7627531], [-18.1446771, 27.7620646], [-18.1445355, 27.7618039], [-18.1445909, 27.7616548], [-18.1447232, 27.7617776], [-18.1447828, 27.7614233], [-18.1449839, 27.761844], [-18.1453524, 27.7616066], [-18.1456934, 27.7609867], [-18.145911, 27.7610201], [-18.1460459, 27.7607934], [-18.1466581, 27.7613214], [-18.146743, 27.760873], [-18.1465398, 27.7604241], [-18.1468989, 27.7596114], [-18.1471499, 27.7595308], [-18.1476002, 27.7596868], [-18.1476954, 27.7599747], [-18.1479164, 27.759802], [-18.1486162, 27.759901], [-18.1497126, 27.7604935], [-18.1499359, 27.7603066], [-18.1498922, 27.7599756], [-18.1500254, 27.759823], [-18.1505305, 27.7598196], [-18.1512558, 27.7601268], [-18.1514627, 27.7605856], [-18.151598, 27.7605616], [-18.151632, 27.7602474], [-18.1514945, 27.7600033], [-18.1513164, 27.7600546], [-18.1509247, 27.7592581], [-18.1508584, 27.7586741], [-18.1503964, 27.7583665], [-18.1511262, 27.7584159], [-18.1511091, 27.7581419], [-18.1513593, 27.7580537], [-18.1510455, 27.7579776], [-18.1510798, 27.7578762], [-18.1522335, 27.7581007], [-18.1523227, 27.7575758], [-18.152157, 27.7574344], [-18.1521746, 27.7571834], [-18.1525413, 27.757271], [-18.1525666, 27.7569726], [-18.1535207, 27.7569555], [-18.1533301, 27.7567305], [-18.1534954, 27.7563191], [-18.1530322, 27.7560407], [-18.15334, 27.7557792], [-18.1539243, 27.755891], [-18.1539375, 27.7557528], [-18.1534986, 27.7555086], [-18.1543553, 27.7552872], [-18.1541517, 27.7548982], [-18.1543896, 27.7545868], [-18.1543522, 27.7538767], [-18.1548735, 27.7537858], [-18.1549646, 27.7536668], [-18.1547946, 27.7535916], [-18.1550618, 27.7534946], [-18.1544603, 27.7533709], [-18.1541974, 27.7535836], [-18.1541112, 27.7534381], [-18.154341, 27.7531361], [-18.1542649, 27.7528598], [-18.1545965, 27.7527827], [-18.154495, 27.7524239], [-18.1550019, 27.7525443], [-18.1547333, 27.7521089], [-18.1551884, 27.7513352], [-18.1548253, 27.7506488], [-18.1553962, 27.750368], [-18.1547414, 27.7503538], [-18.1546742, 27.7500669], [-18.1544657, 27.7501214], [-18.1545672, 27.7498592], [-18.1542921, 27.7499221], [-18.1538064, 27.7497311], [-18.1532817, 27.7491182], [-18.1524692, 27.7488111], [-18.1523916, 27.7485291], [-18.1520717, 27.7487059], [-18.1516665, 27.7480929], [-18.1516108, 27.7458573], [-18.1517454, 27.7454955], [-18.1522012, 27.7451793], [-18.1518035, 27.7452265], [-18.1514291, 27.7448212], [-18.1512614, 27.7434693], [-18.1517708, 27.7404497], [-18.152064, 27.7367922], [-18.1521421, 27.7363953], [-18.1524287, 27.7361678], [-18.1521904, 27.7359561], [-18.1523374, 27.7354113], [-18.1518513, 27.7337741], [-18.1518524, 27.7319958], [-18.1526974, 27.7302007], [-18.1534918, 27.7295306], [-18.1537497, 27.7295148], [-18.1540271, 27.7298655], [-18.1544794, 27.7298916], [-18.1546065, 27.7298118], [-18.1544507, 27.7295454], [-18.1547125, 27.7296521], [-18.154489, 27.729325], [-18.1552102, 27.7292731], [-18.1552444, 27.7294537], [-18.1554644, 27.729354], [-18.1555293, 27.7296315], [-18.1557939, 27.7295268], [-18.1559041, 27.7298439], [-18.1564941, 27.7296565], [-18.1567127, 27.7301072], [-18.156903, 27.7301476], [-18.1567973, 27.7300088], [-18.1570219, 27.7300185], [-18.1570548, 27.7294874], [-18.1571228, 27.7296242], [-18.1572345, 27.7293943], [-18.1570606, 27.7288545], [-18.1572117, 27.7290033], [-18.1574155, 27.7289465], [-18.1572852, 27.7286844], [-18.1574891, 27.7287156], [-18.1576358, 27.7290032], [-18.157566, 27.7286459], [-18.1578583, 27.7285919], [-18.1585121, 27.7292365], [-18.1590389, 27.7292943], [-18.1590077, 27.7289392], [-18.158539, 27.7287168], [-18.1586638, 27.7282948], [-18.1583806, 27.7283527], [-18.1584943, 27.7280778], [-18.1588781, 27.7279248], [-18.1582638, 27.7280589], [-18.158507, 27.727797], [-18.1580351, 27.7276359], [-18.1584541, 27.7272956], [-18.1591427, 27.727453], [-18.1592882, 27.727363], [-18.1586173, 27.7267369], [-18.1582573, 27.7261224], [-18.1590569, 27.7258587], [-18.1593261, 27.7253261], [-18.1603113, 27.7255764], [-18.159644, 27.7250137], [-18.1597901, 27.7244571], [-18.159689, 27.7239703], [-18.1602237, 27.723786], [-18.1598786, 27.7235107], [-18.1598696, 27.7231713], [-18.1595308, 27.7227445], [-18.1599648, 27.7225065], [-18.1598475, 27.7220861], [-18.1601142, 27.7219046], [-18.1599072, 27.7216519], [-18.1600956, 27.7214882], [-18.1599152, 27.721208], [-18.1600623, 27.7211479], [-18.1599014, 27.7210671], [-18.1599174, 27.7196263], [-18.1600651, 27.7191441], [-18.1606169, 27.7185353], [-18.160719, 27.7171608], [-18.1608733, 27.7169837], [-18.1606209, 27.7166365], [-18.1608032, 27.7163513], [-18.1607283, 27.7161857], [-18.1604786, 27.7162203], [-18.1599142, 27.7158724], [-18.160097, 27.7157047], [-18.1601095, 27.7153843], [-18.1598452, 27.7152513], [-18.1601983, 27.7151051], [-18.1602253, 27.7149541], [-18.1599649, 27.7149303], [-18.1599267, 27.7151702], [-18.1594851, 27.7152124], [-18.1594394, 27.7145795], [-18.1587682, 27.7145302], [-18.1590368, 27.7142129], [-18.1582881, 27.7136923], [-18.1583619, 27.7134994], [-18.1580944, 27.7133405], [-18.1581055, 27.712974], [-18.1578631, 27.7128193], [-18.1577474, 27.712468], [-18.1574248, 27.712343], [-18.157558, 27.7120357], [-18.1568861, 27.7118867], [-18.1571164, 27.7117574], [-18.1569931, 27.7116538], [-18.1574574, 27.7114095], [-18.1574686, 27.7112454], [-18.1570979, 27.711291], [-18.15674, 27.7116755], [-18.1566331, 27.7114305], [-18.1563115, 27.7114637], [-18.1561792, 27.7113302], [-18.156761, 27.7106904], [-18.1556656, 27.7108416], [-18.155701, 27.7105755], [-18.1553628, 27.7106433], [-18.1552813, 27.7102454], [-18.1550984, 27.7103167], [-18.1553465, 27.7098302], [-18.1550117, 27.7098095], [-18.1546644, 27.7100009], [-18.1547143, 27.7098718], [-18.1543778, 27.7096748], [-18.1542098, 27.709099], [-18.1539283, 27.7092223], [-18.1536168, 27.7089795], [-18.1533807, 27.7090357], [-18.1533055, 27.7088429], [-18.1529999, 27.7088598], [-18.1524275, 27.7084395], [-18.1521212, 27.7084371], [-18.1521242, 27.7082994], [-18.1507552, 27.7081767], [-18.1502027, 27.7078575], [-18.1501495, 27.7076451], [-18.149831, 27.7076781], [-18.1483808, 27.7058505], [-18.1481134, 27.7056954], [-18.1478049, 27.7049811], [-18.1480421, 27.7048681], [-18.1479732, 27.7047739], [-18.1470024, 27.7046878], [-18.1457968, 27.7039828], [-18.1450667, 27.7040107], [-18.1450047, 27.7038127], [-18.1446236, 27.7039768], [-18.1440406, 27.7035621], [-18.1438445, 27.7038105], [-18.1434234, 27.703894], [-18.141697, 27.7039306], [-18.1409406, 27.7037691], [-18.1405707, 27.7039376], [-18.1404387, 27.703598], [-18.1402894, 27.7037556], [-18.1397564, 27.7035697], [-18.1385494, 27.7035643], [-18.1384491, 27.703376], [-18.1381598, 27.7034893], [-18.1381386, 27.7033132], [-18.1378034, 27.703195], [-18.1378071, 27.7034136], [-18.1376542, 27.7032944], [-18.1368625, 27.7033014], [-18.1361106, 27.7035098], [-18.1357654, 27.7037983], [-18.1355651, 27.703686], [-18.1355352, 27.7038952], [-18.135088, 27.7040202], [-18.1348449, 27.7040527], [-18.1346222, 27.7038795], [-18.1347602, 27.7041997], [-18.1343573, 27.703995], [-18.134356, 27.704414], [-18.1341245, 27.7046126], [-18.1340207, 27.7044897], [-18.1338656, 27.704587], [-18.1333015, 27.704166], [-18.133438, 27.7046401], [-18.1331797, 27.7045433], [-18.1330156, 27.7047972], [-18.1327301, 27.7046635], [-18.1321808, 27.7048349], [-18.1308619, 27.7047486], [-18.1287522, 27.705095], [-18.1281537, 27.7053453], [-18.1265338, 27.7051822], [-18.1247771, 27.7052939], [-18.1217925, 27.70434], [-18.118554, 27.7040048], [-18.1169654, 27.7036454], [-18.1152161, 27.7030051], [-18.1124272, 27.702534], [-18.1114116, 27.7021543], [-18.1111049, 27.7023579], [-18.1097385, 27.701752], [-18.1096502, 27.7015197], [-18.1094921, 27.7016336], [-18.1086847, 27.7014932], [-18.1080216, 27.7011695], [-18.1078428, 27.7008774], [-18.107709, 27.7011096], [-18.1074673, 27.7011074], [-18.1073853, 27.700642], [-18.1069438, 27.7009479], [-18.1065587, 27.7006294], [-18.1061638, 27.7008528], [-18.1059337, 27.7006573], [-18.1057923, 27.7008837], [-18.1059132, 27.7011896], [-18.1053886, 27.7014453], [-18.101502, 27.7009915], [-18.0991353, 27.7011781], [-18.0966265, 27.700523], [-18.0960327, 27.7001297], [-18.095355, 27.7000843], [-18.0947733, 27.6997262], [-18.0914478, 27.6988398], [-18.0904984, 27.6984526], [-18.0855689, 27.6976743], [-18.0851771, 27.6975238], [-18.0851256, 27.6972853], [-18.0848217, 27.6973977], [-18.0828339, 27.6970423], [-18.0807821, 27.6971353], [-18.0797147, 27.6973603], [-18.0786072, 27.6972329], [-18.0773835, 27.6973258], [-18.0767276, 27.6971816], [-18.0752931, 27.6972873], [-18.0718195, 27.6970433], [-18.0697682, 27.6965368], [-18.0694798, 27.6963633], [-18.0696509, 27.6961397], [-18.0693157, 27.6960195], [-18.0689869, 27.6959771], [-18.0685103, 27.6963502], [-18.0681871, 27.6961627], [-18.0681168, 27.6959014], [-18.0677542, 27.6961397], [-18.0674831, 27.6960062], [-18.0674443, 27.695753], [-18.0671935, 27.6958378], [-18.0642197, 27.6952758], [-18.0622844, 27.6947096], [-18.0619285, 27.6947345], [-18.0617863, 27.69457], [-18.0607365, 27.6949506], [-18.0602743, 27.6946104], [-18.0600832, 27.6947818], [-18.0592436, 27.694958], [-18.0583438, 27.6947737], [-18.0580608, 27.6945506], [-18.0579194, 27.6947156], [-18.0573075, 27.6946799], [-18.0557654, 27.6941361], [-18.0542921, 27.6933979], [-18.0541069, 27.6931596], [-18.0537504, 27.6932966], [-18.0537443, 27.6929568], [-18.0535492, 27.6931757], [-18.0533821, 27.6930026], [-18.0527849, 27.69296], [-18.0527096, 27.6927884], [-18.0522359, 27.6929243], [-18.0516721, 27.6927344], [-18.0516369, 27.6925086], [-18.0512836, 27.6928072], [-18.050274, 27.6926682], [-18.0500883, 27.6925222], [-18.0503408, 27.6919815], [-18.0500632, 27.692202], [-18.0496374, 27.6921173], [-18.048179, 27.6909132], [-18.0481777, 27.6907296], [-18.0480046, 27.6907815], [-18.0467924, 27.690174], [-18.0465231, 27.6901797], [-18.0444166, 27.6890806], [-18.0440972, 27.6887122], [-18.0438029, 27.6887434], [-18.0438351, 27.6885676], [-18.0435443, 27.6886134], [-18.0425302, 27.6881697], [-18.0423021, 27.6879663], [-18.0424438, 27.687706], [-18.0419953, 27.6879523], [-18.0394225, 27.6872263], [-18.0385822, 27.6866415], [-18.0384089, 27.6866814], [-18.0358526, 27.6847298], [-18.0354293, 27.6842181], [-18.0346719, 27.6837588], [-18.0342118, 27.6831477], [-18.0340511, 27.6826126], [-18.033871, 27.6826967], [-18.0334622, 27.6825196], [-18.0330522, 27.6821739], [-18.0332947, 27.6819503], [-18.0331049, 27.6818286], [-18.0328638, 27.681926], [-18.0325596, 27.6815952], [-18.0325935, 27.6812631], [-18.0322557, 27.6812111], [-18.0321456, 27.6810466], [-18.0321199, 27.6807744], [-18.0324452, 27.6807661], [-18.0321565, 27.6806319], [-18.0321719, 27.6802491], [-18.0318906, 27.6799763], [-18.0314475, 27.6800759], [-18.0316118, 27.6796956], [-18.0314093, 27.6795416], [-18.0314588, 27.6793495], [-18.0312958, 27.6793376], [-18.0311488, 27.6797562], [-18.0307768, 27.6791994], [-18.0305488, 27.6792099], [-18.0305178, 27.6794788], [-18.0302612, 27.6790704], [-18.0296068, 27.6793672], [-18.0286267, 27.6786819], [-18.028462, 27.6784302], [-18.0285416, 27.677811], [-18.0283125, 27.6778369], [-18.0284293, 27.6774919], [-18.0279562, 27.6772756], [-18.0277535, 27.6769808], [-18.0282146, 27.6768079], [-18.0287148, 27.676273], [-18.0285585, 27.6761631], [-18.0279725, 27.6762587], [-18.0279475, 27.6760185], [-18.0281914, 27.6758219], [-18.0278861, 27.6756941], [-18.0282602, 27.6755466], [-18.0279653, 27.6754646], [-18.028103, 27.6751224], [-18.0279372, 27.6749345], [-18.0279463, 27.6746247], [-18.0282363, 27.6746223], [-18.0282182, 27.6742778], [-18.0286108, 27.6740924], [-18.0284361, 27.6739954], [-18.028921, 27.6737962], [-18.028654, 27.6735217], [-18.0285833, 27.6736539], [-18.0282336, 27.6735719], [-18.0281537, 27.6731707], [-18.0278263, 27.6730398], [-18.0279379, 27.6725034], [-18.02859, 27.6722007], [-18.0287364, 27.6718735], [-18.0285104, 27.6721733], [-18.028432, 27.6719516], [-18.0281082, 27.6722547], [-18.0281727, 27.6720998], [-18.0279671, 27.671994], [-18.0282377, 27.6719396], [-18.0282849, 27.6714962], [-18.0279682, 27.6717776], [-18.0279543, 27.6715076], [-18.0273147, 27.671468], [-18.0274591, 27.6710419], [-18.0270332, 27.6711125], [-18.0271018, 27.6709869], [-18.026637, 27.6703866], [-18.0262171, 27.670785], [-18.0260531, 27.670384], [-18.025803, 27.6703194], [-18.025845, 27.6705206], [-18.0253529, 27.6705532], [-18.0250273, 27.6709178], [-18.0247815, 27.6704652], [-18.0249793, 27.6701269], [-18.0247189, 27.6703615], [-18.0245298, 27.6701312], [-18.0241217, 27.670111], [-18.0242767, 27.6699145], [-18.0238316, 27.6693382], [-18.0238737, 27.6691038], [-18.022889, 27.6691514], [-18.0227688, 27.6690185], [-18.0228679, 27.6686737], [-18.0226927, 27.6686718], [-18.0225139, 27.6682319], [-18.0221221, 27.668436], [-18.0216426, 27.6680666], [-18.0216027, 27.6679005], [-18.0221871, 27.6675508], [-18.0218812, 27.667491], [-18.021558, 27.6677284], [-18.0211551, 27.6677266], [-18.0210325, 27.6675709], [-18.0212137, 27.6674298], [-18.0209619, 27.6672194], [-18.0206434, 27.6672204], [-18.0204175, 27.6658444], [-18.020171, 27.6660843], [-18.0198086, 27.6657192], [-18.0195613, 27.6658037], [-18.0193547, 27.6654435], [-18.019636, 27.6645099], [-18.01946, 27.6634904], [-18.0196109, 27.6632605], [-18.020313, 27.6631611], [-18.019712, 27.663121], [-18.0197871, 27.6624397], [-18.019582, 27.6619586], [-18.0197954, 27.6618069], [-18.0195966, 27.6613081], [-18.0197167, 27.6611979], [-18.0194163, 27.6611546], [-18.0195537, 27.6608897], [-18.0193809, 27.6609156], [-18.0193085, 27.6604739], [-18.0190156, 27.6602996], [-18.0189686, 27.6599995], [-18.0184983, 27.6595105], [-18.018026, 27.6593265], [-18.0180349, 27.6591771], [-18.0176181, 27.6589161], [-18.0175934, 27.6586689], [-18.0172976, 27.6585122], [-18.0170857, 27.6581416], [-18.0170694, 27.6577953], [-18.0168253, 27.6577695], [-18.0168054, 27.6575714], [-18.0158269, 27.6573013], [-18.0157086, 27.6569997], [-18.0159774, 27.6567526], [-18.0152232, 27.6566431], [-18.0152002, 27.6559838], [-18.0146882, 27.6559252], [-18.0144317, 27.6555262], [-18.0145982, 27.6551664], [-18.0140222, 27.6550128], [-18.0139774, 27.6547299], [-18.0142612, 27.6543896], [-18.0135944, 27.6545027], [-18.0133642, 27.6543664], [-18.0122644, 27.6534547], [-18.0121943, 27.6531543], [-18.0117452, 27.6530431], [-18.0104658, 27.6518761], [-18.0100956, 27.6511677], [-18.0101168, 27.6505502], [-18.0099073, 27.6498067], [-18.0093452, 27.6496275], [-18.0095867, 27.6494632], [-18.0092672, 27.6495954], [-18.0092264, 27.6493563], [-18.0075873, 27.6491077], [-18.0073514, 27.6488558], [-18.0072168, 27.6489837], [-18.0061177, 27.6487673], [-18.0055059, 27.6488732], [-18.0053781, 27.6487073], [-18.0046683, 27.64853], [-18.0043133, 27.6480178], [-18.0041699, 27.6483048], [-18.0037676, 27.6482744], [-18.0023363, 27.6474755], [-17.9982496, 27.6465972], [-17.9972269, 27.6457995], [-17.9971296, 27.6454286], [-17.9968993, 27.6454035], [-17.9970997, 27.6450821], [-17.9965847, 27.6453224], [-17.9960291, 27.6447273], [-17.9961936, 27.6427423], [-17.9964044, 27.6425874], [-17.9962501, 27.6425321], [-17.9962184, 27.6419182], [-17.9957201, 27.6408986], [-17.9947383, 27.640534], [-17.9946711, 27.6402684], [-17.9942651, 27.640387], [-17.9938645, 27.6402383], [-17.9937918, 27.640355], [-17.9934656, 27.6401507], [-17.9935159, 27.6400564], [-17.9919831, 27.6395522], [-17.9919159, 27.6393477], [-17.9915812, 27.6393315], [-17.9919352, 27.6392006], [-17.9918474, 27.6390435], [-17.9912038, 27.6387463], [-17.9895535, 27.6387131], [-17.9888574, 27.6381743], [-17.987532, 27.6379954], [-17.9874972, 27.637824], [-17.9871734, 27.6379276], [-17.9868677, 27.6377394], [-17.9862652, 27.6380822], [-17.9858727, 27.6380702], [-17.9848777, 27.6388186], [-17.9840368, 27.6382647], [-17.9834112, 27.6381881], [-17.9832965, 27.6383887], [-17.98402, 27.6385434], [-17.9845585, 27.6390158], [-17.9841713, 27.6395251], [-17.9834703, 27.6398899], [-17.9833701, 27.6396158], [-17.9831984, 27.6395761], [-17.9822486, 27.6398107], [-17.9821642, 27.6400162], [-17.9819439, 27.6398704], [-17.9818861, 27.6400521], [-17.9816569, 27.6394778], [-17.9814525, 27.6394229], [-17.9816238, 27.6401589], [-17.9814911, 27.6403489], [-17.9812455, 27.640317], [-17.9811915, 27.6406419], [-17.9808264, 27.6407405], [-17.9805177, 27.6404784], [-17.9805036, 27.6407341], [-17.9798945, 27.6406845], [-17.9796115, 27.639793], [-17.9797895, 27.6397467], [-17.979586, 27.6397073], [-17.9797655, 27.6396609], [-17.9795744, 27.6396723], [-17.9795091, 27.639465], [-17.9819455, 27.6389277], [-17.9820645, 27.6387136], [-17.9819158, 27.6385441], [-17.9778939, 27.6395803], [-17.9777557, 27.6401629], [-17.9774342, 27.6403992], [-17.9771985, 27.6403485], [-17.9768968, 27.6409739], [-17.9764915, 27.6411117], [-17.9761641, 27.6409804], [-17.976151, 27.6413137], [-17.9757863, 27.6412602], [-17.9754865, 27.6414412], [-17.9755834, 27.6421473], [-17.9752662, 27.6422854], [-17.9754177, 27.6426535], [-17.9751541, 27.6427151], [-17.9752862, 27.6433503], [-17.9749315, 27.6433656], [-17.975118, 27.6437042], [-17.9748403, 27.6437856], [-17.9748087, 27.6439849], [-17.9744075, 27.6442823], [-17.9742691, 27.6447129], [-17.974528, 27.6448128], [-17.9743691, 27.6451284], [-17.9738679, 27.6452064], [-17.9738612, 27.6453859], [-17.973443, 27.6456328], [-17.972913, 27.6456834], [-17.9729988, 27.6462697], [-17.9726647, 27.6464491], [-17.9727899, 27.6467278], [-17.972279, 27.6467679], [-17.9721793, 27.6470707], [-17.9718199, 27.6471015], [-17.9713592, 27.6474094], [-17.9703263, 27.6484116], [-17.970446, 27.6484914], [-17.9704559, 27.6491202], [-17.9711114, 27.6499815], [-17.9712398, 27.6505383], [-17.971469, 27.65065], [-17.9712746, 27.6522123], [-17.9713604, 27.6536612], [-17.9708631, 27.6553753], [-17.9709348, 27.6556494], [-17.9705223, 27.6571949], [-17.9704427, 27.6583099], [-17.9708483, 27.6589526], [-17.9711899, 27.6604261], [-17.9712582, 27.6614937], [-17.9711597, 27.6620145], [-17.9708863, 27.6620833], [-17.97105, 27.6621616], [-17.9707843, 27.6629845], [-17.9708437, 27.6640137], [-17.9710186, 27.6646352], [-17.9714292, 27.6650399], [-17.9713117, 27.665524], [-17.9714524, 27.6655724], [-17.9717765, 27.6669136], [-17.9716758, 27.6673274], [-17.9712725, 27.6675664], [-17.9714936, 27.6676213], [-17.9712547, 27.6678702], [-17.9712859, 27.6681599], [-17.971554, 27.6684756], [-17.9715376, 27.6687917], [-17.9717298, 27.6688734], [-17.9717584, 27.6692714], [-17.9723309, 27.6700238], [-17.9725979, 27.6708297], [-17.9721154, 27.6727058], [-17.9716981, 27.6731097], [-17.9716062, 27.6736671], [-17.9708855, 27.6743636], [-17.9703181, 27.675429], [-17.970089, 27.6756206], [-17.9696597, 27.6755203], [-17.9699686, 27.6760737], [-17.9696249, 27.6768147], [-17.9678513, 27.6779004], [-17.9675342, 27.6786991], [-17.9675648, 27.6791521], [-17.967334, 27.6794251], [-17.9665396, 27.6794251], [-17.9666645, 27.6800023], [-17.9673775, 27.6800647], [-17.9674112, 27.6809636], [-17.9672396, 27.6818122], [-17.9666301, 27.6820636], [-17.9667697, 27.6823115], [-17.9671935, 27.682462], [-17.9671924, 27.6827873], [-17.9664709, 27.6830276], [-17.9665945, 27.6838141], [-17.9671094, 27.6837798], [-17.9671521, 27.6845412], [-17.9664603, 27.6860451], [-17.9662287, 27.6861432], [-17.965958, 27.6858963], [-17.9655783, 27.686211], [-17.9655631, 27.6865136], [-17.9659493, 27.6867611], [-17.9659417, 27.6871298], [-17.9656127, 27.6871135], [-17.965622, 27.6873802], [-17.9652709, 27.6876647], [-17.9649658, 27.6875098], [-17.9647928, 27.6876371], [-17.9650451, 27.6884559], [-17.9644114, 27.6898803], [-17.9637515, 27.6905045], [-17.9632558, 27.6912986], [-17.962424, 27.6916723], [-17.9613655, 27.6924515], [-17.960537, 27.6925261], [-17.9600159, 27.6919254], [-17.9596729, 27.6922207], [-17.9588001, 27.6924929], [-17.9592043, 27.692904], [-17.9596893, 27.6930954], [-17.9598439, 27.693364], [-17.9595843, 27.694017], [-17.9591946, 27.6943403], [-17.9592083, 27.6944547], [-17.9595335, 27.6944811], [-17.9593995, 27.6949472], [-17.9583498, 27.6952125], [-17.9582165, 27.6955848], [-17.9587331, 27.6962559], [-17.9584561, 27.6967003], [-17.9584727, 27.6971096], [-17.9586479, 27.6969343], [-17.9589913, 27.6972356], [-17.9586709, 27.6980329], [-17.9591319, 27.6976848], [-17.9595669, 27.6980065], [-17.9594158, 27.6990612], [-17.9595968, 27.6992981], [-17.9593078, 27.6994916], [-17.9591392, 27.7000826], [-17.9594319, 27.7001057], [-17.9595863, 27.7008042], [-17.9593509, 27.702232], [-17.9595904, 27.7041112], [-17.9588732, 27.7069616], [-17.9574381, 27.709155], [-17.9573177, 27.7102251], [-17.9578992, 27.7112353], [-17.9581836, 27.7125031], [-17.9582277, 27.7158418], [-17.9576927, 27.718399], [-17.9570352, 27.7197878], [-17.9563624, 27.7207001], [-17.9553756, 27.7215442], [-17.9537055, 27.7235138], [-17.9525242, 27.7254576], [-17.9507447, 27.7265242], [-17.949655, 27.7281938], [-17.9486763, 27.7288255], [-17.9458419, 27.7290321], [-17.9439422, 27.7302477], [-17.9424632, 27.7305578], [-17.9417466, 27.7302389], [-17.9416071, 27.7298189], [-17.9414535, 27.7299808], [-17.9402759, 27.7293899], [-17.9399982, 27.728855], [-17.9402187, 27.7286232], [-17.9399563, 27.7284833], [-17.9401098, 27.7283614], [-17.939799, 27.7282764], [-17.939477, 27.7285714], [-17.9384652, 27.7285742], [-17.9373014, 27.7281239], [-17.9371954, 27.7277144], [-17.9370505, 27.7279151], [-17.9359408, 27.7283205], [-17.9358801, 27.7286564], [-17.9340567, 27.7284497], [-17.9323106, 27.7286181], [-17.931682, 27.7285314], [-17.9316397, 27.7288847], [-17.9311385, 27.7289819], [-17.9309184, 27.7291953], [-17.930635, 27.7291297], [-17.9306057, 27.7294488], [-17.9298837, 27.7297576], [-17.9291141, 27.7305302], [-17.9288474, 27.730563], [-17.9287596, 27.7311086], [-17.9282485, 27.7314858], [-17.9283532, 27.7318338], [-17.9273768, 27.7319308], [-17.9274482, 27.7322735], [-17.9269655, 27.7325194], [-17.9270661, 27.7328077], [-17.9268951, 27.7333489], [-17.9269333, 27.7338959], [-17.9266583, 27.7346692], [-17.9264751, 27.7346742], [-17.9262774, 27.7350616], [-17.9251032, 27.7352073], [-17.9251824, 27.735338], [-17.92609, 27.7354784], [-17.9266671, 27.7358226], [-17.9268323, 27.7362684], [-17.9263616, 27.7367535], [-17.9258644, 27.7369844], [-17.9266726, 27.7369801], [-17.9267865, 27.7374041], [-17.926604, 27.7379398], [-17.9262597, 27.738175], [-17.9263934, 27.7385791], [-17.9259919, 27.7389081], [-17.9255952, 27.7396376], [-17.9257778, 27.7398313], [-17.9254246, 27.7404169], [-17.925543, 27.7409474], [-17.925804, 27.7411579], [-17.925757, 27.7422106], [-17.9253017, 27.7425506], [-17.9254402, 27.7426689], [-17.925254, 27.7433784], [-17.9250317, 27.7435474], [-17.9250869, 27.743773], [-17.924795, 27.743896], [-17.9241869, 27.7446467], [-17.9244653, 27.7450275], [-17.923895, 27.7452931], [-17.9240202, 27.7454194], [-17.9237563, 27.7465137], [-17.9241153, 27.7466642], [-17.9241161, 27.7468099], [-17.923521, 27.7473299], [-17.9235653, 27.7475252], [-17.9232067, 27.7476081], [-17.9230721, 27.7480745], [-17.9224981, 27.7481489], [-17.922832, 27.7487712], [-17.9226903, 27.7490838], [-17.9219982, 27.749215], [-17.9218424, 27.7493493], [-17.9218978, 27.7495441], [-17.921457, 27.7496026], [-17.9216571, 27.7496923], [-17.921641, 27.7498476], [-17.9209481, 27.7508864], [-17.9204072, 27.7514161], [-17.9201785, 27.7514136], [-17.9202042, 27.7515617], [-17.9199534, 27.7514972], [-17.9199989, 27.7517929], [-17.9194939, 27.7520633], [-17.9198152, 27.7522626], [-17.9197376, 27.7528661], [-17.9191588, 27.75455], [-17.9185501, 27.7553072], [-17.9176847, 27.7556671], [-17.9175589, 27.7563765], [-17.9170958, 27.7565559], [-17.9169125, 27.7567544], [-17.9170037, 27.7569129], [-17.9167122, 27.7568895], [-17.9169394, 27.7572713], [-17.9167699, 27.7576305], [-17.9161009, 27.7580417], [-17.916117, 27.7583451], [-17.9158573, 27.7584393], [-17.9158824, 27.7588345], [-17.9148579, 27.7596118], [-17.91481, 27.7598986], [-17.9149793, 27.7600509], [-17.914777, 27.760256], [-17.9149147, 27.7603605], [-17.9145848, 27.7605617], [-17.9146669, 27.7606911], [-17.9143819, 27.7606411], [-17.9144251, 27.7609405], [-17.9138899, 27.7609935], [-17.9140061, 27.7611708], [-17.913817, 27.7614217], [-17.9138856, 27.7616607], [-17.9135857, 27.7617368], [-17.9137152, 27.7621281], [-17.9133265, 27.7619313], [-17.9127211, 27.7621558], [-17.9125685, 27.7624464], [-17.9129692, 27.7627796], [-17.9125437, 27.7629103], [-17.9124346, 27.7631794], [-17.9125711, 27.7634824], [-17.9123164, 27.7634511], [-17.9120715, 27.7637701], [-17.9117898, 27.7636786], [-17.9120206, 27.7640396], [-17.9117756, 27.7639298], [-17.9114632, 27.7642559], [-17.9113484, 27.7640253], [-17.9109005, 27.7640607], [-17.9109466, 27.7647157], [-17.9105788, 27.7646922], [-17.9102018, 27.7643091], [-17.9101604, 27.7645603], [-17.9099885, 27.764483], [-17.9098501, 27.7647305], [-17.9102342, 27.7651892], [-17.9096474, 27.7652424], [-17.909552, 27.7654535], [-17.9098659, 27.7656492], [-17.9096852, 27.7657148], [-17.9099624, 27.7658146], [-17.9099023, 27.7659811], [-17.9102944, 27.7655749], [-17.9106146, 27.7657031], [-17.9105635, 27.7658983], [-17.910244, 27.7659648], [-17.9106541, 27.7661488], [-17.9103523, 27.766435], [-17.9105907, 27.7664528], [-17.9106329, 27.7668291], [-17.9108364, 27.7669468], [-17.9104216, 27.7670575], [-17.9105338, 27.7672424], [-17.910741, 27.7672499], [-17.9110426, 27.7675614], [-17.9112645, 27.7673621], [-17.9113032, 27.7675948], [-17.9115711, 27.7676867], [-17.9114891, 27.7679093], [-17.9125213, 27.7681446], [-17.9126117, 27.7683845], [-17.9127014, 27.7682144], [-17.9128191, 27.7684609], [-17.9131455, 27.768443], [-17.9132433, 27.7687051], [-17.9136142, 27.768586], [-17.9144452, 27.769715], [-17.9143852, 27.7706013], [-17.9133528, 27.7708922], [-17.9129205, 27.770821], [-17.9126209, 27.7712265], [-17.9119292, 27.7712714], [-17.9111791, 27.7717447], [-17.9105936, 27.7724999], [-17.909955, 27.7728314], [-17.9095668, 27.7734386], [-17.9091243, 27.773664], [-17.908853, 27.7741091], [-17.9089304, 27.7742122], [-17.9087672, 27.7741477], [-17.9084944, 27.774518], [-17.9086218, 27.774916], [-17.9083602, 27.775178], [-17.9085409, 27.7753054], [-17.9082632, 27.7757243], [-17.9079512, 27.7756794], [-17.9079678, 27.7761237], [-17.9070742, 27.7779688], [-17.9063719, 27.7787671], [-17.9061119, 27.7788755], [-17.9058814, 27.7787825], [-17.9058512, 27.7790017], [-17.9056207, 27.7791291], [-17.9053833, 27.7790416], [-17.9049266, 27.7794533], [-17.9050499, 27.7795207], [-17.9049096, 27.7796792], [-17.9050925, 27.7797734], [-17.9047491, 27.7800921], [-17.9048423, 27.7802908], [-17.9047373, 27.7803805], [-17.9048567, 27.7804138], [-17.9046527, 27.7808578], [-17.9050111, 27.781827], [-17.9040307, 27.7843262], [-17.9035745, 27.7847764], [-17.9034342, 27.7846006], [-17.9015244, 27.7844849], [-17.9027525, 27.7848358], [-17.9025804, 27.7848628], [-17.9027355, 27.7849453], [-17.9026478, 27.7853977], [-17.9023444, 27.7854625], [-17.9021643, 27.7857541], [-17.9017938, 27.7857031], [-17.9016872, 27.7859886], [-17.9009002, 27.785874], [-17.9012616, 27.7841188], [-17.9015913, 27.7841683], [-17.9016145, 27.7840509], [-17.9009663, 27.7839466], [-17.9012168, 27.7826201], [-17.900928, 27.7825837], [-17.9013155, 27.7805956], [-17.9010226, 27.7805474], [-17.9004806, 27.7844899], [-17.9002122, 27.7853417], [-17.8997778, 27.7857632], [-17.8997864, 27.7861363], [-17.899576, 27.7862285], [-17.899516, 27.7866697], [-17.8999102, 27.7869978], [-17.8995838, 27.7873082], [-17.8991272, 27.7872863], [-17.8980398, 27.7861077], [-17.8979499, 27.7863456], [-17.8978059, 27.7862522], [-17.8978825, 27.7866771], [-17.896683, 27.7869327], [-17.8961878, 27.787505], [-17.8962581, 27.7877345], [-17.8957722, 27.7876013], [-17.8958079, 27.7878808], [-17.8954506, 27.7880407], [-17.8955976, 27.7880975], [-17.8954363, 27.7881113], [-17.8955235, 27.78826], [-17.8963979, 27.7882976], [-17.8967379, 27.7885685], [-17.8960595, 27.7888575], [-17.8960717, 27.7893049], [-17.8957864, 27.7893271], [-17.8956542, 27.7898751], [-17.8952961, 27.7898034], [-17.8951505, 27.7900751], [-17.8954366, 27.7902535], [-17.8950463, 27.7906683], [-17.8952619, 27.790806], [-17.8945843, 27.7909795], [-17.8941149, 27.7920198], [-17.8935768, 27.7922408], [-17.8931049, 27.7918509], [-17.892528, 27.792525], [-17.8920004, 27.7928775], [-17.8916917, 27.7935067], [-17.8919383, 27.7936546], [-17.8918442, 27.7939777], [-17.892189, 27.7944014], [-17.8913712, 27.7945123], [-17.8911724, 27.7948284], [-17.8907499, 27.7957076], [-17.8909811, 27.795939], [-17.8908052, 27.7958997], [-17.8905222, 27.7961735], [-17.8904722, 27.7966216], [-17.8899205, 27.7970343], [-17.8901233, 27.7973315], [-17.8898624, 27.7975176], [-17.8900181, 27.7977867], [-17.8898245, 27.7978339], [-17.8898377, 27.7980705], [-17.8895666, 27.7983911], [-17.8896904, 27.7985894], [-17.8894376, 27.7985487], [-17.8889667, 27.7988684], [-17.8891512, 27.7991304], [-17.8888096, 27.7995127], [-17.8887039, 27.8000195], [-17.8881835, 27.8000411], [-17.8881888, 27.8002865], [-17.8879955, 27.8003682], [-17.8877265, 27.8002047], [-17.8872992, 27.800562], [-17.8870014, 27.8004219], [-17.8861014, 27.8004619], [-17.8855646, 27.8001957], [-17.8855621, 27.8003426], [-17.8851323, 27.8005874], [-17.8851691, 27.800776], [-17.8850117, 27.8008515], [-17.8851061, 27.8010979], [-17.8846653, 27.8011535], [-17.8840806, 27.8022494], [-17.8838497, 27.8022289], [-17.8839532, 27.8024195], [-17.8836998, 27.8026081], [-17.8838453, 27.8027627], [-17.8835534, 27.8029633], [-17.8836057, 27.8031599], [-17.8832541, 27.8040984], [-17.8833492, 27.8048839], [-17.8830811, 27.8050863], [-17.8834166, 27.8054062], [-17.8832601, 27.8054816], [-17.8833849, 27.8056196], [-17.8831623, 27.8057371], [-17.8833478, 27.805908], [-17.8833431, 27.8061787], [-17.8836048, 27.8062233], [-17.8832824, 27.8067362], [-17.8835077, 27.806814], [-17.883256, 27.8071685], [-17.8828091, 27.8072058], [-17.8842923, 27.8077613], [-17.8836569, 27.8085809], [-17.8829296, 27.808621], [-17.883267, 27.8086543], [-17.8834546, 27.8088631], [-17.8832614, 27.8092796], [-17.8832985, 27.8098408], [-17.8834232, 27.8098617], [-17.8832111, 27.8102509], [-17.8833277, 27.8106429], [-17.8832188, 27.8108401], [-17.8835204, 27.8109959], [-17.883535, 27.8111801], [-17.8831989, 27.8115721], [-17.8837291, 27.8117255], [-17.8834393, 27.8120583], [-17.8834676, 27.8121921], [-17.8837454, 27.8122261], [-17.8834948, 27.8125105], [-17.8837363, 27.8125176], [-17.8835715, 27.8127103], [-17.8836594, 27.8129962], [-17.8834733, 27.8130795], [-17.8834984, 27.813282], [-17.8839474, 27.813155], [-17.8839186, 27.8135774], [-17.8841544, 27.8135655], [-17.8843073, 27.8142283], [-17.884507, 27.8142313], [-17.884913, 27.814886], [-17.8847959, 27.8151685], [-17.8849576, 27.8150657], [-17.8849365, 27.8152666], [-17.8851736, 27.8151592], [-17.8850662, 27.8155078], [-17.8854272, 27.8153453], [-17.8855672, 27.8154838], [-17.8855932, 27.8158956], [-17.885413, 27.8160367], [-17.8856023, 27.8163625], [-17.8855545, 27.8167033], [-17.8858384, 27.8166637], [-17.8857311, 27.8167708], [-17.8864314, 27.8171336], [-17.8862121, 27.8172999], [-17.886367, 27.8177441], [-17.8865914, 27.8174226], [-17.8867627, 27.8175341], [-17.8866698, 27.8177144], [-17.8868537, 27.8175672], [-17.8870446, 27.8177902], [-17.8871661, 27.8177157], [-17.8868266, 27.81837], [-17.8871091, 27.8184521], [-17.8874014, 27.8180211], [-17.887453, 27.8183302], [-17.8876077, 27.81804], [-17.8877882, 27.8187237], [-17.8882211, 27.8185092], [-17.8881677, 27.8187122], [-17.8885861, 27.8187733], [-17.8886043, 27.8192478], [-17.8887946, 27.8193358], [-17.8887179, 27.8195016], [-17.888969, 27.8195837], [-17.8888564, 27.8199795], [-17.8891961, 27.8199252], [-17.8893084, 27.820313], [-17.8895343, 27.8203736], [-17.8896366, 27.820649], [-17.8904898, 27.8201591], [-17.8903196, 27.820677], [-17.8905037, 27.820624], [-17.8906968, 27.8209584], [-17.8909515, 27.8209493], [-17.8916129, 27.821874], [-17.8918186, 27.8218446], [-17.8919212, 27.8220112], [-17.8919945, 27.8218666], [-17.8924077, 27.8218582], [-17.8924003, 27.822119], [-17.89264, 27.8221111], [-17.8924864, 27.8227226], [-17.8934794, 27.8222039], [-17.8934577, 27.8227758], [-17.8937341, 27.8230959], [-17.8936069, 27.8233006], [-17.8938541, 27.8234143], [-17.8937564, 27.8235996], [-17.8939296, 27.8235774], [-17.894056, 27.8238851], [-17.8951853, 27.8236138], [-17.8958104, 27.8239116], [-17.8958348, 27.8241672], [-17.8953313, 27.8243392], [-17.8951924, 27.8242421], [-17.8950873, 27.8243716], [-17.8938217, 27.8244464], [-17.8937129, 27.8246181], [-17.8939033, 27.824707], [-17.89371, 27.8248624], [-17.89388, 27.8248591], [-17.8938541, 27.8253637], [-17.8935828, 27.8254773], [-17.8934383, 27.8252936], [-17.893118, 27.8257645], [-17.892621, 27.8258174], [-17.8924736, 27.8259893], [-17.893017, 27.8263376], [-17.8931722, 27.8267425], [-17.8938757, 27.8273561], [-17.8939389, 27.827719], [-17.8934442, 27.8280773], [-17.8936115, 27.8282649], [-17.8932641, 27.8282134], [-17.8935145, 27.8283496], [-17.8937084, 27.8288959], [-17.893516, 27.8289496], [-17.8935397, 27.8294914], [-17.8939056, 27.8296177], [-17.893531, 27.8301868], [-17.8940681, 27.8300348], [-17.8941396, 27.8305943], [-17.8938116, 27.8309053], [-17.894336, 27.8307076], [-17.894312, 27.8310862], [-17.894691, 27.8315546], [-17.8940094, 27.8319391], [-17.8939914, 27.8323807], [-17.895134, 27.83228], [-17.8951531, 27.8326048], [-17.8954983, 27.8326515], [-17.8957206, 27.8323922], [-17.8958827, 27.8327191], [-17.8962782, 27.8322981], [-17.8967709, 27.8322764], [-17.8977039, 27.8328925], [-17.8978429, 27.8335606], [-17.8982603, 27.8335259], [-17.8985718, 27.8332648], [-17.8988029, 27.8334397], [-17.8987002, 27.8336959], [-17.8989546, 27.8337403], [-17.8986701, 27.8342932], [-17.8990942, 27.834681], [-17.8989112, 27.8349001], [-17.8989427, 27.8354051], [-17.8991246, 27.8359031], [-17.8993985, 27.835901], [-17.8990616, 27.8363651], [-17.8990801, 27.8360258], [-17.8987118, 27.836786], [-17.8993693, 27.8360741], [-17.9000464, 27.8365699], [-17.8997374, 27.8372878], [-17.9003598, 27.8368049], [-17.9002735, 27.8370924], [-17.9010554, 27.8369446], [-17.9011692, 27.8371832], [-17.9014758, 27.8372056], [-17.9015064, 27.8375872], [-17.9017584, 27.8372264], [-17.9019006, 27.8374152], [-17.9020741, 27.8372606], [-17.9020501, 27.8373696], [-17.9025835, 27.8376548], [-17.9031724, 27.8377381], [-17.9028139, 27.8386531], [-17.9032184, 27.8387694], [-17.9038577, 27.8406042], [-17.9024831, 27.8410993], [-17.9017469, 27.8417137], [-17.9020649, 27.8419159], [-17.9025958, 27.8415222], [-17.9027661, 27.8416801], [-17.9025618, 27.8420748], [-17.9027129, 27.842194], [-17.9030872, 27.8421529], [-17.9032472, 27.8418864], [-17.9032852, 27.8421321], [-17.9035058, 27.8421521], [-17.903593, 27.8417442], [-17.9039689, 27.8414086], [-17.9047024, 27.8411731], [-17.9049866, 27.8408938], [-17.9057627, 27.8408288], [-17.9065064, 27.8412873], [-17.9062226, 27.8418159], [-17.9067385, 27.841887], [-17.9071017, 27.84221], [-17.907199, 27.8429061], [-17.9070854, 27.8431554], [-17.9073661, 27.8433044], [-17.9072522, 27.8434681], [-17.9075015, 27.8434175], [-17.9073203, 27.8431133], [-17.9080456, 27.8424201], [-17.9089323, 27.8424303], [-17.909578, 27.8431535], [-17.9097238, 27.8436914], [-17.9103938, 27.8433213], [-17.9105323, 27.8430862], [-17.910439, 27.842926], [-17.9106885, 27.8426515], [-17.9114181, 27.8425123], [-17.9118769, 27.8429678], [-17.9121262, 27.8429304], [-17.9123033, 27.8432382], [-17.9122496, 27.843508], [-17.9128146, 27.8433329], [-17.9131201, 27.8434381], [-17.9131101, 27.8438112], [-17.9127247, 27.8440274], [-17.9128213, 27.8446342], [-17.9131532, 27.8442586], [-17.9133473, 27.8443024], [-17.9132328, 27.8440463], [-17.9135386, 27.8433006], [-17.9146085, 27.8433829], [-17.9145979, 27.844071], [-17.9151076, 27.8438904], [-17.9157387, 27.8440438], [-17.9156924, 27.8445225], [-17.9160499, 27.8451946], [-17.9157734, 27.8453659], [-17.9155581, 27.8458153], [-17.9160334, 27.8455059], [-17.9159768, 27.8457749], [-17.9161225, 27.8458315], [-17.9162873, 27.8455458], [-17.9167752, 27.8454038], [-17.9167141, 27.8458517], [-17.9169127, 27.8459306], [-17.9166563, 27.8461288], [-17.9163973, 27.8468401], [-17.9170481, 27.8463211], [-17.9171359, 27.8463955], [-17.916843, 27.846674], [-17.9170929, 27.8465355], [-17.9168305, 27.8473209], [-17.9173762, 27.8471273], [-17.9169444, 27.8476433], [-17.9172772, 27.8475975], [-17.9172415, 27.8481024], [-17.9174487, 27.8477986], [-17.9176152, 27.847852], [-17.9179096, 27.8475875], [-17.9181018, 27.8477558], [-17.9184328, 27.8477099], [-17.9183534, 27.847887], [-17.9184907, 27.8479204], [-17.9188139, 27.8472428], [-17.9191559, 27.847123], [-17.9193396, 27.8471528], [-17.9194784, 27.8477758], [-17.9198256, 27.8477146], [-17.9197107, 27.8474742], [-17.9199388, 27.8475854], [-17.9201641, 27.8473976], [-17.9201552, 27.8477045], [-17.9206229, 27.8479117], [-17.9207847, 27.8477231], [-17.9211159, 27.8477306], [-17.9210128, 27.8472356], [-17.9213453, 27.8478481], [-17.9214662, 27.8477013], [-17.9213274, 27.8474357], [-17.9215481, 27.8471113], [-17.9218034, 27.8474028], [-17.9218835, 27.8479608], [-17.9221249, 27.8478194], [-17.9220021, 27.8479446], [-17.9222087, 27.8480393], [-17.9222315, 27.8484333], [-17.9226672, 27.8482637], [-17.9227553, 27.8484213], [-17.9225538, 27.8485565], [-17.9227401, 27.8488318], [-17.9230798, 27.8488785], [-17.9232215, 27.8486077], [-17.923433, 27.8491572], [-17.9234575, 27.8481516], [-17.9237948, 27.8486014], [-17.9236447, 27.8488694], [-17.9238013, 27.8489361], [-17.9237403, 27.8491945], [-17.9242014, 27.848956], [-17.9243585, 27.8491379], [-17.92473, 27.8491026], [-17.9247632, 27.8489595], [-17.9249034, 27.8492484], [-17.925214, 27.8492806], [-17.9257982, 27.8491273], [-17.9259635, 27.8488286], [-17.925935, 27.8490083], [-17.9261385, 27.8490037], [-17.9264074, 27.8482056], [-17.9267164, 27.8484731], [-17.9265387, 27.8488381], [-17.9265932, 27.8490876], [-17.9268113, 27.8486516], [-17.9269948, 27.8486364], [-17.9270297, 27.8488042], [-17.9273799, 27.8489609], [-17.9278047, 27.8488283], [-17.9279422, 27.8491777], [-17.9280505, 27.848881], [-17.928256, 27.8488172], [-17.928458, 27.8491132], [-17.9285725, 27.8486433], [-17.92883, 27.8485592], [-17.9288358, 27.8488816], [-17.9293302, 27.8490304], [-17.9294712, 27.8486653], [-17.9299034, 27.8484998], [-17.9301107, 27.8482303], [-17.9298368, 27.8479391], [-17.9301208, 27.8470677], [-17.9304885, 27.8473897], [-17.9312982, 27.8474478], [-17.9313888, 27.8479257], [-17.9317166, 27.8480389], [-17.9319157, 27.8479055], [-17.9319069, 27.8481503], [-17.93201, 27.8479685], [-17.9325862, 27.8485523], [-17.933123, 27.8484463], [-17.9332046, 27.8486441], [-17.9335397, 27.848392], [-17.933574, 27.8488116], [-17.9340742, 27.8486135], [-17.9341066, 27.8480695], [-17.9346757, 27.8481993], [-17.934444, 27.8485694], [-17.9345997, 27.8488537], [-17.9345814, 27.8485528], [-17.9349772, 27.8485913], [-17.935012, 27.8483057], [-17.9353366, 27.8482904], [-17.9354404, 27.8479337], [-17.9358646, 27.8484173], [-17.9360088, 27.8481957], [-17.9357336, 27.8477862], [-17.935918, 27.8475079], [-17.9361149, 27.8475239], [-17.9364121, 27.847948], [-17.9366383, 27.847871], [-17.9367374, 27.8481439], [-17.9370266, 27.8482535], [-17.9370636, 27.8477885], [-17.9364488, 27.8477736], [-17.9364776, 27.8472433], [-17.9369822, 27.8468955], [-17.9371178, 27.847], [-17.9373624, 27.8468921], [-17.9371763, 27.8467639], [-17.9374247, 27.8462975], [-17.9378289, 27.8463608], [-17.9377039, 27.8460187], [-17.9379739, 27.8457493], [-17.9382523, 27.8456972], [-17.9382697, 27.8459179], [-17.9386001, 27.8460995], [-17.9388153, 27.8458914], [-17.9391374, 27.8460529], [-17.9391368, 27.8457883], [-17.9392541, 27.8457754], [-17.9396936, 27.8466964], [-17.9400255, 27.8465984], [-17.9398153, 27.8464034], [-17.9399032, 27.8461893], [-17.939734, 27.8458359], [-17.9406284, 27.8458279], [-17.9409932, 27.8455614], [-17.9412758, 27.845955], [-17.9414625, 27.845924], [-17.9416911, 27.8457315], [-17.9416011, 27.8455782], [-17.9418068, 27.8452043], [-17.9423562, 27.8452494], [-17.9424392, 27.8451078], [-17.9422655, 27.8449572], [-17.9427571, 27.8448897], [-17.942395, 27.8445812], [-17.9424837, 27.8444297], [-17.9428624, 27.8447297], [-17.9431555, 27.8445684], [-17.9430377, 27.84392], [-17.943518, 27.8435732], [-17.9438006, 27.8438704], [-17.9438973, 27.8436103], [-17.9437868, 27.8433988], [-17.9439774, 27.8432982], [-17.9443756, 27.8434738], [-17.9441485, 27.8432126], [-17.9442642, 27.8427953], [-17.9444083, 27.8428032], [-17.9443454, 27.8426188], [-17.9446014, 27.8424334], [-17.9448361, 27.8425027], [-17.9446001, 27.8419969], [-17.9447423, 27.8419552], [-17.9452798, 27.8424861], [-17.9452219, 27.8422055], [-17.9454011, 27.8419687], [-17.9450658, 27.841809], [-17.9453301, 27.8413448], [-17.9451122, 27.8411292], [-17.9461061, 27.8403467], [-17.946571, 27.8403377], [-17.9463734, 27.8405774], [-17.9465813, 27.8406256], [-17.9465135, 27.8409016], [-17.947335, 27.8407893], [-17.947105, 27.8403595], [-17.9473295, 27.8402934], [-17.9476415, 27.840669], [-17.9478236, 27.840385], [-17.9481401, 27.8406681], [-17.948293, 27.8404905], [-17.9485644, 27.8405875], [-17.9486133, 27.8407679], [-17.9487322, 27.8406222], [-17.9502124, 27.8405057], [-17.9507551, 27.8406616], [-17.9510879, 27.8410763], [-17.9516288, 27.8409341], [-17.9517876, 27.841325], [-17.9519409, 27.8410713], [-17.9522615, 27.8409662], [-17.9523465, 27.841282], [-17.9526416, 27.8411177], [-17.9528124, 27.8414442], [-17.9531376, 27.8410151], [-17.9535371, 27.841205], [-17.953499, 27.8408572], [-17.9536591, 27.8408276], [-17.9545587, 27.8416452], [-17.9549714, 27.8417634], [-17.9551078, 27.8420641], [-17.9554967, 27.8417945], [-17.9556852, 27.8420793], [-17.9557457, 27.8417288], [-17.9562235, 27.8411044], [-17.9563543, 27.8412404], [-17.9570547, 27.8410816], [-17.9574673, 27.8412353], [-17.9576166, 27.8417894], [-17.9577654, 27.8416231], [-17.9578968, 27.8418847], [-17.957997, 27.8415824], [-17.9582253, 27.8414754], [-17.9582363, 27.8411551], [-17.9586952, 27.8410831], [-17.9591764, 27.8404526], [-17.9593509, 27.8404662], [-17.9592861, 27.8402899], [-17.9595383, 27.8400121], [-17.9593758, 27.8398874], [-17.9594094, 27.8396918], [-17.960179, 27.8388319], [-17.9605048, 27.8392609], [-17.9613694, 27.839008], [-17.9614579, 27.8393712], [-17.9617022, 27.8388695], [-17.9618496, 27.8392344], [-17.9622104, 27.8392162], [-17.9623779, 27.8389322], [-17.9629441, 27.8389609], [-17.9628461, 27.8391985], [-17.9631797, 27.8393588], [-17.9635659, 27.8376691], [-17.9634332, 27.8373991], [-17.9636409, 27.8371465], [-17.9634757, 27.8371366], [-17.9635707, 27.8370556], [-17.9632113, 27.8367544], [-17.9634542, 27.8365326], [-17.9633101, 27.8362651], [-17.9635594, 27.8357849], [-17.9639761, 27.8354231], [-17.9642807, 27.8354237], [-17.9648692, 27.8357587], [-17.9649765, 27.8356025], [-17.9652047, 27.8357765], [-17.9655515, 27.8355853], [-17.9653895, 27.8351207], [-17.9650137, 27.8347557], [-17.9654398, 27.8340633], [-17.9657892, 27.8340163], [-17.966241, 27.8345286], [-17.9664965, 27.8345043], [-17.9660461, 27.8339286], [-17.9664177, 27.8336887], [-17.9663797, 27.8331165], [-17.9671546, 27.8326548], [-17.9674415, 27.8320923], [-17.9678489, 27.8317809], [-17.9681683, 27.8319599], [-17.9684657, 27.8318825], [-17.968606, 27.8316674], [-17.9687848, 27.8317779], [-17.9688126, 27.8315056], [-17.9685879, 27.8311662], [-17.9686958, 27.8309838], [-17.9692829, 27.8310682], [-17.9708754, 27.8295541], [-17.9712547, 27.8296319], [-17.9716477, 27.8294795], [-17.9718578, 27.8290207], [-17.9717423, 27.8288084], [-17.9718332, 27.8284505], [-17.9721015, 27.8280466], [-17.9718854, 27.8276761], [-17.9721057, 27.8273959], [-17.9744209, 27.826454], [-17.9754132, 27.8258582], [-17.9758338, 27.8260853], [-17.9759522, 27.8257541], [-17.9766905, 27.8254265], [-17.977966, 27.8255187], [-17.979023, 27.8250516], [-17.9802207, 27.8250956], [-17.9802446, 27.8252752], [-17.9803132, 27.8250057], [-17.9820633, 27.8245095], [-17.9825241, 27.8246345], [-17.9825393, 27.825249], [-17.9826632, 27.8253218], [-17.9828728, 27.8250206], [-17.9825946, 27.8249033], [-17.9829114, 27.8242712], [-17.9828343, 27.8238252], [-17.9831935, 27.8233144], [-17.9833826, 27.8233154], [-17.9835109, 27.8229492], [-17.9860901, 27.82179], [-17.9878144, 27.821355], [-17.9883454, 27.8214529], [-17.9889359, 27.8221058], [-17.9900392, 27.8224111], [-17.9912767, 27.8223492], [-17.991584, 27.8225668], [-17.9919558, 27.8221519], [-17.99204, 27.8225399], [-17.9924112, 27.8223774], [-17.992325, 27.8225631], [-17.9924562, 27.8226261], [-17.9928386, 27.8223907]]]}}]}