{"type":"FeatureCollection","features":[{"type":"Feature","properties":{"name":"Guam","admin":"island","source":"© OpenStreetMap contributors, ODbL 1.0","osm_relation":1152532},"geometry":{"type":"Polygon","coordinates":[[[144.61832,13.44571],[144.62011,13.44386],[144.62125,13.44058],[144.62417,13.43779],[144.63294,13.4344],[144.63648,13.43127],[144.63864,13.43065],[144.64015,13.42476],[144.63963,13.42125],[144.6424,13.41847],[144.64357,13.41852],[144.64421,13.41758],[144.64596,13.41862],[144.6472,13.41811],[144.6482,13.41628],[144.64723,13.4156],[144.64814,13.41463],[144.65253,13.41536],[144.65582,13.41443],[144.65817,13.41261],[144.66123,13.40815],[144.66113,13.40462],[144.66054,13.40448],[144.66249,13.40354],[144.66216,13.40227],[144.66313,13.4011],[144.66525,13.40075],[144.6659,13.39918],[144.66503,13.4003],[144.66321,13.4008],[144.66059,13.39055],[144.65911,13.38827],[144.65584,13.38609],[144.65148,13.37752],[144.65247,13.3729],[144.65068,13.36972],[144.65057,13.36672],[144.64899,13.36512],[144.64911,13.36175],[144.64403,13.35238],[144.64308,13.3486],[144.63948,13.34325],[144.63543,13.34124],[144.63875,13.33887],[144.64435,13.33781],[144.64458,13.33624],[144.64623,13.33599],[144.64901,13.33217],[144.64924,13.32965],[144.65212,13.32851],[144.65228,13.32692],[144.65019,13.32208],[144.65168,13.31942],[144.65717,13.31683],[144.65773,13.31515],[144.65593,13.3142],[144.65382,13.31423],[144.65296,13.31331],[144.65302,13.31109],[144.6549,13.30858],[144.65456,13.30703],[144.65487,13.30765],[144.65809,13.30627],[144.65681,13.30167],[144.65762,13.30162],[144.65817,13.29877],[144.66164,13.29923],[144.66288,13.29801],[144.66532,13.29807],[144.66279,13.29769],[144.65976,13.29575],[144.65763,13.29272],[144.65771,13.29026],[144.65959,13.28655],[144.6624,13.2849],[144.66207,13.28086],[144.66359,13.27812],[144.66382,13.27587],[144.66242,13.2732],[144.66231,13.27102],[144.66468,13.26767],[144.67331,13.26236],[144.67427,13.26114],[144.67472,13.25697],[144.67747,13.25441],[144.68334,13.25383],[144.68425,13.25531],[144.68449,13.25482],[144.68614,13.25607],[144.68831,13.2514],[144.69354,13.25069],[144.70112,13.24704],[144.70655,13.24629],[144.71134,13.24766],[144.7127,13.24728],[144.71505,13.24803],[144.7171,13.25024],[144.71925,13.25105],[144.72084,13.24961],[144.72067,13.24803],[144.72223,13.24663],[144.72447,13.24629],[144.72525,13.24686],[144.72466,13.24796],[144.72572,13.24821],[144.72619,13.24815],[144.72612,13.24693],[144.72555,13.24649],[144.72591,13.24797],[144.72474,13.24599],[144.72736,13.24651],[144.72678,13.24901],[144.7307,13.25091],[144.73143,13.25265],[144.7332,13.25231],[144.73311,13.25363],[144.73533,13.25776],[144.73652,13.25922],[144.73781,13.25899],[144.73723,13.26066],[144.73837,13.26309],[144.74102,13.26327],[144.74134,13.26263],[144.74376,13.26489],[144.74222,13.26701],[144.73815,13.26694],[144.73834,13.26819],[144.74293,13.26853],[144.74476,13.27035],[144.7472,13.27025],[144.7502,13.27223],[144.75107,13.27389],[144.74778,13.27676],[144.74745,13.2782],[144.74837,13.279],[144.7493,13.27903],[144.75375,13.275],[144.75989,13.27984],[144.75815,13.28298],[144.75913,13.28329],[144.75991,13.2823],[144.76128,13.28234],[144.76235,13.28339],[144.76345,13.28515],[144.76286,13.28845],[144.76363,13.29106],[144.76978,13.29593],[144.77221,13.30274],[144.77143,13.31481],[144.77284,13.31962],[144.77274,13.32828],[144.77117,13.3309],[144.77129,13.33404],[144.77011,13.33559],[144.7678,13.33413],[144.76872,13.33552],[144.76835,13.33614],[144.76677,13.33558],[144.76537,13.33654],[144.76301,13.33614],[144.76319,13.33704],[144.7624,13.33709],[144.76187,13.33848],[144.76619,13.33929],[144.77099,13.33778],[144.77252,13.3407],[144.77139,13.34229],[144.77241,13.34309],[144.77125,13.34508],[144.77226,13.34683],[144.77183,13.35103],[144.7724,13.35238],[144.77152,13.35556],[144.7719,13.36196],[144.76955,13.36713],[144.77233,13.37137],[144.77258,13.37697],[144.77457,13.38139],[144.77536,13.38663],[144.77779,13.38759],[144.77594,13.38801],[144.7759,13.38913],[144.77521,13.38983],[144.77462,13.38929],[144.77376,13.39179],[144.77164,13.39321],[144.77306,13.39537],[144.77632,13.39495],[144.77858,13.39802],[144.78073,13.39935],[144.78195,13.4022],[144.7813,13.40481],[144.7833,13.40771],[144.78372,13.41024],[144.78719,13.41179],[144.78885,13.4136],[144.78811,13.41555],[144.7854,13.41657],[144.7843,13.41809],[144.78379,13.42152],[144.78462,13.42287],[144.78637,13.42465],[144.79383,13.42647],[144.79776,13.42863],[144.79871,13.42766],[144.80411,13.42641],[144.80712,13.42728],[144.80902,13.42966],[144.81,13.43337],[144.81716,13.44124],[144.81985,13.44235],[144.82619,13.44267],[144.82735,13.44437],[144.82674,13.44565],[144.82784,13.44516],[144.82941,13.44642],[144.82942,13.44729],[144.83059,13.44722],[144.832,13.44837],[144.8337,13.45124],[144.8331,13.45291],[144.8346,13.45287],[144.83735,13.45557],[144.83892,13.45841],[144.84088,13.4589],[144.84059,13.46027],[144.84328,13.46013],[144.84484,13.46212],[144.84683,13.46208],[144.84737,13.46292],[144.8516,13.46383],[144.85712,13.47091],[144.85935,13.47176],[144.86109,13.47511],[144.86339,13.47649],[144.86541,13.47981],[144.8693,13.48293],[144.8705,13.48591],[144.87709,13.48983],[144.88068,13.49085],[144.88416,13.49073],[144.88667,13.49222],[144.89202,13.49824],[144.89108,13.50101],[144.89213,13.50647],[144.89609,13.50699],[144.89699,13.50907],[144.90263,13.5131],[144.90589,13.51321],[144.90786,13.51491],[144.91041,13.51556],[144.91387,13.51562],[144.91948,13.51907],[144.92277,13.51934],[144.92584,13.52131],[144.92767,13.52468],[144.92837,13.52793],[144.92938,13.52854],[144.93232,13.53427],[144.93164,13.53522],[144.93237,13.53582],[144.93243,13.53936],[144.935,13.54286],[144.93521,13.54448],[144.93645,13.54493],[144.9402,13.55262],[144.93834,13.56063],[144.94036,13.56793],[144.94401,13.56981],[144.94892,13.57552],[144.95048,13.57878],[144.95025,13.58088],[144.95167,13.58734],[144.95443,13.59222],[144.95413,13.59295],[144.95483,13.59261],[144.95661,13.59555],[144.95688,13.59815],[144.95574,13.59975],[144.95119,13.60099],[144.94832,13.60004],[144.94097,13.59988],[144.93574,13.60019],[144.93152,13.60172],[144.92975,13.60047],[144.92712,13.60008],[144.90781,13.60532],[144.90559,13.60687],[144.90449,13.6124],[144.89973,13.6203],[144.89971,13.6214],[144.89009,13.63077],[144.88062,13.64359],[144.86828,13.65259],[144.85977,13.65438],[144.85165,13.64827],[144.84687,13.63737],[144.83691,13.62459],[144.83519,13.6111],[144.83671,13.60388],[144.83668,13.59835],[144.83772,13.59707],[144.83657,13.5944],[144.83659,13.59152],[144.83105,13.58219],[144.83065,13.57961],[144.83154,13.5788],[144.83093,13.57707],[144.82968,13.57637],[144.82873,13.57689],[144.82456,13.57326],[144.82334,13.5714],[144.82407,13.57101],[144.82183,13.56977],[144.82112,13.56787],[144.82161,13.5671],[144.81846,13.56212],[144.81752,13.55907],[144.81569,13.55755],[144.81398,13.55757],[144.81439,13.55655],[144.81136,13.55471],[144.81203,13.55315],[144.81093,13.54847],[144.80827,13.54466],[144.80828,13.54323],[144.80594,13.53987],[144.80216,13.53682],[144.80196,13.53482],[144.80335,13.53189],[144.80337,13.52613],[144.80398,13.52567],[144.80318,13.52227],[144.80344,13.52139],[144.80589,13.52093],[144.80633,13.51983],[144.80481,13.5153],[144.80007,13.50835],[144.79706,13.50623],[144.78965,13.50423],[144.7876,13.50478],[144.78598,13.50681],[144.78327,13.50832],[144.78132,13.50819],[144.77488,13.50665],[144.77221,13.50444],[144.76925,13.49968],[144.7698,13.4963],[144.77022,13.49512],[144.77238,13.4952],[144.77465,13.49421],[144.77518,13.49097],[144.77341,13.48653],[144.76876,13.48064],[144.7628,13.47845],[144.75502,13.47797],[144.75472,13.47714],[144.75419,13.48055],[144.75319,13.48159],[144.75063,13.4775],[144.74989,13.47802],[144.74967,13.47746],[144.74936,13.47809],[144.75063,13.47826],[144.74918,13.47826],[144.74841,13.47754],[144.74836,13.48156],[144.7467,13.48133],[144.74677,13.48031],[144.74827,13.48025],[144.74793,13.47763],[144.74332,13.47762],[144.73865,13.4791],[144.73272,13.47892],[144.73166,13.47779],[144.73211,13.4788],[144.73087,13.47882],[144.73091,13.47972],[144.72875,13.4811],[144.72888,13.47904],[144.7229,13.47744],[144.72245,13.47651],[144.71718,13.47346],[144.71329,13.47366],[144.71358,13.47332],[144.71364,13.47193],[144.71301,13.47376],[144.70961,13.47456],[144.70733,13.47677],[144.70671,13.47174],[144.70538,13.47041],[144.70282,13.46847],[144.69904,13.46797],[144.69019,13.46366],[144.68833,13.46442],[144.68827,13.46339],[144.68753,13.46433],[144.68688,13.46464],[144.68628,13.46551],[144.68814,13.46435],[144.6866,13.46573],[144.68705,13.46744],[144.68605,13.46801],[144.68439,13.46741],[144.68606,13.46569],[144.68409,13.4674],[144.67639,13.46304],[144.66933,13.46342],[144.6629,13.46587],[144.66165,13.46474],[144.63817,13.46467],[144.62648,13.45747],[144.6243,13.45507],[144.62466,13.45454],[144.62721,13.45749],[144.63087,13.45903],[144.63579,13.46316],[144.6388,13.46435],[144.64642,13.46432],[144.64834,13.46286],[144.64867,13.46438],[144.64926,13.46303],[144.64989,13.4643],[144.65103,13.46357],[144.65359,13.46439],[144.6587,13.4637],[144.65921,13.46441],[144.6607,13.46327],[144.66073,13.46416],[144.66145,13.46429],[144.66262,13.46333],[144.66291,13.46104],[144.66117,13.45962],[144.66536,13.46213],[144.66664,13.46049],[144.67688,13.4604],[144.68384,13.46417],[144.68454,13.46388],[144.68435,13.46278],[144.68774,13.464],[144.68782,13.46322],[144.68435,13.46096],[144.68392,13.46143],[144.68451,13.46021],[144.6839,13.45948],[144.68363,13.46175],[144.68121,13.46166],[144.68329,13.4613],[144.68337,13.45791],[144.683,13.45862],[144.68287,13.45781],[144.66765,13.45821],[144.66622,13.4572],[144.66686,13.45492],[144.66569,13.45337],[144.66621,13.4527],[144.6677,13.4527],[144.66753,13.45711],[144.66916,13.45499],[144.67289,13.4534],[144.67634,13.45696],[144.68107,13.45671],[144.68223,13.45522],[144.68146,13.45217],[144.68292,13.44911],[144.68141,13.44381],[144.68034,13.44341],[144.68092,13.44291],[144.67838,13.44376],[144.6781,13.44113],[144.67621,13.44416],[144.67434,13.44435],[144.67374,13.44613],[144.67285,13.44594],[144.67321,13.44539],[144.66919,13.44594],[144.67053,13.44479],[144.67053,13.44371],[144.66713,13.44242],[144.66746,13.43757],[144.67285,13.43817],[144.67349,13.43671],[144.67535,13.43609],[144.67601,13.43231],[144.67556,13.43019],[144.67771,13.4244],[144.6763,13.42797],[144.67534,13.42856],[144.67344,13.42549],[144.67398,13.4253],[144.67223,13.42481],[144.67012,13.42075],[144.67002,13.4201],[144.67013,13.41989],[144.6733,13.41893],[144.6724,13.41824],[144.67037,13.41897],[144.66966,13.41833],[144.66703,13.41857],[144.66155,13.42696],[144.66394,13.42942],[144.66011,13.43119],[144.66317,13.43574],[144.66028,13.4363],[144.66037,13.43697],[144.66465,13.43917],[144.66448,13.44187],[144.66238,13.44326],[144.66001,13.44327],[144.65886,13.44196],[144.65915,13.44376],[144.65727,13.44365],[144.65585,13.44167],[144.6569,13.44091],[144.65515,13.43998],[144.65621,13.43702],[144.65521,13.43655],[144.65405,13.43981],[144.65661,13.4434],[144.65661,13.44377],[144.65517,13.44311],[144.65352,13.43948],[144.65329,13.44079],[144.65457,13.44332],[144.64898,13.44334],[144.64888,13.44273],[144.64725,13.44254],[144.64443,13.44307],[144.64404,13.44222],[144.64038,13.44169],[144.63249,13.44356],[144.63115,13.44434],[144.63117,13.44527],[144.6292,13.44645],[144.62978,13.44587],[144.62928,13.44539],[144.62744,13.44732],[144.62274,13.44817],[144.61832,13.44571]]]}}]}