{"type": "FeatureCollection", "features": [{"type": "Feature", "properties": {"name": "Grad Bjelovar", "admin": "grad", "source": "OpenStreetMap", "osm_relation": 19438192}, "geometry": {"type": "Polygon", "coordinates": [[[[16.799819, 45.9138833], [16.7996504, 45.9138209], [16.7991885, 45.9135807], [16.7987738, 45.9133442], [16.7985103, 45.9132138], [16.7982094, 45.9130559], [16.7979, 45.9128893], [16.7976715, 45.91279], [16.7973078, 45.9126842], [16.7969736, 45.9126338], [16.7960045, 45.9125787], [16.7958125, 45.9125384], [16.7954767, 45.9124592], [16.7951877, 45.9123538], [16.795078, 45.9122891], [16.7949718, 45.9122228], [16.7948418, 45.9121362], [16.7946793, 45.9120108], [16.7945069, 45.9118231], [16.7941893, 45.9114766], [16.7938215, 45.9110749], [16.7932648, 45.9104732], [16.7928625, 45.9101284], [16.7925841, 45.9098849], [16.7923607, 45.9096941], [16.7918004, 45.9092269], [16.7917242, 45.9091496], [16.7912518, 45.908754], [16.790776, 45.908394], [16.7904323, 45.9082088], [16.7895378, 45.9078005], [16.788556, 45.9073228], [16.7875788, 45.906882], [16.7873315, 45.9068157], [16.7867403, 45.90678], [16.7866031, 45.9067319], [16.7865805, 45.906717], [16.7865103, 45.9066598], [16.7867937, 45.9065704], [16.7867079, 45.9065327], [16.7870215, 45.9064095], [16.7881991, 45.9060614], [16.7898527, 45.9055479], [16.7915064, 45.9050343], [16.7926897, 45.9046737], [16.7938732, 45.9043132], [16.7950566, 45.9039526], [16.7966174, 45.9034763], [16.7966604, 45.9035121], [16.7984654, 45.9029618], [16.7998178, 45.902543], [16.80139, 45.9020616], [16.8014341, 45.9019726], [16.802312, 45.9016247], [16.8025498, 45.9016069], [16.802846, 45.9014913], [16.8029832, 45.9014896], [16.8043002, 45.9011082], [16.8064848, 45.9005119], [16.8073442, 45.9002721], [16.8079902, 45.9000613], [16.8082259, 45.8999885], [16.8087626, 45.8997991], [16.8089057, 45.8997507], [16.809055, 45.8996935], [16.8101058, 45.8992931], [16.8115412, 45.8987448], [16.8119839, 45.8985741], [16.8130843, 45.8981733], [16.8140633, 45.8978065], [16.8155595, 45.897242], [16.8156635, 45.8972146], [16.8157229, 45.8971989], [16.8157506, 45.8971883], [16.8157694, 45.8971811], [16.8165126, 45.896893], [16.8165276, 45.896888], [16.818131, 45.8962993], [16.8191407, 45.8959043], [16.8201513, 45.895512], [16.8204292, 45.895398], [16.8193853, 45.8940115], [16.8199372, 45.8939033], [16.8204006, 45.8938542], [16.8207716, 45.8936144], [16.8210531, 45.8934672], [16.8213566, 45.893451], [16.8214828, 45.8933746], [16.82158, 45.8932564], [16.821518, 45.8931287], [16.8214083, 45.8930199], [16.8213794, 45.8927411], [16.8214295, 45.8924954], [16.8215801, 45.8921502], [16.8215827, 45.8920612], [16.8214912, 45.8918781], [16.821292, 45.8915745], [16.8212263, 45.8914407], [16.8211438, 45.891365], [16.8209365, 45.8912658], [16.8208151, 45.8911549], [16.8207861, 45.8911085], [16.8207608, 45.8909597], [16.82073, 45.8908864], [16.8206792, 45.8907922], [16.8206491, 45.890652], [16.8206545, 45.8905046], [16.8206432, 45.8904064], [16.8206036, 45.8903399], [16.8205343, 45.8902908], [16.8203788, 45.8902416], [16.8203126, 45.8902093], [16.8202204, 45.8901371], [16.8201805, 45.8900789], [16.820047, 45.8898842], [16.8197626, 45.88931], [16.8196575, 45.8891683], [16.8195863, 45.8891094], [16.8193966, 45.8890467], [16.8192202, 45.8889754], [16.8190916, 45.8889134], [16.8189659, 45.8888227], [16.8188784, 45.8887772], [16.8186644, 45.8886897], [16.8183728, 45.8885504], [16.8182028, 45.8884812], [16.8181707, 45.8884487], [16.8181644, 45.8882798], [16.8181074, 45.8880134], [16.8180597, 45.8879601], [16.8179407, 45.8879038], [16.817804, 45.8878629], [16.8177266, 45.8878631], [16.8174824, 45.8879676], [16.8173382, 45.8880165], [16.817249, 45.8880277], [16.817146, 45.8879983], [16.8171118, 45.8879626], [16.8163416, 45.8870748], [16.8155717, 45.8861871], [16.8153228, 45.8859197], [16.8151396, 45.8857297], [16.8149542, 45.8856128], [16.813759, 45.8850278], [16.8136174, 45.8849351], [16.81352, 45.8848486], [16.8134298, 45.8847482], [16.8133258, 45.884627], [16.8126662, 45.8838581], [16.8113559, 45.8823345], [16.8111824, 45.8821561], [16.8110462, 45.8820403], [16.8108815, 45.8819376], [16.8106425, 45.8818818], [16.8093049, 45.8816562], [16.8090621, 45.8815812], [16.8088353, 45.8814676], [16.8079859, 45.8808743], [16.8077285, 45.8807076], [16.8074014, 45.8805389], [16.8071784, 45.8804617], [16.8068585, 45.8804242], [16.8065622, 45.8804299], [16.8057292, 45.8804777], [16.8056136, 45.880127], [16.8053557, 45.8800388], [16.8047147, 45.880095], [16.8043584, 45.8801598], [16.8040144, 45.8802454], [16.8036963, 45.8803824], [16.803567, 45.8802057], [16.8034869, 45.8800883], [16.8034393, 45.8800066], [16.8033947, 45.8799255], [16.8031741, 45.879501], [16.80301, 45.8795312], [16.8027711, 45.8790773], [16.8025485, 45.8785442], [16.8020705, 45.8786079], [16.8017012, 45.8780792], [16.8013941, 45.8776569], [16.8010969, 45.8772313], [16.8007801, 45.8769124], [16.7999107, 45.8761023], [16.8010374, 45.8758801], [16.8015763, 45.8757236], [16.8027622, 45.875359], [16.8039342, 45.8748873], [16.8047231, 45.8745743], [16.8042242, 45.873802], [16.8041365, 45.8735619], [16.8041116, 45.8733888], [16.8041085, 45.8730501], [16.8040441, 45.8728198], [16.8042464, 45.8727863], [16.8054359, 45.8726877], [16.8057957, 45.8726501], [16.8071725, 45.8725713], [16.8085239, 45.8723705], [16.8087028, 45.8723222], [16.8092808, 45.8721568], [16.8099963, 45.8720225], [16.8114121, 45.8719187], [16.8119882, 45.8718737], [16.8135941, 45.8718604], [16.8151908, 45.8718406], [16.815298, 45.8712988], [16.8156968, 45.8713226], [16.816528, 45.8714031], [16.817138, 45.8714674], [16.8175784, 45.8714937], [16.8180982, 45.8714857], [16.8186777, 45.871418], [16.8199221, 45.8712055], [16.8199617, 45.8714625], [16.8200558, 45.8718042], [16.8208802, 45.8716583], [16.821581, 45.8713525], [16.8226909, 45.8716841], [16.8237216, 45.8720752], [16.8241319, 45.8721035], [16.8247778, 45.8720753], [16.8252005, 45.8719931], [16.8255089, 45.8719184], [16.8261134, 45.871909], [16.826148, 45.8721327], [16.8267879, 45.8725334], [16.8272743, 45.8732467], [16.8273287, 45.8742759], [16.8275596, 45.8746452], [16.8287258, 45.8755396], [16.8288207, 45.8760764], [16.8291063, 45.877534], [16.8298013, 45.878262], [16.8301374, 45.8785049], [16.8304238, 45.8788641], [16.8306654, 45.8789782], [16.8309598, 45.8790596], [16.8309528, 45.8791937], [16.8309527, 45.8791971], [16.8311066, 45.8792687], [16.8314246, 45.8793841], [16.8317796, 45.8794403], [16.831774, 45.8793334], [16.8319012, 45.8793423], [16.8319966, 45.8793844], [16.8321797, 45.8795132], [16.8323416, 45.879583], [16.8325271, 45.8796248], [16.8327629, 45.8796353], [16.8329982, 45.8796272], [16.8332365, 45.8796032], [16.8339846, 45.8793914], [16.8350567, 45.8791709], [16.8363004, 45.8790211], [16.8376089, 45.8793408], [16.8382802, 45.8795725], [16.838681, 45.8797109], [16.8399153, 45.8796059], [16.8400244, 45.8795966], [16.8409459, 45.8798479], [16.8421372, 45.8806026], [16.8424668, 45.8815345], [16.8431596, 45.8825567], [16.8442821, 45.8831942], [16.8451044, 45.8836475], [16.8462619, 45.8839455], [16.8475177, 45.8839997], [16.8483168, 45.8840342], [16.8483655, 45.8841192], [16.8486963, 45.883994], [16.8488814, 45.8838563], [16.8481856, 45.8830799], [16.8479068, 45.8830277], [16.849005, 45.8824721], [16.8489727, 45.8823648], [16.848948, 45.8822389], [16.8489844, 45.8821368], [16.8490795, 45.8820531], [16.8493365, 45.8819967], [16.8497792, 45.8819046], [16.8500087, 45.8820707], [16.8523886, 45.8811394], [16.8529131, 45.8816277], [16.8543899, 45.882814], [16.855745, 45.8838471], [16.8553837, 45.884592], [16.8561983, 45.8863148], [16.8576331, 45.8856878], [16.8578715, 45.8859794], [16.858256, 45.8860125], [16.8584306, 45.8863882], [16.8585997, 45.886239], [16.8587229, 45.8861293], [16.8588218, 45.8862122], [16.8588894, 45.8862704], [16.8590974, 45.8864523], [16.8593762, 45.8866176], [16.8597251, 45.8868243], [16.8595559, 45.886984], [16.8593562, 45.8871722], [16.8600842, 45.8876971], [16.8603105, 45.8878386], [16.8601219, 45.8879427], [16.8602103, 45.8880029], [16.8602808, 45.8880248], [16.8603056, 45.8880691], [16.8603357, 45.8881922], [16.8604267, 45.8882295], [16.860584, 45.8882907], [16.8604838, 45.8883611], [16.860329, 45.888448], [16.8605449, 45.8886058], [16.8604269, 45.888679], [16.8607033, 45.8888904], [16.8604533, 45.8890449], [16.8606051, 45.8891932], [16.861017, 45.8896729], [16.8614807, 45.8900928], [16.8613183, 45.8903525], [16.8630588, 45.8912256], [16.8638114, 45.891389], [16.8642007, 45.8916278], [16.864512, 45.8917669], [16.8635535, 45.8924039], [16.8636043, 45.8924324], [16.8629366, 45.8929117], [16.8622056, 45.8934363], [16.8615865, 45.8939173], [16.8608622, 45.8944386], [16.8598217, 45.895142], [16.8611516, 45.8955236], [16.8608652, 45.8957552], [16.8600554, 45.8961223], [16.8595625, 45.8962953], [16.8592756, 45.8963361], [16.8591972, 45.8975144], [16.8594517, 45.8980912], [16.8604625, 45.8986071], [16.8623608, 45.8995769], [16.8642579, 45.9005202], [16.8651423, 45.9027684], [16.8656107, 45.903793], [16.8665033, 45.9043031], [16.8674079, 45.9053543], [16.8669981, 45.9055911], [16.8669676, 45.9056074], [16.8668876, 45.9056418], [16.8666976, 45.9056877], [16.8665835, 45.9057098], [16.8665104, 45.9057185], [16.8664367, 45.9057183], [16.8663745, 45.9057015], [16.8654536, 45.9063501], [16.8654282, 45.9063666], [16.8652813, 45.9065001], [16.8641287, 45.9072972], [16.8638314, 45.9074984], [16.8634849, 45.9077162], [16.8632598, 45.9078559], [16.8629189, 45.9080392], [16.8623973, 45.9083567], [16.8622802, 45.9083973], [16.8626705, 45.9090619], [16.8628081, 45.909154], [16.8629355, 45.9092365], [16.8631048, 45.9095132], [16.8631793, 45.9096036], [16.8633834, 45.9095394], [16.8634369, 45.9095903], [16.8635714, 45.9097709], [16.8636901, 45.9099256], [16.863768, 45.9100441], [16.8639553, 45.9102485], [16.864118, 45.9104343], [16.8643099, 45.9103271], [16.864434, 45.9104366], [16.8643416, 45.9104845], [16.8643681, 45.9105098], [16.8645071, 45.9106355], [16.8646129, 45.91058], [16.8646904, 45.9106574], [16.86478, 45.9107349], [16.8648843, 45.9108457], [16.8649464, 45.9108147], [16.8651798, 45.9110337], [16.8652575, 45.9111439], [16.8653705, 45.9112447], [16.8655427, 45.9113908], [16.8656356, 45.9113465], [16.8658995, 45.9116214], [16.866035, 45.9117603], [16.8660053, 45.9117739], [16.8661343, 45.9119052], [16.8663065, 45.9120581], [16.8665205, 45.9122297], [16.8662387, 45.9123824], [16.866416, 45.9125651], [16.8665668, 45.9125618], [16.8668436, 45.9128168], [16.8668905, 45.912793], [16.8672818, 45.9131613], [16.8673861, 45.9131085], [16.8674396, 45.9131594], [16.8678425, 45.9136446], [16.8679051, 45.9136117], [16.8680846, 45.9137638], [16.8680517, 45.913784], [16.8680989, 45.9138251], [16.8680461, 45.9138538], [16.8682664, 45.9140197], [16.8681343, 45.9141009], [16.8683583, 45.9142661], [16.8682457, 45.914336], [16.8683894, 45.9144493], [16.8683199, 45.9144961], [16.868497, 45.9146268], [16.8685269, 45.9146077], [16.8686814, 45.914734], [16.8687671, 45.9147779], [16.8688755, 45.9149171], [16.8688223, 45.9149468], [16.8689655, 45.9150656], [16.8689144, 45.9150928], [16.8692278, 45.9153639], [16.8691857, 45.9153872], [16.8689483, 45.9155296], [16.8691376, 45.9157198], [16.8691861, 45.9156928], [16.8692696, 45.9157837], [16.8691968, 45.9158225], [16.8692704, 45.9158989], [16.8696452, 45.9161854], [16.8699204, 45.9160391], [16.8700427, 45.9161465], [16.8701077, 45.9161119], [16.8703332, 45.9163597], [16.8701758, 45.9164494], [16.8702792, 45.9165621], [16.8703859, 45.9166765], [16.8704887, 45.9167864], [16.8706569, 45.9169729], [16.8707327, 45.9170665], [16.8709054, 45.9172537], [16.8708622, 45.9172733], [16.8710842, 45.9175383], [16.871193, 45.9174879], [16.8713201, 45.9176336], [16.8711157, 45.9177239], [16.8712738, 45.9179079], [16.8712159, 45.9179371], [16.8714495, 45.9182683], [16.8714424, 45.9182707], [16.870854, 45.918446], [16.8701829, 45.9186421], [16.869577, 45.918766], [16.8694017, 45.9188072], [16.8693394, 45.9188181], [16.8690926, 45.9188822], [16.8688873, 45.9189243], [16.8688375, 45.9189547], [16.8685715, 45.9191166], [16.868522, 45.919075], [16.8685036, 45.9190678], [16.8684568, 45.9190495], [16.868341, 45.9190044], [16.86831, 45.9190182], [16.8681153, 45.9191049], [16.8676434, 45.9193149], [16.8674185, 45.9193085], [16.8672333, 45.9193061], [16.8671683, 45.9193201], [16.8667824, 45.9194055], [16.8663153, 45.9195168], [16.8659617, 45.9195969], [16.8661461, 45.9199156], [16.8666827, 45.9208531], [16.8649654, 45.9216366], [16.8648297, 45.9217587], [16.8649754, 45.9218627], [16.8651865, 45.9220719], [16.8652312, 45.9222746], [16.8652817, 45.9224138], [16.8655154, 45.9227573], [16.865569, 45.923049], [16.8656198, 45.9234061], [16.865698, 45.9237586], [16.865671, 45.9238036], [16.865716, 45.9240728], [16.866449, 45.9242458], [16.8663652, 45.9244928], [16.8662063, 45.9249187], [16.8653088, 45.924676], [16.8652125, 45.9246764], [16.8651456, 45.9246766], [16.8643576, 45.9246895], [16.8632461, 45.9247433], [16.8626575, 45.924762], [16.8615536, 45.9248509], [16.8609905, 45.9248913], [16.8603675, 45.9249177], [16.8594113, 45.9249927], [16.8588238, 45.9250325], [16.8576812, 45.9251795], [16.856689, 45.9253038], [16.8562933, 45.9253525], [16.8555052, 45.9254353], [16.8553414, 45.9254474], [16.8551898, 45.9254548], [16.8541246, 45.9254531], [16.8541213, 45.9254532], [16.8533961, 45.9254382], [16.8530379, 45.925364], [16.8526968, 45.9252319], [16.8522886, 45.9251219], [16.8516188, 45.924952], [16.8507677, 45.9248821], [16.850399, 45.924839], [16.8500061, 45.924748], [16.8497064, 45.9246788], [16.849143, 45.9245379], [16.8487292, 45.9243845], [16.8483447, 45.9242539], [16.8481503, 45.9241916], [16.847993, 45.9241601], [16.8473871, 45.9240388], [16.8469949, 45.9240371], [16.8467818, 45.9240269], [16.8464036, 45.9240373], [16.8463823, 45.9240379], [16.8461583, 45.9240493], [16.8460125, 45.9240777], [16.8456975, 45.9239564], [16.845288, 45.9238317], [16.8450908, 45.9237052], [16.8446183, 45.9233366], [16.8445111, 45.923231], [16.8444733, 45.923188], [16.8444211, 45.9231437], [16.8443594, 45.9231031], [16.8442873, 45.923065], [16.8441572, 45.9229844], [16.8440278, 45.9229041], [16.8438398, 45.9228042], [16.8437708, 45.922715], [16.8435687, 45.9224109], [16.8434173, 45.9220944], [16.8433402, 45.9219651], [16.8430811, 45.9218458], [16.842596, 45.9216224], [16.8423831, 45.9215941], [16.8422307, 45.9215287], [16.8421803, 45.9213572], [16.8421092, 45.9211158], [16.8421731, 45.9208778], [16.8419031, 45.9202721], [16.8416289, 45.9198722], [16.8413834, 45.9195143], [16.8411525, 45.9191775], [16.8408238, 45.9187931], [16.8406316, 45.9185685], [16.8402973, 45.9182908], [16.8400796, 45.9181726], [16.8400023, 45.9180907], [16.8399676, 45.9179628], [16.8399276, 45.9174841], [16.8399066, 45.9172326], [16.8398948, 45.9170895], [16.8398497, 45.9169457], [16.8398357, 45.9168315], [16.8397214, 45.9166162], [16.8395393, 45.9164361], [16.8392104, 45.9162404], [16.8388393, 45.9161191], [16.8381715, 45.9159242], [16.8378456, 45.9157694], [16.8376388, 45.9155928], [16.8373468, 45.9153116], [16.8372149, 45.915095], [16.836978, 45.9148173], [16.8366866, 45.9144754], [16.8364234, 45.9141938], [16.8362532, 45.9140118], [16.8359401, 45.9137917], [16.8357979, 45.9136918], [16.8356283, 45.9136423], [16.8351015, 45.913486], [16.8346878, 45.913337], [16.833139, 45.9129244], [16.8329501, 45.9128272], [16.8323919, 45.9125385], [16.8319955, 45.9123379], [16.8318301, 45.9122528], [16.8310598, 45.9118559], [16.8307554, 45.9117028], [16.8307494, 45.9117752], [16.8307109, 45.9122411], [16.8306779, 45.9130106], [16.8306459, 45.9135524], [16.8305657, 45.9145911], [16.8302757, 45.915087], [16.8301362, 45.9153091], [16.8300595, 45.9154453], [16.8299689, 45.9155844], [16.8297556, 45.915943], [16.8297119, 45.9159983], [16.8295725, 45.9162284], [16.8295223, 45.9163105], [16.8293049, 45.9166693], [16.8292385, 45.9167815], [16.829181, 45.9168917], [16.829146, 45.9169914], [16.8291402, 45.9170967], [16.8291659, 45.9172621], [16.8292729, 45.9177713], [16.8294087, 45.918615], [16.8294533, 45.9187683], [16.8295046, 45.9188809], [16.8297824, 45.919368], [16.8297922, 45.9193948], [16.8298536, 45.9194934], [16.8299179, 45.9195932], [16.8300386, 45.9197878], [16.830113, 45.9199104], [16.8301844, 45.9200326], [16.830251, 45.9201517], [16.8302948, 45.9202288], [16.8303492, 45.920323], [16.8306548, 45.9208555], [16.8310774, 45.9216097], [16.8312641, 45.9219361], [16.8313139, 45.9220296], [16.831572, 45.9224995], [16.8323855, 45.9240559], [16.8326164, 45.9244839], [16.8328838, 45.9249943], [16.8330386, 45.9252867], [16.8331512, 45.9255195], [16.8335062, 45.9261739], [16.8337179, 45.9265725], [16.8338198, 45.9267737], [16.833873, 45.92693], [16.8339085, 45.9270861], [16.8339259, 45.9272303], [16.8339377, 45.9274929], [16.8339077, 45.9276867], [16.8338504, 45.9279627], [16.8338057, 45.9281587], [16.833757, 45.9283845], [16.8337145, 45.9285707], [16.833608, 45.9290442], [16.8335604, 45.9293324], [16.8335555, 45.9295962], [16.8335632, 45.9296683], [16.833562, 45.9296851], [16.8335688, 45.9297653], [16.8335789, 45.9298911], [16.8336111, 45.9305167], [16.833622, 45.9306366], [16.833687, 45.9310458], [16.8337077, 45.9315765], [16.8337441, 45.9319797], [16.8337639, 45.9322887], [16.8337756, 45.932582], [16.8337945, 45.9328232], [16.8338122, 45.9333802], [16.8338155, 45.9336814], [16.833777, 45.9339158], [16.8338736, 45.9342134], [16.8339001, 45.9344234], [16.833894, 45.9346025], [16.8337723, 45.935197], [16.8337111, 45.9354079], [16.8336803, 45.9355019], [16.8338123, 45.9360337], [16.8338246, 45.9360832], [16.8325887, 45.936346], [16.8323736, 45.9364505], [16.8310966, 45.9366694], [16.8311026, 45.9367385], [16.831107, 45.9369105], [16.8310992, 45.9370223], [16.8311401, 45.9370781], [16.8311955, 45.9371538], [16.831402, 45.9374357], [16.831375, 45.9375565], [16.8314459, 45.9376994], [16.8314442, 45.9378049], [16.8315044, 45.9379546], [16.8315419, 45.9380001], [16.8319242, 45.9386286], [16.8320817, 45.9390341], [16.832215, 45.9396161], [16.8322157, 45.9397127], [16.8316189, 45.939698], [16.8314248, 45.9397563], [16.8312263, 45.9398221], [16.8310323, 45.9398734], [16.8305791, 45.9400139], [16.8301098, 45.9400624], [16.8295134, 45.9401272], [16.8293439, 45.9401652], [16.8283131, 45.9401978], [16.827481, 45.9403498], [16.8272149, 45.9400864], [16.8263732, 45.9402898], [16.8259272, 45.940379], [16.8235956, 45.9407739], [16.8236134, 45.9409822], [16.8236437, 45.9411256], [16.8236446, 45.9411326], [16.8236598, 45.9411521], [16.823654, 45.9411693], [16.8223171, 45.9414537], [16.8212296, 45.9416806], [16.8210024, 45.9415572], [16.8203957, 45.9412214], [16.8200983, 45.941323], [16.8194664, 45.9415333], [16.8194583, 45.9415168], [16.8190069, 45.9405971], [16.8189766, 45.9405385], [16.8189337, 45.9404251], [16.8189293, 45.9403271], [16.8189337, 45.9401763], [16.8189502, 45.9399899], [16.8192181, 45.9392003], [16.8193661, 45.9388995], [16.8195245, 45.9386725], [16.8195516, 45.9386121], [16.8196072, 45.9383741], [16.8196124, 45.9382619], [16.8195986, 45.9381431], [16.8195076, 45.9378687], [16.8194727, 45.9376485], [16.8194042, 45.9374671], [16.819282, 45.9373138], [16.819208, 45.9372183], [16.8191697, 45.9371501], [16.8190672, 45.9369656], [16.8188224, 45.9364195], [16.8187902, 45.9363467], [16.8187516, 45.9362427], [16.8187298, 45.9361777], [16.8186893, 45.9360309], [16.8186661, 45.9359669], [16.8185324, 45.9357052], [16.8184215, 45.9355545], [16.8183426, 45.9354153], [16.8181442, 45.934985], [16.8180858, 45.9347922], [16.8180297, 45.9345712], [16.8179792, 45.9342602], [16.8178706, 45.9339768], [16.8177974, 45.9338354], [16.817712, 45.9337148], [16.8172139, 45.9330812], [16.817059, 45.9328508], [16.8169303, 45.9326456], [16.8169053, 45.9325978], [16.8167925, 45.9323718], [16.8167483, 45.932259], [16.8166218, 45.9320237], [16.8164025, 45.9316248], [16.816376, 45.9315631], [16.8159552, 45.931511], [16.8151157, 45.9314033], [16.8149208, 45.9312282], [16.8147017, 45.9310291], [16.8146088, 45.9309474], [16.8142933, 45.9306605], [16.8142622, 45.9306284], [16.8139648, 45.9303027], [16.8137766, 45.9300838], [16.8135587, 45.9298319], [16.8132482, 45.9294743], [16.8131766, 45.9293405], [16.8131114, 45.929219], [16.8130549, 45.9291164], [16.8129043, 45.9287776], [16.8128297, 45.9286043], [16.8125905, 45.9280733], [16.8123335, 45.9276545], [16.8122063, 45.9274509], [16.8121302, 45.9271995], [16.8120808, 45.9270083], [16.812197, 45.9265757], [16.8127334, 45.9262493], [16.811531, 45.92584], [16.8111671, 45.9256277], [16.8108806, 45.9254602], [16.810234, 45.9250915], [16.8099743, 45.9249376], [16.8097926, 45.924815], [16.8095092, 45.9246113], [16.8093957, 45.9245287], [16.8092841, 45.924451], [16.8083429, 45.9240551], [16.8079407, 45.9238808], [16.8079471, 45.9238738], [16.807248, 45.9235831], [16.8067401, 45.9231809], [16.8065047, 45.9229994], [16.8063429, 45.9227812], [16.8061229, 45.922486], [16.8060983, 45.9224531], [16.8064199, 45.9220698], [16.8065653, 45.9217337], [16.8071564, 45.9207528], [16.8077698, 45.9203506], [16.8080315, 45.9200266], [16.8084987, 45.9194537], [16.8085402, 45.9194023], [16.8086778, 45.9192295], [16.8087701, 45.9188302], [16.8087834, 45.9187738], [16.8088708, 45.9183925], [16.8089321, 45.9181329], [16.8089684, 45.918079], [16.8090254, 45.9180026], [16.8096073, 45.9171884], [16.8096379, 45.9171498], [16.8097412, 45.9169304], [16.8098655, 45.9167433], [16.809938, 45.9166649], [16.8102521, 45.9163312], [16.8104006, 45.9162094], [16.8106797, 45.9159869], [16.8117029, 45.9151811], [16.8121328, 45.9144931], [16.8126123, 45.9137209], [16.8126395, 45.9137119], [16.8126115, 45.9136787], [16.8128648, 45.913568], [16.8129951, 45.9134915], [16.8132578, 45.9132095], [16.8136119, 45.9130287], [16.8134827, 45.9128209], [16.813459, 45.912789], [16.8127857, 45.9117284], [16.812221, 45.9108419], [16.8121316, 45.9106954], [16.8121528, 45.9104981], [16.8121607, 45.9104526], [16.8121487, 45.9104269], [16.8121446, 45.910418], [16.8121377, 45.9104055], [16.8116698, 45.9095529], [16.8111952, 45.908688], [16.8108173, 45.9087656], [16.8102784, 45.9088744], [16.8097623, 45.9090021], [16.8091363, 45.9091934], [16.8082291, 45.9095319], [16.8074704, 45.9098503], [16.8068338, 45.9101279], [16.8058921, 45.9105262], [16.8044517, 45.9111427], [16.8040372, 45.9113211], [16.803371, 45.9116142], [16.8021121, 45.9121697], [16.8016709, 45.912394], [16.8012172, 45.9126493], [16.800845, 45.9128998], [16.8005075, 45.9132184], [16.800139, 45.913666], [16.7998806, 45.9139146], [16.799819, 45.9138833]]]]}}]}