{"type":"FeatureCollection","features":[{"type":"Feature","properties":{"name":"Skanderborg","admin":"kommune","source":"\u00a9 OpenStreetMap contributors, ODbL 1.0","osm_relation":1784660},"geometry":{"type":"Polygon","coordinates":[[[10.0381046,56.1047288],[10.0392931,56.1044864],[10.0403407,56.1046447],[10.0415941,56.104501],[10.0439153,56.1033295],[10.0451496,56.1018753],[10.0459311,56.1014602],[10.0498193,56.0980565],[10.0494064,56.0967998],[10.051045,56.0969398],[10.051641,56.0965055],[10.0504518,56.0955718],[10.0513955,56.0954456],[10.0513279,56.0952063],[10.0518017,56.0951972],[10.051769,56.0949761],[10.0520881,56.0947817],[10.0542451,56.0937168],[10.0563888,56.0920935],[10.0586572,56.0911761],[10.0601719,56.0899192],[10.0604156,56.0889297],[10.0592911,56.0871704],[10.0597613,56.0864437],[10.0633849,56.0853793],[10.064778,56.0842023],[10.0666941,56.0838954],[10.0704019,56.0842539],[10.0719369,56.0838544],[10.072565,56.0830189],[10.0751449,56.0815231],[10.0752558,56.0793687],[10.0745867,56.0790492],[10.0753139,56.0789445],[10.0762575,56.0772347],[10.0793762,56.0759499],[10.083423,56.0761579],[10.0865903,56.0745315],[10.0886405,56.0740094],[10.0903912,56.0725987],[10.0906065,56.0720317],[10.092703,56.0709037],[10.0929327,56.0703117],[10.0916112,56.069558],[10.0912177,56.0681618],[10.0914664,56.0673316],[10.0907759,56.0656648],[10.089564,56.064056],[10.0886994,56.0639329],[10.0847712,56.0646064],[10.0845811,56.0637668],[10.0831167,56.0612166],[10.0831477,56.0585413],[10.0812142,56.0584851],[10.0793235,56.0589206],[10.079729,56.0576767],[10.0744976,56.055704],[10.0708999,56.0471124],[10.0622754,56.0464095],[10.0568404,56.0454995],[10.0506208,56.0440383],[10.0488121,56.0432412],[10.0480344,56.0426102],[10.0502399,56.0405874],[10.0508179,56.0397749],[10.0510596,56.0384837],[10.0507056,56.0367503],[10.050901,56.0363245],[10.0523841,56.0357708],[10.05612,56.0332715],[10.0589055,56.0319038],[10.0572214,56.0310487],[10.0587674,56.0287517],[10.0584519,56.0262378],[10.0578132,56.0256522],[10.0577537,56.0252368],[10.0569275,56.0253086],[10.0565391,56.0248153],[10.0563505,56.0236942],[10.0547196,56.0227755],[10.0549229,56.0220326],[10.0547963,56.021519],[10.0519532,56.0197408],[10.050596,56.0195666],[10.0504688,56.0185949],[10.0499273,56.0176609],[10.0481809,56.016888],[10.047766,56.0164173],[10.0475519,56.0159169],[10.0479474,56.0125724],[10.0351094,56.0105224],[10.0326699,56.0104172],[10.0288476,56.009644],[10.0300143,56.0073009],[10.0300795,56.0047639],[10.0305025,56.0048054],[10.0307848,56.0039173],[10.0303989,56.0039301],[10.0300201,56.0029723],[10.0308294,56.0027298],[10.0305279,56.0025244],[10.0302605,56.0014752],[10.0308686,56.0003041],[10.0328564,56.0005371],[10.0347067,56.0003678],[10.0387693,55.999723],[10.0393127,55.9995384],[10.0395075,55.9990557],[10.0405706,55.9988336],[10.0403222,55.9981645],[10.040744,55.9966109],[10.0402772,55.9952136],[10.0397694,55.9945447],[10.0359771,55.9921756],[10.0298998,55.9889674],[10.0275144,55.9878303],[10.0267934,55.9880835],[10.0270789,55.9877926],[10.0268365,55.9875788],[10.0258664,55.9873079],[10.0252199,55.9867917],[10.0257387,55.9866065],[10.0220761,55.9839987],[10.0158142,55.9814478],[10.01461,55.981547],[10.0136274,55.9812774],[10.0126419,55.9819515],[9.9994421,55.984492],[9.9991278,55.9833068],[9.9953229,55.9816394],[9.9959584,55.9811359],[9.9939035,55.9816915],[9.994195,55.9821198],[9.9918185,55.981897],[9.9890977,55.9831344],[9.986408,55.9832432],[9.9847801,55.9835953],[9.9835133,55.984651],[9.9827516,55.9865645],[9.9813195,55.9876679],[9.9797787,55.9883349],[9.9796481,55.988898],[9.9785374,55.9900081],[9.976472,55.9901826],[9.9724997,55.9911808],[9.9701863,55.9921702],[9.9687459,55.9921423],[9.9679357,55.9926046],[9.9677691,55.9919271],[9.9650073,55.9896061],[9.9647512,55.9886883],[9.9642804,55.9881395],[9.9630158,55.9875618],[9.9626775,55.9868054],[9.9579501,55.9833498],[9.957051,55.9823448],[9.9570651,55.9813324],[9.956549,55.9809696],[9.9563411,55.9804645],[9.9556449,55.9802022],[9.9538988,55.9805824],[9.9535417,55.9787494],[9.9540284,55.9777157],[9.9536641,55.9774827],[9.9541927,55.9770628],[9.9547101,55.9761738],[9.9544552,55.9756732],[9.9543676,55.9739964],[9.9550671,55.971906],[9.952876,55.9701241],[9.9414541,55.968978],[9.9378304,55.9690572],[9.9337816,55.9694787],[9.9328764,55.9685199],[9.9310314,55.9692047],[9.9304274,55.9686764],[9.9294518,55.9690059],[9.9286152,55.9688349],[9.9283222,55.9688695],[9.9281981,55.9694441],[9.9149362,55.9709862],[9.9144738,55.9697888],[9.913268,55.9696762],[9.9112734,55.9700541],[9.9103299,55.9705177],[9.9090663,55.9705334],[9.9078665,55.9699289],[9.9076227,55.969047],[9.9064603,55.9692585],[9.9056265,55.9700563],[9.904912,55.970044],[9.9048269,55.9691621],[9.9042999,55.9690636],[9.9034781,55.9692929],[9.902625,55.9699914],[9.9021607,55.9710774],[9.9016022,55.9709301],[9.9002788,55.9696785],[9.8992202,55.9694697],[9.8977663,55.9686749],[9.8972723,55.9689914],[9.8957196,55.968549],[9.8930875,55.9682304],[9.8914447,55.9674499],[9.8916704,55.966843],[9.8913441,55.9665494],[9.8889302,55.9665431],[9.880995,55.9677869],[9.879815,55.9673657],[9.8783663,55.9659543],[9.8757528,55.9626585],[9.8743847,55.9604229],[9.8731533,55.9578016],[9.8730588,55.9556937],[9.8703018,55.9556004],[9.8677758,55.9546611],[9.8670604,55.9546186],[9.866677,55.9542086],[9.8642177,55.9539871],[9.8617471,55.9545325],[9.8572112,55.9549909],[9.8565269,55.9561141],[9.85367,55.9566334],[9.854042,55.9584604],[9.8539171,55.9606052],[9.8524488,55.9605073],[9.8507024,55.9599115],[9.8496002,55.9600021],[9.8483363,55.9604612],[9.8465368,55.9604758],[9.8449661,55.9611235],[9.8432397,55.9611576],[9.8418443,55.9622395],[9.8408166,55.9623254],[9.8401411,55.9626889],[9.8375923,55.9627837],[9.8373172,55.9632106],[9.8373131,55.9643752],[9.8353944,55.9649985],[9.8351667,55.965268],[9.8352301,55.9660504],[9.8325659,55.9669216],[9.8324858,55.9671429],[9.8285778,55.9681311],[9.8283583,55.968529],[9.8271081,55.9691987],[9.8247997,55.97012],[9.823098,55.9703235],[9.8216301,55.9713593],[9.8201722,55.9716758],[9.8199295,55.9731943],[9.8198013,55.9730039],[9.8159107,55.9726654],[9.8150716,55.9729066],[9.8130622,55.9727596],[9.8075177,55.9739411],[9.8073312,55.9747077],[9.8068341,55.9753215],[9.806757,55.9761606],[9.8074166,55.9767702],[9.8073694,55.9772152],[9.8081438,55.9781958],[9.808132,55.9786576],[9.8088257,55.9791686],[9.8049788,55.9808483],[9.8045098,55.9819109],[9.8029022,55.9820968],[9.8011844,55.9832113],[9.8012407,55.9840706],[9.8003917,55.9841438],[9.7995726,55.9846314],[9.7986115,55.9848315],[9.7973659,55.987593],[9.7970299,55.9888769],[9.797136,55.9893246],[9.7978266,55.9900708],[9.7978281,55.9912665],[9.7975679,55.9915934],[9.7976769,55.9923687],[9.7982036,55.9933275],[9.7981951,55.9942582],[9.7990804,55.9962751],[9.8017084,55.997202],[9.807693,56.0011927],[9.8106762,56.0020288],[9.8101842,56.0039082],[9.8107475,56.0044532],[9.8099431,56.0054071],[9.8100689,56.0060354],[9.8095856,56.0063125],[9.8114937,56.0076606],[9.8083957,56.0080964],[9.8085831,56.0083571],[9.8070224,56.0085673],[9.8067429,56.0088874],[9.8055937,56.009069],[9.8052145,56.0099258],[9.8040537,56.0102809],[9.8026647,56.011617],[9.801904,56.0116892],[9.8008351,56.0121919],[9.8003129,56.0128699],[9.799447,56.0132412],[9.7994167,56.0135629],[9.7989289,56.0136691],[9.7990842,56.0138352],[9.7988914,56.01396],[9.7988231,56.0150985],[9.798436,56.015995],[9.7990478,56.0163648],[9.7990042,56.0171322],[9.7971051,56.0182642],[9.7948835,56.0188522],[9.7926427,56.0188755],[9.789726,56.018112],[9.7879634,56.0173548],[9.7861722,56.0160399],[9.7860512,56.0156214],[9.7843765,56.0154726],[9.7812193,56.0156644],[9.778796,56.0147156],[9.7755013,56.0148765],[9.7710566,56.0155369],[9.7701297,56.0150323],[9.7677778,56.0159478],[9.7672865,56.0166935],[9.7653151,56.017025],[9.7644291,56.0168991],[9.762077,56.0161547],[9.75942,56.0157458],[9.7576104,56.0145221],[9.7564407,56.0142552],[9.7564266,56.0137462],[9.7537371,56.0136261],[9.7520979,56.0136962],[9.7518359,56.0138921],[9.7511317,56.0133395],[9.7486817,56.0128278],[9.7483716,56.0121134],[9.7478216,56.0115845],[9.7479442,56.0107492],[9.7470585,56.010504],[9.744175,56.0106884],[9.74274,56.0111758],[9.7412212,56.0109771],[9.7385445,56.0098695],[9.7367803,56.0100195],[9.7357207,56.0096217],[9.7337425,56.0100973],[9.7337581,56.0098988],[9.7332743,56.010017],[9.7304221,56.0110546],[9.7266524,56.0114262],[9.7149671,56.0114878],[9.7096424,56.0109107],[9.7073617,56.0152991],[9.7072301,56.01522],[9.7069462,56.0159992],[9.7072921,56.0160473],[9.7071853,56.0163517],[9.7068574,56.0163297],[9.706849,56.0168591],[9.7063631,56.0178101],[9.7086475,56.0186369],[9.7104928,56.0197027],[9.710908,56.0207505],[9.707365,56.0216471],[9.7070583,56.0225971],[9.7057795,56.0230911],[9.7053066,56.0289196],[9.7075168,56.0291797],[9.7081916,56.0312119],[9.7066235,56.0310762],[9.7094714,56.0370017],[9.700947,56.0413622],[9.7026873,56.0441875],[9.7007619,56.0463599],[9.6996799,56.0469198],[9.6993185,56.0473742],[9.7008799,56.0481748],[9.704056,56.0476512],[9.7043744,56.0479436],[9.7044346,56.0487451],[9.7053263,56.0496725],[9.7043618,56.0516363],[9.7043799,56.0524195],[9.7052064,56.0528642],[9.7060661,56.0538611],[9.708763,56.0551734],[9.7088978,56.0556485],[9.7072033,56.0566734],[9.7057163,56.0568196],[9.7043867,56.0572734],[9.7014338,56.057419],[9.699364,56.0581229],[9.6989914,56.0579337],[9.6941827,56.0578881],[9.6921866,56.0573907],[9.6894428,56.0582081],[9.685551,56.0575667],[9.6851111,56.0576888],[9.684919,56.0582438],[9.6846168,56.0583842],[9.6829482,56.058096],[9.6828283,56.0587211],[9.6822276,56.0593693],[9.6815965,56.0595281],[9.6796147,56.0591585],[9.676423,56.0594114],[9.6752455,56.0590462],[9.6736985,56.0591954],[9.661675,56.0610769],[9.6533716,56.0632335],[9.650194,56.0615389],[9.6447803,56.0625733],[9.6404918,56.0645887],[9.6427813,56.0676263],[9.6419689,56.0718455],[9.6436507,56.0745536],[9.6437133,56.076352],[9.6445343,56.0771674],[9.6441293,56.0789968],[9.6439886,56.0814692],[9.6427564,56.0827285],[9.63826,56.0855013],[9.6367818,56.0880445],[9.6357183,56.0891123],[9.6348007,56.0921845],[9.635288,56.0942804],[9.6357765,56.0983082],[9.6351958,56.0998506],[9.634865,56.1019612],[9.6342406,56.1031243],[9.6341413,56.1044933],[9.6331438,56.1061759],[9.6344441,56.1076656],[9.6352436,56.1099576],[9.6362205,56.1113754],[9.6379386,56.1128937],[9.6416032,56.1151357],[9.6417539,56.1157755],[9.6433525,56.1160558],[9.6447689,56.1166341],[9.6463811,56.1179596],[9.6475825,56.1198951],[9.652129,56.1216762],[9.6571073,56.1206226],[9.6961982,56.1138202],[9.7031035,56.1162289],[9.7063148,56.1187252],[9.7117146,56.1200922],[9.7154315,56.1221842],[9.7192719,56.1226431],[9.7201752,56.1244172],[9.7206771,56.124664],[9.7251942,56.1253185],[9.7279146,56.1265662],[9.7276827,56.126673],[9.728176,56.1273208],[9.7279368,56.1281033],[9.7284359,56.1287478],[9.7278305,56.1292673],[9.7281942,56.1293794],[9.7289868,56.1304601],[9.7295818,56.1306617],[9.7294149,56.1310689],[9.7312341,56.1319404],[9.7317943,56.1327958],[9.7330193,56.1329306],[9.735869,56.134101],[9.7369346,56.1340498],[9.7381686,56.1345498],[9.7394105,56.1346357],[9.7425237,56.1359821],[9.7458499,56.1358805],[9.7488446,56.136852],[9.7488865,56.1370573],[9.7513059,56.1380261],[9.7509149,56.1381537],[9.7514751,56.1394796],[9.7512513,56.1402562],[9.7499799,56.142333],[9.7482388,56.1440687],[9.7470639,56.1460709],[9.7466659,56.1491774],[9.7460903,56.1508323],[9.7466901,56.1516063],[9.7504407,56.1503428],[9.7520986,56.1514951],[9.7505168,56.1541936],[9.7500776,56.1541493],[9.748869,56.1579256],[9.7462519,56.1575355],[9.7456083,56.158592],[9.7457528,56.1586855],[9.7487133,56.1592393],[9.7514329,56.1600602],[9.7523146,56.1600849],[9.7536966,56.1595741],[9.7536881,56.1587724],[9.7542298,56.1578632],[9.7592971,56.1594095],[9.7693579,56.1612267],[9.771659,56.1618387],[9.7735033,56.1620859],[9.7745808,56.1614892],[9.780447,56.1634547],[9.7800573,56.1637819],[9.7802963,56.163965],[9.7878158,56.1641846],[9.7888785,56.1637464],[9.7930159,56.1634806],[9.7943668,56.1636907],[9.7993775,56.1637387],[9.802536,56.1643512],[9.8046949,56.1640614],[9.8088373,56.1647523],[9.8090846,56.1649263],[9.8088584,56.1655626],[9.8108547,56.1657049],[9.8125617,56.1662039],[9.8129094,56.1660146],[9.8130299,56.1654525],[9.8139994,56.1648733],[9.8156853,56.1645412],[9.818064,56.1649419],[9.8197576,56.1661092],[9.8213517,56.1661502],[9.8228939,56.1667819],[9.8246422,56.167035],[9.8264123,56.1669348],[9.8263462,56.1675307],[9.8296605,56.167408],[9.8312278,56.1677241],[9.8328265,56.1676574],[9.8344104,56.1681116],[9.8353193,56.1680352],[9.8396016,56.1699593],[9.8403072,56.1707667],[9.8415136,56.1709759],[9.8466314,56.1708829],[9.8481132,56.1703758],[9.8510279,56.1704395],[9.8552656,56.1695967],[9.8567681,56.1697175],[9.8583278,56.1686903],[9.8593801,56.1700505],[9.8578885,56.1706608],[9.8581805,56.1712111],[9.8576607,56.1717977],[9.8580479,56.1730564],[9.8588898,56.1742316],[9.8610946,56.1763216],[9.8591468,56.1774316],[9.8588027,56.1893844],[9.8627822,56.1904442],[9.8662117,56.1925903],[9.8675069,56.1937511],[9.8707776,56.1947351],[9.8728197,56.1957768],[9.8741053,56.1961402],[9.8748272,56.1967411],[9.8766449,56.1970096],[9.878941,56.1983855],[9.8799915,56.1987384],[9.8803567,56.1990259],[9.8802089,56.2003844],[9.8804037,56.2005489],[9.8820322,56.2015867],[9.8839033,56.2023311],[9.8852073,56.2037284],[9.8875472,56.2053651],[9.8926295,56.2077654],[9.8980646,56.2142381],[9.9056711,56.2133607],[9.9109415,56.2108815],[9.9167433,56.2128648],[9.9271826,56.2102523],[9.9320948,56.2092956],[9.9368276,56.2127622],[9.9352443,56.2134312],[9.9359326,56.2146587],[9.9369723,56.2145627],[9.9414606,56.2163348],[9.9440846,56.215349],[9.9475159,56.2151487],[9.9485013,56.2153079],[9.9569751,56.2142775],[9.9572007,56.2143426],[9.9569536,56.2146276],[9.9576356,56.2152786],[9.9588096,56.2151969],[9.9634259,56.2142914],[9.9648206,56.2135263],[9.966954,56.2132048],[9.9690256,56.2134059],[9.9701102,56.2150652],[9.971449,56.2147423],[9.9715403,56.2142552],[9.9721983,56.2137411],[9.9739129,56.2128774],[9.9764511,56.2123912],[9.9796139,56.2128856],[9.9803414,56.2119126],[9.9810771,56.2119685],[9.9827705,56.2111703],[9.9825768,56.2104301],[9.9818572,56.2097562],[9.9816106,56.2091573],[9.9817661,56.2079045],[9.9842267,56.2079122],[9.984996,56.2068788],[9.9895169,56.2069107],[9.9907887,56.2057266],[9.9920882,56.2038562],[9.9884139,56.2034522],[9.9892332,56.1999014],[9.988164,56.1997906],[9.9874218,56.1973814],[9.987775,56.1973124],[9.9879714,56.1956737],[9.9855528,56.1957482],[9.9845323,56.194889],[9.9824029,56.1940983],[9.9827965,56.1937134],[9.9833732,56.1935854],[9.9832081,56.1934424],[9.9836084,56.1932675],[9.983429,56.193077],[9.983567,56.1927369],[9.9838317,56.192396],[9.9844743,56.1922111],[9.9847697,56.1918263],[9.9846585,56.1916327],[9.9852167,56.1914991],[9.985097,56.1912607],[9.9859742,56.1912974],[9.9860175,56.1906046],[9.9868155,56.1899971],[9.9865345,56.1895559],[9.9879745,56.1889447],[9.9883538,56.1891518],[9.9884441,56.1889669],[9.9888181,56.1890202],[9.9888545,56.1886371],[9.9895809,56.188539],[9.9898338,56.1883745],[9.9897158,56.1882245],[9.9903088,56.1883302],[9.9901323,56.1885577],[9.9907377,56.1879712],[9.991047,56.1881236],[9.9909852,56.1878294],[9.9913468,56.187749],[9.9912324,56.1875101],[9.9917947,56.1875298],[9.9916851,56.1873508],[9.992045,56.1872868],[9.9923951,56.186484],[9.9934052,56.1858971],[9.9929707,56.1856344],[9.9940529,56.1846628],[9.9888124,56.1833933],[9.9905239,56.1805714],[9.9909213,56.1806535],[9.9912807,56.1810703],[9.9926177,56.1813465],[9.9928655,56.180703],[9.99422,56.1808653],[9.9945393,56.1803897],[9.9944212,56.1801968],[9.9952841,56.1799375],[9.9954021,56.1795632],[9.996759,56.1792025],[9.9968422,56.1787172],[9.9849013,56.178838],[9.9823664,56.1782377],[9.9812872,56.1771036],[9.9806919,56.174837],[9.979856,56.1751854],[9.9796928,56.1748348],[9.9789608,56.1751051],[9.9786592,56.1748277],[9.978232,56.1750051],[9.9775693,56.1746618],[9.9746409,56.1752969],[9.9742848,56.1757117],[9.9734721,56.1759628],[9.9703365,56.175083],[9.9701033,56.1752723],[9.9694425,56.1751526],[9.9691376,56.1745482],[9.9685602,56.1742815],[9.9669542,56.1741867],[9.9668352,56.1736706],[9.965349,56.1734964],[9.9652127,56.1731035],[9.9642767,56.1727718],[9.9619604,56.1725932],[9.9598765,56.1728234],[9.9594002,56.1713805],[9.9642072,56.1697049],[9.9649552,56.1697113],[9.9662815,56.1687459],[9.9658409,56.1684044],[9.9648847,56.1682118],[9.9650541,56.1675156],[9.9678804,56.1664126],[9.9691718,56.1644816],[9.9699607,56.1643143],[9.9711103,56.1634813],[9.9707616,56.1625308],[9.9727874,56.1617673],[9.9739764,56.1596953],[9.9745038,56.1594242],[9.9734705,56.1573291],[9.9732739,56.1551016],[9.9725462,56.152584],[9.9710813,56.1512104],[9.9703676,56.1510928],[9.9695806,56.1510488],[9.9685952,56.1516196],[9.966142,56.1514557],[9.9653702,56.1511926],[9.9651034,56.1519082],[9.9643897,56.1520379],[9.9594472,56.1494186],[9.9512707,56.1460178],[9.9485638,56.1444462],[9.951348,56.1433551],[9.952019,56.1421163],[9.9528472,56.1417814],[9.953545,56.1411175],[9.954773,56.1409255],[9.95515,56.1406498],[9.9552727,56.1392095],[9.9554695,56.1388638],[9.9561315,56.1385606],[9.9558197,56.1369912],[9.9573404,56.1343378],[9.9575504,56.1331471],[9.9586812,56.1312937],[9.9580893,56.1303048],[9.9604035,56.1294334],[9.9628243,56.1292959],[9.9667554,56.129586],[9.9678378,56.1281821],[9.9686549,56.1279783],[9.9706837,56.1277523],[9.9713112,56.1282632],[9.9727902,56.1282199],[9.9739245,56.1279014],[9.9736363,56.1273627],[9.9737087,56.1246422],[9.9775021,56.120977],[9.9771029,56.1183383],[9.9761074,56.1178165],[9.9746407,56.1155811],[9.9775399,56.1150147],[9.981852,56.1132299],[9.9805395,56.112146],[9.9798239,56.1111453],[9.9802407,56.1106725],[9.9846103,56.1087476],[9.9854257,56.1079963],[9.9881075,56.1085027],[9.9900221,56.1082834],[9.9913803,56.1092835],[9.992266,56.1093909],[9.9941319,56.1108252],[9.9955317,56.1114776],[9.9955811,56.1121272],[9.9960678,56.1125472],[9.9959432,56.112827],[9.9962841,56.1138297],[9.9980477,56.113592],[9.9982355,56.1133455],[9.998983,56.1132186],[10.0003091,56.1136616],[10.0007726,56.1135155],[10.0009264,56.1132165],[10.0032813,56.112746],[10.0040559,56.1128578],[10.0042703,56.1133324],[10.0049787,56.1128124],[10.0067963,56.1128219],[10.0072864,56.1125187],[10.0083239,56.1124244],[10.0094337,56.1114991],[10.0098262,56.1105857],[10.0097295,56.1097558],[10.0100451,56.1091158],[10.0094434,56.1083157],[10.0097003,56.1080707],[10.0114263,56.1078965],[10.0117748,56.1075211],[10.0132094,56.1070695],[10.014165,56.1073832],[10.0162136,56.107163],[10.0165392,56.1070162],[10.0166754,56.1064214],[10.0188182,56.1055796],[10.0192116,56.1052892],[10.0191716,56.1041591],[10.0196513,56.103656],[10.0197593,56.1031877],[10.0184272,56.1028388],[10.0183792,56.1025782],[10.0186305,56.1022945],[10.0186816,56.1015613],[10.0193464,56.101218],[10.0204696,56.1014887],[10.0222832,56.10241],[10.0229876,56.1033688],[10.0237654,56.1037702],[10.0239756,56.1041544],[10.0261144,56.1037896],[10.026546,56.1033559],[10.0276213,56.1033056],[10.0296147,56.1036792],[10.0303143,56.1035039],[10.0309781,56.1037829],[10.0309025,56.1039924],[10.0311367,56.1041416],[10.0318018,56.1042751],[10.0333444,56.1039964],[10.035425,56.104792],[10.0377875,56.1049222],[10.0381046,56.1047288]],[[9.6902849,56.0581714],[9.6904681,56.0583513],[9.6899807,56.0584397],[9.6893484,56.0583791],[9.6891138,56.0583025],[9.6895946,56.0583288],[9.6902849,56.0581714]]]}}]}