{"type": "FeatureCollection", "features": [{"type": "Feature", "properties": {"name": "Hiiumaa", "admin": "vald", "source": "© OpenStreetMap contributors, ODbL 1.0", "osm_relation": 7821150}, "geometry": {"type": "MultiPolygon", "coordinates": [[[[22.0385487, 58.9273083], [22.0448296, 58.9261164], [22.0466667, 58.9221224], [22.0489954, 58.9211901], [22.0583773, 58.9193843], [22.0565241, 58.9208006], [22.0623094, 58.9217214], [22.0667604, 58.9173442], [22.0765783, 58.9156768], [22.0940205, 58.9155203], [22.0926929, 58.9150362], [22.1357915, 58.9070946], [22.1402637, 58.9015187], [22.1399126, 58.894124], [22.1493757, 58.8940448], [22.1563078, 58.8889077], [22.1612503, 58.8892805], [22.1643528, 58.8869552], [22.1679329, 58.8872205], [22.1639857, 58.8854132], [22.1683848, 58.8860604], [22.1665136, 58.8847314], [22.1710514, 58.883895], [22.1733372, 58.881654], [22.1872845, 58.8812921], [22.1880572, 58.8825895], [22.1921383, 58.8826387], [22.1944883, 58.8817529], [22.1929566, 58.8810584], [22.1938443, 58.8804441], [22.2026646, 58.8809862], [22.209803, 58.8790529], [22.2159786, 58.8810008], [22.2277819, 58.8804344], [22.2298013, 58.8824653], [22.2397363, 58.8834414], [22.2514858, 58.8836567], [22.2602136, 58.8817816], [22.2655347, 58.883992], [22.2651232, 58.8869509], [22.268279, 58.8888516], [22.2762671, 58.8911175], [22.2779387, 58.8910462], [22.2807643, 58.8901634], [22.2801909, 58.8882366], [22.2822809, 58.8880073], [22.2826771, 58.8909816], [22.2852099, 58.8922392], [22.3026662, 58.8880971], [22.3034191, 58.8864267], [22.3065307, 58.8866691], [22.3065624, 58.8845147], [22.3045099, 58.883694], [22.3087515, 58.8820784], [22.3101128, 58.8841729], [22.3163392, 58.8868209], [22.3194986, 58.8843028], [22.3224627, 58.884787], [22.3212044, 58.8897651], [22.3290264, 58.8935137], [22.3558168, 58.8953302], [22.3656144, 58.8976456], [22.3939575, 58.8910432], [22.4035315, 58.8861074], [22.4143913, 58.8773898], [22.4189358, 58.8767598], [22.420873, 58.8746691], [22.4223511, 58.8753362], [22.4202149, 58.8735558], [22.4225947, 58.87407], [22.4252525, 58.8701099], [22.4283997, 58.8698212], [22.4359832, 58.862103], [22.4332958, 58.8601486], [22.4373585, 58.8590951], [22.4369863, 58.8575897], [22.4440087, 58.854348], [22.440972, 58.8540824], [22.4427264, 58.853423], [22.4413091, 58.8529393], [22.4410288, 58.8505267], [22.442314, 58.8506513], [22.4411409, 58.8502219], [22.4508406, 58.8463964], [22.4550979, 58.8407534], [22.456191, 58.8376303], [22.45473, 58.8343665], [22.4576828, 58.8323671], [22.4585384, 58.8270529], [22.4551486, 58.8233241], [22.4554992, 58.8205515], [22.4532058, 58.8180624], [22.4550185, 58.816921], [22.453617, 58.8158814], [22.4574895, 58.8158205], [22.4577163, 58.8157181], [22.4540417, 58.8158264], [22.4544666, 58.813569], [22.4492244, 58.8126495], [22.4571051, 58.8127183], [22.4583707, 58.8123941], [22.45693, 58.8109436], [22.4606267, 58.8103886], [22.4610307, 58.8102483], [22.4564587, 58.8109447], [22.4581482, 58.8105895], [22.4335493, 58.80674], [22.4439308, 58.806081], [22.4421885, 58.8065983], [22.4451126, 58.8073983], [22.4454796, 58.8060832], [22.4534843, 58.8056389], [22.4537959, 58.8068127], [22.4561409, 58.8053497], [22.4539175, 58.8044375], [22.4564087, 58.8047005], [22.4607469, 58.8029481], [22.4601911, 58.8020085], [22.4632373, 58.8008185], [22.4620435, 58.7982083], [22.4427113, 58.7895878], [22.4442969, 58.78939], [22.4444364, 58.7870481], [22.4509524, 58.7868945], [22.4584387, 58.7833928], [22.4579535, 58.7820598], [22.4721318, 58.7797689], [22.4767556, 58.7764719], [22.4791744, 58.7725061], [22.4798772, 58.7659247], [22.4783419, 58.7619582], [22.4739824, 58.7580789], [22.4703442, 58.7571762], [22.4692085, 58.7548904], [22.4624866, 58.7548849], [22.4618549, 58.7511631], [22.4680384, 58.752932], [22.4828721, 58.7501129], [22.4868583, 58.7476486], [22.4883671, 58.744075], [22.4878315, 58.7422806], [22.4847431, 58.7411516], [22.4936748, 58.73932], [22.4931883, 58.7378989], [22.4982104, 58.7360229], [22.5000683, 58.7331238], [22.5033512, 58.7331661], [22.5009719, 58.7301711], [22.5028587, 58.7281369], [22.4989667, 58.7279248], [22.5008268, 58.7269648], [22.4985974, 58.7253597], [22.4937195, 58.7242983], [22.4902393, 58.7256218], [22.4876021, 58.7234565], [22.4786199, 58.7245841], [22.4791227, 58.7222527], [22.475385, 58.7200805], [22.4725096, 58.7225198], [22.4616782, 58.7231681], [22.4641596, 58.7223318], [22.4629045, 58.7215848], [22.4641813, 58.7195362], [22.4743086, 58.7171217], [22.4735202, 58.7157843], [22.4656412, 58.7156968], [22.4707843, 58.713658], [22.4783856, 58.7147921], [22.4843371, 58.7095358], [22.4830263, 58.7067759], [22.4796199, 58.7064586], [22.4845567, 58.7052661], [22.4872921, 58.7018116], [22.5157928, 58.6958838], [22.521942, 58.6926647], [22.5213702, 58.6906683], [22.5229528, 58.6940516], [22.5246434, 58.694385], [22.5224555, 58.6910588], [22.5279597, 58.6944917], [22.563335, 58.6868712], [22.5798937, 58.6893068], [22.5864891, 58.6886636], [22.6001424, 58.6925994], [22.6109508, 58.6916425], [22.6098391, 58.6935011], [22.6121919, 58.6901166], [22.6107379, 58.6925091], [22.6120186, 58.6931942], [22.6217992, 58.6941008], [22.6390461, 58.6925545], [22.6586851, 58.6978417], [22.6664181, 58.6978153], [22.6717559, 58.7118855], [22.6766917, 58.7153697], [22.6814056, 58.7253676], [22.6961929, 58.739281], [22.7063499, 58.7517028], [22.7112379, 58.7546973], [22.7115384, 58.7567112], [22.7143951, 58.7589961], [22.7167729, 58.758806], [22.7142845, 58.7596485], [22.7149175, 58.7618383], [22.7162691, 58.7616465], [22.7160674, 58.7639347], [22.7199955, 58.7645744], [22.7196353, 58.7674239], [22.7280956, 58.7722593], [22.721246, 58.7748483], [22.7084962, 58.7750609], [22.7141991, 58.7756006], [22.7130547, 58.7772065], [22.7166204, 58.7799025], [22.7162082, 58.7818225], [22.7231287, 58.7878689], [22.7195989, 58.7907456], [22.7247383, 58.795179], [22.7232673, 58.7958281], [22.7260186, 58.7966913], [22.7246805, 58.7972915], [22.726681, 58.7974601], [22.7256473, 58.7979355], [22.7335682, 58.7995503], [22.7341975, 58.8006219], [22.7323463, 58.802027], [22.7340709, 58.8060459], [22.7350919, 58.8044816], [22.7371316, 58.8053898], [22.7444452, 58.8035637], [22.7421877, 58.8029805], [22.7455398, 58.8028206], [22.7446061, 58.8018518], [22.7479853, 58.7993037], [22.7509985, 58.800297], [22.7484128, 58.7989283], [22.7509036, 58.7987175], [22.7526774, 58.7944075], [22.7583539, 58.7914097], [22.7568342, 58.7909018], [22.7616103, 58.7911857], [22.7615068, 58.7937274], [22.7553439, 58.7988308], [22.7578513, 58.7995829], [22.7591636, 58.7978912], [22.7580235, 58.7996446], [22.7622651, 58.7995972], [22.7612439, 58.7986934], [22.7634367, 58.7947217], [22.7708991, 58.7884488], [22.7741558, 58.7880662], [22.7680449, 58.7868581], [22.7736747, 58.7873716], [22.77327, 58.7861363], [22.7754119, 58.7852507], [22.7768379, 58.7863298], [22.7751085, 58.7834242], [22.7824895, 58.7824849], [22.778419, 58.7803061], [22.7888991, 58.778069], [22.7872824, 58.7720117], [22.7935242, 58.7737889], [22.7979629, 58.7711272], [22.7993214, 58.7728946], [22.8037429, 58.7737191], [22.8072652, 58.7716927], [22.8081957, 58.7739147], [22.8044791, 58.7742306], [22.8062051, 58.7762627], [22.8134291, 58.7766482], [22.8124276, 58.7721406], [22.8080245, 58.7711882], [22.8100397, 58.7699574], [22.8039537, 58.7702125], [22.8065525, 58.7680633], [22.8100383, 58.768327], [22.8105124, 58.7661795], [22.8046235, 58.762679], [22.7953602, 58.7600358], [22.7866937, 58.7545566], [22.7957906, 58.7598186], [22.8052046, 58.7618151], [22.8149281, 58.766976], [22.8208424, 58.7682889], [22.8225046, 58.7669413], [22.8226171, 58.7654813], [22.8231011, 58.7651834], [22.8231001, 58.7662704], [22.8211697, 58.7686321], [22.8247792, 58.7687797], [22.8192208, 58.7702817], [22.8187132, 58.77255], [22.8260252, 58.7801346], [22.8294624, 58.7800539], [22.8278934, 58.7813553], [22.8303556, 58.7834954], [22.8372443, 58.7843977], [22.8374641, 58.782565], [22.8464895, 58.7801961], [22.8502398, 58.7821334], [22.845172, 58.7841535], [22.8448248, 58.7874525], [22.8518144, 58.7906797], [22.8554275, 58.7895361], [22.8589144, 58.7910335], [22.8660446, 58.7909016], [22.8656011, 58.7885885], [22.8675558, 58.7880344], [22.874301, 58.7907193], [22.8786906, 58.7885014], [22.8809039, 58.7891137], [22.8800747, 58.7900922], [22.8832997, 58.7900517], [22.8794947, 58.7906531], [22.8774885, 58.792655], [22.8729499, 58.7916485], [22.8780663, 58.793566], [22.8767403, 58.7944928], [22.8813845, 58.7949847], [22.8781473, 58.7959448], [22.8798003, 58.7973938], [22.8758587, 58.7969502], [22.8762799, 58.7990961], [22.8733479, 58.7978323], [22.8734729, 58.7996207], [22.8699879, 58.8025297], [22.868331, 58.8022509], [22.8698642, 58.8032341], [22.8667033, 58.8042659], [22.8698221, 58.808476], [22.8664323, 58.8094644], [22.8681671, 58.8111296], [22.8714948, 58.8110714], [22.8723106, 58.8119122], [22.8704713, 58.8131124], [22.8740779, 58.813353], [22.8747734, 58.8154146], [22.8788781, 58.8151826], [22.8817077, 58.8166083], [22.8816945, 58.8183497], [22.8884306, 58.819509], [22.8872072, 58.8211874], [22.8792975, 58.8228446], [22.8824543, 58.8241765], [22.8808358, 58.8246199], [22.8816155, 58.82554], [22.8856858, 58.8258673], [22.8841878, 58.8272079], [22.8674651, 58.8262525], [22.8481932, 58.8155081], [22.8350391, 58.8173938], [22.8303234, 58.8217178], [22.8332804, 58.8255388], [22.8497554, 58.8256367], [22.8514472, 58.8278036], [22.859611, 58.828853], [22.8584749, 58.8317102], [22.8621229, 58.8317699], [22.8598345, 58.8330165], [22.8621204, 58.8338098], [22.861907, 58.8354431], [22.8648278, 58.8360291], [22.8729576, 58.832548], [22.8882078, 58.8291911], [22.8904871, 58.8274363], [22.8851979, 58.8270676], [22.8877862, 58.8261092], [22.8891754, 58.8233487], [22.8905658, 58.8244868], [22.8936392, 58.823158], [22.8931934, 58.8248519], [22.8953752, 58.8248012], [22.8962491, 58.8274724], [22.8983699, 58.8279599], [22.9001465, 58.8273634], [22.8989336, 58.8250747], [22.9018113, 58.8250366], [22.9022199, 58.826956], [22.9002877, 58.8282558], [22.9018902, 58.8289485], [22.9065524, 58.8264], [22.9017921, 58.82462], [22.9018675, 58.8234325], [22.9054733, 58.8244704], [22.9068954, 58.8205405], [22.9086227, 58.82015], [22.9192541, 58.8222984], [22.9174791, 58.8286749], [22.921026, 58.8328461], [22.9195348, 58.8344799], [22.922582, 58.8365295], [22.9203591, 58.8380645], [22.9131345, 58.8382205], [22.9145686, 58.8407212], [22.9189066, 58.8442486], [22.9228967, 58.8427538], [22.9210432, 58.842935], [22.9201729, 58.8412733], [22.926712, 58.8408102], [22.9258382, 58.8358519], [22.9300892, 58.8344645], [22.9320462, 58.831168], [22.9434681, 58.8297873], [22.9445254, 58.8281055], [22.9506271, 58.8270319], [22.9498549, 58.8263698], [22.9525238, 58.826319], [22.9525988, 58.8280743], [22.9575035, 58.8258645], [22.9574038, 58.8306866], [22.9527399, 58.8339406], [22.9513381, 58.8383553], [22.9464721, 58.8392671], [22.9434465, 58.8426884], [22.9555792, 58.8470649], [22.9580594, 58.8451388], [22.9569448, 58.8473019], [22.9625955, 58.8481252], [22.9613732, 58.8489466], [22.969575, 58.8473249], [22.9705682, 58.8475031], [22.9688264, 58.8485783], [22.9719011, 58.8482088], [22.9821145, 58.8456957], [22.9928262, 58.8400263], [22.9899834, 58.8426986], [22.9933337, 58.8422311], [22.9932208, 58.8404691], [22.999332, 58.8366214], [23.0073939, 58.839091], [23.0138177, 58.8451122], [23.0204728, 58.8462598], [23.0185723, 58.8421541], [23.023176, 58.8396038], [23.0230183, 58.8358246], [23.0213327, 58.8345326], [23.0227515, 58.8346238], [23.0250678, 58.8241454], [23.0279287, 58.8250543], [23.0311232, 58.8238966], [23.0335512, 58.8261389], [23.0346697, 58.8247824], [23.0378983, 58.8271052], [23.0493564, 58.8283629], [23.053305, 58.8309084], [23.0599233, 58.8315122], [23.065227, 58.8366512], [23.0694412, 58.8380639], [23.0557151, 58.8489798], [23.0460262, 58.8594564], [23.0506987, 58.8614063], [23.0480152, 58.8648478], [23.0495869, 58.8669771], [23.0450575, 58.8657985], [23.0434299, 58.8669514], [23.046129, 58.8665127], [23.0366495, 58.8725483], [23.0287775, 58.8747899], [23.0232443, 58.879382], [23.0230667, 58.8813957], [23.0294441, 58.8840362], [23.0301101, 58.8852405], [23.0279117, 58.8858876], [23.0297898, 58.8866413], [23.0266063, 58.8864522], [23.0228375, 58.8905796], [23.0259294, 58.8922751], [23.0244591, 58.8957482], [23.0161982, 58.9020425], [23.0039885, 58.9080336], [23.0051242, 58.9087178], [23.0040407, 58.9099893], [23.007136, 58.9109462], [23.0056601, 58.9132914], [22.9996535, 58.9165129], [23.0003878, 58.9144196], [22.9958409, 58.9156998], [22.9942754, 58.9130068], [22.9910738, 58.9135242], [22.9886154, 58.9154466], [22.9873191, 58.9142406], [22.985744, 58.9158602], [22.9788077, 58.9143157], [22.9776966, 58.9157461], [22.9785703, 58.9169072], [22.9747101, 58.9163452], [22.9696844, 58.9191052], [22.9694102, 58.9209427], [22.966576, 58.9224988], [22.967175, 58.9257701], [22.9655319, 58.927431], [22.9529767, 58.9340265], [22.9479486, 58.939211], [22.9414502, 58.9424027], [22.939113, 58.9459017], [22.9400767, 58.9467907], [22.9358285, 58.950092], [22.9374165, 58.9535576], [22.9391872, 58.9549365], [22.950538, 58.9550648], [22.9541023, 58.9530619], [22.9554679, 58.9568503], [22.9451326, 58.9621901], [22.936054, 58.9640037], [22.9348232, 58.966569], [22.9363979, 58.9671418], [22.9345165, 58.967002], [22.9336369, 58.9690467], [22.9348157, 58.9702277], [22.9312648, 58.9705713], [22.9319727, 58.9742348], [22.9358675, 58.9764174], [22.9382365, 58.9805246], [22.9422789, 58.9823537], [22.9350533, 58.9824637], [22.9194257, 58.9754873], [22.9144513, 58.975014], [22.9146356, 58.9763976], [22.9124965, 58.9771247], [22.9035934, 58.9755388], [22.901587, 58.9760704], [22.9089138, 58.9772675], [22.9056655, 58.9780795], [22.9067887, 58.9797681], [22.9023317, 58.9792853], [22.9063235, 58.9837367], [22.9037311, 58.9843962], [22.9007792, 58.9833027], [22.9005884, 58.9791675], [22.8958425, 58.9821396], [22.8939594, 58.9789085], [22.8870953, 58.9765668], [22.884641, 58.9779551], [22.8851494, 58.9799359], [22.8792434, 58.9821221], [22.8738656, 58.9812729], [22.873395, 58.9842868], [22.8714281, 58.9855539], [22.8764645, 58.9866736], [22.87641, 58.9879925], [22.8747841, 58.9876037], [22.8745524, 58.9889422], [22.8624817, 58.9941165], [22.8635139, 58.9955414], [22.8612843, 58.9962837], [22.8644213, 58.9978041], [22.8512814, 58.9988794], [22.8506635, 58.9977008], [22.8423684, 59.0019902], [22.8428536, 59.0021299], [22.8430305, 59.0027549], [22.836779, 59.0030327], [22.8378773, 59.0025203], [22.8337485, 59.001435], [22.8346173, 59.0001487], [22.8314803, 58.9988952], [22.8337105, 58.9992439], [22.836325, 58.9964626], [22.830928, 58.9948887], [22.827221, 58.9973173], [22.8196799, 58.9989288], [22.8202076, 59.0000334], [22.8161943, 58.999531], [22.8164487, 58.9974657], [22.8051948, 58.9973106], [22.8028048, 58.9994663], [22.8004496, 58.9984271], [22.7911416, 59.0011777], [22.7844428, 58.9999835], [22.7805395, 59.0024817], [22.7534983, 59.0068962], [22.7526553, 59.0079909], [22.7547738, 59.0083581], [22.7542245, 59.009869], [22.7535142, 59.0083423], [22.7519613, 59.0099092], [22.7544464, 59.0103711], [22.7513872, 59.0100005], [22.7412287, 59.0059852], [22.7342837, 59.0065275], [22.7318811, 59.0050261], [22.7177511, 59.0057369], [22.7132007, 59.0088926], [22.7072218, 59.0090638], [22.697951, 59.0138572], [22.6921576, 59.0203895], [22.6917714, 59.0216768], [22.6966639, 59.0251874], [22.694344, 59.0268064], [22.6918747, 59.0258428], [22.693546, 59.027652], [22.6898069, 59.0282192], [22.6917839, 59.0318652], [22.6989088, 59.0262519], [22.6988799, 59.0248024], [22.700865, 59.0258214], [22.6964698, 59.0290715], [22.6858494, 59.0422739], [22.6838834, 59.0481395], [22.6858967, 59.059062], [22.6886641, 59.0648405], [22.6914474, 59.0658204], [22.6902708, 59.0666238], [22.6966836, 59.0690525], [22.7025163, 59.0669001], [22.7022922, 59.0656054], [22.7028075, 59.0669717], [22.6957441, 59.0730164], [22.6888212, 59.074222], [22.6535297, 59.0873589], [22.6281721, 59.0817632], [22.61745, 59.0814159], [22.6100139, 59.0831632], [22.6016002, 59.0881497], [22.589627, 59.0885958], [22.582702, 59.0934567], [22.5840807, 59.0923987], [22.5825881, 59.0904421], [22.5849842, 59.0869529], [22.581476, 59.079437], [22.5819828, 59.0717681], [22.5783461, 59.0612209], [22.5806171, 59.0533174], [22.5794797, 59.0407957], [22.5772245, 59.036595], [22.5694332, 59.0309002], [22.5553281, 59.0302719], [22.5521143, 59.0325977], [22.5439121, 59.0318025], [22.5442068, 59.0299337], [22.5427442, 59.0291795], [22.5323674, 59.0277053], [22.5405634, 59.0259944], [22.5175314, 59.0241501], [22.5372265, 59.0228149], [22.5331599, 59.0219409], [22.5344594, 59.0205141], [22.5318402, 59.0193323], [22.5146178, 59.0221523], [22.5126993, 59.0237418], [22.5046577, 59.0230528], [22.4925746, 59.0253299], [22.4918498, 59.0269198], [22.4884756, 59.0259529], [22.4906744, 59.0250343], [22.4875102, 59.0233885], [22.4830679, 59.0252462], [22.4786499, 59.0286357], [22.4740137, 59.03084], [22.4791442, 59.02766], [22.478654, 59.0244978], [22.4741512, 59.0252655], [22.4789595, 59.0238279], [22.4780335, 59.0233322], [22.4809867, 59.0207291], [22.4782084, 59.019034], [22.4830251, 59.0166516], [22.4760388, 59.0168997], [22.4838099, 59.014962], [22.4841612, 59.0134541], [22.4825443, 59.0127151], [22.4861005, 59.0113451], [22.482078, 59.0111088], [22.4826469, 59.009948], [22.487838, 59.0091666], [22.4894433, 59.0065482], [22.4824027, 59.0046799], [22.4938677, 59.0018757], [22.494173, 58.9991149], [22.4830277, 58.996237], [22.480641, 58.9934874], [22.4820314, 58.9917089], [22.4736748, 58.9939356], [22.4693463, 58.9931875], [22.4668793, 58.9906981], [22.4648104, 58.9931687], [22.4642824, 58.9930506], [22.4662012, 58.9911568], [22.4666136, 58.990235], [22.4660716, 58.9901219], [22.466242, 58.9906113], [22.4649683, 58.9919618], [22.4647185, 58.9908147], [22.4601299, 58.9917953], [22.464172, 58.9904769], [22.4619937, 58.9901814], [22.4438873, 58.9946727], [22.4363393, 58.9941808], [22.4418143, 58.98563], [22.4382562, 58.9847146], [22.4431833, 58.9824224], [22.4514383, 58.972662], [22.4564226, 58.9706844], [22.4586618, 58.967451], [22.4657004, 58.9676598], [22.470406, 58.9633987], [22.4690138, 58.9640965], [22.4684226, 58.9622774], [22.4707362, 58.9619124], [22.4571906, 58.9613686], [22.4550627, 58.9626391], [22.4552549, 58.9651448], [22.449377, 58.9675747], [22.4484623, 58.9665289], [22.4531553, 58.9616521], [22.4513748, 58.9604803], [22.4549844, 58.9593725], [22.4557203, 58.9581336], [22.4498156, 58.9603701], [22.4416935, 58.9570402], [22.4292214, 58.9619961], [22.4241111, 58.9681496], [22.4133754, 58.9685683], [22.4110822, 58.9666325], [22.4121995, 58.9647172], [22.4203893, 58.9626645], [22.4222475, 58.9608044], [22.4220889, 58.9584782], [22.4193427, 58.9566306], [22.4219086, 58.954823], [22.4190424, 58.955873], [22.4118451, 58.9456625], [22.3945694, 58.9369001], [22.3789028, 58.9345617], [22.3617851, 58.935275], [22.3339425, 58.9450157], [22.3101785, 58.9491273], [22.3018349, 58.9450467], [22.2923112, 58.9437116], [22.2871011, 58.9462347], [22.2801403, 58.9459318], [22.2745116, 58.9476807], [22.2617847, 58.9425241], [22.2524843, 58.9425866], [22.2452657, 58.9380083], [22.237589, 58.9356459], [22.2218409, 58.9348356], [22.2178678, 58.9366742], [22.2059397, 58.9338335], [22.1417024, 58.9378224], [22.1321252, 58.9417585], [22.1016401, 58.9410282], [22.087457, 58.944693], [22.0858236, 58.9470668], [22.0844643, 58.9455261], [22.0726989, 58.9448365], [22.0694228, 58.9470514], [22.071144, 58.9445113], [22.0660835, 58.9423582], [22.0584579, 58.9422217], [22.0530894, 58.9440671], [22.0484519, 58.940908], [22.0426054, 58.9413588], [22.0489978, 58.9397524], [22.0503894, 58.9369581], [22.0476236, 58.9333492], [22.0475506, 58.930483], [22.0385487, 58.9273083]], [[22.7492406, 58.8044702], [22.754621, 58.8103647], [22.7543938, 58.8124386], [22.7582426, 58.8154895], [22.7675734, 58.8170396], [22.768693, 58.8193489], [22.7775938, 58.819614], [22.780161, 58.8173786], [22.7872995, 58.8207638], [22.7896339, 58.8158945], [22.7958399, 58.8135268], [22.7978248, 58.8148027], [22.7961079, 58.8179311], [22.8054854, 58.819594], [22.8070457, 58.8217488], [22.806118, 58.8246832], [22.8083559, 58.8263598], [22.8107735, 58.8264505], [22.8108405, 58.8244099], [22.8122339, 58.8241036], [22.8239379, 58.8262036], [22.8274112, 58.8220102], [22.8248001, 58.821133], [22.8245543, 58.8190095], [22.8205982, 58.8187922], [22.81727, 58.8153405], [22.8139709, 58.8165216], [22.8123995, 58.8148312], [22.8138954, 58.8144438], [22.8105442, 58.8131193], [22.8125072, 58.8105461], [22.812385, 58.8065841], [22.8109544, 58.8053632], [22.8128673, 58.8053622], [22.8085255, 58.7988357], [22.8058998, 58.7988629], [22.808075, 58.7979791], [22.8024927, 58.7981875], [22.787919, 58.7950317], [22.7923338, 58.7928182], [22.7870504, 58.7897148], [22.7814977, 58.7907094], [22.7672466, 58.8019261], [22.7593407, 58.8042133], [22.7569103, 58.8022708], [22.7580496, 58.7997763], [22.7555241, 58.8020546], [22.7511685, 58.8004163], [22.7534515, 58.8020404], [22.7492406, 58.8044702]]], [[[22.1353252, 58.9418853], [22.1350373, 58.9415417], [22.1358175, 58.9419015], [22.1353252, 58.9418853]]], [[[22.1538175, 58.8883337], [22.1535081, 58.8881644], [22.1537864, 58.8881188], [22.1538175, 58.8883337]]], [[[22.1939309, 58.8802389], [22.1938563, 58.8799715], [22.1941895, 58.8801022], [22.1939309, 58.8802389]]], [[[22.275513, 58.8901562], [22.2775501, 58.8903949], [22.2801119, 58.8896597], [22.2775194, 58.890758], [22.275513, 58.8901562]]], [[[22.2946959, 58.8847455], [22.2948168, 58.8842058], [22.2953549, 58.8848405], [22.2946959, 58.8847455]]], [[[22.2961779, 58.8792027], [22.2958954, 58.8786634], [22.296614, 58.8786347], [22.2961779, 58.8792027]]], [[[22.3053752, 58.8811433], [22.3057915, 58.8809386], [22.3059085, 58.8812056], [22.3053752, 58.8811433]]], [[[22.3152932, 58.8808486], [22.310083, 58.8778181], [22.3127551, 58.8788689], [22.3152932, 58.8808486]]], [[[22.3761422, 58.9776076], [22.3782638, 58.9787015], [22.3766172, 58.9771162], [22.3777563, 58.9762205], [22.3779641, 58.9761768], [22.3790098, 58.9762863], [22.3775895, 58.976848], [22.3832871, 58.9786168], [22.3794165, 58.9793605], [22.3761422, 58.9776076]]], [[[22.3793882, 58.9753733], [22.3795248, 58.975136], [22.3797867, 58.9752201], [22.3793882, 58.9753733]]], [[[22.3796128, 58.9771833], [22.3806373, 58.9763403], [22.3812807, 58.9764585], [22.3796128, 58.9771833]]], [[[22.3825272, 58.9756026], [22.3825222, 58.9753809], [22.3831226, 58.9756666], [22.3825272, 58.9756026]]], [[[22.3824768, 58.9751314], [22.3828653, 58.9747302], [22.3832541, 58.975204], [22.3824768, 58.9751314]]], [[[22.3914791, 58.9741069], [22.3914727, 58.9739878], [22.3915491, 58.9739821], [22.3914791, 58.9741069]]], [[[22.3917921, 58.9739641], [22.3918819, 58.9737699], [22.3919631, 58.9738281], [22.3917921, 58.9739641]]], [[[22.3917917, 58.9818699], [22.3932863, 58.9828113], [22.394296, 58.9810403], [22.4054672, 58.9761772], [22.4014647, 58.9787956], [22.4015881, 58.9810661], [22.3989726, 58.9815295], [22.3972025, 58.9847956], [22.3930258, 58.9838044], [22.3917917, 58.9818699]]], [[[22.3924153, 58.9737489], [22.3924414, 58.973492], [22.3925487, 58.9735502], [22.3924153, 58.9737489]]], [[[22.3933252, 58.9733576], [22.3945174, 58.9726758], [22.3954026, 58.9726145], [22.3933252, 58.9733576]]], [[[22.3953866, 58.9723954], [22.3980393, 58.9714448], [22.3986344, 58.9710678], [22.3978486, 58.9717703], [22.3953866, 58.9723954]]], [[[22.3961019, 58.970341], [22.3956007, 58.9700119], [22.3963499, 58.969827], [22.3961019, 58.970341]]], [[[22.397289, 58.969797], [22.3976742, 58.9695278], [22.3979169, 58.9696583], [22.397289, 58.969797]]], [[[22.3984571, 58.9694911], [22.3994893, 58.96882], [22.4021018, 58.9682627], [22.399562, 58.9692416], [22.3984571, 58.9694911]]], [[[22.4188544, 58.9623462], [22.418867, 58.9620798], [22.4191363, 58.9622331], [22.4188544, 58.9623462]]], [[[22.4285042, 58.9970585], [22.4272091, 58.9957076], [22.4284083, 58.9962904], [22.4279295, 58.9962933], [22.428811, 58.996417], [22.4292849, 58.9962196], [22.4297527, 58.996241], [22.4285042, 58.9970585]]], [[[22.4302898, 58.8602329], [22.4298185, 58.8599373], [22.4309579, 58.8602062], [22.4302898, 58.8602329]]], [[[22.4300086, 58.9974807], [22.4416199, 58.998276], [22.4441286, 58.9996943], [22.4369829, 58.9991912], [22.4300086, 58.9974807]]], [[[22.4409363, 58.9698764], [22.4441333, 58.9680853], [22.4457548, 58.967623], [22.4421347, 58.9716148], [22.4409363, 58.9698764]]], [[[22.442328, 58.9822478], [22.4421117, 58.9819522], [22.4423561, 58.981975], [22.442328, 58.9822478]]], [[[22.442607, 58.7266416], [22.4440097, 58.7260878], [22.4461203, 58.7259674], [22.4439104, 58.7266029], [22.442607, 58.7266416]]], [[[22.4459229, 58.9725685], [22.4457185, 58.972432], [22.4459481, 58.9724735], [22.4459229, 58.9725685]]], [[[22.4467238, 58.9744753], [22.4465881, 58.9742675], [22.4469779, 58.9743475], [22.4467238, 58.9744753]]], [[[22.4511472, 58.8428556], [22.4517336, 58.840451], [22.4527872, 58.8406276], [22.4529574, 58.8428756], [22.4511472, 58.8428556]]], [[[22.4522329, 58.8046393], [22.4527175, 58.8041024], [22.4529344, 58.8043197], [22.4522329, 58.8046393]]], [[[22.4522717, 58.9712569], [22.452176, 58.9710594], [22.4523962, 58.9710986], [22.4522717, 58.9712569]]], [[[22.4574401, 58.8037795], [22.457256, 58.8036422], [22.4574441, 58.8036153], [22.4574401, 58.8037795]]], [[[22.4580657, 58.9923937], [22.4594289, 58.9918227], [22.4601538, 58.9919433], [22.459837, 58.9922536], [22.4580657, 58.9923937]]], [[[22.4761902, 58.7498419], [22.4778141, 58.7495768], [22.4795733, 58.7504651], [22.4776359, 58.7499421], [22.4761902, 58.7498419]]], [[[22.4790068, 58.7066275], [22.4777427, 58.7062035], [22.4790258, 58.7058151], [22.4790068, 58.7066275]]], [[[22.478504, 58.7410637], [22.4780683, 58.7396371], [22.4808799, 58.7404121], [22.478504, 58.7410637]]], [[[22.4780614, 58.9943998], [22.478972, 58.9930887], [22.4804319, 58.9934569], [22.4780614, 58.9943998]]], [[[22.4809452, 58.7255133], [22.4808359, 58.7252746], [22.4819159, 58.7250725], [22.4809452, 58.7255133]]], [[[22.4808346, 59.0153518], [22.4807552, 59.0152122], [22.4812068, 59.015233], [22.4808346, 59.0153518]]], [[[22.5307862, 59.0363364], [22.5305756, 59.0360707], [22.533676, 59.0358032], [22.5307862, 59.0363364]]], [[[22.5312148, 59.0322614], [22.5424265, 59.0306743], [22.5430187, 59.0311881], [22.5384934, 59.0323363], [22.5312148, 59.0322614]]], [[[22.5330814, 59.0292992], [22.5333473, 59.029047], [22.5341118, 59.0293644], [22.5330814, 59.0292992]]], [[[22.5389631, 59.0356359], [22.538978, 59.0354605], [22.5391233, 59.0355604], [22.5389631, 59.0356359]]], [[[22.5430812, 59.0353182], [22.5433178, 59.0350115], [22.5435204, 59.035203], [22.5430812, 59.0353182]]], [[[22.7233281, 58.76842], [22.7244623, 58.767622], [22.7264135, 58.7687382], [22.7247945, 58.7690912], [22.7233281, 58.76842]]], [[[22.7472768, 58.7993263], [22.746992, 58.799037], [22.7474402, 58.7991889], [22.7472768, 58.7993263]]], [[[22.7587709, 58.8081761], [22.7596534, 58.8061774], [22.7608385, 58.8069588], [22.7606913, 58.8083997], [22.7587709, 58.8081761]]], [[[22.7613171, 58.7871859], [22.7634905, 58.7849412], [22.7650163, 58.785096], [22.7664337, 58.7859212], [22.7635193, 58.7849854], [22.7613171, 58.7871859]]], [[[22.7614319, 58.8111057], [22.7641534, 58.8088754], [22.7653442, 58.8085666], [22.7630268, 58.8113913], [22.7614319, 58.8111057]]], [[[22.7624208, 58.8138972], [22.7684737, 58.8122178], [22.7692035, 58.8097056], [22.7714995, 58.8094758], [22.7697132, 58.8103663], [22.7712762, 58.8134128], [22.7683809, 58.8140288], [22.7681476, 58.8161339], [22.7646167, 58.816017], [22.7624208, 58.8138972]]], [[[22.7760514, 58.8015555], [22.7763523, 58.8007278], [22.7767318, 58.801368], [22.7760514, 58.8015555]]], [[[22.7759502, 58.7743996], [22.7769591, 58.7739454], [22.7783693, 58.7738319], [22.7787302, 58.7739952], [22.7759502, 58.7743996]]], [[[22.777494, 58.7981516], [22.7797609, 58.7961701], [22.7857986, 58.7960542], [22.7891354, 58.7976825], [22.7802679, 58.7995014], [22.777494, 58.7981516]]], [[[22.7808737, 58.7943385], [22.7821405, 58.7936761], [22.7829706, 58.7942436], [22.7821772, 58.794852], [22.7808737, 58.7943385]]], [[[22.7834737, 58.7770334], [22.78356, 58.7768099], [22.7839962, 58.7771976], [22.7834737, 58.7770334]]], [[[22.784468, 58.809405], [22.7847377, 58.8075114], [22.7864023, 58.8072402], [22.784468, 58.809405]]], [[[22.7841338, 58.7778329], [22.7843112, 58.777626], [22.7844382, 58.7778381], [22.7841338, 58.7778329]]], [[[22.78449, 58.7911119], [22.7856611, 58.7906599], [22.7880234, 58.7908903], [22.7862863, 58.791557], [22.78449, 58.7911119]]], [[[22.7888099, 58.801793], [22.7929217, 58.8020811], [22.7947588, 58.8038959], [22.7939033, 58.8038666], [22.7888099, 58.801793]]], [[[22.7893038, 58.7972499], [22.7892541, 58.7965087], [22.7897448, 58.7966356], [22.7893038, 58.7972499]]], [[[22.7907291, 58.8148026], [22.7914952, 58.8137475], [22.7919515, 58.8144763], [22.7907291, 58.8148026]]], [[[22.7950715, 58.8129924], [22.7946615, 58.8118563], [22.7957625, 58.8124866], [22.7950715, 58.8129924]]], [[[22.7954476, 58.8134036], [22.7952617, 58.8130141], [22.7958305, 58.8130982], [22.7954476, 58.8134036]]], [[[22.7996078, 58.7709238], [22.7998923, 58.7702743], [22.8000126, 58.7703143], [22.7996078, 58.7709238]]], [[[22.8009191, 58.8147469], [22.8024768, 58.813823], [22.8033479, 58.8145537], [22.8021823, 58.8153307], [22.8009191, 58.8147469]]], [[[22.8037177, 58.8118888], [22.803392, 58.8113285], [22.8041444, 58.8116058], [22.8037177, 58.8118888]]], [[[22.8030782, 58.7722035], [22.8032363, 58.7719588], [22.8033218, 58.7721384], [22.8030782, 58.7722035]]], [[[22.8038152, 58.7727224], [22.8038161, 58.7721479], [22.8045541, 58.7723242], [22.8038152, 58.7727224]]], [[[22.804295, 58.8169729], [22.804614, 58.8161036], [22.8051962, 58.8165217], [22.804295, 58.8169729]]], [[[22.8043317, 58.8125074], [22.80562, 58.8116288], [22.8070994, 58.8129053], [22.8054144, 58.8130941], [22.8043317, 58.8125074]]], [[[22.8084925, 58.773709], [22.8087186, 58.7735283], [22.8096009, 58.7736374], [22.8084925, 58.773709]]], [[[22.814047, 58.8214803], [22.8166956, 58.8206793], [22.8174287, 58.8241093], [22.8147411, 58.8239253], [22.814047, 58.8214803]]], [[[22.8312585, 58.9960098], [22.8309542, 58.9951685], [22.8313613, 58.9952676], [22.8312585, 58.9960098]]], [[[22.8314404, 59.0143276], [22.8334435, 59.0111598], [22.8386018, 59.0078622], [22.8393257, 59.0081275], [22.84073, 59.0109236], [22.8366303, 59.0095359], [22.8329108, 59.0123873], [22.8341744, 59.0142344], [22.8314404, 59.0143276]]], [[[22.8534856, 58.9993379], [22.8526646, 58.9988376], [22.8536368, 58.9991868], [22.8534856, 58.9993379]]], [[[22.8548726, 58.7792796], [22.8552282, 58.7790661], [22.8554409, 58.7793737], [22.8548726, 58.7792796]]], [[[22.8575992, 58.7804595], [22.8578071, 58.7800386], [22.8582377, 58.7801843], [22.8575992, 58.7804595]]], [[[22.8591351, 58.7861136], [22.8581372, 58.785529], [22.8593274, 58.7859995], [22.8591351, 58.7861136]]], [[[22.8606137, 58.7789475], [22.8604629, 58.7784922], [22.8611771, 58.7786646], [22.8606137, 58.7789475]]], [[[22.8619189, 58.7800897], [22.861252, 58.7789977], [22.8624905, 58.7792074], [22.8619189, 58.7800897]]], [[[22.8648149, 58.995137], [22.864641, 58.9949264], [22.8650874, 58.9948926], [22.8648149, 58.995137]]], [[[22.8654108, 58.7870419], [22.8666039, 58.7869168], [22.8679414, 58.7875982], [22.866495, 58.7877904], [22.8654108, 58.7870419]]], [[[22.8665605, 58.7858747], [22.8721799, 58.782904], [22.8746265, 58.7833734], [22.8744906, 58.7841906], [22.8760267, 58.7856003], [22.8750478, 58.7839254], [22.8771303, 58.784113], [22.8731992, 58.7818422], [22.8769765, 58.7821802], [22.877377, 58.7807741], [22.878387, 58.7824185], [22.8819288, 58.7821838], [22.8857463, 58.7791946], [22.8831668, 58.7781624], [22.8837431, 58.7762894], [22.8881577, 58.779318], [22.8853505, 58.7811244], [22.8873101, 58.7820724], [22.8825684, 58.7837497], [22.88673, 58.7844386], [22.8819059, 58.786701], [22.8817973, 58.7881284], [22.8772848, 58.7876699], [22.8741025, 58.7893497], [22.8665605, 58.7858747]]], [[[22.8673236, 58.7816104], [22.8678405, 58.7803109], [22.8697132, 58.7797005], [22.8696555, 58.7816798], [22.8673236, 58.7816104]]], [[[22.8679986, 58.7837405], [22.8683661, 58.7830548], [22.8689125, 58.7836697], [22.8679986, 58.7837405]]], [[[22.8702425, 58.7817281], [22.8708871, 58.7807111], [22.8728397, 58.7812353], [22.8717351, 58.782073], [22.8702425, 58.7817281]]], [[[22.8736187, 58.7804358], [22.8731365, 58.7799752], [22.8740163, 58.7798584], [22.8736187, 58.7804358]]], [[[22.8772339, 58.9876389], [22.8771567, 58.9875473], [22.8772854, 58.9875684], [22.8772339, 58.9876389]]], [[[22.8776601, 58.9872323], [22.877589, 58.9869353], [22.8778332, 58.98708], [22.8776601, 58.9872323]]], [[[22.8785093, 58.985325], [22.8788149, 58.9844074], [22.879718, 58.9851122], [22.8785093, 58.985325]]], [[[22.8798157, 58.7808161], [22.8793983, 58.7800945], [22.8803653, 58.7802528], [22.8798157, 58.7808161]]], [[[22.8802317, 58.9837664], [22.8847905, 58.9856256], [22.8879176, 58.9847907], [22.8888495, 58.9848804], [22.8865009, 58.9860644], [22.887718, 58.9869752], [22.8834901, 58.9870515], [22.8802317, 58.9837664]]], [[[22.8834944, 58.7969833], [22.8831104, 58.7967246], [22.8839045, 58.7968904], [22.8834944, 58.7969833]]], [[[22.8830939, 58.7794873], [22.8833945, 58.7791112], [22.8835399, 58.7793176], [22.8830939, 58.7794873]]], [[[22.887906, 58.9874884], [22.8898666, 58.9864488], [22.8909299, 58.9869968], [22.8890847, 58.9879186], [22.887906, 58.9874884]]], [[[22.8891152, 58.9848877], [22.8934411, 58.983346], [22.8938851, 58.9816592], [22.8959946, 58.9834834], [22.8919382, 58.9866293], [22.8891152, 58.9848877]]], [[[22.8896301, 58.9789098], [22.8896079, 58.9785404], [22.8900176, 58.9786429], [22.8896301, 58.9789098]]], [[[22.8930671, 58.8108215], [22.8929251, 58.8105098], [22.8933473, 58.810654], [22.8930671, 58.8108215]]], [[[22.8933042, 58.8121496], [22.8945108, 58.811637], [22.8934917, 58.8107425], [22.8960049, 58.8100991], [22.9021874, 58.8102612], [22.8974933, 58.8136791], [22.8933042, 58.8121496]]], [[[22.8956617, 58.8083946], [22.897838, 58.8080272], [22.8965709, 58.8069659], [22.9012245, 58.8064519], [22.9012557, 58.8078071], [22.8988366, 58.80861], [22.9003207, 58.8097798], [22.8956617, 58.8083946]]], [[[22.8966074, 58.8092574], [22.8966768, 58.8091335], [22.8969057, 58.8091888], [22.8966074, 58.8092574]]], [[[22.9010605, 58.8059393], [22.9016986, 58.8050174], [22.9026958, 58.8053304], [22.9024289, 58.8062002], [22.9010605, 58.8059393]]], [[[22.9021814, 58.8099135], [22.9020683, 58.809681], [22.9023191, 58.8098879], [22.9021814, 58.8099135]]], [[[22.9057984, 58.7799648], [22.9026351, 58.779946], [22.9056184, 58.7799394], [22.9068186, 58.7792978], [22.9057984, 58.7799648]]], [[[22.903486, 58.8058565], [22.9039031, 58.8052623], [22.9048306, 58.8053381], [22.903486, 58.8058565]]], [[[22.907914, 58.8195525], [22.9077868, 58.8189742], [22.9085357, 58.819255], [22.907914, 58.8195525]]], [[[22.9091944, 58.8105708], [22.9090673, 58.810267], [22.9093558, 58.810389], [22.9091944, 58.8105708]]], [[[22.915125, 58.8405993], [22.9161601, 58.8401297], [22.9178941, 58.8406782], [22.9171705, 58.8416471], [22.915125, 58.8405993]]], [[[22.9186876, 58.8434475], [22.9185207, 58.8431527], [22.9188163, 58.8433011], [22.9186876, 58.8434475]]], [[[22.9204521, 58.8428126], [22.9206298, 58.8422665], [22.9207377, 58.8428693], [22.9204521, 58.8428126]]], [[[22.9226157, 58.8361297], [22.9245081, 58.8350919], [22.9253163, 58.8356914], [22.9226157, 58.8361297]]], [[[22.9360067, 58.9677446], [22.9359746, 58.9676131], [22.9361621, 58.9676838], [22.9360067, 58.9677446]]], [[[22.9362251, 58.9654094], [22.9363077, 58.9652624], [22.936423, 58.9653729], [22.9362251, 58.9654094]]], [[[22.9371849, 58.9690607], [22.9371523, 58.9687739], [22.937464, 58.9689172], [22.9371849, 58.9690607]]], [[[22.9372163, 58.9694932], [22.9372865, 58.9693076], [22.9381225, 58.9694078], [22.9372163, 58.9694932]]], [[[22.9379778, 58.9649622], [22.9380301, 58.964879], [22.938088, 58.9649162], [22.9379778, 58.9649622]]], [[[22.9381926, 58.9647437], [22.9382446, 58.9646116], [22.9383878, 58.9646943], [22.9381926, 58.9647437]]], [[[22.9388156, 58.9652116], [22.9389031, 58.9650942], [22.9391581, 58.9651411], [22.9388156, 58.9652116]]], [[[22.9401239, 58.9768047], [22.9402184, 58.9762961], [22.9405705, 58.9763809], [22.9401239, 58.9768047]]], [[[22.9401922, 58.9668376], [22.9400952, 58.9667076], [22.9402045, 58.9667769], [22.9401922, 58.9668376]]], [[[22.9407466, 58.9686169], [22.9409141, 58.9681544], [22.9409089, 58.9686021], [22.9407466, 58.9686169]]], [[[22.9428402, 58.9637312], [22.9428161, 58.9633592], [22.9435334, 58.9634933], [22.9428402, 58.9637312]]], [[[22.9539723, 58.9518265], [22.9558403, 58.9505641], [22.9565483, 58.952555], [22.955309, 58.9528511], [22.9539723, 58.9518265]]], [[[22.9550684, 58.8462212], [22.9549931, 58.8459375], [22.9553604, 58.8460514], [22.9550684, 58.8462212]]], [[[22.9551547, 58.8332393], [22.955275, 58.8331259], [22.9553838, 58.8332128], [22.9551547, 58.8332393]]], [[[22.9583096, 59.0244406], [22.9563225, 59.024037], [22.9578393, 59.0238914], [22.9584886, 59.0233418], [22.9584554, 59.0212353], [22.9589965, 59.0225507], [22.9583096, 59.0244406]]], [[[22.9589633, 58.8275095], [22.9589142, 58.8272539], [22.9593476, 58.8274147], [22.9589633, 58.8275095]]], [[[22.9598681, 58.8258428], [22.9600419, 58.825722], [22.960296, 58.825758], [22.9598681, 58.8258428]]], [[[22.96031, 58.8248081], [22.9622009, 58.8241584], [22.9649268, 58.8242246], [22.9632271, 58.824853], [22.96031, 58.8248081]]], [[[22.9614863, 58.8255037], [22.9618129, 58.8252673], [22.9619904, 58.8254486], [22.9614863, 58.8255037]]], [[[22.964909, 58.9547001], [22.9650817, 58.9544343], [22.9654292, 58.954537], [22.964909, 58.9547001]]], [[[22.9654509, 58.8310129], [22.9656366, 58.8306568], [22.9661223, 58.8308764], [22.9654509, 58.8310129]]], [[[22.9661245, 58.9574074], [22.9654543, 58.9559024], [22.9670039, 58.957451], [22.9661245, 58.9574074]]], [[[22.9671853, 58.8251134], [22.9701408, 58.8240916], [22.9760444, 58.8244701], [22.9786657, 58.8220172], [22.9773782, 58.824748], [22.9671853, 58.8251134]]], [[[22.9682153, 58.9546316], [22.9681318, 58.9545134], [22.9684165, 58.9544899], [22.9682153, 58.9546316]]], [[[22.9679534, 58.9506166], [22.9706918, 58.950121], [22.9707635, 58.9479051], [22.9771143, 58.949293], [22.9712734, 58.9550033], [22.9684809, 58.9541247], [22.9694363, 58.9535592], [22.9679534, 58.9506166]]], [[[22.9711716, 58.8474729], [22.9708633, 58.847325], [22.971718, 58.8471484], [22.9711716, 58.8474729]]], [[[22.9709572, 58.8232024], [22.9708578, 58.8230542], [22.9710214, 58.8230971], [22.9709572, 58.8232024]]], [[[22.9716134, 58.8296631], [22.9720342, 58.8292707], [22.9724937, 58.8295978], [22.9716134, 58.8296631]]], [[[22.9717041, 58.8299071], [22.9716322, 58.8297555], [22.9718436, 58.8298847], [22.9717041, 58.8299071]]], [[[22.9744778, 58.8289568], [22.9744586, 58.8281672], [22.9752275, 58.8291537], [22.9744778, 58.8289568]]], [[[22.9749079, 58.9169535], [22.9750158, 58.9167844], [22.9751377, 58.9168504], [22.9749079, 58.9169535]]], [[[22.975637, 58.9526968], [22.9756048, 58.9525111], [22.9758118, 58.9526749], [22.975637, 58.9526968]]], [[[22.9787744, 58.9154891], [22.9788578, 58.9150661], [22.9792522, 58.9153504], [22.9787744, 58.9154891]]], [[[22.980159, 58.9441496], [22.9803617, 58.9431489], [22.9806498, 58.9442323], [22.980159, 58.9441496]]], [[[22.9806199, 58.9451612], [22.9806091, 58.9450132], [22.9809169, 58.9450417], [22.9806199, 58.9451612]]], [[[22.9807705, 58.8138493], [22.9818423, 58.8106241], [22.9859299, 58.8097763], [22.9839616, 58.8084792], [22.99446, 58.8031204], [23.0041428, 58.8004562], [23.0035135, 58.7959068], [23.0093174, 58.7894918], [23.0083353, 58.7919497], [23.0122771, 58.794665], [23.0102519, 58.7963019], [23.0122304, 58.7982313], [23.010745, 58.7992445], [23.0118069, 58.801727], [23.0108338, 58.8039733], [23.0039203, 58.804495], [23.0049119, 58.8050236], [22.9946813, 58.807645], [22.9943158, 58.8104065], [22.9882211, 58.8174976], [22.9807705, 58.8138493]]], [[[22.9822684, 58.8167702], [22.9824477, 58.8161269], [22.9829294, 58.8163649], [22.9822684, 58.8167702]]], [[[22.9823956, 58.8153217], [22.9823394, 58.8151532], [22.9825474, 58.8152448], [22.9823956, 58.8153217]]], [[[22.9827184, 58.9392447], [22.984363, 58.9388708], [22.983555, 58.9372616], [22.9849622, 58.9364265], [22.9859231, 58.9378825], [22.9903326, 58.9382648], [22.9861131, 58.9388889], [22.9875255, 58.9398273], [22.987565, 58.9404733], [22.9868519, 58.9408417], [22.9827184, 58.9392447]]], [[[22.9830842, 58.8185898], [22.9829764, 58.8183859], [22.9833356, 58.818362], [22.9830842, 58.8185898]]], [[[22.9832499, 58.8181577], [22.9831646, 58.8180793], [22.9833847, 58.8180451], [22.9832499, 58.8181577]]], [[[22.9836238, 58.8178006], [22.9839757, 58.8171024], [22.984307, 58.8172394], [22.9836238, 58.8178006]]], [[[22.9851538, 58.9810509], [22.9849502, 58.9808308], [22.9859294, 58.9808841], [22.9851538, 58.9810509]]], [[[22.9865811, 58.9810307], [22.9884499, 58.980059], [22.9943632, 58.9835328], [22.994144, 58.9848112], [22.9881446, 58.9842885], [22.9865811, 58.9810307]]], [[[22.9880387, 58.9372194], [22.9879007, 58.9368012], [22.9881801, 58.9368156], [22.9880387, 58.9372194]]], [[[22.9900603, 58.9370222], [22.9883503, 58.9360257], [22.9908803, 58.9359148], [22.9900603, 58.9370222]]], [[[22.988372, 58.9373991], [22.9883179, 58.9371182], [22.9886014, 58.937252], [22.988372, 58.9373991]]], [[[22.9895128, 58.9158178], [22.989571, 58.9155592], [22.9897021, 58.9155825], [22.9895128, 58.9158178]]], [[[22.990203, 58.9163825], [22.9903296, 58.9162444], [22.9904846, 58.9162804], [22.990203, 58.9163825]]], [[[22.9908738, 58.914633], [22.9912602, 58.9141988], [22.9915214, 58.9144867], [22.9908738, 58.914633]]], [[[22.9910829, 58.9154548], [22.9911618, 58.9149025], [22.9915736, 58.9153241], [22.9910829, 58.9154548]]], [[[22.9909325, 58.9141449], [22.9909709, 58.9140461], [22.9910334, 58.914102], [22.9909325, 58.9141449]]], [[[22.9919004, 58.914235], [22.9919144, 58.9140038], [22.9920131, 58.9142086], [22.9919004, 58.914235]]], [[[22.9920243, 58.9147479], [22.9920432, 58.9146424], [22.9921272, 58.9147276], [22.9920243, 58.9147479]]], [[[22.9931401, 58.914683], [22.993082, 58.9141809], [22.9933283, 58.9143558], [22.9931401, 58.914683]]], [[[22.9935384, 58.9350748], [22.9940222, 58.934017], [22.9946585, 58.9349479], [22.9935384, 58.9350748]]], [[[22.9943466, 58.9166408], [22.9943406, 58.9165134], [22.9944656, 58.9165606], [22.9943466, 58.9166408]]], [[[22.9944511, 58.9156303], [22.9946645, 58.9153563], [22.9948007, 58.9154932], [22.9944511, 58.9156303]]], [[[22.9945989, 58.9163801], [22.9945854, 58.9161829], [22.9947796, 58.9162789], [22.9945989, 58.9163801]]], [[[22.9956248, 58.9180861], [22.995532, 58.91791], [22.9957623, 58.9179723], [22.9956248, 58.9180861]]], [[[22.9958246, 58.916012], [22.9957024, 58.9159399], [22.9958256, 58.9159517], [22.9958246, 58.916012]]], [[[22.9967567, 58.9181415], [22.9974735, 58.9170579], [22.998485, 58.917452], [22.9967567, 58.9181415]]], [[[22.9977445, 58.9857788], [23.0026654, 58.9837096], [23.0047417, 58.9799074], [23.0059631, 58.9851236], [23.0078204, 58.9865763], [23.006448, 58.9881261], [23.0022834, 58.9881627], [22.9977445, 58.9857788]]], [[[22.9977766, 58.9310914], [22.9991622, 58.9296793], [23.0003037, 58.931812], [23.0014623, 58.9287371], [23.0046826, 58.927897], [23.0051629, 58.9262543], [23.0100183, 58.9257464], [23.0103777, 58.9223828], [23.0128168, 58.9198169], [23.0093379, 58.9197313], [23.0100059, 58.9180599], [23.0090193, 58.9153329], [23.0124337, 58.9098078], [23.0107667, 58.9076046], [23.0127702, 58.9062562], [23.0200469, 58.9058166], [23.0314249, 58.8983598], [23.0382106, 58.906465], [23.0419755, 58.9062416], [23.044985, 58.9091651], [23.0377052, 58.923251], [23.0348807, 58.922143], [23.0229871, 58.9257675], [23.0224621, 58.9271206], [23.015508, 58.9274668], [23.0143818, 58.9295966], [23.0134384, 58.928434], [23.0146331, 58.9277085], [23.0118077, 58.9281125], [23.0078157, 58.9326995], [23.005843, 58.9319817], [23.00122, 58.9340417], [22.9989677, 58.9337878], [22.9994742, 58.931782], [22.9977766, 58.9310914]]], [[[22.998734, 58.9160266], [22.9987149, 58.9157906], [22.9989207, 58.9158594], [22.998734, 58.9160266]]], [[[23.001807, 58.9178343], [23.0008928, 58.9175494], [23.0020215, 58.9173886], [23.001807, 58.9178343]]], [[[23.0009012, 58.9184646], [23.0036807, 58.9174122], [23.0046993, 58.9181545], [23.0034434, 58.9196226], [23.0009012, 58.9184646]]], [[[23.003333, 58.9173322], [23.0028797, 58.9171218], [23.003654, 58.917138], [23.003333, 58.9173322]]], [[[23.0048135, 58.9195501], [23.0044737, 58.9189252], [23.0047557, 58.9182918], [23.0048135, 58.9195501]]], [[[23.005255, 58.9198428], [23.004882, 58.9196619], [23.0051211, 58.918894], [23.005255, 58.9198428]]], [[[23.0056091, 58.9258508], [23.0055281, 58.9257033], [23.0057281, 58.9258489], [23.0056091, 58.9258508]]], [[[23.0058264, 58.9199071], [23.0057809, 58.9192492], [23.0061647, 58.9196913], [23.0058264, 58.9199071]]], [[[23.0054972, 58.9184184], [23.0059114, 58.91661], [23.007864, 58.9147538], [23.0095263, 58.9185325], [23.0077678, 58.9195168], [23.0054972, 58.9184184]]], [[[23.0065444, 58.9103615], [23.0082477, 58.9090185], [23.0085959, 58.9091494], [23.0075072, 58.9108275], [23.0065444, 58.9103615]]], [[[23.0073257, 58.9786564], [23.0092012, 58.9775423], [23.0103488, 58.9780609], [23.0083454, 58.9786796], [23.0073257, 58.9786564]]], [[[23.0081319, 58.9241624], [23.0080053, 58.9240043], [23.0082599, 58.9240998], [23.0081319, 58.9241624]]], [[[23.007949, 58.9203134], [23.0094637, 58.9200501], [23.0098544, 58.9202795], [23.0091525, 58.920752], [23.007949, 58.9203134]]], [[[23.0089334, 58.9216497], [23.0089894, 58.9214836], [23.0091641, 58.9215323], [23.0089334, 58.9216497]]], [[[23.0095789, 58.9241747], [23.0096123, 58.9240442], [23.009692, 58.9241144], [23.0095789, 58.9241747]]], [[[23.0100034, 58.791365], [23.00996, 58.7911433], [23.0111743, 58.7912947], [23.0100034, 58.791365]]], [[[23.0102216, 58.9086835], [23.0102021, 58.9081413], [23.0104866, 58.9086831], [23.0102216, 58.9086835]]], [[[23.010683, 58.7921496], [23.0104938, 58.7919035], [23.0108334, 58.7921104], [23.010683, 58.7921496]]], [[[23.0136388, 58.9055047], [23.0156001, 58.9045657], [23.0166535, 58.9046884], [23.0156008, 58.9052037], [23.0136388, 58.9055047]]], [[[23.0176364, 58.8283209], [23.0177276, 58.8276927], [23.0184455, 58.8283559], [23.0176364, 58.8283209]]], [[[23.0197982, 58.9054477], [23.0194528, 58.9048613], [23.0200342, 58.9051416], [23.0197982, 58.9054477]]], [[[23.036101, 58.7764915], [23.0423258, 58.7747586], [23.046159, 58.7716948], [23.0494904, 58.7720112], [23.0477803, 58.7710132], [23.0486536, 58.7673998], [23.0522438, 58.7759434], [23.0555631, 58.776873], [23.0536082, 58.7781508], [23.0552923, 58.7803683], [23.04621, 58.7845049], [23.0423304, 58.7843876], [23.0418228, 58.7791383], [23.0436242, 58.7783128], [23.036101, 58.7764915]]], [[[23.0432741, 58.9140587], [23.0432278, 58.9139615], [23.0433601, 58.9140256], [23.0432741, 58.9140587]]], [[[23.045467, 58.9118699], [23.0466258, 58.9118123], [23.047677, 58.9116436], [23.0470512, 58.9119194], [23.045467, 58.9118699]]], [[[23.0534287, 58.9053053], [23.0534017, 58.9050165], [23.0536372, 58.9049974], [23.0534287, 58.9053053]]], [[[23.0566698, 58.8107622], [23.0600498, 58.811045], [23.0612147, 58.8071359], [23.0630041, 58.8090296], [23.0658642, 58.806195], [23.0682659, 58.8091213], [23.0680434, 58.811307], [23.071496, 58.8130045], [23.0767279, 58.8190612], [23.0743005, 58.8252365], [23.0678754, 58.8290304], [23.0588988, 58.8289882], [23.0619966, 58.8259901], [23.0627279, 58.8227555], [23.06867, 58.8218501], [23.0691944, 58.8179601], [23.0706273, 58.817878], [23.068363, 58.816157], [23.066148, 58.817843], [23.0635083, 58.8179553], [23.0652841, 58.8164679], [23.0619749, 58.8156637], [23.064321, 58.8140658], [23.0566698, 58.8107622]]], [[[23.0587471, 58.7615166], [23.0587679, 58.7612678], [23.0589886, 58.7615253], [23.0587471, 58.7615166]]], [[[23.0586604, 58.8137742], [23.0604438, 58.8137522], [23.0607434, 58.8140636], [23.0595829, 58.8146672], [23.0586604, 58.8137742]]], [[[23.0593654, 58.9010113], [23.0592025, 58.900416], [23.0595295, 58.9004044], [23.0593654, 58.9010113]]], [[[23.0594687, 58.9010095], [23.0600474, 58.8987395], [23.0660098, 58.8974166], [23.066101, 58.8959775], [23.0685245, 58.8969128], [23.0668535, 58.897581], [23.0677351, 58.898424], [23.0714659, 58.8986018], [23.0645532, 58.9024821], [23.0594687, 58.9010095]]], [[[23.0639818, 58.7643574], [23.0640367, 58.7635992], [23.0641393, 58.7643943], [23.0639818, 58.7643574]]], [[[23.0640626, 58.7646954], [23.0683828, 58.7640954], [23.0687938, 58.764714], [23.0663047, 58.7653764], [23.0640626, 58.7646954]]], [[[23.0692497, 58.8098504], [23.0697946, 58.8091325], [23.0697092, 58.8099276], [23.0692497, 58.8098504]]], [[[23.0701338, 58.764469], [23.0698886, 58.7643121], [23.0703844, 58.7644016], [23.0701338, 58.764469]]], [[[23.0708008, 58.8973], [23.0706639, 58.8971149], [23.0707861, 58.897126], [23.0708008, 58.8973]]], [[[23.070888, 58.8077075], [23.0721189, 58.8069146], [23.0731336, 58.8080043], [23.070888, 58.8077075]]], [[[23.0712973, 58.764521], [23.0751221, 58.764901], [23.0802169, 58.7612179], [23.0851668, 58.7615355], [23.0839423, 58.766272], [23.080837, 58.7673715], [23.0712973, 58.764521]]], [[[23.0724968, 58.8100523], [23.0725364, 58.8098735], [23.0728031, 58.8099493], [23.0724968, 58.8100523]]], [[[23.0754445, 58.8097642], [23.0753707, 58.8092406], [23.07605, 58.8091829], [23.0754445, 58.8097642]]], [[[23.0873886, 58.7557533], [23.0875323, 58.7541993], [23.094455, 58.7533585], [23.0973488, 58.7507362], [23.0965516, 58.7489453], [23.0985575, 58.7495173], [23.0986308, 58.7517204], [23.0967972, 58.7532197], [23.0981779, 58.7548752], [23.0953549, 58.7562938], [23.0913821, 58.7549775], [23.0873886, 58.7557533]]], [[[23.096621, 58.7477851], [23.0967842, 58.7476479], [23.0969308, 58.7477586], [23.096621, 58.7477851]]], [[[23.0982247, 58.7447736], [23.0977204, 58.7427979], [23.0992926, 58.742651], [23.0982247, 58.7447736]]], [[[23.1096575, 58.9140118], [23.1143208, 58.9118402], [23.1154457, 58.9137374], [23.1194726, 58.9146105], [23.1096575, 58.9140118]]], [[[23.1124238, 58.8366423], [23.1145535, 58.8353133], [23.1155258, 58.8287602], [23.1187281, 58.8260823], [23.124439, 58.8252363], [23.1257075, 58.8280795], [23.1300373, 58.8262863], [23.1374996, 58.8299984], [23.1411455, 58.8288341], [23.1404862, 58.8343116], [23.132567, 58.8332878], [23.1280117, 58.8344166], [23.1286167, 58.8356774], [23.1263576, 58.8357804], [23.1254633, 58.8391761], [23.1198303, 58.8401945], [23.1124238, 58.8366423]]], [[[23.1205379, 58.8418289], [23.1204773, 58.8415338], [23.1208569, 58.841606], [23.1205379, 58.8418289]]], [[[23.1201303, 58.7426309], [23.1226857, 58.7423727], [23.1241288, 58.7418845], [23.1223655, 58.742531], [23.1211532, 58.7427179], [23.1207555, 58.7430095], [23.1201303, 58.7426309]]], [[[23.1231904, 58.7396337], [23.1286915, 58.7397551], [23.1281776, 58.7388756], [23.1354487, 58.7403321], [23.1397179, 58.738347], [23.1399985, 58.7417314], [23.1431316, 58.7427559], [23.1337474, 58.74408], [23.1231904, 58.7396337]]], [[[23.1345668, 58.7491362], [23.1343613, 58.7490507], [23.1344876, 58.7485217], [23.1345668, 58.7491362]]], [[[23.13559, 58.8185533], [23.1362329, 58.8175953], [23.1364518, 58.8184355], [23.13559, 58.8185533]]], [[[23.1389023, 58.8051801], [23.141222, 58.8042006], [23.14253, 58.8041635], [23.1418514, 58.8049681], [23.1389023, 58.8051801]]], [[[23.1457537, 58.7403428], [23.1453847, 58.7397046], [23.1472547, 58.7405147], [23.1457537, 58.7403428]]], [[[23.1463872, 58.743538], [23.1462271, 58.7433684], [23.1466395, 58.7435697], [23.1463872, 58.743538]]], [[[23.1617109, 58.7496785], [23.169792, 58.7514825], [23.1795183, 58.7503182], [23.1790008, 58.7514027], [23.1819958, 58.7531383], [23.180231, 58.753558], [23.1807467, 58.7554105], [23.1742733, 58.7541582], [23.1652202, 58.7559261], [23.1617109, 58.7496785]]], [[[23.1837351, 58.7511328], [23.1861692, 58.7505607], [23.1867356, 58.7513969], [23.1856658, 58.75156], [23.1837351, 58.7511328]]]]}}]}