{"type": "FeatureCollection", "features": [{"type": "Feature", "geometry": {"type": "Polygon", "coordinates": [[[26.0398283, 62.9360968], [26.0682559, 62.8893981], [26.1654055, 62.8725259], [26.1888148, 62.86192], [26.1824172, 62.8565911], [26.1557249, 62.8481955], [26.1583556, 62.8467707], [26.1543924, 62.8453865], [26.1895497, 62.8238332], [26.2107574, 62.8306696], [26.2197492, 62.8247299], [26.2229604, 62.8256599], [26.2323277, 62.8193198], [26.2343029, 62.819853], [26.2396147, 62.8159301], [26.2403411, 62.8171432], [26.3561825, 62.7474048], [26.3998907, 62.7661479], [26.4055802, 62.7677268], [26.3932935, 62.7752629], [26.3989272, 62.7782504], [26.424994, 62.7833855], [26.4465635, 62.7891608], [26.5292356, 62.7222907], [26.5260598, 62.7158093], [26.5450928, 62.6942994], [26.562216, 62.6817069], [26.5628565, 62.6749383], [26.5686319, 62.6677988], [26.5709461, 62.6614311], [26.5696189, 62.6534208], [26.588609, 62.6412942], [26.5913341, 62.6416492], [26.5983904, 62.6107658], [26.5763599, 62.6040358], [26.5991018, 62.5944565], [26.5935979, 62.5914047], [26.5941526, 62.5906775], [26.5724106, 62.5885215], [26.5694001, 62.5801092], [26.5561467, 62.5620024], [26.5261779, 62.5410509], [26.5244301, 62.5415481], [26.5177343, 62.5364497], [26.5081738, 62.5331423], [26.4832319, 62.5323532], [26.4838703, 62.5293145], [26.4707361, 62.5189185], [26.4782849, 62.5167465], [26.4754739, 62.5155319], [26.4800551, 62.5122256], [26.4886908, 62.5094311], [26.4918923, 62.5112144], [26.5774987, 62.4787115], [26.6331395, 62.4507646], [26.6820512, 62.4618917], [26.6848632, 62.4633897], [26.6982024, 62.4589997], [26.7091263, 62.4529475], [26.731989, 62.4434103], [26.7332121, 62.4364955], [26.7397674, 62.4368033], [26.7606864, 62.424013], [26.83253, 62.44297], [26.8167774, 62.4540622], [26.8176585, 62.4552965], [26.8224028, 62.4560986], [26.8334525, 62.4682202], [26.8458824, 62.4697664], [26.856624, 62.4768095], [26.8720269, 62.4784555], [26.8713629, 62.4808274], [26.8794804, 62.4855058], [26.8840619, 62.4775229], [26.9054057, 62.4657644], [26.9362063, 62.4568059], [26.9398057, 62.4523716], [26.9473663, 62.4482382], [26.9515074, 62.4426224], [26.9543052, 62.4423623], [26.9632773, 62.4453015], [26.9619899, 62.4472719], [26.9638487, 62.4490323], [26.9609278, 62.4493562], [26.9612911, 62.4507513], [26.9649189, 62.4526907], [26.9717424, 62.4542685], [26.9694786, 62.4571907], [26.9706742, 62.4587716], [26.9684701, 62.4604253], [26.9672985, 62.4601034], [26.9511859, 62.4754571], [26.9476837, 62.4762988], [26.9502419, 62.4776192], [26.9488132, 62.4775493], [26.9515938, 62.4795709], [26.9509137, 62.4797823], [26.9522212, 62.4815061], [26.9688014, 62.4889166], [26.9714804, 62.4885002], [26.9739155, 62.4837843], [26.9791791, 62.4795392], [26.9857417, 62.4786008], [26.9938151, 62.4745644], [26.9971966, 62.4695294], [27.0612668, 62.4713241], [27.068319, 62.4792717], [27.0786132, 62.4874168], [27.0812095, 62.488454], [27.0905745, 62.4867041], [27.0937663, 62.4850655], [27.1021475, 62.4847669], [27.1014503, 62.4857681], [27.1036541, 62.4872095], [27.1019302, 62.4894681], [27.1056887, 62.491223], [27.1053694, 62.4940868], [27.1183682, 62.4978568], [27.1124751, 62.5054824], [27.1141402, 62.5061883], [27.1332925, 62.4973752], [27.1375388, 62.4933294], [27.1630746, 62.4824163], [27.1701887, 62.476132], [27.1675375, 62.4725317], [27.1694313, 62.4711519], [27.1692811, 62.4693827], [27.1735675, 62.4659646], [27.1750543, 62.4660779], [27.1744217, 62.4654162], [27.1760825, 62.4645533], [27.1764652, 62.463082], [27.1756949, 62.4627106], [27.1770056, 62.4613963], [27.1668637, 62.4592225], [27.1954086, 62.4559228], [27.189349, 62.4701149], [27.211134, 62.4787958], [27.2179446, 62.4748277], [27.2029667, 62.4667239], [27.2064482, 62.4615278], [27.2205062, 62.4637331], [27.2189602, 62.4666014], [27.2252512, 62.4765531], [27.2249094, 62.4800456], [27.2507102, 62.4798718], [27.2495977, 62.476004], [27.2514111, 62.4740229], [27.2678023, 62.4628178], [27.2762678, 62.4654007], [27.2838737, 62.4621801], [27.2897842, 62.4638235], [27.3026635, 62.4858574], [27.3071035, 62.4858856], [27.3377057, 62.4971487], [27.3624406, 62.4962254], [27.3474839, 62.5084209], [27.3653251, 62.5075607], [27.3714429, 62.5131095], [27.3695784, 62.5160742], [27.3667118, 62.5149711], [27.3573623, 62.5175281], [27.3444959, 62.5228725], [27.3576742, 62.5293064], [27.3634533, 62.5300191], [27.3842976, 62.5142826], [27.3856022, 62.5054636], [27.3930069, 62.5029187], [27.4085112, 62.5038833], [27.4158229, 62.4952787], [27.4412571, 62.4850079], [27.4487754, 62.4829287], [27.4594681, 62.4840081], [27.4612738, 62.4794993], [27.4648023, 62.4753141], [27.4646584, 62.4708352], [27.4765502, 62.4688975], [27.4828246, 62.4667312], [27.4883205, 62.466925], [27.5290742, 62.4567917], [27.5431811, 62.4567262], [27.5515436, 62.4553784], [27.5723287, 62.4482154], [27.5851334, 62.4412623], [27.6011569, 62.4347688], [27.6054939, 62.4310083], [27.6298937, 62.4196853], [27.6525142, 62.3999481], [27.685597, 62.3885958], [27.6919028, 62.3747627], [27.6897986, 62.3728474], [27.6910195, 62.3682451], [27.6754582, 62.3521557], [27.692947, 62.3330338], [27.6537443, 62.3224903], [27.6471965, 62.321835], [27.6477399, 62.3205656], [27.6268184, 62.3046719], [27.6342642, 62.3000769], [27.6164329, 62.2941819], [27.6275319, 62.2887623], [27.6323438, 62.2898367], [27.6412862, 62.2855011], [27.6442116, 62.2866745], [27.6448214, 62.2863509], [27.6420158, 62.2851272], [27.6498371, 62.2813708], [27.6415062, 62.2780522], [27.6318771, 62.2829642], [27.6058966, 62.2784756], [27.588086, 62.2904181], [27.5734102, 62.2850208], [27.572693, 62.2831765], [27.5616117, 62.2830425], [27.5602924, 62.2817835], [27.5601296, 62.2794843], [27.5562822, 62.2771514], [27.5546229, 62.2791965], [27.5503187, 62.2804162], [27.5513718, 62.2810663], [27.5499416, 62.2817479], [27.5495639, 62.283266], [27.5358032, 62.2798526], [27.5314103, 62.2819373], [27.531661, 62.2837603], [27.5283736, 62.2859586], [27.5258375, 62.285818], [27.5245695, 62.2845833], [27.520183, 62.287923], [27.5186771, 62.2875913], [27.5207202, 62.2822571], [27.5149242, 62.2784145], [27.5111527, 62.2800754], [27.4937212, 62.2747879], [27.5031421, 62.2718633], [27.5249965, 62.2548175], [27.5543036, 62.239189], [27.5575002, 62.2370705], [27.5537014, 62.2345211], [27.5635777, 62.2293658], [27.5474557, 62.2261605], [27.5412327, 62.2304813], [27.5327326, 62.226871], [27.5137289, 62.2347174], [27.5097338, 62.2352569], [27.5014526, 62.2337737], [27.5335892, 62.1971205], [27.5459817, 62.1900306], [27.5448956, 62.1796221], [27.5471685, 62.1764517], [27.5460604, 62.1754695], [27.5477914, 62.1737725], [27.546904, 62.1726327], [27.5487975, 62.1707784], [27.5503773, 62.1706304], [27.5578274, 62.1609229], [27.5632558, 62.1498669], [27.5661677, 62.1476443], [27.5827886, 62.1545773], [27.601578, 62.157071], [27.6309339, 62.1502056], [27.6307961, 62.1490575], [27.6277998, 62.1490695], [27.6183239, 62.1435002], [27.6156111, 62.1448028], [27.6120034, 62.1432853], [27.6142572, 62.1379009], [27.6181907, 62.139806], [27.6227125, 62.1401583], [27.63415, 62.1337036], [27.635616, 62.1310576], [27.6308879, 62.1272242], [27.6324215, 62.1258451], [27.6391433, 62.1238387], [27.6245729, 62.1156921], [27.6409913, 62.1075405], [27.6293272, 62.1051356], [27.6251966, 62.1028618], [27.6366021, 62.0955397], [27.6458303, 62.0880129], [27.6413573, 62.088425], [27.6392855, 62.087115], [27.6392779, 62.0859589], [27.6368248, 62.0836999], [27.6327889, 62.0847484], [27.6209982, 62.0803123], [27.6197975, 62.0782535], [27.6141059, 62.0763286], [27.6145926, 62.0751675], [27.6181518, 62.072975], [27.6251541, 62.0695517], [27.6256571, 62.0679539], [27.6309284, 62.0680864], [27.6389428, 62.064341], [27.6216661, 62.0550033], [27.6157842, 62.0505533], [27.6280606, 62.0445215], [27.6279699, 62.0417483], [27.6257279, 62.0407642], [27.6256815, 62.0398901], [27.6298914, 62.0382286], [27.6361976, 62.0386245], [27.6381405, 62.0375016], [27.638198, 62.0414292], [27.6400862, 62.0422817], [27.6439526, 62.0403634], [27.6397419, 62.0384872], [27.6574716, 62.0297233], [27.6530806, 62.027763], [27.6551701, 62.0276464], [27.6590324, 62.0251146], [27.6676711, 62.0231123], [27.6699241, 62.0210087], [27.6998523, 62.0085546], [27.7451005, 62.0034222], [27.7477688, 62.0013438], [27.7542479, 61.9987875], [27.7575062, 62.0015031], [27.7572655, 62.0031164], [27.7673842, 62.0020838], [27.7755017, 61.9975679], [27.7748914, 61.996837], [27.7765308, 61.9958093], [27.7871007, 61.9922861], [27.7936101, 61.9877601], [27.8357971, 62.0057571], [27.8513534, 62.0143348], [27.8718485, 62.0064604], [27.8863771, 62.0149061], [27.8613264, 62.0390959], [27.8667709, 62.0404292], [27.8738048, 62.0369369], [27.894823, 62.039339], [27.8888212, 62.0484972], [27.8936595, 62.0519863], [27.8989678, 62.0492121], [27.9098454, 62.0484193], [27.9114285, 62.0494675], [27.9099791, 62.0508034], [27.9139815, 62.0525003], [27.9229197, 62.048957], [27.9260657, 62.0506934], [27.9371526, 62.046442], [27.9340924, 62.0505306], [27.9447244, 62.058634], [27.9349759, 62.0660279], [27.9269872, 62.0823517], [27.9413682, 62.0873443], [27.9467368, 62.0881447], [27.9593871, 62.0839986], [27.967339, 62.0742959], [27.9987221, 62.0614243], [28.0075421, 62.0680259], [27.9894907, 62.0753594], [27.9906487, 62.0759842], [27.9937005, 62.0821796], [27.9985931, 62.0860726], [27.9905922, 62.0932325], [27.9741897, 62.1006844], [27.9824909, 62.1052965], [28.0146619, 62.0974248], [28.0210834, 62.1012207], [28.0179218, 62.1031646], [28.0256029, 62.1047375], [28.0293695, 62.1066681], [28.0483615, 62.0998833], [28.0532282, 62.1045396], [28.0472768, 62.1053816], [28.0439745, 62.1045504], [28.0378318, 62.1070271], [28.0436709, 62.1070237], [28.0417788, 62.1130486], [28.080091, 62.1164372], [28.0268829, 62.1703445], [28.0320692, 62.1733062], [28.0330691, 62.1730334], [28.0339234, 62.1760916], [28.0408839, 62.1805725], [28.0422737, 62.1846483], [28.0407563, 62.1868102], [28.0344729, 62.1876067], [28.0308489, 62.1904808], [28.036357, 62.1939924], [28.0455869, 62.1948203], [28.0468674, 62.1971109], [28.0425149, 62.2006327], [28.0366099, 62.2003302], [28.026974, 62.2053026], [28.0882447, 62.2066803], [28.092058, 62.2088125], [28.0909044, 62.2133119], [28.0759717, 62.2238214], [28.0688324, 62.2300149], [28.0489206, 62.2352931], [28.0598743, 62.2435324], [28.0611161, 62.2420974], [28.0767159, 62.2368535], [28.0723669, 62.2327629], [28.0778419, 62.2323188], [28.0815535, 62.2358784], [28.0923446, 62.2344493], [28.0919004, 62.2311401], [28.1006744, 62.2304206], [28.1083316, 62.2263483], [28.1244865, 62.2254689], [28.1252773, 62.2289244], [28.1294511, 62.2281784], [28.1278465, 62.2301187], [28.1232589, 62.2316297], [28.1228248, 62.2321895], [28.12464, 62.2337888], [28.1409086, 62.2246155], [28.1810048, 62.2255879], [28.2433383, 62.216553], [28.2694598, 62.2303644], [28.2875444, 62.2274356], [28.3047671, 62.2321368], [28.3178683, 62.2274284], [28.3140608, 62.2260906], [28.319123, 62.2210553], [28.3268227, 62.221204], [28.327656, 62.2222126], [28.4470038, 62.2069328], [28.4707841, 62.2012483], [28.5045281, 62.2015358], [28.5235534, 62.1849222], [28.5406806, 62.1897929], [28.5534695, 62.1850698], [28.5624914, 62.1703828], [28.5801782, 62.167608], [28.5854987, 62.1654073], [28.5840288, 62.1616547], [28.6161906, 62.1410322], [28.6235376, 62.142702], [28.6129796, 62.1579791], [28.6316109, 62.1564855], [28.6270372, 62.1680476], [28.6316853, 62.1692751], [28.6489163, 62.1663158], [28.6542217, 62.1678284], [28.6504268, 62.1715158], [28.6420226, 62.1749896], [28.6431963, 62.182166], [28.6465064, 62.1826371], [28.6476938, 62.1840977], [28.646614, 62.1854889], [28.6517317, 62.1911955], [28.6320413, 62.1955856], [28.6339008, 62.1993651], [28.6295677, 62.2010199], [28.6315807, 62.2096429], [28.64513, 62.2044269], [28.658232, 62.2037965], [28.6588213, 62.2113278], [28.6528224, 62.231333], [28.6376977, 62.2402078], [28.6082237, 62.2521467], [28.6014952, 62.261957], [28.5830679, 62.2694727], [28.5800062, 62.2781279], [28.5651663, 62.2828488], [28.5640759, 62.283978], [28.56648, 62.2852653], [28.5658027, 62.2864907], [28.5666847, 62.2876921], [28.5689056, 62.288399], [28.5686646, 62.2909938], [28.5623631, 62.2943775], [28.5613731, 62.2934741], [28.5538153, 62.2936657], [28.5514569, 62.2923181], [28.5415925, 62.2951979], [28.5399175, 62.2968388], [28.5409835, 62.2987607], [28.5391747, 62.301122], [28.5285954, 62.3035929], [28.5211997, 62.3094276], [28.5082387, 62.3106715], [28.5055302, 62.3122479], [28.5010833, 62.3130256], [28.5011041, 62.3150763], [28.4991951, 62.3164133], [28.4744535, 62.318367], [28.4750405, 62.3175735], [28.4734262, 62.3168181], [28.4799117, 62.314826], [28.481658, 62.3136931], [28.4817814, 62.311867], [28.4829681, 62.311633], [28.4823078, 62.3114385], [28.4378004, 62.3168761], [28.4272274, 62.324498], [28.4229857, 62.3288852], [28.4284103, 62.3319892], [28.4305184, 62.3356449], [28.429199, 62.3418261], [28.4321239, 62.344299], [28.4377559, 62.3463712], [28.4337868, 62.3485744], [28.3972725, 62.3574676], [28.3835541, 62.3553907], [28.3743482, 62.3573664], [28.3654587, 62.3524877], [28.3150261, 62.3545325], [28.3234242, 62.3580124], [28.3189191, 62.3599303], [28.3183179, 62.3611457], [28.3179722, 62.3630511], [28.3196744, 62.3650496], [28.3187747, 62.3680455], [28.3266189, 62.3727337], [28.3271676, 62.3741888], [28.3294672, 62.3754728], [28.3297037, 62.3777621], [28.323146, 62.3812233], [28.3234361, 62.3826375], [28.3030862, 62.3863519], [28.2842621, 62.3932408], [28.2842114, 62.3948008], [28.2878338, 62.3951299], [28.2849904, 62.4123686], [28.2634508, 62.4192425], [28.2630864, 62.4171588], [28.2490889, 62.4216432], [28.2484877, 62.4229957], [28.2447178, 62.4240743], [28.2507989, 62.431502], [28.286396, 62.4430396], [28.2973441, 62.441876], [28.3003849, 62.4505604], [28.2946954, 62.4569979], [28.2923233, 62.4576725], [28.2918861, 62.4592115], [28.2809015, 62.4623199], [28.2766986, 62.4624409], [28.2765295, 62.4639265], [28.2863311, 62.4731601], [28.2849371, 62.4749171], [28.2938287, 62.4746965], [28.2940377, 62.4728699], [28.3073981, 62.4696892], [28.3232947, 62.4726575], [28.3402114, 62.4679619], [28.3545445, 62.4613264], [28.369942, 62.462826], [28.3817028, 62.4617171], [28.3933581, 62.484891], [28.3878619, 62.4882708], [28.3903515, 62.4893626], [28.3724565, 62.4963303], [28.3690158, 62.5001226], [28.3704607, 62.5011082], [28.3683086, 62.5018849], [28.3677324, 62.5033207], [28.3706357, 62.5057249], [28.3701092, 62.507677], [28.3751511, 62.510229], [28.3876606, 62.5087623], [28.4080726, 62.534281], [28.396298, 62.5547287], [28.4122808, 62.5663841], [28.4028273, 62.5709623], [28.416577, 62.5773657], [28.4621179, 62.5628541], [28.4754784, 62.5670008], [28.4985566, 62.5585039], [28.5207886, 62.5484634], [28.545454, 62.5683905], [28.5155628, 62.5746381], [28.5148694, 62.5762543], [28.5094246, 62.5780602], [28.5056198, 62.5767094], [28.4947622, 62.5776678], [28.4669757, 62.5831553], [28.4745413, 62.5870382], [28.4868301, 62.5884841], [28.5115418, 62.5851538], [28.5241073, 62.5857427], [28.53675, 62.5841727], [28.5408708, 62.5872029], [28.5575616, 62.5946745], [28.5607996, 62.5969859], [28.577663, 62.5800724], [28.5979026, 62.5886562], [28.6037809, 62.5882949], [28.6144696, 62.5964897], [28.6242434, 62.5997117], [28.6260179, 62.6061002], [28.6217874, 62.6059755], [28.6036805, 62.6104184], [28.5987573, 62.6104379], [28.6336783, 62.6211597], [28.6353567, 62.6244442], [28.6377202, 62.6261618], [28.6424327, 62.6377298], [28.6428463, 62.6489127], [28.6551462, 62.6570223], [28.6550245, 62.6682705], [28.7028821, 62.6942572], [28.6440199, 62.7282008], [28.6327043, 62.7439792], [28.6425684, 62.7607894], [28.6805607, 62.776315], [28.69239, 62.7760662], [28.6951595, 62.7741405], [28.7002055, 62.7726429], [28.7108793, 62.7752541], [28.7170176, 62.7733352], [28.7476874, 62.799108], [28.7444122, 62.8123732], [28.7746696, 62.8282884], [28.7858548, 62.8311011], [28.7900885, 62.8337975], [28.809513, 62.8301205], [28.823237, 62.8239396], [28.833329, 62.8249218], [28.8361505, 62.8233985], [28.830862, 62.8196106], [28.8481566, 62.8084489], [28.85927, 62.8066838], [28.8855547, 62.7985251], [28.9008342, 62.7953761], [28.8986624, 62.789697], [28.9305215, 62.7746266], [28.9296812, 62.7729368], [28.9426957, 62.7737669], [28.9428722, 62.7748975], [28.9662256, 62.8029959], [29.097603, 62.8455882], [29.0918447, 62.8499319], [29.0878768, 62.8503714], [29.0858839, 62.8489436], [29.0847647, 62.8504472], [29.0752636, 62.8562615], [29.0682578, 62.8563644], [29.0551686, 62.8628981], [29.0518319, 62.8617921], [29.0471542, 62.8645325], [29.0448958, 62.8640041], [29.0486348, 62.8606959], [29.0471649, 62.860182], [29.0312111, 62.8702475], [29.010258, 62.8735256], [29.0113091, 62.8753547], [29.0051401, 62.8781039], [29.0133256, 62.8800215], [29.0125963, 62.8827544], [29.007112, 62.8816476], [29.007592, 62.8800002], [29.0046921, 62.8796234], [29.0041675, 62.8809974], [29.0004051, 62.8802112], [28.9895113, 62.8963678], [28.9856837, 62.8964228], [28.9843302, 62.8969506], [28.9854336, 62.8980362], [28.9773468, 62.8997152], [28.9759044, 62.9014082], [28.9719686, 62.9011104], [28.9719792, 62.9022455], [28.9692172, 62.9024146], [28.9683285, 62.904667], [28.9628395, 62.9073043], [28.9672144, 62.9100221], [28.9557439, 62.9114799], [28.9556485, 62.913419], [28.9497874, 62.9152925], [28.9385204, 62.9159248], [28.9309099, 62.9366223], [28.9345164, 62.9392982], [28.9632575, 62.9248993], [28.9796047, 62.9239776], [28.9957345, 62.9276377], [28.9828289, 62.9386091], [28.9845343, 62.9394848], [28.989175, 62.9373033], [28.9928739, 62.9373123], [28.9909052, 62.9421611], [28.9807397, 62.9410959], [28.981963, 62.942897], [28.9627859, 62.9458066], [28.9773496, 62.9551221], [28.9717898, 62.9587575], [28.9881179, 62.9631421], [28.9938855, 62.9564499], [28.9970881, 62.957045], [28.9907912, 62.9638632], [29.0675124, 62.9841623], [29.0380133, 63.0108552], [28.9256927, 63.0360487], [28.914351, 63.04426], [28.9078349, 63.0473523], [28.8974199, 63.0457974], [28.8974816, 63.0469122], [28.895604, 63.0483164], [28.8880938, 63.0517991], [28.8767266, 63.0533695], [28.872199, 63.0554358], [28.8679558, 63.0554187], [28.8639191, 63.0572332], [28.8603652, 63.0572016], [28.8607863, 63.0576498], [28.85602, 63.0606207], [28.852922, 63.0653054], [28.8490623, 63.0685298], [28.8479438, 63.0703775], [28.8498509, 63.070663], [28.8503994, 63.0716518], [28.8497597, 63.0746179], [28.8479492, 63.0769207], [28.8436711, 63.080168], [28.8406241, 63.0810326], [28.8397068, 63.0826306], [28.834455, 63.0849413], [28.8335565, 63.0871364], [28.8313919, 63.0890375], [28.8327169, 63.0895753], [28.8313007, 63.0914399], [28.8313301, 63.0939236], [28.707487, 63.170414], [28.698009, 63.183113], [28.653959, 63.196834], [28.6107996, 63.2038343], [28.6614946, 63.2416743], [28.6463568, 63.2484001], [28.648382, 63.2493117], [28.6479572, 63.2501068], [28.6767216, 63.2563674], [28.6796423, 63.2654328], [28.7071344, 63.2721971], [28.7029531, 63.2842688], [28.6834556, 63.2839578], [28.7172316, 63.2941543], [28.7067207, 63.2981114], [28.7367887, 63.3113115], [28.746533, 63.3477137], [28.7594577, 63.3877905], [28.7501637, 63.3871781], [28.7050351, 63.4113345], [28.6957396, 63.4101481], [28.6660716, 63.4232056], [28.6496828, 63.4721671], [28.6411707, 63.4763343], [28.6435617, 63.4769544], [28.6406304, 63.4782239], [28.6179754, 63.5128634], [28.6112094, 63.517395], [28.6106086, 63.5218249], [28.6033131, 63.5273921], [28.6068105, 63.5303096], [28.6050723, 63.5332753], [28.6148441, 63.5389163], [28.6135697, 63.5398913], [28.6367454, 63.5480962], [28.6505006, 63.5403279], [28.6849631, 63.5526688], [28.668494, 63.561206], [28.6598844, 63.5580873], [28.6387279, 63.5630991], [28.6344448, 63.5628596], [28.6184643, 63.5672351], [28.613458, 63.570221], [28.620097, 63.5729553], [28.6179932, 63.5761688], [28.6130116, 63.5776464], [28.6067738, 63.5754547], [28.5947519, 63.6316096], [28.5954282, 63.6325418], [28.5933867, 63.6326343], [28.5949366, 63.6363479], [28.5858704, 63.6590943], [28.5937082, 63.6697823], [28.6064627, 63.6746626], [28.5847614, 63.6883462], [28.5684506, 63.6931084], [28.5510317, 63.7005991], [28.5260167, 63.6971264], [28.4936898, 63.6975197], [28.4908266, 63.693253], [28.4612286, 63.6986071], [28.4241944, 63.7264934], [28.3597294, 63.755004], [28.2739236, 63.6688119], [28.2562938, 63.6744498], [28.2146532, 63.7030713], [28.1998359, 63.7107554], [28.1680549, 63.7158916], [28.1444522, 63.7247583], [28.0611125, 63.7815591], [27.9098887, 63.8521182], [27.8928104, 63.8491032], [27.8911624, 63.8509944], [27.8159915, 63.8787787], [27.7404336, 63.9092236], [27.6638598, 63.9230122], [27.6502902, 63.9187415], [27.5404207, 63.9565025], [27.4777655, 63.9614706], [27.4970053, 63.949704], [27.4492452, 63.9443534], [27.4285718, 63.9478656], [27.4285382, 63.951076], [27.4226449, 63.9562782], [27.4159039, 63.9557518], [27.4233747, 63.9590367], [27.422895, 63.9619149], [27.4239623, 63.9623268], [27.4224946, 63.9647619], [27.4189547, 63.9652776], [27.4186433, 63.966454], [27.3864123, 63.9691612], [27.261143, 63.989333], [27.1312382, 63.997633], [27.1193114, 63.9907806], [27.1119225, 63.9944214], [27.0126024, 63.9989408], [26.8725757, 64.0352067], [26.8703971, 64.0369676], [26.5980247, 63.9795278], [26.5462328, 63.9582546], [26.5390253, 63.9654707], [26.5164405, 63.9630924], [26.5259496, 63.949948], [26.426734, 63.9091004], [26.3736311, 63.8893484], [26.3685274, 63.8896795], [26.3686261, 63.8908187], [26.3670135, 63.8913516], [26.3564701, 63.886886], [26.3392298, 63.8859536], [26.3500804, 63.8805778], [26.2181722, 63.8315549], [26.2428327, 63.8065584], [26.2567188, 63.7499518], [26.2602827, 63.747759], [26.2573009, 63.7478298], [26.2673925, 63.7050902], [26.2521369, 63.7045204], [26.2529819, 63.7010395], [26.2683589, 63.7009949], [26.2919688, 63.6007653], [26.2917736, 63.5900068], [26.222225, 63.5766499], [26.1951025, 63.5693098], [26.1913124, 63.509233], [26.1882251, 63.5047582], [26.1895429, 63.5021878], [26.1386459, 63.4575875], [26.1767036, 63.4388594], [26.1206698, 63.4060313], [26.0705543, 63.3547837], [26.0867511, 63.3537348], [26.1289041, 63.330217], [26.1419094, 63.2746849], [26.1716648, 63.2455138], [26.1714331, 63.2425844], [26.1758748, 63.2413613], [26.1848656, 63.2131792], [26.1477438, 63.2100264], [26.1635152, 63.146977], [26.1909595, 63.1325563], [26.187698, 63.12193], [26.2204701, 63.09214], [26.2189724, 63.089635], [26.2215634, 63.0870846], [26.2445371, 63.0748928], [26.2437077, 63.0707873], [26.2508488, 63.0683577], [26.2499777, 63.0672682], [26.2855212, 63.0569626], [26.3031734, 63.0489205], [26.3294783, 63.0429004], [26.3342758, 63.0350931], [26.2389437, 63.043909], [26.2225844, 63.0258668], [26.2898488, 62.9821482], [26.3325474, 62.983546], [26.3141013, 62.9586233], [26.272658, 62.9250563], [26.2663805, 62.9345171], [26.2221895, 62.9543984], [26.1243093, 62.9528968], [26.089726, 62.9401586], [26.0398283, 62.9360968]]]}, "properties": {"name": "Pohjois-Savo", "admin": "maakunta", "source": "© OpenStreetMap contributors, ODbL 1.0", "osm_relation": 918898}}]}