{"type": "FeatureCollection", "features": [{"type": "Feature", "geometry": {"type": "Polygon", "coordinates": [[[5.3378417, 52.7959551], [5.3772598, 52.7648052], [5.6313527, 52.8030546], [5.6602961, 52.8312504], [5.7031032, 52.8343457], [5.7027805, 52.8359936], [5.7032999, 52.8363929], [5.7039591, 52.8360783], [5.7042816, 52.8344307], [5.709636, 52.8348167], [5.7109681, 52.8351762], [5.7119734, 52.8359712], [5.7124501, 52.8373793], [5.711705, 52.8375684], [5.7116753, 52.8379839], [5.71322, 52.8381888], [5.7148388, 52.8378914], [5.7147217, 52.837375], [5.7238015, 52.8357812], [5.726496, 52.8347139], [5.7286635, 52.833398], [5.729574, 52.8337266], [5.7274761, 52.8364128], [5.7249623, 52.8425195], [5.7246821, 52.8439822], [5.7488074, 52.8396796], [5.7843822, 52.8174758], [5.7867094, 52.8112817], [5.7878758, 52.8072322], [5.7898067, 52.8036915], [5.8100155, 52.8138836], [5.8171129, 52.8167031], [5.8197442, 52.8172784], [5.8182381, 52.8197803], [5.8181278, 52.8216685], [5.8190143, 52.8230724], [5.8215674, 52.82469], [5.8247288, 52.8255898], [5.8276529, 52.8275993], [5.8276003, 52.8282907], [5.8257777, 52.8294557], [5.8258548, 52.8303251], [5.8287077, 52.8317681], [5.8295023, 52.8337926], [5.8330078, 52.8365601], [5.8347684, 52.838539], [5.8358795, 52.8410408], [5.8368886, 52.8417785], [5.840017, 52.8429962], [5.840085, 52.8476517], [5.8420801, 52.8503237], [5.8424379, 52.8519151], [5.8439276, 52.8548738], [5.850046, 52.860884], [5.8511626, 52.8620784], [5.8512797, 52.8626894], [5.8551096, 52.8661149], [5.8554614, 52.8670131], [5.8567957, 52.8683733], [5.8567678, 52.8707907], [5.8617546, 52.8746789], [5.8652881, 52.8766325], [5.8680537, 52.8790975], [5.8685346, 52.8804154], [5.8721712, 52.8822444], [5.8752131, 52.884897], [5.8769715, 52.886828], [5.8805126, 52.8888086], [5.8834989, 52.8889581], [5.8846098, 52.8894258], [5.8852239, 52.8904522], [5.8852725, 52.8932586], [5.8861191, 52.8943244], [5.89023, 52.8953508], [5.8937212, 52.8953299], [5.8964968, 52.8959165], [5.8992608, 52.8956598], [5.9016059, 52.8970691], [5.9046008, 52.8967257], [5.9113427, 52.8978814], [5.9264366, 52.9044168], [5.9278378, 52.9055002], [5.9298461, 52.906515], [5.9329444, 52.9072622], [5.937847, 52.9117404], [5.9333267, 52.9150547], [5.9130456, 52.9405049], [5.9142485, 52.9424087], [5.9141811, 52.9429222], [5.9048857, 52.9541639], [5.9051233, 52.9553231], [5.9057111, 52.9555151], [5.9045741, 52.9563961], [5.9023051, 52.957369], [5.8990083, 52.9614988], [5.8974098, 52.9630829], [5.8967228, 52.9628986], [5.8966814, 52.962474], [5.8956335, 52.9621475], [5.8947679, 52.9631792], [5.8916289, 52.9622789], [5.8920187, 52.9620335], [5.8910268, 52.9616969], [5.8884799, 52.9650897], [5.8861541, 52.9657109], [5.8859881, 52.9661113], [5.8880767, 52.9664571], [5.8875708, 52.9670102], [5.8868397, 52.9670492], [5.8709706, 52.9644416], [5.8692388, 52.9687405], [5.8684745, 52.9735292], [5.8672152, 52.9786217], [5.8727168, 52.9791273], [5.8865399, 52.9813685], [5.8872674, 52.9815151], [5.8871576, 52.9820468], [5.8865393, 52.9834115], [5.8852858, 52.9848312], [5.8693983, 52.9968264], [5.8661269, 52.9997965], [5.8576031, 53.0170083], [5.8559758, 53.0180852], [5.8487301, 53.0243003], [5.8447717, 53.0260713], [5.8385524, 53.0299859], [5.836009, 53.0309737], [5.8350338, 53.0318912], [5.824058, 53.038117], [5.8188877, 53.0403425], [5.8088595, 53.0437513], [5.8002727, 53.0479084], [5.797947, 53.0498087], [5.7958179, 53.053016], [5.7957505, 53.0534578], [5.7964583, 53.0537372], [5.7955079, 53.0548661], [5.7987487, 53.0561953], [5.7963861, 53.0588393], [5.7883703, 53.0546888], [5.788567, 53.0545973], [5.7739125, 53.0459217], [5.7698468, 53.0458492], [5.7704985, 53.0462492], [5.770459, 53.0467551], [5.7709887, 53.0469162], [5.7706965, 53.047443], [5.7692546, 53.0472211], [5.7691971, 53.0469323], [5.7686137, 53.0466691], [5.7672302, 53.0472989], [5.7674801, 53.0464477], [5.7554322, 53.0468381], [5.7367047, 53.0301519], [5.7361577, 53.028827], [5.7359637, 53.0259173], [5.7332717, 53.0156413], [5.7332414, 53.0154381], [5.7374211, 53.0132107], [5.748066, 53.0084614], [5.7487645, 53.0080449], [5.7488245, 53.0075836], [5.7421826, 53.0053514], [5.7414999, 53.0042978], [5.741894, 53.0032992], [5.7425291, 53.0026323], [5.7422582, 53.0023006], [5.7394348, 53.0013025], [5.7374808, 53.0009848], [5.7306161, 53.0012743], [5.7228831, 52.9989455], [5.7218722, 52.9975821], [5.7189702, 52.9967293], [5.716858, 52.9956773], [5.7137041, 52.992602], [5.7133401, 52.9907927], [5.712693, 52.9898544], [5.7072696, 52.9866782], [5.7071635, 52.9863349], [5.7077768, 52.9851088], [5.7065418, 52.9844753], [5.7051745, 52.9842432], [5.6992083, 52.9855042], [5.6961201, 52.9865398], [5.6914319, 52.9886462], [5.6892524, 52.9867027], [5.6884893, 52.9855839], [5.6875995, 52.9833445], [5.6875203, 52.9810021], [5.6903228, 52.9741934], [5.6909405, 52.9650879], [5.6881915, 52.9376332], [5.6882716, 52.935361], [5.689326, 52.9329666], [5.6833404, 52.9338811], [5.6788202, 52.9329481], [5.6424551, 52.9361673], [5.6413826, 52.9329557], [5.6399783, 52.9224695], [5.5942598, 52.9154116], [5.588935, 52.9216952], [5.5882611, 52.9229915], [5.5860339, 52.9252115], [5.584293, 52.9278139], [5.5829369, 52.9289743], [5.581279, 52.9309895], [5.5802721, 52.9327108], [5.5805314, 52.9340461], [5.5788998, 52.9339424], [5.5775636, 52.9352589], [5.5772582, 52.9352053], [5.5750059, 52.9381055], [5.5728175, 52.9422472], [5.5703862, 52.9438766], [5.5690215, 52.9455349], [5.5647786, 52.9474813], [5.5155067, 52.928678], [5.5112165, 52.9266456], [5.507604, 52.9243885], [5.4779845, 52.9030469], [5.4771886, 52.9027402], [5.4769655, 52.9022366], [5.4887743, 52.8927899], [5.4938448, 52.8898358], [5.4924048, 52.8887638], [5.4897125, 52.88603], [5.4947047, 52.8827726], [5.5018225, 52.8802118], [5.4959028, 52.8760545], [5.4955172, 52.8738157], [5.4923476, 52.8727469], [5.4901715, 52.8714323], [5.487487, 52.8733985], [5.4851375, 52.87163], [5.4770997, 52.868764], [5.4761783, 52.8690173], [5.4736581, 52.8712414], [5.4723405, 52.8730345], [5.468689, 52.8717941], [5.4677184, 52.8725634], [5.4650139, 52.8715369], [5.4650528, 52.8712945], [5.4578046, 52.8721213], [5.4573198, 52.8721274], [5.4574371, 52.8716766], [5.4504574, 52.8723498], [5.4436516, 52.8737207], [5.4328089, 52.8746522], [5.4261018, 52.8732941], [5.4324138, 52.8698704], [5.4333516, 52.8701087], [5.4380874, 52.8602385], [5.4372917, 52.8600886], [5.4374154, 52.8597487], [5.4413401, 52.8500725], [5.3378417, 52.7959551]]]}, "properties": {"name": "De Fryske Marren", "admin": "gemeente", "source": "© OpenStreetMap contributors, ODbL 1.0", "osm_relation": 3410689}}]}