{"type":"FeatureCollection","features":[{"type":"Feature","properties":{"name":"Oni","admin":"munitsipaliteti","source":"© OpenStreetMap contributors, ODbL 1.0","osm_relation":1997288},"geometry":{"type":"Polygon","coordinates":[[[43.23767,42.55411],[43.24192,42.55038],[43.24251,42.54881],[43.24489,42.54274],[43.24441,42.53933],[43.24402,42.53295],[43.24482,42.52467],[43.25901,42.52106],[43.27178,42.51636],[43.28629,42.51148],[43.29101,42.50666],[43.29436,42.4999],[43.29536,42.49482],[43.29583,42.48802],[43.29568,42.48292],[43.3019,42.46557],[43.30345,42.46113],[43.31806,42.46112],[43.34455,42.45961],[43.36235,42.45965],[43.37647,42.45773],[43.38422,42.45805],[43.39487,42.45692],[43.40242,42.45363],[43.40798,42.44924],[43.41322,42.44655],[43.41864,42.44769],[43.42546,42.45076],[43.43006,42.45039],[43.44126,42.45012],[43.44847,42.44894],[43.46206,42.44487],[43.47387,42.44312],[43.48718,42.43883],[43.49117,42.43995],[43.49824,42.4445],[43.50327,42.4501],[43.50405,42.45351],[43.50968,42.45826],[43.51564,42.45874],[43.51759,42.45759],[43.52038,42.45926],[43.5223,42.46116],[43.52543,42.46033],[43.52802,42.45871],[43.53048,42.45735],[43.53297,42.45511],[43.53422,42.45376],[43.53218,42.45194],[43.53157,42.45011],[43.52974,42.44867],[43.52986,42.44714],[43.52986,42.44504],[43.53097,42.44362],[43.53245,42.44249],[43.53446,42.44185],[43.53553,42.44059],[43.53603,42.44],[43.53782,42.44055],[43.54002,42.44082],[43.54112,42.44174],[43.54117,42.44176],[43.54334,42.44258],[43.54471,42.44157],[43.54692,42.4413],[43.54978,42.44072],[43.55177,42.43929],[43.55527,42.43808],[43.55701,42.43676],[43.56345,42.43873],[43.5749,42.4369],[43.57755,42.43645],[43.57969,42.43577],[43.58186,42.4357],[43.58307,42.43577],[43.58402,42.43586],[43.58651,42.43634],[43.58754,42.43639],[43.58822,42.43656],[43.58944,42.43708],[43.58972,42.43843],[43.58955,42.43924],[43.58852,42.44024],[43.58825,42.44116],[43.58832,42.44379],[43.58755,42.44555],[43.58741,42.44702],[43.58774,42.44852],[43.58788,42.44937],[43.58791,42.45096],[43.58755,42.4525],[43.58662,42.45398],[43.58753,42.45623],[43.58752,42.45718],[43.58722,42.45796],[43.58746,42.45959],[43.58691,42.46123],[43.58585,42.46278],[43.58555,42.46415],[43.58529,42.46585],[43.58469,42.46821],[43.58477,42.46975],[43.58499,42.46994],[43.58589,42.47013],[43.58841,42.46998],[43.59171,42.47049],[43.59398,42.47127],[43.59563,42.47359],[43.59733,42.47643],[43.5982,42.47718],[43.59872,42.47754],[43.59921,42.47847],[43.5999,42.48001],[43.60231,42.48288],[43.60279,42.48392],[43.60274,42.48477],[43.60268,42.48583],[43.60249,42.48623],[43.60256,42.4872],[43.60316,42.4888],[43.6034,42.48953],[43.60335,42.4904],[43.60327,42.49138],[43.60284,42.49236],[43.60276,42.49306],[43.60269,42.494],[43.60185,42.49494],[43.60192,42.49531],[43.60183,42.4966],[43.60146,42.49762],[43.60228,42.49965],[43.60227,42.49997],[43.60226,42.50029],[43.60231,42.50343],[43.60233,42.50501],[43.60118,42.50705],[43.59994,42.50846],[43.60064,42.50972],[43.60361,42.51171],[43.60556,42.5128],[43.60737,42.5145],[43.60695,42.51561],[43.60739,42.5183],[43.60662,42.51909],[43.60547,42.51991],[43.60473,42.52085],[43.60444,42.52159],[43.6041,42.52245],[43.60289,42.52385],[43.60354,42.52509],[43.60348,42.52639],[43.60389,42.52722],[43.60769,42.52917],[43.60932,42.53094],[43.61042,42.53187],[43.61295,42.5355],[43.61582,42.53896],[43.61538,42.54028],[43.61489,42.54094],[43.61216,42.54105],[43.61125,42.5419],[43.61046,42.54262],[43.60921,42.54333],[43.60826,42.54404],[43.60705,42.54452],[43.6048,42.54555],[43.60101,42.54589],[43.59961,42.54571],[43.59821,42.54567],[43.59594,42.54604],[43.59482,42.54651],[43.59352,42.54698],[43.593,42.54752],[43.59244,42.54853],[43.59186,42.54929],[43.59193,42.54986],[43.59243,42.55058],[43.59277,42.55152],[43.59265,42.55288],[43.59316,42.55467],[43.59312,42.55581],[43.59375,42.55739],[43.5944,42.56111],[43.59446,42.56244],[43.59479,42.564],[43.59548,42.56515],[43.59618,42.5656],[43.59759,42.56636],[43.59861,42.56686],[43.59993,42.56721],[43.60263,42.56765],[43.60445,42.56809],[43.60524,42.56857],[43.60496,42.56875],[43.60421,42.5692],[43.60232,42.56962],[43.60178,42.56977],[43.59965,42.5704],[43.59718,42.57106],[43.59595,42.57129],[43.59535,42.57139],[43.5947,42.57154],[43.59375,42.57173],[43.59163,42.57206],[43.58924,42.5721],[43.5867,42.57313],[43.58517,42.57429],[43.58255,42.57561],[43.58076,42.57616],[43.58092,42.57786],[43.5809,42.57842],[43.58076,42.5797],[43.58095,42.58104],[43.58229,42.58206],[43.5826,42.5823],[43.58433,42.58346],[43.58492,42.58386],[43.58699,42.58528],[43.58876,42.58646],[43.59015,42.58811],[43.5927,42.59052],[43.59451,42.59171],[43.59529,42.5934],[43.59782,42.59554],[43.60059,42.59841],[43.60254,42.60034],[43.60431,42.6017],[43.60688,42.60348],[43.60904,42.60457],[43.60999,42.60539],[43.61097,42.6068],[43.612,42.60815],[43.61252,42.6094],[43.61709,42.6111],[43.61947,42.61134],[43.62472,42.61177],[43.62602,42.61335],[43.62816,42.61516],[43.62979,42.61687],[43.63191,42.61731],[43.6325,42.61818],[43.63322,42.61901],[43.63518,42.62071],[43.63646,42.62208],[43.63693,42.62326],[43.6372,42.62426],[43.63694,42.62563],[43.6368,42.6265],[43.63694,42.62756],[43.63781,42.63004],[43.63809,42.6312],[43.64054,42.63283],[43.64266,42.63501],[43.64502,42.63676],[43.64557,42.63788],[43.64608,42.63859],[43.64901,42.63935],[43.65072,42.63941],[43.65142,42.64004],[43.65284,42.64081],[43.65413,42.64184],[43.6557,42.6422],[43.6575,42.64279],[43.65983,42.6426],[43.66141,42.64255],[43.664,42.64335],[43.6658,42.64331],[43.66925,42.64265],[43.6709,42.64196],[43.67242,42.64179],[43.67353,42.64175],[43.6757,42.64168],[43.67678,42.64152],[43.67859,42.64101],[43.67964,42.64083],[43.68126,42.64105],[43.68191,42.64107],[43.68232,42.64121],[43.68324,42.64119],[43.68415,42.64138],[43.68511,42.64154],[43.68565,42.64189],[43.68665,42.64213],[43.68784,42.64224],[43.68887,42.6426],[43.69013,42.64338],[43.69052,42.64397],[43.69139,42.6444],[43.69201,42.64505],[43.69249,42.64625],[43.69334,42.64703],[43.69424,42.6472],[43.69612,42.64704],[43.69737,42.64655],[43.69811,42.64608],[43.6993,42.64506],[43.70046,42.64381],[43.7007,42.64478],[43.70076,42.64584],[43.70087,42.64764],[43.70242,42.65018],[43.70354,42.65119],[43.70459,42.65286],[43.70524,42.65424],[43.70628,42.65685],[43.70643,42.6587],[43.70665,42.65967],[43.70812,42.66034],[43.70914,42.66192],[43.71195,42.66364],[43.71379,42.66501],[43.71559,42.66658],[43.71726,42.66946],[43.71828,42.67126],[43.7188,42.67197],[43.71699,42.67378],[43.71601,42.67488],[43.71295,42.67626],[43.71116,42.67801],[43.7107,42.68083],[43.71115,42.68219],[43.71188,42.68296],[43.71247,42.68354],[43.71353,42.68372],[43.71393,42.68353],[43.71444,42.68373],[43.71445,42.68444],[43.71494,42.68463],[43.71542,42.68419],[43.71677,42.68462],[43.71801,42.68449],[43.71938,42.6833],[43.72022,42.68263],[43.7212,42.68241],[43.7223,42.68236],[43.72336,42.68278],[43.72411,42.68254],[43.7264,42.6831],[43.72756,42.68332],[43.72969,42.68297],[43.73064,42.6831],[43.73157,42.68283],[43.73328,42.68317],[43.7352,42.68374],[43.7363,42.68353],[43.73891,42.68247],[43.74092,42.68246],[43.74404,42.6825],[43.74623,42.68355],[43.74648,42.68367],[43.74695,42.68444],[43.74805,42.68458],[43.7493,42.68502],[43.74989,42.68536],[43.75041,42.68592],[43.75164,42.6862],[43.75507,42.68831],[43.75562,42.68883],[43.75711,42.68936],[43.75778,42.68989],[43.75864,42.69102],[43.75983,42.69145],[43.76077,42.69228],[43.76228,42.69277],[43.7637,42.69326],[43.76391,42.69467],[43.76453,42.69562],[43.76571,42.69681],[43.76625,42.6977],[43.76853,42.69934],[43.76891,42.70026],[43.77006,42.7013],[43.7709,42.70134],[43.77146,42.7018],[43.77215,42.70196],[43.77387,42.70186],[43.77449,42.70212],[43.77556,42.70221],[43.77651,42.70258],[43.77748,42.70295],[43.77783,42.70353],[43.77825,42.70402],[43.77844,42.70422],[43.77881,42.70435],[43.77907,42.70459],[43.77942,42.7051],[43.7795,42.70523],[43.77957,42.70534],[43.77945,42.7055],[43.77942,42.70568],[43.7793,42.70579],[43.77939,42.70628],[43.77924,42.70653],[43.77949,42.70746],[43.77998,42.70794],[43.78001,42.70822],[43.78062,42.70854],[43.781,42.70882],[43.78177,42.7088],[43.78248,42.70903],[43.78268,42.70928],[43.78259,42.70947],[43.78272,42.70992],[43.78285,42.7104],[43.78291,42.71064],[43.78329,42.71116],[43.78365,42.71164],[43.78477,42.71242],[43.78475,42.71274],[43.78512,42.71309],[43.78544,42.7132],[43.78582,42.71325],[43.78601,42.71328],[43.78608,42.71342],[43.78613,42.71352],[43.78612,42.71384],[43.78595,42.71411],[43.78593,42.71434],[43.78609,42.7145],[43.78628,42.71462],[43.78634,42.71505],[43.786,42.71551],[43.78605,42.7158],[43.78601,42.71603],[43.78601,42.71618],[43.78606,42.71639],[43.78602,42.71659],[43.78594,42.71668],[43.78595,42.71679],[43.78595,42.71689],[43.78606,42.71711],[43.78602,42.7172],[43.78612,42.71748],[43.78644,42.71777],[43.78645,42.71806],[43.78652,42.71827],[43.78678,42.71849],[43.78693,42.71863],[43.78704,42.71885],[43.78722,42.71898],[43.78744,42.7191],[43.7875,42.71936],[43.7876,42.71959],[43.7878,42.71981],[43.78802,42.72009],[43.78833,42.72037],[43.78856,42.72052],[43.78908,42.72073],[43.78933,42.72115],[43.78992,42.72175],[43.79009,42.72191],[43.79012,42.72204],[43.79027,42.72223],[43.79035,42.72244],[43.79072,42.72276],[43.79069,42.72327],[43.79062,42.72381],[43.79058,42.72423],[43.7907,42.72468],[43.79091,42.72545],[43.79099,42.72584],[43.7912,42.72619],[43.79143,42.72661],[43.79251,42.7281],[43.79283,42.72904],[43.79389,42.73041],[43.79439,42.73223],[43.7942,42.73289],[43.79409,42.73371],[43.7941,42.73435],[43.7944,42.73496],[43.7947,42.73542],[43.79562,42.73668],[43.79587,42.73779],[43.79578,42.73863],[43.79575,42.73945],[43.79571,42.74021],[43.79562,42.74111],[43.79535,42.74189],[43.79508,42.74264],[43.79468,42.74328],[43.79417,42.74404],[43.79367,42.74473],[43.79323,42.74501],[43.79279,42.7454],[43.79252,42.74638],[43.79153,42.74716],[43.7903,42.74892],[43.78986,42.74944],[43.78919,42.75035],[43.78821,42.75106],[43.78553,42.75201],[43.7825,42.75209],[43.78115,42.75286],[43.77953,42.75459],[43.77906,42.75647],[43.77832,42.75826],[43.77777,42.75841],[43.77762,42.75837],[43.77745,42.75829],[43.77724,42.75821],[43.7771,42.75812],[43.77687,42.7581],[43.77651,42.75825],[43.77602,42.75869],[43.77362,42.75979],[43.77105,42.76068],[43.76938,42.75989],[43.76789,42.76036],[43.76606,42.76039],[43.76522,42.76027],[43.76321,42.76006],[43.76229,42.7603],[43.76181,42.76171],[43.76268,42.76255],[43.762,42.76335],[43.7606,42.76427],[43.75976,42.76448],[43.75952,42.76455],[43.7546,42.76623],[43.75259,42.76612],[43.75225,42.76601],[43.75143,42.76601],[43.75079,42.76637],[43.75019,42.76662],[43.7495,42.76661],[43.74895,42.7664],[43.74844,42.76642],[43.74808,42.76623],[43.74769,42.76622],[43.74734,42.7662],[43.74696,42.76626],[43.74493,42.76598],[43.74334,42.76574],[43.74193,42.76672],[43.74131,42.76746],[43.74086,42.76838],[43.74017,42.76849],[43.73816,42.76924],[43.73608,42.76947],[43.72862,42.7701],[43.72322,42.77137],[43.71966,42.77258],[43.71782,42.7732],[43.71449,42.775],[43.71239,42.77553],[43.71109,42.77584],[43.70935,42.77615],[43.70818,42.77744],[43.70696,42.77771],[43.70417,42.77923],[43.70271,42.78061],[43.69829,42.78214],[43.6987,42.78337],[43.69816,42.7842],[43.69655,42.78457],[43.69584,42.78515],[43.69488,42.78507],[43.69456,42.78516],[43.69417,42.78533],[43.69373,42.7857],[43.69262,42.78585],[43.69206,42.78585],[43.69149,42.78606],[43.69078,42.78617],[43.68977,42.78682],[43.68963,42.78821],[43.68962,42.78831],[43.68931,42.79092],[43.68999,42.79199],[43.69049,42.79262],[43.69073,42.79328],[43.69092,42.79379],[43.69152,42.79459],[43.69138,42.79531],[43.69091,42.79669],[43.69027,42.79776],[43.68926,42.79975],[43.68724,42.8008],[43.68623,42.80047],[43.68532,42.80066],[43.68487,42.80187],[43.68227,42.80228],[43.67948,42.80218],[43.67749,42.80194],[43.67739,42.80143],[43.6771,42.80109],[43.67653,42.80096],[43.67581,42.80111],[43.67509,42.80048],[43.67413,42.80013],[43.67278,42.79875],[43.67207,42.79863],[43.67141,42.79825],[43.67058,42.79833],[43.66944,42.79782],[43.66844,42.79826],[43.6677,42.79808],[43.66462,42.79723],[43.66163,42.79727],[43.65855,42.7968],[43.65562,42.79579],[43.65387,42.79531],[43.65231,42.79517],[43.6509,42.79568],[43.64578,42.79716],[43.64502,42.79741],[43.64437,42.79773],[43.64346,42.79914],[43.64428,42.80199],[43.64377,42.80278],[43.64133,42.80423],[43.63919,42.80648],[43.63956,42.80889],[43.6391,42.80934],[43.63829,42.81108],[43.63831,42.81248],[43.63712,42.81278],[43.63641,42.81308],[43.63147,42.81292],[43.62947,42.81312],[43.62788,42.8131],[43.62714,42.81227],[43.6261,42.81213],[43.62551,42.8119],[43.6247,42.81226],[43.62372,42.81275],[43.62154,42.81104],[43.62074,42.81111],[43.61912,42.81204],[43.61871,42.8124],[43.61784,42.81264],[43.61691,42.8129],[43.61321,42.81315],[43.61062,42.81326],[43.60891,42.81368],[43.60879,42.81406],[43.60837,42.81533],[43.60829,42.81892],[43.60921,42.82231],[43.61045,42.82519],[43.61105,42.82775],[43.61127,42.82873],[43.61134,42.82976],[43.6116,42.83152],[43.61089,42.83225],[43.61107,42.83298],[43.61065,42.83393],[43.60873,42.83335],[43.60803,42.8344],[43.60561,42.83449],[43.60545,42.83566],[43.60511,42.83652],[43.6047,42.83796],[43.60186,42.83875],[43.59994,42.83982],[43.59761,42.84134],[43.5964,42.84184],[43.59177,42.84362],[43.59005,42.84455],[43.58913,42.84571],[43.58929,42.84726],[43.58906,42.8488],[43.58731,42.85103],[43.58547,42.85254],[43.5831,42.85376],[43.58299,42.85405],[43.58074,42.8547],[43.57638,42.8578],[43.57393,42.85997],[43.57357,42.86091],[43.57217,42.86282],[43.57156,42.86318],[43.57017,42.86316],[43.56727,42.8632],[43.56517,42.86354],[43.56364,42.86454],[43.56281,42.86608],[43.56105,42.86771],[43.55869,42.86727],[43.55492,42.86612],[43.55075,42.86534],[43.54805,42.86523],[43.54236,42.86545],[43.54026,42.86557],[43.53655,42.86619],[43.53265,42.86643],[43.53166,42.86598],[43.52877,42.86608],[43.52547,42.86604],[43.52289,42.86557],[43.51978,42.86597],[43.51477,42.86679],[43.51001,42.86818],[43.50946,42.86839],[43.50707,42.86947],[43.50584,42.86925],[43.50459,42.86897],[43.50244,42.87011],[43.49922,42.87021],[43.49801,42.87053],[43.49749,42.87106],[43.49685,42.87191],[43.49547,42.87312],[43.49438,42.8738],[43.49219,42.87459],[43.49183,42.87473],[43.48843,42.8753],[43.48683,42.87527],[43.48659,42.8759],[43.48692,42.8771],[43.48776,42.87761],[43.48681,42.8787],[43.48559,42.8801],[43.48283,42.88172],[43.48278,42.88223],[43.48248,42.88236],[43.48228,42.88244],[43.47964,42.88472],[43.47821,42.88579],[43.47794,42.88644],[43.47756,42.8906],[43.47616,42.89035],[43.47464,42.89039],[43.47288,42.89011],[43.47007,42.88927],[43.46383,42.88805],[43.46307,42.88791],[43.46187,42.88725],[43.46051,42.88703],[43.4588,42.88753],[43.45705,42.88985],[43.45461,42.89136],[43.45209,42.89221],[43.44968,42.89276],[43.44707,42.89339],[43.44247,42.89369],[43.43779,42.89319],[43.4354,42.89294],[43.43091,42.89265],[43.42722,42.89238],[43.42583,42.89222],[43.42163,42.89238],[43.41843,42.89241],[43.41516,42.89156],[43.41366,42.89161],[43.40946,42.89257],[43.4091,42.89244],[43.4069,42.89178],[43.40615,42.89337],[43.40515,42.89376],[43.40438,42.89471],[43.40283,42.89517],[43.40225,42.89539],[43.40196,42.89564],[43.40075,42.89624],[43.39985,42.89646],[43.39849,42.89692],[43.39784,42.89712],[43.39448,42.89778],[43.39275,42.89833],[43.39018,42.89935],[43.3882,42.89904],[43.38551,42.89863],[43.38295,42.89727],[43.38137,42.89652],[43.3772,42.8955],[43.37382,42.89494],[43.37006,42.89357],[43.36867,42.89318],[43.36642,42.8916],[43.36504,42.8907],[43.36196,42.89029],[43.35688,42.88978],[43.35488,42.88982],[43.35317,42.89024],[43.35237,42.89086],[43.35015,42.89226],[43.34876,42.8921],[43.34496,42.891],[43.34299,42.89002],[43.34001,42.88954],[43.33615,42.89],[43.3348,42.89012],[43.33345,42.89113],[43.33317,42.89062],[43.3325,42.88961],[43.33156,42.88884],[43.33105,42.8878],[43.33026,42.88655],[43.32958,42.88491],[43.32929,42.88451],[43.32894,42.88401],[43.32853,42.88354],[43.32682,42.88254],[43.32433,42.8809],[43.32209,42.88011],[43.32171,42.87923],[43.32059,42.8776],[43.32004,42.87562],[43.31956,42.87507],[43.31956,42.87364],[43.31918,42.87166],[43.31778,42.87022],[43.3171,42.86977],[43.31613,42.8682],[43.31584,42.86692],[43.31675,42.86676],[43.3189,42.86554],[43.31982,42.86272],[43.32092,42.86208],[43.32252,42.86176],[43.32358,42.86058],[43.32358,42.85943],[43.3242,42.85846],[43.32474,42.85736],[43.3257,42.85566],[43.32656,42.85377],[43.32703,42.85217],[43.32853,42.85094],[43.3308,42.85029],[43.33096,42.85025],[43.33134,42.84937],[43.33135,42.84932],[43.33156,42.84797],[43.33053,42.84683],[43.32935,42.84584],[43.32798,42.84487],[43.3272,42.84408],[43.32615,42.84267],[43.32463,42.84117],[43.32364,42.84084],[43.32128,42.84013],[43.31937,42.83925],[43.31742,42.83829],[43.31659,42.83799],[43.31536,42.8365],[43.31386,42.83533],[43.31231,42.83349],[43.31072,42.83176],[43.30952,42.83042],[43.30995,42.82902],[43.31031,42.82737],[43.31043,42.82685],[43.31184,42.82624],[43.31277,42.82563],[43.31401,42.82489],[43.31561,42.82396],[43.31723,42.82334],[43.31979,42.82271],[43.32144,42.82222],[43.32287,42.82221],[43.3252,42.8218],[43.32649,42.82131],[43.327,42.8201],[43.32801,42.81866],[43.32833,42.81719],[43.32908,42.81634],[43.32986,42.8152],[43.33052,42.81393],[43.33125,42.81279],[43.33225,42.81183],[43.33314,42.81127],[43.3342,42.81043],[43.33482,42.80958],[43.3354,42.80892],[43.33618,42.80793],[43.33667,42.80722],[43.33758,42.80615],[43.33802,42.80518],[43.33848,42.8044],[43.33929,42.80347],[43.33982,42.80227],[43.34006,42.80163],[43.33993,42.80054],[43.33974,42.79943],[43.33946,42.79831],[43.33901,42.79731],[43.33846,42.79682],[43.33766,42.7963],[43.33726,42.79587],[43.33652,42.79526],[43.3358,42.79423],[43.33531,42.79358],[43.33565,42.79282],[43.33604,42.79199],[43.33607,42.79088],[43.33607,42.7897],[43.33641,42.7889],[43.33659,42.78795],[43.33661,42.7874],[43.3359,42.78695],[43.33512,42.7865],[43.33451,42.78582],[43.33307,42.78471],[43.3319,42.78368],[43.33129,42.78302],[43.33108,42.78086],[43.32986,42.78118],[43.32981,42.7811],[43.32967,42.78015],[43.32925,42.7794],[43.32908,42.77878],[43.32863,42.77819],[43.32818,42.77744],[43.32691,42.77685],[43.32529,42.77618],[43.32434,42.7754],[43.32395,42.77465],[43.32316,42.77379],[43.32202,42.77273],[43.32074,42.77151],[43.32074,42.77044],[43.32138,42.76987],[43.32213,42.76891],[43.32271,42.76811],[43.32306,42.76705],[43.32308,42.76486],[43.32249,42.76358],[43.3216,42.76273],[43.32091,42.76161],[43.32031,42.76049],[43.32051,42.75915],[43.32037,42.75848],[43.3193,42.75719],[43.3184,42.75586],[43.31736,42.75471],[43.31609,42.753],[43.31581,42.75191],[43.31605,42.75099],[43.31672,42.74954],[43.31719,42.74846],[43.31749,42.74773],[43.31808,42.74686],[43.31829,42.74591],[43.31849,42.74429],[43.3189,42.74307],[43.31918,42.74206],[43.31968,42.74077],[43.3202,42.74039],[43.32106,42.73982],[43.32173,42.73925],[43.32219,42.73864],[43.32206,42.73771],[43.32196,42.73674],[43.32192,42.73579],[43.32151,42.73465],[43.32092,42.73348],[43.32064,42.73218],[43.32058,42.73105],[43.3205,42.72933],[43.32126,42.72784],[43.32192,42.7266],[43.32271,42.7252],[43.32352,42.72406],[43.32476,42.72241],[43.3256,42.72154],[43.32641,42.72072],[43.32752,42.72021],[43.32904,42.71965],[43.33024,42.71928],[43.33142,42.71872],[43.33235,42.71794],[43.33324,42.71731],[43.33412,42.71627],[43.33505,42.71563],[43.33558,42.71484],[43.33648,42.7138],[43.33734,42.71295],[43.33799,42.71225],[43.33876,42.71171],[43.33936,42.71085],[43.34018,42.71006],[43.34091,42.70921],[43.34072,42.7085],[43.34012,42.70775],[43.33981,42.70679],[43.34001,42.70565],[43.33998,42.70491],[43.34031,42.70371],[43.34076,42.70261],[43.34159,42.70114],[43.34188,42.69999],[43.3422,42.69861],[43.34315,42.69762],[43.34393,42.69642],[43.34417,42.69513],[43.34396,42.69393],[43.34349,42.6925],[43.34279,42.69099],[43.34272,42.68997],[43.34282,42.68973],[43.34281,42.68955],[43.34275,42.68936],[43.34268,42.68908],[43.34266,42.68876],[43.34269,42.68852],[43.34288,42.68804],[43.34346,42.68729],[43.34372,42.68697],[43.34433,42.68631],[43.34484,42.68576],[43.34534,42.68511],[43.34557,42.68476],[43.34578,42.68444],[43.34584,42.68423],[43.34585,42.68381],[43.3459,42.68371],[43.34598,42.68364],[43.34609,42.68359],[43.34682,42.68337],[43.34722,42.68323],[43.34758,42.68297],[43.34789,42.68254],[43.34878,42.68076],[43.34969,42.67942],[43.3503,42.67841],[43.35105,42.677],[43.35127,42.67656],[43.35141,42.67598],[43.35133,42.67557],[43.3511,42.675],[43.35059,42.67394],[43.35029,42.6734],[43.35018,42.67324],[43.35008,42.67296],[43.35009,42.67266],[43.35024,42.67227],[43.35058,42.67174],[43.35238,42.67111],[43.35498,42.66407],[43.35777,42.65646],[43.35996,42.6499],[43.35654,42.64878],[43.34464,42.65223],[43.33687,42.65169],[43.33256,42.65163],[43.32688,42.64857],[43.32263,42.64574],[43.31898,42.64229],[43.31185,42.63984],[43.30676,42.63637],[43.29877,42.6337],[43.29399,42.62959],[43.28689,42.62608],[43.28357,42.62093],[43.27914,42.6147],[43.27439,42.60952],[43.27141,42.60289],[43.26665,42.59814],[43.25913,42.58909],[43.25358,42.58178],[43.24772,42.5751],[43.24225,42.56524],[43.24041,42.55904],[43.23767,42.55411]]]}}]}