{"type":"FeatureCollection","features":[{"type":"Feature","properties":{"name":"Sermersooq","admin":"kommunia","source":"© OpenStreetMap contributors, ODbL 1.0","osm_relation":8515166},"geometry":{"type":"Polygon","coordinates":[[[-52.79009,64.37012],[-52.64074,63.96965],[-52.63826,63.96351],[-52.63535,63.9574],[-52.632,63.95134],[-52.62822,63.94533],[-52.62402,63.93937],[-52.6194,63.93347],[-52.61437,63.92763],[-52.60892,63.92187],[-52.60068,63.91352],[-52.5946,63.90762],[-52.58808,63.90181],[-52.58115,63.89609],[-52.5738,63.89048],[-52.5,63.83684],[-51.77675,63.30574],[-51.5802,63.06716],[-51.57736,63.06391],[-51.57445,63.06074],[-51.57124,63.05738],[-51.56553,63.05167],[-51.55989,63.04644],[-51.55367,63.04109],[-51.5471,63.03583],[-51.54019,63.03066],[-51.53293,63.02559],[-51.52535,63.02062],[-51.51743,63.01576],[-51.35885,62.92149],[-50.94682,62.61486],[-50.75666,62.39703],[-50.75261,62.39252],[-50.75049,62.39027],[-50.74609,62.38583],[-50.7438,62.38363],[-50.73905,62.37926],[-50.6501,62.30009],[-50.19486,61.84737],[-50.19102,61.84359],[-49.99368,61.65784],[-49.74827,61.43176],[-49.74449,61.42833],[-49.74057,61.42494],[-49.73652,61.42158],[-49.73233,61.41827],[-49.72801,61.41499],[-49.72356,61.41175],[-49.71898,61.40855],[-49.71428,61.4054],[-49.31079,61.14135],[-49.03148,60.85019],[-48.37618,60.92911],[-48.0229,60.96009],[-47.98504,60.9649],[-47.95771,60.97076],[-47.94251,60.9784],[-47.93345,60.98361],[-47.93315,60.99012],[-47.92937,60.99625],[-47.89392,61.00697],[-47.88525,61.00878],[-47.86622,61.01365],[-47.86236,61.0142],[-47.85667,61.01697],[-47.85723,61.01763],[-47.86097,61.01837],[-47.86361,61.01876],[-47.86498,61.01938],[-47.86523,61.02212],[-47.86423,61.02373],[-47.85931,61.02772],[-47.85309,61.03087],[-47.84616,61.03277],[-47.841,61.03369],[-47.83976,61.03363],[-47.83511,61.0334],[-47.82863,61.03249],[-47.80167,61.02814],[-47.72687,61.0299],[-47.70336,61.03373],[-47.68869,61.03791],[-47.6049,61.06956],[-43.99999,62.74719],[-43.50947,62.72715],[-43.208,62.75327],[-43.19525,62.75438],[-43.14782,62.75806],[-43.07326,62.70116],[-42.6758,62.65096],[-42.53186,62.6842],[-42.13447,62.57507],[-41.25332,62.5793],[-41.14836,62.78748],[-40.83011,62.99174],[-40.82354,62.99603],[-40.81722,63.00039],[-40.81115,63.00483],[-40.80534,63.00934],[-40.29223,63.42059],[-40.2856,63.42453],[-40.27693,63.43005],[-40.26868,63.4357],[-40.26086,63.44146],[-40.25348,63.44735],[-40.24654,63.45334],[-40.24006,63.45943],[-40.23403,63.46561],[-40.09517,63.61507],[-40.09147,63.61916],[-40.08798,63.62328],[-40.08468,63.62744],[-40.08159,63.63163],[-40.07872,63.63584],[-40.07605,63.64008],[-40.07359,63.64435],[-40.07134,63.64864],[-39.75514,64.28419],[-39.33905,64.84921],[-37.5,65.1926],[-36.87867,65.30762],[-36.48579,65.36946],[-36.47734,65.37087],[-36.47177,65.37174],[-36.46504,65.37292],[-36.44469,65.37678],[-36.42479,65.38102],[-36.40538,65.38565],[-36.3865,65.39064],[-36.3682,65.396],[-36.35051,65.4017],[-36.33346,65.40774],[-35.82116,65.59875],[-35.8097,65.60311],[-35.79858,65.60762],[-34.41522,66.19305],[-34.33361,66.22634],[-34.32745,66.22889],[-34.31744,66.23324],[-33.82894,66.45264],[-33.42513,66.61835],[-33.41427,66.62291],[-33.41086,66.6244],[-33.39722,66.63067],[-33.38424,66.63716],[-33.37194,66.64386],[-33.36035,66.65076],[-33.34948,66.65783],[-33.33936,66.66508],[-33.33001,66.67249],[-33.15183,66.82141],[-32.11444,67.45867],[-30.28327,67.90098],[-29.98771,67.93739],[-29.97746,67.93868],[-29.96982,67.9397],[-29.22379,68.04494],[-29.21504,68.04623],[-27.45121,68.30966],[-27.43873,68.31153],[-27.42946,68.31301],[-26.20692,68.51768],[-26.19676,68.51937],[-26.1867,68.52114],[-26.17673,68.52299],[-26.16687,68.5249],[-26.15712,68.52689],[-26.14748,68.52896],[-26.13795,68.53109],[-26.12854,68.5333],[-25.42432,68.70349],[-25.41605,68.7055],[-25.40788,68.70756],[-25.39981,68.70967],[-25.39185,68.71183],[-25.38399,68.71405],[-25.37625,68.71631],[-25.36862,68.71863],[-25.3611,68.721],[-23.69804,69.26179],[-22.92396,69.49565],[-22.85292,69.51694],[-22.84372,69.5198],[-22.83469,69.52273],[-22.82585,69.52573],[-22.81719,69.52879],[-22.80872,69.53192],[-22.80044,69.53511],[-22.79236,69.53836],[-22.78494,69.54155],[-22.5,69.64345],[-21.89575,69.85795],[-21.87467,69.86608],[-21.8549,69.8746],[-21.83649,69.88348],[-21.8195,69.89268],[-21.80848,69.89944],[-21.80533,69.90088],[-21.79424,69.90399],[-21.77625,69.90947],[-21.75894,69.91521],[-21.74231,69.92118],[-21.72642,69.92738],[-21.7227,69.92891],[-21.71127,69.9338],[-21.68353,69.94609],[-21.6778,69.9483],[-21.66397,69.9539],[-21.65075,69.95967],[-21.63814,69.96561],[-21.62618,69.9717],[-21.62021,69.97498],[-21.61072,69.97934],[-21.58028,69.9967],[-21.55509,70.01503],[-21.54091,70.02815],[-21.53666,70.03294],[-21.53542,70.03414],[-21.53382,70.03613],[-21.52973,70.03993],[-21.52565,70.04407],[-21.52227,70.0464],[-21.51408,70.05257],[-21.50942,70.05643],[-21.27064,70.22237],[-21.00564,70.40499],[-21.00115,70.4079],[-20.99288,70.41436],[-20.97983,70.42275],[-20.96754,70.43252],[-20.96506,70.43419],[-20.95868,70.43879],[-20.94484,70.44909],[-20.92782,70.46315],[-20.92675,70.46428],[-20.91426,70.47477],[-20.90194,70.48772],[-20.80118,70.61454],[-20.79653,70.62075],[-20.79248,70.62701],[-20.78904,70.6333],[-20.7862,70.63963],[-20.78398,70.64599],[-20.78237,70.65236],[-20.78138,70.65875],[-20.781,70.66515],[-20.78094,70.67106],[-20.78117,70.67733],[-20.78186,70.68277],[-20.78241,70.6857],[-20.7831,70.68862],[-20.78485,70.69445],[-21.00968,71.34452],[-21.03212,71.54752],[-21.03246,71.55006],[-21.03344,71.55514],[-21.03408,71.55767],[-21.03567,71.56274],[-21.03767,71.56779],[-21.19011,71.92025],[-21.23761,71.91966],[-21.25327,71.91936],[-21.67046,71.91123],[-21.83234,71.90869],[-22.45197,71.90824],[-22.52597,71.90938],[-22.66393,71.9115],[-22.88651,71.94284],[-23.00094,71.9264],[-23.13121,71.89376],[-23.30379,71.92485],[-23.42929,71.9239],[-23.53222,71.89067],[-23.90429,71.87078],[-24.09119,71.83333],[-24.15659,71.8377],[-24.19548,71.83962],[-24.29936,71.84487],[-24.33762,71.84899],[-24.33955,71.84897],[-24.34241,71.84762],[-24.34547,71.8457],[-24.3456,71.84538],[-24.34907,71.84374],[-24.34923,71.84318],[-24.35005,71.84241],[-24.35472,71.84027],[-24.35666,71.83878],[-24.3585,71.83813],[-24.36348,71.83781],[-24.36482,71.83741],[-24.3662,71.8361],[-24.37005,71.83475],[-24.37418,71.83264],[-24.3781,71.83096],[-24.38315,71.82778],[-24.38578,71.82713],[-24.38756,71.82542],[-24.39155,71.82361],[-24.39272,71.82257],[-24.39561,71.82098],[-24.39855,71.81828],[-24.40051,71.81734],[-24.4019,71.81709],[-24.40411,71.81629],[-24.40438,71.81568],[-24.40383,71.81525],[-24.40133,71.8147],[-24.40019,71.81425],[-24.40039,71.81381],[-24.40305,71.81281],[-24.40682,71.81209],[-24.40884,71.81149],[-24.41114,71.81137],[-24.41208,71.81149],[-24.41522,71.81234],[-24.41849,71.81378],[-24.42003,71.81406],[-24.42142,71.81454],[-24.42173,71.81498],[-24.42102,71.81542],[-24.42086,71.8159],[-24.4212,71.81619],[-24.42228,71.81644],[-24.42312,71.81685],[-24.42311,71.81762],[-24.42361,71.81805],[-24.42451,71.81812],[-24.42503,71.81759],[-24.42492,71.81705],[-24.42396,71.81615],[-24.42394,71.81554],[-24.42504,71.81556],[-24.42598,71.81606],[-24.42684,71.8171],[-24.42853,71.81827],[-24.42956,71.81866],[-24.43068,71.81866],[-24.43166,71.81819],[-24.43181,71.81765],[-24.42919,71.81549],[-24.42997,71.81437],[-24.42996,71.81382],[-24.42826,71.81349],[-24.42706,71.81296],[-24.42696,71.81231],[-24.42743,71.81154],[-24.42565,71.81102],[-24.42477,71.81036],[-24.42538,71.80969],[-24.42827,71.80868],[-24.42831,71.80843],[-24.4249,71.80787],[-24.42633,71.80714],[-24.42822,71.8065],[-24.42904,71.8056],[-24.4298,71.8049],[-24.43198,71.80424],[-24.43573,71.80432],[-24.43596,71.80463],[-24.43534,71.80534],[-24.43527,71.80643],[-24.43551,71.8066],[-24.43662,71.80662],[-24.43917,71.80608],[-24.44053,71.80547],[-24.44146,71.8047],[-24.44182,71.80337],[-24.44141,71.80231],[-24.44175,71.80188],[-24.44324,71.80104],[-24.44327,71.80079],[-24.44128,71.8005],[-24.439,71.80047],[-24.43734,71.8006],[-24.43565,71.80109],[-24.43352,71.8012],[-24.43279,71.80111],[-24.43327,71.80034],[-24.43714,71.79933],[-24.4406,71.79897],[-24.44351,71.79906],[-24.4454,71.79926],[-24.44727,71.79961],[-24.44918,71.80043],[-24.45167,71.80038],[-24.45338,71.79917],[-24.45334,71.79875],[-24.45656,71.79456],[-24.45669,71.79359],[-24.45798,71.79086],[-24.45797,71.78825],[-24.45722,71.78541],[-24.45734,71.78397],[-24.45799,71.78238],[-24.45808,71.77955],[-24.45921,71.7773],[-24.45889,71.77467],[-24.45957,71.7726],[-24.45938,71.77161],[-24.45981,71.76815],[-24.4617,71.76614],[-24.46293,71.76421],[-24.46339,71.76117],[-24.46307,71.76003],[-24.46253,71.75936],[-24.46399,71.75462],[-24.46335,71.75334],[-24.46298,71.75317],[-24.46257,71.75156],[-24.46489,71.74902],[-24.46536,71.74792],[-24.46547,71.74551],[-24.46651,71.74435],[-24.46903,71.74291],[-24.46907,71.74235],[-24.47941,71.73907],[-24.46903,71.73794],[-24.45898,71.73741],[-24.45678,71.73709],[-24.45408,71.73643],[-24.44991,71.73439],[-24.44818,71.7327],[-24.45704,71.72921],[-24.44827,71.72833],[-24.44957,71.72589],[-24.45012,71.7259],[-24.45107,71.72496],[-24.45242,71.72233],[-24.45468,71.72083],[-24.45522,71.71976],[-24.45791,71.71738],[-24.46132,71.71645],[-24.46495,71.7162],[-24.4914,71.71712],[-24.49639,71.7176],[-24.50085,71.71913],[-24.50161,71.71541],[-24.50142,71.71486],[-24.50064,71.71407],[-24.50076,71.71336],[-24.50129,71.71278],[-24.50299,71.71191],[-24.50383,71.71047],[-24.50368,71.70872],[-24.50397,71.7085],[-24.50725,71.70737],[-24.50886,71.70709],[-24.51198,71.70676],[-24.51275,71.70654],[-24.51578,71.7063],[-24.52333,71.70618],[-24.5299,71.70591],[-24.52737,71.70542],[-24.5248,71.70518],[-24.51963,71.705],[-24.5166,71.70502],[-24.51177,71.70524],[-24.50715,71.70518],[-24.50566,71.70496],[-24.5043,71.70431],[-24.50317,71.70286],[-24.5029,71.70165],[-24.50329,71.69975],[-24.50266,71.69874],[-24.50255,71.69686],[-24.50293,71.69616],[-24.50221,71.69617],[-24.50199,71.6959],[-24.49932,71.69421],[-24.49908,71.69302],[-24.50009,71.69221],[-24.50018,71.69162],[-24.49847,71.68965],[-24.49902,71.68713],[-24.4987,71.68675],[-24.49894,71.68371],[-24.49853,71.68301],[-24.49869,71.68018],[-24.49832,71.67747],[-24.49921,71.67479],[-24.49867,71.67413],[-24.49594,71.67342],[-24.49471,71.67265],[-24.49487,71.67188],[-24.49737,71.67077],[-24.49763,71.67012],[-24.49585,71.66793],[-24.49478,71.6659],[-24.49417,71.66552],[-24.49337,71.6636],[-24.49217,71.66248],[-24.48974,71.66082],[-24.48895,71.65968],[-24.48781,71.65884],[-24.48812,71.65745],[-24.48713,71.65636],[-24.48721,71.6554],[-24.48835,71.65464],[-24.48832,71.65399],[-24.48737,71.65341],[-24.48653,71.65228],[-24.48481,71.65079],[-24.48347,71.64896],[-24.48303,71.64878],[-24.48214,71.64669],[-24.48138,71.64584],[-24.48099,71.6448],[-24.48065,71.64469],[-24.47969,71.64246],[-24.47988,71.64168],[-24.4817,71.63869],[-24.4816,71.63728],[-24.48119,71.63671],[-24.48091,71.63523],[-24.48055,71.63511],[-24.48014,71.63425],[-24.48048,71.63175],[-24.48258,71.63053],[-24.48308,71.62985],[-24.4826,71.62876],[-24.48234,71.62622],[-24.48202,71.62604],[-24.48122,71.62353],[-24.48193,71.62265],[-24.48333,71.62204],[-24.48548,71.62138],[-24.48808,71.62088],[-24.49055,71.61969],[-24.49129,71.61958],[-24.49275,71.61958],[-24.49423,71.61974],[-24.49682,71.62046],[-24.4993,71.62179],[-24.50056,71.62214],[-24.50266,71.62247],[-24.50588,71.62377],[-24.51268,71.62566],[-24.52092,71.62691],[-24.52402,71.62759],[-24.52585,71.62826],[-24.52776,71.62871],[-24.53016,71.629],[-24.53529,71.6293],[-24.54216,71.63058],[-24.55085,71.63171],[-24.55748,71.63164],[-24.56234,71.63213],[-24.56964,71.632],[-24.57336,71.63237],[-24.57612,71.63247],[-24.59104,71.63228],[-24.59774,71.63187],[-24.59811,71.63172],[-24.59799,71.63113],[-24.59894,71.63104],[-24.609,71.63104],[-24.6158,71.6315],[-24.624,71.63161],[-24.62599,71.6309],[-24.62974,71.63068],[-24.6315,71.63008],[-24.6312,71.62956],[-24.62846,71.62798],[-24.62419,71.62749],[-24.61809,71.6272],[-24.61277,71.62669],[-24.60641,71.62579],[-24.60625,71.62573],[-24.60796,71.62591],[-24.5985,71.62424],[-24.59833,71.62392],[-24.59894,71.62317],[-24.59766,71.62276],[-24.59789,71.62215],[-24.5966,71.6218],[-24.59001,71.62067],[-24.58418,71.62002],[-24.58082,71.61919],[-24.57949,71.61797],[-24.57835,71.61761],[-24.56734,71.616],[-24.56289,71.61491],[-24.56175,71.61475],[-24.55908,71.61389],[-24.55435,71.61323],[-24.55244,71.61236],[-24.54328,71.60921],[-24.54118,71.60835],[-24.54047,71.6077],[-24.54035,71.60656],[-24.53906,71.60542],[-24.53806,71.60487],[-24.53618,71.60355],[-24.53662,71.60331],[-24.53616,71.60194],[-24.53445,71.60061],[-24.53364,71.59904],[-24.53179,71.59709],[-24.53149,71.59548],[-24.531,71.59502],[-24.5305,71.59332],[-24.52859,71.59182],[-24.52757,71.59045],[-24.52685,71.58705],[-24.52699,71.57986],[-24.5256,71.57878],[-24.52464,71.57787],[-24.5263,71.57799],[-24.52631,71.57791],[-24.52737,71.57739],[-24.53119,71.57723],[-24.53253,71.57684],[-24.53255,71.57668],[-24.52909,71.5758],[-24.52823,71.57545],[-24.52565,71.57352],[-24.52578,71.57243],[-24.52689,71.57087],[-24.52656,71.57059],[-24.52666,71.56829],[-24.52442,71.56361],[-24.52442,71.55726],[-24.52402,71.55622],[-24.52277,71.55455],[-24.5229,71.55352],[-24.52253,71.55225],[-24.52344,71.55107],[-24.52433,71.55036],[-24.52473,71.54945],[-24.52593,71.54853],[-24.52589,71.54745],[-24.52532,71.54718],[-24.5249,71.54626],[-24.52386,71.54522],[-24.52397,71.54408],[-24.52459,71.5436],[-24.52571,71.5437],[-24.52686,71.54418],[-24.52778,71.54427],[-24.52837,71.5435],[-24.52744,71.54203],[-24.52734,71.54118],[-24.52811,71.54025],[-24.5297,71.53918],[-24.52991,71.53871],[-24.53178,71.53715],[-24.53238,71.53606],[-24.53427,71.53431],[-24.53574,71.53075],[-24.5357,71.52973],[-24.53703,71.52682],[-24.53683,71.52569],[-24.53698,71.52111],[-24.53664,71.52091],[-24.53693,71.52043],[-24.53874,71.51976],[-24.53878,71.51861],[-24.53818,71.5178],[-24.53898,71.51628],[-24.53866,71.51604],[-24.53645,71.51534],[-24.53665,71.51469],[-24.5378,71.51432],[-24.53805,71.5133],[-24.53699,71.51122],[-24.53794,71.50949],[-24.53971,71.5088],[-24.54279,71.50825],[-24.54318,71.508],[-24.54094,71.50755],[-24.54001,71.50719],[-24.53883,71.50642],[-24.53819,71.50508],[-24.53853,71.5032],[-24.53822,71.5015],[-24.5384,71.50012],[-24.53746,71.49815],[-24.53792,71.49747],[-24.53825,71.49501],[-24.53734,71.49361],[-24.53787,71.49176],[-24.53753,71.49152],[-24.5373,71.48999],[-24.53808,71.48888],[-24.53768,71.48723],[-24.5391,71.48602],[-24.53906,71.4854],[-24.53862,71.48513],[-24.53748,71.48351],[-24.53781,71.48248],[-24.53845,71.48188],[-24.53859,71.48034],[-24.53533,71.47794],[-24.53555,71.47714],[-24.53836,71.47576],[-24.53891,71.47153],[-24.54022,71.47127],[-24.54079,71.47101],[-24.54118,71.47011],[-24.54413,71.46894],[-24.54551,71.46823],[-24.54701,71.46649],[-24.54758,71.46441],[-24.54897,71.46347],[-24.55079,71.4627],[-24.55322,71.46008],[-24.55508,71.45953],[-24.55515,71.45907],[-24.55391,71.45828],[-24.55394,71.45752],[-24.556,71.45689],[-24.55669,71.45638],[-24.5567,71.45568],[-24.55535,71.45428],[-24.55539,71.45399],[-24.55682,71.4534],[-24.56197,71.45257],[-24.56423,71.45174],[-24.56458,71.4511],[-24.56356,71.45014],[-24.56143,71.44926],[-24.56008,71.44781],[-24.55979,71.44682],[-24.55772,71.44621],[-24.55093,71.44588],[-24.55007,71.44558],[-24.54975,71.4452],[-24.54986,71.44441],[-24.55111,71.44252],[-24.55289,71.44195],[-24.55452,71.44176],[-24.55853,71.44185],[-24.56021,71.44168],[-24.56248,71.4408],[-24.56591,71.43871],[-24.5663,71.4383],[-24.56905,71.43727],[-24.57275,71.43645],[-24.57716,71.43583],[-24.5785,71.43551],[-24.57941,71.4351],[-24.57959,71.43451],[-24.57714,71.43326],[-24.57664,71.43284],[-24.57646,71.43218],[-24.57695,71.43193],[-24.57887,71.43158],[-24.57984,71.43118],[-24.57946,71.43034],[-24.57954,71.42931],[-24.58149,71.42878],[-24.58671,71.4281],[-24.58864,71.4277],[-24.59215,71.42641],[-24.59431,71.42635],[-24.59606,71.42659],[-24.59582,71.4262],[-24.60061,71.42585],[-24.60702,71.42842],[-24.60797,71.43205],[-24.61869,71.4314],[-24.62828,71.42859],[-24.63632,71.42516],[-24.63596,71.42502],[-24.63585,71.42464],[-24.63638,71.42444],[-24.63684,71.42447],[-24.63839,71.42142],[-24.63759,71.42133],[-24.63746,71.42092],[-24.63879,71.42032],[-24.63886,71.41977],[-24.63961,71.41946],[-24.64255,71.41973],[-24.64304,71.41973],[-24.64733,71.41821],[-24.64789,71.41815],[-24.64798,71.41805],[-24.65016,71.41782],[-24.65084,71.41784],[-24.65541,71.41735],[-24.66443,71.41894],[-24.67299,71.4199],[-24.68433,71.42699],[-24.72013,71.44722],[-24.74549,71.46042],[-24.75663,71.46661],[-24.76374,71.46952],[-24.7705,71.46797],[-24.77061,71.46412],[-24.77706,71.45929],[-24.7745,71.45406],[-24.77341,71.45355],[-24.77278,71.45337],[-24.77209,71.45294],[-24.7676,71.45086],[-24.76156,71.44655],[-24.75952,71.44432],[-24.757,71.44028],[-24.75799,71.4365],[-24.7573,71.43522],[-24.75614,71.43461],[-24.75504,71.43249],[-24.75293,71.4306],[-24.75157,71.42848],[-24.75039,71.42765],[-24.75056,71.42699],[-24.75195,71.42647],[-24.74482,71.4195],[-24.74297,71.4174],[-24.74246,71.41733],[-24.74132,71.4165],[-24.74139,71.41561],[-24.73844,71.41225],[-24.73741,71.4117],[-24.73668,71.41091],[-24.73694,71.41053],[-24.73533,71.4087],[-24.73069,71.39887],[-24.73144,71.39744],[-24.7303,71.39697],[-24.73037,71.39637],[-24.7314,71.39581],[-24.73228,71.39582],[-24.73277,71.39488],[-24.73992,71.39147],[-24.73874,71.39108],[-24.73885,71.39024],[-24.74026,71.38982],[-24.74239,71.39011],[-24.74277,71.39011],[-24.74292,71.39004],[-24.74433,71.38942],[-24.74415,71.38887],[-24.74701,71.38763],[-24.7484,71.38762],[-24.75264,71.38575],[-24.77782,71.38679],[-24.79994,71.38819],[-24.81549,71.38789],[-24.83803,71.38933],[-24.85126,71.38918],[-24.8512,71.38879],[-24.85167,71.38862],[-24.85292,71.38852],[-24.85448,71.38774],[-24.85411,71.38641],[-24.86614,71.38644],[-24.89078,71.39069],[-24.91597,71.39793],[-24.93696,71.40337],[-24.95868,71.41034],[-24.97386,71.41237],[-24.99282,71.41558],[-25.01986,71.41791],[-25.03836,71.42049],[-25.05202,71.42211],[-25.06112,71.42486],[-25.06717,71.42798],[-25.07106,71.43152],[-25.07519,71.43094],[-25.08616,71.42614],[-25.10145,71.42487],[-25.11616,71.42572],[-25.13085,71.42593],[-25.14105,71.42847],[-25.15571,71.43222],[-25.17762,71.43897],[-25.19219,71.44255],[-25.21043,71.44481],[-25.23228,71.44544],[-25.25178,71.44611],[-25.27156,71.44751],[-25.29226,71.44765],[-25.31987,71.45038],[-25.33573,71.45558],[-25.34768,71.46473],[-25.35259,71.46311],[-25.35372,71.46227],[-25.3562,71.46112],[-25.35832,71.45901],[-25.36971,71.45482],[-25.38631,71.44982],[-25.40602,71.44565],[-25.43854,71.4447],[-25.43886,71.4447],[-25.46992,71.44971],[-25.48044,71.45963],[-25.49516,71.46631],[-25.50649,71.46904],[-25.52133,71.46998],[-25.53012,71.47416],[-25.54036,71.47844],[-25.54765,71.48437],[-25.56814,71.48901],[-25.58361,71.50252],[-25.60948,71.51324],[-25.62711,71.52247],[-25.65407,71.52646],[-25.67035,71.5232],[-25.70151,71.51862],[-25.73185,71.51783],[-25.77419,71.52378],[-25.81951,71.53347],[-25.83271,71.53724],[-25.83682,71.5428],[-25.83727,71.54808],[-25.84131,71.55178],[-25.85151,71.55381],[-25.86416,71.5547],[-25.88085,71.55455],[-25.89094,71.55079],[-25.89891,71.54531],[-25.90319,71.54036],[-25.91598,71.53626],[-25.94039,71.53691],[-25.96391,71.53645],[-25.99204,71.5413],[-26.02494,71.54647],[-26.04591,71.55212],[-26.07828,71.5617],[-26.10239,71.56887],[-26.11683,71.57564],[-26.14039,71.57515],[-26.15241,71.57335],[-26.15959,71.56649],[-26.16885,71.53957],[-26.17097,71.50567],[-26.18677,71.47229],[-26.18719,71.4714],[-26.23161,71.40786],[-26.33215,71.34579],[-26.95841,71.25681],[-27.47402,71.18328],[-27.74545,71.1419],[-27.82703,71.12973],[-27.88305,71.12137],[-27.92618,71.11404],[-28.01257,71.09935],[-28.82151,70.99959],[-28.98883,70.99962],[-30.99452,70.99983],[-31.99625,70.99989],[-32.99748,70.99993],[-33.99834,70.99996],[-34.99893,70.99997],[-35.99933,70.99998],[-36.99959,70.99999],[-37.99976,70.99999],[-38.99987,71.0],[-39.99993,71.0],[-40.99996,71.0],[-41.99998,71.0],[-42.99999,71.0],[-44.0,71.0],[-44.0,68.79878],[-44.0,67.54998],[-44.0,65.36499],[-49.99529,65.36556],[-50.06548,65.36161],[-50.0999,65.35862],[-50.12995,65.35462],[-50.17862,65.34779],[-50.26806,65.33021],[-50.31896,65.31871],[-50.36629,65.30664],[-50.40065,65.29693],[-50.49699,65.26775],[-50.5423,65.25276],[-50.57721,65.23957],[-50.61883,65.22149],[-50.68453,65.19103],[-50.72373,65.17567],[-50.75816,65.16002],[-50.81661,65.14058],[-50.85645,65.12797],[-50.86663,65.12257],[-50.86929,65.12033],[-50.87131,65.11725],[-50.87167,65.11473],[-50.87162,65.11173],[-50.86979,65.10643],[-50.85711,65.08979],[-50.84655,65.07664],[-50.8405,65.06675],[-50.83614,65.05754],[-50.8324,65.04774],[-50.82901,65.03625],[-50.82805,65.01163],[-50.82919,64.99965],[-50.82835,64.99531],[-50.83053,64.98836],[-50.83792,64.98115],[-50.84716,64.97329],[-50.85477,64.96828],[-50.86435,64.9642],[-50.87942,64.96116],[-50.94934,64.94952],[-50.97461,64.94498],[-50.97819,64.94404],[-50.98062,64.9426],[-50.98036,64.93857],[-50.97883,64.9339],[-50.98233,64.92862],[-50.98864,64.92502],[-50.99005,64.92438],[-50.99438,64.92241],[-51.014,64.91642],[-51.03065,64.91184],[-51.05044,64.90072],[-51.05995,64.89993],[-51.07043,64.89879],[-51.08717,64.89957],[-51.10624,64.9022],[-51.21432,64.90349],[-51.46073,64.87527],[-51.45914,64.86791],[-51.46028,64.86477],[-51.46708,64.85319],[-51.46875,64.84721],[-51.46814,64.8431],[-51.46388,64.83924],[-51.45377,64.83513],[-51.4496,64.83098],[-51.45837,64.82782],[-51.46481,64.82309],[-51.48191,64.81873],[-51.49749,64.8114],[-51.50877,64.8108],[-51.51931,64.81054],[-51.52827,64.80848],[-51.53508,64.80509],[-51.53955,64.80088],[-51.54067,64.79627],[-51.53772,64.79236],[-51.53356,64.78911],[-51.52731,64.78607],[-51.52445,64.78374],[-51.52399,64.78161],[-51.52487,64.7797],[-51.52758,64.7779],[-51.53279,64.77702],[-51.54363,64.77619],[-51.55766,64.77534],[-51.56491,64.77374],[-51.56877,64.77095],[-51.57147,64.76683],[-51.57531,64.76426],[-51.58057,64.76174],[-51.6012,64.75636],[-51.632,64.72052],[-51.64411,64.7078],[-51.65563,64.69872],[-51.66702,64.6907],[-51.67203,64.68867],[-51.6823,64.68513],[-51.68932,64.68244],[-51.69312,64.68062],[-51.69492,64.67837],[-51.69497,64.67654],[-51.69221,64.67385],[-51.69139,64.67117],[-51.6924,64.66818],[-51.6947,64.66355],[-51.6988,64.65964],[-51.70698,64.6551],[-51.70942,64.65352],[-51.70973,64.65209],[-51.70884,64.65083],[-51.70687,64.64956],[-51.70612,64.64768],[-51.70672,64.64545],[-51.71565,64.64206],[-51.72913,64.63197],[-51.73291,64.62946],[-51.74219,64.62679],[-51.75493,64.62417],[-51.77789,64.62091],[-51.79609,64.61769],[-51.81682,64.61465],[-51.82636,64.61235],[-51.84281,64.60974],[-51.8541,64.60848],[-51.88128,64.60722],[-51.91296,64.60552],[-51.93432,64.6032],[-51.95254,64.59933],[-51.99145,64.59964],[-52.00444,64.59666],[-52.03209,64.59261],[-52.04262,64.59139],[-52.04569,64.59091],[-52.04786,64.58791],[-52.06416,64.58012],[-52.07323,64.57557],[-52.08944,64.56902],[-52.09754,64.56784],[-52.10141,64.56683],[-52.10466,64.56505],[-52.10894,64.56411],[-52.11938,64.5647],[-52.13152,64.56284],[-52.14051,64.56205],[-52.14794,64.56205],[-52.16017,64.56217],[-52.17579,64.5612],[-52.24143,64.56006],[-52.33444,64.53477],[-52.79009,64.37012]]]}},{"type":"Feature","properties":{"name":"Qeqqata","admin":"kommunia","source":"© OpenStreetMap contributors, ODbL 1.0","osm_relation":8514368},"geometry":{"type":"Polygon","coordinates":[[[-54.63986,66.992],[-54.63969,66.98823],[-54.63934,66.98446],[-54.6388,66.98069],[-54.63769,66.97512],[-54.63642,66.96999],[-54.6348,66.96488],[-54.63354,66.96147],[-54.41274,66.39989],[-54.41095,66.39555],[-54.40782,66.38907],[-54.40416,66.38264],[-54.27789,66.17648],[-54.27456,66.17131],[-54.2709,66.16617],[-54.26827,66.16277],[-54.15064,66.01529],[-54.13951,66.00169],[-53.72014,65.4479],[-53.71679,65.44356],[-53.71321,65.43925],[-52.79009,64.37012],[-52.33444,64.53477],[-52.24143,64.56006],[-52.17579,64.5612],[-52.16017,64.56217],[-52.14794,64.56205],[-52.14051,64.56205],[-52.13152,64.56284],[-52.11938,64.5647],[-52.10894,64.56411],[-52.10466,64.56505],[-52.10141,64.56683],[-52.09754,64.56784],[-52.08944,64.56902],[-52.07323,64.57557],[-52.06416,64.58012],[-52.04786,64.58791],[-52.04569,64.59091],[-52.04262,64.59139],[-52.03209,64.59261],[-52.00444,64.59666],[-51.99145,64.59964],[-51.95254,64.59933],[-51.93432,64.6032],[-51.91296,64.60552],[-51.88128,64.60722],[-51.8541,64.60848],[-51.84281,64.60974],[-51.82636,64.61235],[-51.81682,64.61465],[-51.79609,64.61769],[-51.77789,64.62091],[-51.75493,64.62417],[-51.74219,64.62679],[-51.73291,64.62946],[-51.72913,64.63197],[-51.71565,64.64206],[-51.70672,64.64545],[-51.70612,64.64768],[-51.70687,64.64956],[-51.70884,64.65083],[-51.70973,64.65209],[-51.70942,64.65352],[-51.70698,64.6551],[-51.6988,64.65964],[-51.6947,64.66355],[-51.6924,64.66818],[-51.69139,64.67117],[-51.69221,64.67385],[-51.69497,64.67654],[-51.69492,64.67837],[-51.69312,64.68062],[-51.68932,64.68244],[-51.6823,64.68513],[-51.67203,64.68867],[-51.66702,64.6907],[-51.65563,64.69872],[-51.64411,64.7078],[-51.632,64.72052],[-51.6012,64.75636],[-51.58057,64.76174],[-51.57531,64.76426],[-51.57147,64.76683],[-51.56877,64.77095],[-51.56491,64.77374],[-51.55766,64.77534],[-51.54363,64.77619],[-51.53279,64.77702],[-51.52758,64.7779],[-51.52487,64.7797],[-51.52399,64.78161],[-51.52445,64.78374],[-51.52731,64.78607],[-51.53356,64.78911],[-51.53772,64.79236],[-51.54067,64.79627],[-51.53955,64.80088],[-51.53508,64.80509],[-51.52827,64.80848],[-51.51931,64.81054],[-51.50877,64.8108],[-51.49749,64.8114],[-51.48191,64.81873],[-51.46481,64.82309],[-51.45837,64.82782],[-51.4496,64.83098],[-51.45377,64.83513],[-51.46388,64.83924],[-51.46814,64.8431],[-51.46875,64.84721],[-51.46708,64.85319],[-51.46028,64.86477],[-51.45914,64.86791],[-51.46073,64.87527],[-51.21432,64.90349],[-51.10624,64.9022],[-51.08717,64.89957],[-51.07043,64.89879],[-51.05995,64.89993],[-51.05044,64.90072],[-51.03065,64.91184],[-51.014,64.91642],[-50.99438,64.92241],[-50.99005,64.92438],[-50.98864,64.92502],[-50.98233,64.92862],[-50.97883,64.9339],[-50.98036,64.93857],[-50.98062,64.9426],[-50.97819,64.94404],[-50.97461,64.94498],[-50.94934,64.94952],[-50.87942,64.96116],[-50.86435,64.9642],[-50.85477,64.96828],[-50.84716,64.97329],[-50.83792,64.98115],[-50.83053,64.98836],[-50.82835,64.99531],[-50.82919,64.99965],[-50.82805,65.01163],[-50.82901,65.03625],[-50.8324,65.04774],[-50.83614,65.05754],[-50.8405,65.06675],[-50.84655,65.07664],[-50.85711,65.08979],[-50.86979,65.10643],[-50.87162,65.11173],[-50.87167,65.11473],[-50.87131,65.11725],[-50.86929,65.12033],[-50.86663,65.12257],[-50.85645,65.12797],[-50.81661,65.14058],[-50.75816,65.16002],[-50.72373,65.17567],[-50.68453,65.19103],[-50.61883,65.22149],[-50.57721,65.23957],[-50.5423,65.25276],[-50.49699,65.26775],[-50.40065,65.29693],[-50.36629,65.30664],[-50.31896,65.31871],[-50.26806,65.33021],[-50.17862,65.34779],[-50.12995,65.35462],[-50.0999,65.35862],[-50.06548,65.36161],[-49.99529,65.36556],[-44.0,65.36499],[-44.0,67.54998],[-49.41212,67.54996],[-49.68911,67.54383],[-49.70609,67.54494],[-49.72638,67.54538],[-49.74585,67.54408],[-49.76707,67.54402],[-49.78628,67.54227],[-49.82869,67.53669],[-49.85637,67.52758],[-49.88791,67.51959],[-49.91798,67.5129],[-49.93178,67.50983],[-49.96222,67.50685],[-50.00208,67.50969],[-50.01283,67.51185],[-50.03014,67.51333],[-50.04133,67.51315],[-50.05043,67.51166],[-50.06471,67.50817],[-50.09637,67.50189],[-50.12135,67.50346],[-50.13452,67.50409],[-50.14556,67.50254],[-50.152,67.5008],[-50.15408,67.49935],[-50.16416,67.49614],[-50.18336,67.49423],[-50.2083,67.49238],[-50.2153,67.49018],[-50.22198,67.4877],[-50.23096,67.48628],[-50.24241,67.48605],[-50.25419,67.48611],[-50.2636,67.48726],[-50.27493,67.48957],[-50.2825,67.491],[-50.28841,67.49181],[-50.2998,67.49337],[-50.31959,67.49641],[-50.3423,67.50005],[-50.34269,67.50011],[-50.36466,67.5044],[-50.38461,67.50804],[-50.39956,67.50999],[-50.4108,67.51162],[-50.42551,67.51281],[-50.44013,67.51268],[-50.45168,67.51208],[-50.47986,67.50802],[-50.49471,67.50442],[-50.51243,67.49891],[-50.52239,67.495],[-50.54292,67.49103],[-50.5647,67.49012],[-50.58644,67.49082],[-50.59675,67.4939],[-50.60308,67.49554],[-50.60995,67.49719],[-50.62204,67.50224],[-50.6386,67.50833],[-50.65305,67.51263],[-50.66852,67.51691],[-50.68306,67.52069],[-50.68598,67.52175],[-50.69792,67.52603],[-50.71287,67.53239],[-50.72657,67.53793],[-50.74015,67.5435],[-50.75692,67.5485],[-50.77422,67.55262],[-50.79413,67.55782],[-50.80774,67.56257],[-50.81767,67.56792],[-50.82873,67.57501],[-50.84165,67.58071],[-50.86983,67.59051],[-50.88655,67.59443],[-50.88767,67.59655],[-50.8878,67.59652],[-50.96861,67.60996],[-51.03699,67.62596],[-51.39405,67.70736],[-51.66871,67.6573],[-51.82801,67.66983],[-52.03126,67.72611],[-52.26691,67.75205],[-52.37365,67.78346],[-52.44759,67.78579],[-52.66297,67.76564],[-52.87578,67.75074],[-52.99042,67.73566],[-53.02002,67.72195],[-53.1614,67.6537],[-53.22032,67.60628],[-53.40455,67.53587],[-53.51629,67.5055],[-53.70109,67.46472],[-54.57587,67.36331],[-54.63873,67.00709],[-54.63956,67.00083],[-54.63985,66.99578],[-54.63986,66.992]]]}},{"type":"Feature","properties":{"name":"Kujalleq","admin":"kommunia","source":"© OpenStreetMap contributors, ODbL 1.0","osm_relation":8512366},"geometry":{"type":"Polygon","coordinates":[[[-49.03148,60.85019],[-48.87522,60.68613],[-48.87327,60.68323],[-48.871,60.68028],[-48.86887,60.67734],[-48.86573,60.67346],[-48.85717,60.6639],[-48.8476,60.65456],[-48.83705,60.64549],[-48.82555,60.63669],[-48.81314,60.6282],[-48.79985,60.62004],[-48.78571,60.61223],[-48.73632,60.58635],[-48.73069,60.58353],[-48.72745,60.58184],[-48.72308,60.57972],[-48.70923,60.57339],[-48.69481,60.56739],[-48.67983,60.56172],[-48.66434,60.5564],[-48.64837,60.55144],[-48.63196,60.54685],[-48.61513,60.54263],[-48.57594,60.53339],[-48.56505,60.53101],[-48.55402,60.52878],[-48.54286,60.52671],[-48.53724,60.52574],[-47.74139,60.3936],[-45.57228,59.80718],[-45.21666,59.68079],[-45.20642,59.67724],[-45.20212,59.67582],[-45.18716,59.67118],[-45.17181,59.66688],[-45.15611,59.66292],[-45.14007,59.65932],[-45.12374,59.65608],[-45.10714,59.65321],[-45.09031,59.65071],[-44.12335,59.52226],[-44.12007,59.52187],[-44.11136,59.52072],[-44.09521,59.51896],[-44.06668,59.5167],[-44.0379,59.51551],[-44.00903,59.51539],[-43.98021,59.51633],[-43.95161,59.51834],[-43.92336,59.5214],[-43.89563,59.52549],[-43.65867,59.56551],[-43.64698,59.56757],[-43.64203,59.56851],[-43.63381,59.57015],[-43.62567,59.57188],[-43.6176,59.57371],[-43.60962,59.57562],[-43.60172,59.57763],[-43.59392,59.57972],[-43.40098,59.63309],[-43.40091,59.63303],[-42.98979,59.74441],[-42.98502,59.74578],[-42.9789,59.74744],[-42.96892,59.75043],[-42.9488,59.75707],[-42.92951,59.76431],[-42.91112,59.77212],[-42.89369,59.78048],[-42.8773,59.78936],[-42.862,59.79871],[-42.84785,59.80852],[-42.71804,59.90445],[-42.71117,59.90969],[-42.708,59.91223],[-42.70324,59.91621],[-42.69868,59.92023],[-42.69429,59.92432],[-42.6901,59.92845],[-42.6861,59.93262],[-42.68229,59.93685],[-42.67683,59.94313],[-42.67187,59.94927],[-42.66731,59.95548],[-42.65907,59.96774],[-42.65582,59.97297],[-42.65286,59.97824],[-42.58615,60.10821],[-42.2097,60.83642],[-41.81987,61.48746],[-41.65725,61.76475],[-41.65457,61.76984],[-41.25332,62.5793],[-42.13447,62.57507],[-42.53186,62.6842],[-42.6758,62.65096],[-43.07326,62.70116],[-43.14782,62.75806],[-43.19525,62.75438],[-43.208,62.75327],[-43.50947,62.72715],[-43.99999,62.74719],[-47.6049,61.06956],[-47.68869,61.03791],[-47.70336,61.03373],[-47.72687,61.0299],[-47.80167,61.02814],[-47.82863,61.03249],[-47.83511,61.0334],[-47.83976,61.03363],[-47.841,61.03369],[-47.84616,61.03277],[-47.85309,61.03087],[-47.85931,61.02772],[-47.86423,61.02373],[-47.86523,61.02212],[-47.86498,61.01938],[-47.86361,61.01876],[-47.86097,61.01837],[-47.85723,61.01763],[-47.85667,61.01697],[-47.86236,61.0142],[-47.86622,61.01365],[-47.88525,61.00878],[-47.89392,61.00697],[-47.92937,60.99625],[-47.93315,60.99012],[-47.93345,60.98361],[-47.94251,60.9784],[-47.95771,60.97076],[-47.98504,60.9649],[-48.0229,60.96009],[-48.37618,60.92911],[-49.03148,60.85019]]]}}]}