{"type":"FeatureCollection","features":[{"type":"Feature","properties":{"name":"Bun-Sio","admin":"shi","source":"© OpenStreetMap contributors, ODbL 1.0","osm_relation":2784621},"geometry":{"type":"MultiPolygon","coordinates":[[[[110.46432,19.52834],[110.46462,19.5233],[110.46583,19.51831],[110.46506,19.51269],[110.46736,19.5086],[110.47002,19.50432],[110.47573,19.5021],[110.48141,19.50409],[110.48891,19.51005],[110.49557,19.51305],[110.5036,19.51348],[110.50791,19.51196],[110.51197,19.51022],[110.52074,19.50465],[110.52715,19.50076],[110.53254,19.49576],[110.53722,19.49102],[110.54053,19.48884],[110.54458,19.48772],[110.54716,19.47965],[110.5434,19.47473],[110.54202,19.47018],[110.5462,19.45235],[110.54942,19.44765],[110.55859,19.4462],[110.56408,19.44395],[110.5694,19.43712],[110.57169,19.43337],[110.57532,19.42682],[110.5773,19.42147],[110.57745,19.4125],[110.57446,19.40387],[110.57526,19.39948],[110.58094,19.39561],[110.58366,19.39047],[110.58235,19.38155],[110.58168,19.37652],[110.57996,19.36968],[110.58121,19.3639],[110.58557,19.35755],[110.59345,19.35431],[110.6004,19.35224],[110.6095,19.35561],[110.61375,19.35892],[110.61797,19.36154],[110.6249,19.36625],[110.62373,19.37715],[110.62358,19.38305],[110.62561,19.38798],[110.6267,19.39063],[110.62935,19.39332],[110.63295,19.39211],[110.64013,19.38813],[110.6424,19.3922],[110.64399,19.39582],[110.64866,19.39751],[110.65575,19.39829],[110.66371,19.39629],[110.67039,19.39404],[110.68392,19.39026],[110.72595,19.3802],[110.73038,19.38636],[110.73369,19.38811],[110.75769,19.38918],[110.7813,19.39846],[110.83089,19.44077],[110.85174,19.47231],[110.87024,19.4994],[110.88874,19.52685],[110.9277,19.56282],[110.99263,19.59953],[111.01034,19.60805],[111.03592,19.60731],[111.05285,19.61102],[111.06166,19.6207],[111.06544,19.61992],[111.0678,19.63252],[111.06268,19.66439],[111.03632,19.77035],[111.01231,19.84662],[110.97689,19.97465],[110.96351,20.01607],[110.95292,20.02714],[110.93793,20.03049],[110.90881,20.02014],[110.86709,20.01274],[110.83167,20.02125],[110.8057,20.03751],[110.78091,20.06413],[110.76753,20.07079],[110.73801,20.07707],[110.72817,20.09333],[110.71557,20.14133],[110.71209,20.15178],[110.7043,20.15975],[110.69233,20.16549],[110.68162,20.16562],[110.67452,20.15896],[110.65017,20.13571],[110.63723,20.13062],[110.59952,20.12252],[110.55681,20.11167],[110.54992,20.11143],[110.54438,20.112],[110.54012,20.11333],[110.51359,20.12665],[110.50899,20.12872],[110.50557,20.12977],[110.52881,20.06641],[110.56176,20.03102],[110.56738,20.02738],[110.57086,20.02306],[110.57434,20.01626],[110.58464,20.01156],[110.58923,20.00698],[110.59535,19.99914],[110.59646,19.99521],[110.59514,19.98773],[110.59386,19.98542],[110.59435,19.98366],[110.59858,19.9808],[110.60783,19.97821],[110.61309,19.97627],[110.61555,19.9746],[110.61678,19.97289],[110.61791,19.9728],[110.62342,19.97321],[110.62411,19.97243],[110.62401,19.96993],[110.62669,19.96878],[110.62926,19.96888],[110.63058,19.96685],[110.62996,19.96348],[110.63017,19.96005],[110.63159,19.95743],[110.63267,19.95665],[110.635,19.95665],[110.6373,19.95502],[110.64304,19.9402],[110.64095,19.93544],[110.64021,19.93119],[110.64257,19.93054],[110.64872,19.93105],[110.64931,19.9317],[110.65654,19.92652],[110.66215,19.92097],[110.67043,19.91065],[110.66862,19.8996],[110.67252,19.89535],[110.67481,19.88939],[110.6753,19.8835],[110.67537,19.88259],[110.67391,19.87716],[110.67015,19.87382],[110.668,19.87029],[110.67155,19.86185],[110.67585,19.86119],[110.68198,19.86178],[110.68748,19.86361],[110.69422,19.86309],[110.69847,19.85903],[110.70313,19.85367],[110.70807,19.85118],[110.70807,19.84627],[110.70223,19.84202],[110.69673,19.83947],[110.69422,19.83299],[110.69756,19.8288],[110.69916,19.81722],[110.70195,19.81165],[110.70097,19.80825],[110.69725,19.80667],[110.69069,19.80385],[110.68491,19.79827],[110.67643,19.79763],[110.67146,19.80424],[110.66762,19.8096],[110.66877,19.81215],[110.66851,19.81303],[110.66603,19.81456],[110.66321,19.81013],[110.66005,19.8103],[110.65517,19.80941],[110.65029,19.8027],[110.64569,19.80133],[110.64288,19.79602],[110.64172,19.79563],[110.64095,19.79338],[110.6374,19.79171],[110.63529,19.79265],[110.63419,19.7912],[110.63495,19.78728],[110.63633,19.78654],[110.63702,19.78758],[110.63796,19.78855],[110.63984,19.78815],[110.63911,19.7865],[110.64283,19.78533],[110.65026,19.78641],[110.64985,19.78324],[110.64762,19.78211],[110.64308,19.78194],[110.64164,19.77937],[110.64189,19.77511],[110.63856,19.77334],[110.63608,19.77068],[110.63496,19.7667],[110.63226,19.76082],[110.63039,19.75298],[110.62421,19.75009],[110.62243,19.74744],[110.6192,19.73746],[110.62457,19.72474],[110.62735,19.72358],[110.6331,19.72164],[110.63744,19.72042],[110.64178,19.71801],[110.64274,19.71165],[110.6406,19.70855],[110.63853,19.70873],[110.62955,19.70733],[110.62341,19.70831],[110.6203,19.70447],[110.61623,19.70417],[110.61292,19.70262],[110.60957,19.70386],[110.60537,19.70076],[110.60478,19.69814],[110.60879,19.69583],[110.61985,19.6982],[110.62127,19.69297],[110.62127,19.68913],[110.61759,19.68585],[110.61856,19.68262],[110.62056,19.67568],[110.62046,19.67301],[110.6203,19.66904],[110.61966,19.66545],[110.62121,19.66302],[110.62547,19.65997],[110.62955,19.65583],[110.63304,19.65571],[110.63614,19.65413],[110.63989,19.65492],[110.64325,19.65486],[110.64578,19.65467],[110.6503,19.65406],[110.6514,19.65376],[110.65321,19.65011],[110.65586,19.64932],[110.65793,19.64999],[110.66744,19.65084],[110.66847,19.64986],[110.66627,19.64757],[110.66181,19.64597],[110.65845,19.64286],[110.65172,19.64097],[110.65256,19.63756],[110.65063,19.6375],[110.6492,19.63592],[110.65069,19.63385],[110.65044,19.63049],[110.64881,19.62733],[110.65043,19.62386],[110.65017,19.62063],[110.64584,19.61564],[110.64397,19.60937],[110.63856,19.60463],[110.63705,19.60005],[110.63128,19.59526],[110.63071,19.5831],[110.63045,19.57243],[110.63475,19.56614],[110.63265,19.56046],[110.63667,19.55977],[110.63649,19.55649],[110.63727,19.55003],[110.63566,19.54581],[110.6342,19.54297],[110.63207,19.54192],[110.63154,19.54118],[110.63086,19.54072],[110.62903,19.53687],[110.62854,19.53666],[110.62672,19.53641],[110.62613,19.53627],[110.62568,19.53561],[110.62525,19.53523],[110.62387,19.5352],[110.62328,19.5351],[110.62088,19.5337],[110.61894,19.53298],[110.61836,19.53297],[110.61752,19.53317],[110.61504,19.53462],[110.61446,19.53478],[110.61056,19.53398],[110.6086,19.53286],[110.60786,19.53215],[110.60759,19.53159],[110.60745,19.52874],[110.60707,19.52847],[110.6048,19.52882],[110.60356,19.52943],[110.60139,19.52866],[110.59918,19.52943],[110.59528,19.52912],[110.59451,19.52956],[110.59266,19.5317],[110.59187,19.53202],[110.58843,19.5306],[110.58183,19.52948],[110.57762,19.529],[110.57462,19.52905],[110.57166,19.527],[110.56944,19.52789],[110.56812,19.5275],[110.56588,19.52594],[110.56169,19.52613],[110.55899,19.52794],[110.55609,19.52818],[110.55366,19.52953],[110.55216,19.53141],[110.55033,19.53568],[110.54789,19.53791],[110.54333,19.54474],[110.5404,19.54967],[110.54152,19.55103],[110.54346,19.55611],[110.54339,19.56035],[110.54443,19.56242],[110.54485,19.56498],[110.54323,19.56434],[110.53754,19.56358],[110.52817,19.56378],[110.52621,19.56392],[110.52358,19.56228],[110.52308,19.55888],[110.52149,19.55921],[110.51937,19.56204],[110.51707,19.56337],[110.51542,19.56509],[110.51484,19.56501],[110.50905,19.56112],[110.50536,19.56075],[110.49802,19.55914],[110.49258,19.55679],[110.48785,19.5535],[110.48526,19.54899],[110.48298,19.54631],[110.47697,19.54145],[110.47054,19.53821],[110.46754,19.53555],[110.4655,19.53309],[110.46432,19.52834]]],[[[111.18696,19.91069],[111.18726,19.90833],[111.18799,19.90569],[111.18896,19.90361],[111.19018,19.90161],[111.1917,19.8997],[111.19396,19.8973],[111.19499,19.89584],[111.19778,19.8909],[111.19883,19.88862],[111.19969,19.88612],[111.20065,19.88253],[111.20164,19.87994],[111.20282,19.87799],[111.20424,19.87641],[111.20552,19.87528],[111.20707,19.87435],[111.20846,19.87381],[111.21031,19.87336],[111.21233,19.8731],[111.21409,19.8731],[111.21565,19.8733],[111.21726,19.87377],[111.21913,19.87466],[111.22059,19.87568],[111.22187,19.87698],[111.22288,19.87835],[111.22348,19.87956],[111.22402,19.88109],[111.22423,19.88279],[111.2243,19.8847],[111.22406,19.8863],[111.22366,19.88767],[111.22288,19.88904],[111.22061,19.89229],[111.21951,19.89389],[111.21844,19.89574],[111.21769,19.89822],[111.21715,19.89956],[111.21615,19.90149],[111.21546,19.90311],[111.21507,19.90442],[111.21469,19.9065],[111.21441,19.90859],[111.21413,19.91001],[111.21357,19.91172],[111.21138,19.9163],[111.21074,19.9181],[111.21024,19.92017],[111.20988,19.92298],[111.20971,19.92625],[111.20958,19.92812],[111.20906,19.9302],[111.20833,19.93192],[111.20741,19.93339],[111.20606,19.93478],[111.20456,19.93581],[111.20297,19.93664],[111.20125,19.93718],[111.19967,19.9374],[111.19821,19.9374],[111.19658,19.93722],[111.19486,19.93676],[111.1931,19.93591],[111.19147,19.93482],[111.19037,19.93375],[111.18926,19.9322],[111.18859,19.93083],[111.18808,19.92939],[111.18776,19.92764],[111.18771,19.92586],[111.1878,19.92348],[111.18776,19.92149],[111.18703,19.91297],[111.18696,19.91069]]],[[[111.23843,19.95977],[111.2386,19.95808],[111.23894,19.95661],[111.23941,19.95534],[111.24032,19.95388],[111.2415,19.95249],[111.24283,19.95134],[111.24461,19.95031],[111.24628,19.94967],[111.24806,19.94927],[111.24978,19.94919],[111.25139,19.94925],[111.25362,19.94949],[111.25555,19.94995],[111.26098,19.95179],[111.26336,19.9528],[111.26675,19.95475],[111.27034,19.95727],[111.27403,19.96048],[111.27879,19.96566],[111.28128,19.96909],[111.28278,19.97149],[111.28368,19.97369],[111.28411,19.97577],[111.28413,19.97835],[111.2839,19.9799],[111.28351,19.98125],[111.28317,19.98256],[111.28295,19.984],[111.28282,19.98666],[111.28272,19.98767],[111.28252,19.98857],[111.28188,19.99049],[111.28115,19.99174],[111.28014,19.99307],[111.27905,19.99408],[111.2777,19.99494],[111.27619,19.99571],[111.27454,19.99624],[111.27287,19.99652],[111.27119,19.99656],[111.26973,19.99652],[111.26821,19.99626],[111.26617,19.99559],[111.26409,19.9946],[111.2624,19.99365],[111.26098,19.99259],[111.25971,19.99117],[111.25864,19.9895],[111.25789,19.98791],[111.25742,19.98619],[111.25722,19.98458],[111.25718,19.98329],[111.2572,19.98202],[111.25705,19.98051],[111.25677,19.97897],[111.25634,19.97758],[111.25559,19.97625],[111.25474,19.9753],[111.25351,19.97448],[111.25188,19.97369],[111.24922,19.97272],[111.24699,19.97173],[111.2454,19.97075],[111.24368,19.96956],[111.24203,19.96806],[111.24077,19.96651],[111.23987,19.96508],[111.23903,19.96322],[111.23858,19.96143],[111.23843,19.95977]]]]}}]}