{"type":"FeatureCollection","features":[{"type":"Feature","properties":{"name":"Westland","admin":"gemeente","source":"© OpenStreetMap contributors, ODbL 1.0","osm_relation":324389},"geometry":{"type":"Polygon","coordinates":[[[4.1849984,52.0614507],[4.1963288,52.055677],[4.1997376,52.0508171],[4.1992933,52.0505913],[4.1988535,52.0500024],[4.2002617,52.0484575],[4.2014185,52.0478295],[4.2021853,52.0471123],[4.2124343,52.0340331],[4.2095845,52.0336547],[4.2122923,52.0307117],[4.2137812,52.0317837],[4.2155109,52.0322968],[4.2171619,52.0331145],[4.2192268,52.0337368],[4.2232318,52.0343959],[4.2283264,52.0346421],[4.2350148,52.0392951],[4.2436945,52.0293679],[4.2442596,52.0288657],[4.2450209,52.0285678],[4.2482171,52.0252258],[4.2550692,52.0283696],[4.2551735,52.0282557],[4.2561992,52.0282687],[4.2671489,52.0332374],[4.2674314,52.033122],[4.2677366,52.0332542],[4.2726628,52.0359171],[4.2758963,52.0315572],[4.2778745,52.0324983],[4.2817109,52.0274311],[4.2828004,52.0276263],[4.2834749,52.0267003],[4.2852499,52.0274224],[4.2858839,52.0264809],[4.2850462,52.0262677],[4.2856506,52.0259138],[4.2851423,52.0256202],[4.2882548,52.0237577],[4.2867338,52.0229846],[4.2943447,52.0193587],[4.2897361,52.0176479],[4.2899789,52.017519],[4.2955122,52.0148485],[4.2986146,52.016877],[4.3010755,52.0178691],[4.3026641,52.0164881],[4.3058207,52.0177257],[4.3059963,52.0175743],[4.3076386,52.0181514],[4.3098193,52.015634],[4.3006113,52.0116954],[4.2927442,52.0079398],[4.2913442,52.0074782],[4.2798359,52.0021678],[4.2675788,51.9967235],[4.2652452,51.9958362],[4.2672525,51.9935839],[4.2668821,51.9933258],[4.2675449,51.9930907],[4.268056,51.9933882],[4.26932,51.9925743],[4.2697233,51.9929004],[4.2711167,51.9922468],[4.2718943,51.9928916],[4.2739148,51.9920196],[4.2803217,51.9903475],[4.2803555,51.9885398],[4.2809026,51.9885432],[4.2813288,51.9879669],[4.2815304,51.9879577],[4.2823041,51.9873468],[4.282099,51.9871241],[4.2826038,51.9867693],[4.2825159,51.986567],[4.28409,51.985641],[4.2875371,51.9890159],[4.2886839,51.9888253],[4.2901927,51.9873966],[4.2919144,51.9829697],[4.2956295,51.9835971],[4.2963247,51.9817648],[4.2987665,51.982107],[4.299271,51.9811139],[4.3000323,51.9809321],[4.3018163,51.9812003],[4.3023912,51.9804942],[4.3031433,51.9799001],[4.2982532,51.9774639],[4.2959809,51.9775328],[4.2875535,51.9733554],[4.2893509,51.971871],[4.2850916,51.9698896],[4.2841275,51.9706266],[4.2823173,51.9697881],[4.2803151,51.9714514],[4.2781611,51.9704332],[4.2746863,51.9733962],[4.2732248,51.973643],[4.2719495,51.9716144],[4.2724647,51.970256],[4.2714558,51.9698599],[4.2765399,51.9650557],[4.2753378,51.964728],[4.2634486,51.9600936],[4.2623104,51.9602265],[4.2594268,51.9591742],[4.258268,51.9589653],[4.2554076,51.9587311],[4.2536291,51.9588667],[4.2454674,51.9563835],[4.2453644,51.9565027],[4.243299,51.9558215],[4.2372401,51.9542326],[4.237163,51.9541488],[4.237339,51.9539479],[4.2365414,51.9539996],[4.2339575,51.9533314],[4.2335833,51.9526894],[4.2337401,51.9507929],[4.2339635,51.9500286],[4.2344982,51.9491204],[4.2368452,51.9466855],[4.2404092,51.9438258],[4.2412704,51.9437084],[4.2410703,51.9430336],[4.2402159,51.9428531],[4.2387824,51.9437381],[4.2369411,51.9439297],[4.2349095,51.9437288],[4.2317671,51.9429223],[4.2303314,51.9445925],[4.2282921,51.9479915],[4.219803,51.9413835],[4.2195288,51.9413997],[4.2196878,51.9415248],[4.2178238,51.9416367],[4.1923961,51.9548059],[4.186724,51.9626751],[4.1893695,51.9647579],[4.1911962,51.9654448],[4.1906089,51.9659816],[4.1885293,51.9652183],[4.187164,51.9656581],[4.1865802,51.9658691],[4.1874929,51.966837],[4.1758983,51.9716938],[4.1696055,51.9739733],[4.1596401,51.9767439],[4.1550626,51.9778381],[4.1553487,51.9797075],[4.1541428,51.9796957],[4.1524963,51.9800111],[4.1472808,51.9813933],[4.1499548,51.9848105],[4.1489692,51.9851013],[4.1509718,51.9876362],[4.1356881,51.9926355],[4.1323905,51.9954225],[4.1309873,51.9971793],[4.1325177,51.9985426],[4.1185891,52.0045276],[4.1101641,52.0044365],[4.1199653,52.010655],[4.1230152,52.0135643],[4.1436336,52.0317621],[4.1849984,52.0614507]]]}}]}