{"type": "FeatureCollection", "features": [{"type": "Feature", "properties": {"name": "P\u00e9csi", "admin": "j\u00e1r\u00e1s", "source": "\u00a9 OpenStreetMap contributors, ODbL 1.0", "osm_relation": 2374220}, "geometry": {"type": "Polygon", "coordinates": [[[18.189195, 46.137436], [18.189201, 46.137058], [18.189751, 46.136678], [18.190304, 46.136683], [18.19304, 46.136703], [18.196862, 46.137495], [18.197952, 46.137887], [18.200133, 46.138666], [18.200665, 46.139426], [18.202858, 46.139443], [18.205577, 46.14061], [18.208278, 46.142911], [18.209375, 46.142919], [18.211036, 46.142175], [18.214334, 46.141053], [18.215431, 46.141061], [18.215969, 46.141449], [18.217612, 46.14184], [18.218709, 46.141848], [18.219252, 46.141852], [18.222548, 46.141498], [18.223662, 46.140359], [18.224743, 46.140752], [18.225296, 46.140755], [18.227501, 46.140009], [18.22805, 46.139629], [18.229696, 46.139263], [18.231345, 46.139275], [18.232436, 46.139661], [18.23298, 46.139665], [18.233538, 46.139291], [18.234637, 46.138536], [18.236309, 46.137024], [18.236876, 46.135509], [18.237423, 46.135891], [18.238516, 46.135521], [18.240171, 46.135149], [18.240703, 46.135915], [18.242346, 46.136305], [18.250524, 46.13676], [18.250559, 46.136752], [18.250733, 46.136773], [18.250789, 46.137161], [18.251719, 46.137653], [18.252606, 46.138011], [18.253265, 46.138291], [18.254639, 46.139241], [18.256571, 46.137168], [18.259291, 46.138334], [18.260371, 46.139482], [18.260365, 46.13986], [18.260904, 46.140248], [18.264724, 46.141799], [18.26416, 46.142558], [18.264708, 46.142939], [18.265257, 46.142565], [18.265801, 46.142569], [18.266353, 46.142573], [18.266326, 46.144475], [18.267961, 46.144865], [18.268508, 46.145253], [18.269596, 46.14526], [18.270687, 46.145646], [18.271256, 46.144509], [18.272369, 46.143371], [18.275634, 46.14454], [18.276725, 46.144925], [18.278736, 46.146828], [18.279972, 46.147997], [18.28051, 46.148379], [18.280499, 46.149141], [18.280489, 46.149903], [18.280478, 46.150665], [18.284274, 46.153356], [18.290313, 46.152635], [18.290297, 46.153775], [18.291943, 46.153408], [18.292485, 46.154174], [18.295196, 46.156095], [18.296288, 46.15648], [18.296827, 46.156868], [18.297374, 46.15725], [18.297918, 46.157254], [18.29901, 46.157645], [18.308308, 46.159225], [18.323072, 46.161608], [18.313681, 46.166878], [18.313675, 46.167262], [18.311998, 46.169916], [18.312522, 46.171444], [18.31307, 46.171826], [18.313609, 46.172207], [18.313604, 46.172592], [18.314131, 46.174498], [18.31467, 46.174886], [18.314665, 46.175264], [18.315209, 46.175267], [18.316854, 46.175656], [18.317393, 46.176044], [18.319029, 46.176432], [18.319577, 46.17682], [18.319572, 46.177198], [18.319004, 46.178335], [18.318994, 46.179097], [18.318984, 46.17986], [18.318978, 46.180244], [18.321696, 46.182542], [18.323312, 46.184462], [18.322747, 46.185977], [18.322179, 46.18712], [18.321619, 46.188256], [18.321609, 46.189019], [18.320491, 46.190536], [18.320471, 46.192054], [18.319348, 46.193956], [18.31824, 46.194705], [18.316531, 46.194767], [18.315798, 46.194734], [18.315508, 46.194744], [18.314571, 46.19511], [18.313735, 46.19528], [18.310952, 46.195306], [18.308913, 46.195407], [18.307429, 46.195647], [18.306493, 46.195858], [18.305908, 46.196092], [18.305519, 46.196301], [18.305371, 46.196447], [18.305072, 46.197668], [18.304523, 46.198282], [18.304079, 46.198751], [18.303771, 46.199233], [18.303589, 46.200096], [18.303191, 46.200677], [18.301217, 46.202389], [18.30002, 46.203959], [18.299879, 46.204507], [18.300053, 46.205704], [18.300279, 46.206538], [18.300534, 46.207192], [18.300617, 46.207449], [18.300609, 46.207579], [18.300531, 46.207707], [18.300385, 46.207822], [18.300066, 46.207942], [18.299845, 46.208136], [18.299754, 46.208422], [18.299892, 46.208956], [18.300151, 46.209676], [18.300361, 46.209855], [18.30048, 46.209935], [18.300669, 46.209978], [18.301099, 46.210044], [18.301305, 46.210147], [18.301443, 46.210298], [18.301699, 46.211695], [18.301612, 46.212001], [18.30319, 46.212507], [18.303749, 46.212132], [18.304293, 46.212136], [18.305397, 46.211759], [18.3065, 46.211388], [18.307254, 46.211425], [18.309406, 46.21087], [18.310893, 46.210654], [18.311446, 46.210658], [18.311996, 46.210284], [18.313099, 46.209907], [18.314192, 46.210298], [18.314736, 46.210301], [18.31529, 46.210305], [18.316393, 46.209928], [18.317486, 46.210319], [18.318025, 46.210701], [18.31802, 46.211079], [18.318554, 46.211845], [18.319647, 46.212236], [18.320201, 46.21224], [18.32074, 46.212621], [18.321288, 46.213009], [18.322381, 46.213394], [18.324014, 46.214167], [18.325661, 46.213793], [18.32621, 46.214181], [18.326759, 46.2138], [18.327304, 46.213804], [18.328402, 46.213811], [18.32895, 46.214199], [18.330043, 46.214584], [18.331141, 46.214591], [18.331681, 46.214978], [18.33222, 46.21536], [18.333318, 46.215367], [18.334411, 46.215758], [18.33496, 46.21614], [18.336592, 46.216912], [18.337137, 46.216916], [18.339323, 46.217692], [18.339308, 46.218832], [18.339288, 46.220357], [18.340367, 46.221888], [18.340362, 46.222266], [18.340896, 46.223032], [18.34145, 46.223035], [18.343661, 46.221909], [18.345304, 46.221919], [18.345309, 46.221535], [18.346966, 46.220405], [18.347525, 46.22003], [18.348069, 46.220033], [18.349168, 46.22004], [18.349717, 46.219659], [18.351918, 46.219295], [18.353026, 46.218539], [18.354129, 46.218162], [18.355232, 46.217791], [18.355772, 46.218172], [18.35687, 46.218179], [18.356875, 46.217801], [18.357973, 46.217807], [18.35961, 46.218195], [18.360159, 46.218583], [18.361257, 46.21859], [18.363445, 46.218603], [18.364538, 46.218988], [18.365087, 46.219375], [18.366739, 46.218623], [18.368396, 46.217486], [18.370052, 46.217118], [18.372239, 46.217132], [18.373342, 46.21676], [18.376096, 46.216392], [18.377186, 46.216399], [18.378851, 46.215268], [18.379949, 46.215275], [18.381043, 46.215659], [18.381587, 46.215662], [18.382127, 46.21605], [18.383774, 46.216438], [18.384905, 46.213779], [18.385463, 46.212642], [18.386566, 46.212264], [18.38657, 46.211886], [18.386584, 46.210746], [18.387133, 46.210365], [18.386603, 46.209221], [18.386621, 46.207697], [18.386635, 46.206556], [18.386091, 46.205791], [18.385551, 46.205403], [18.385556, 46.205025], [18.383927, 46.203875], [18.383932, 46.203491], [18.382295, 46.202341], [18.380742, 46.195093], [18.378138, 46.184039], [18.378148, 46.183276], [18.377632, 46.180224], [18.378204, 46.178702], [18.378781, 46.176041], [18.378785, 46.175663], [18.379343, 46.175288], [18.382705, 46.168831], [18.383277, 46.16731], [18.383286, 46.166547], [18.383323, 46.163505], [18.383881, 46.162367], [18.383388, 46.158175], [18.383937, 46.157794], [18.384513, 46.155894], [18.385067, 46.155135], [18.385624, 46.15476], [18.38508, 46.153995], [18.383997, 46.152848], [18.384007, 46.152086], [18.383468, 46.151698], [18.383491, 46.149796], [18.383505, 46.148655], [18.385731, 46.146003], [18.386846, 46.143723], [18.387966, 46.141827], [18.388532, 46.140683], [18.389094, 46.139168], [18.389657, 46.138409], [18.388016, 46.137637], [18.385285, 46.137237], [18.381999, 46.137602], [18.380898, 46.137973], [18.379802, 46.137967], [18.376517, 46.137569], [18.37379, 46.13679], [18.372693, 46.136784], [18.37215, 46.136781], [18.371053, 46.136774], [18.369961, 46.136389], [18.36887, 46.135999], [18.367239, 46.135226], [18.366691, 46.134845], [18.366152, 46.134458], [18.366157, 46.134079], [18.366181, 46.132177], [18.34873, 46.126355], [18.349284, 46.125596], [18.350973, 46.121801], [18.353218, 46.117625], [18.355439, 46.115352], [18.355988, 46.114977], [18.357103, 46.113459], [18.35766, 46.113085], [18.358776, 46.111567], [18.360434, 46.110053], [18.362098, 46.10816], [18.364342, 46.103984], [18.365438, 46.10399], [18.369255, 46.105154], [18.369798, 46.105157], [18.37035, 46.10516], [18.37146, 46.104027], [18.373652, 46.103278], [18.374205, 46.103281], [18.374748, 46.103284], [18.375301, 46.103288], [18.377483, 46.104063], [18.378565, 46.104453], [18.378584, 46.102929], [18.379675, 46.103313], [18.380784, 46.10218], [18.38078, 46.102558], [18.381871, 46.102948], [18.384058, 46.103339], [18.385154, 46.103346], [18.385149, 46.10373], [18.385692, 46.103733], [18.386779, 46.104502], [18.387313, 46.105261], [18.387308, 46.105646], [18.386746, 46.107167], [18.386194, 46.107926], [18.386189, 46.108304], [18.387824, 46.108692], [18.388363, 46.109079], [18.389454, 46.109464], [18.391098, 46.109858], [18.391641, 46.109861], [18.393271, 46.110633], [18.391609, 46.112526], [18.390518, 46.112135], [18.389974, 46.112132], [18.389408, 46.113275], [18.389403, 46.113653], [18.389399, 46.114037], [18.389937, 46.115181], [18.390472, 46.115946], [18.390453, 46.117471], [18.389882, 46.119749], [18.39038, 46.123563], [18.390914, 46.125085], [18.391969, 46.127756], [18.393613, 46.12815], [18.395788, 46.128925], [18.396345, 46.128544], [18.399095, 46.127419], [18.400191, 46.127426], [18.401287, 46.127432], [18.402388, 46.12706], [18.404033, 46.126685], [18.404585, 46.126688], [18.406225, 46.126698], [18.407874, 46.125945], [18.41061, 46.12596], [18.411711, 46.125588], [18.411715, 46.125204], [18.411176, 46.124823], [18.41172, 46.124826], [18.415066, 46.119893], [18.417846, 46.116103], [18.421121, 46.117262], [18.427253, 46.107776], [18.432706, 46.10933], [18.43218, 46.10704], [18.432741, 46.106281], [18.432745, 46.105903], [18.433841, 46.105909], [18.434389, 46.105528], [18.434945, 46.105153], [18.435489, 46.105156], [18.436045, 46.104781], [18.43771, 46.102503], [18.435531, 46.101351], [18.433897, 46.100957], [18.433901, 46.100579], [18.433353, 46.100192], [18.433387, 46.097149], [18.433983, 46.093341], [18.434526, 46.093344], [18.434535, 46.092581], [18.434008, 46.09106], [18.433478, 46.089148], [18.433499, 46.087246], [18.431891, 46.084572], [18.431899, 46.083809], [18.433024, 46.08115], [18.433037, 46.08001], [18.433594, 46.078873], [18.433598, 46.078489], [18.434184, 46.075449], [18.434732, 46.075067], [18.434736, 46.074689], [18.434753, 46.073165], [18.434762, 46.072403], [18.434766, 46.072024], [18.435318, 46.072027], [18.435326, 46.071265], [18.435361, 46.068216], [18.435917, 46.067079], [18.435378, 46.066691], [18.435382, 46.066313], [18.435404, 46.064411], [18.435425, 46.062508], [18.43714, 46.055663], [18.437704, 46.053757], [18.438294, 46.050339], [18.439414, 46.048058], [18.438867, 46.047671], [18.438871, 46.047293], [18.439987, 46.045396], [18.44112, 46.041975], [18.441145, 46.039688], [18.44115, 46.03931], [18.442257, 46.038169], [18.442829, 46.035507], [18.440098, 46.035492], [18.439007, 46.035108], [18.43846, 46.035484], [18.43681, 46.036621], [18.426974, 46.036183], [18.42253, 46.041873], [18.420302, 46.045288], [18.413503, 46.045189], [18.39679, 46.045154], [18.395704, 46.045148], [18.392973, 46.04437], [18.383167, 46.042025], [18.378803, 46.040859], [18.37608, 46.04008], [18.375533, 46.039699], [18.374991, 46.039696], [18.374434, 46.04007], [18.372268, 46.038917], [18.370613, 46.039669], [18.370617, 46.039285], [18.370084, 46.038519], [18.370098, 46.037379], [18.370655, 46.036242], [18.371287, 46.029769], [18.372943, 46.028254], [18.373499, 46.02788], [18.374589, 46.027508], [18.379532, 46.025629], [18.382286, 46.024505], [18.383946, 46.022612], [18.386691, 46.021481], [18.388898, 46.019976], [18.390535, 46.019985], [18.391091, 46.019604], [18.391095, 46.019226], [18.391652, 46.018083], [18.392208, 46.017708], [18.39275, 46.017711], [18.393863, 46.016193], [18.393872, 46.015431], [18.393876, 46.015053], [18.394432, 46.013916], [18.394988, 46.013535], [18.394441, 46.013154], [18.39554, 46.012776], [18.396639, 46.012404], [18.398284, 46.011651], [18.398836, 46.011654], [18.399378, 46.011657], [18.400472, 46.011664], [18.401032, 46.010905], [18.400485, 46.010523], [18.399952, 46.009758], [18.398854, 46.01013], [18.398298, 46.010511], [18.397755, 46.010508], [18.397204, 46.010505], [18.397222, 46.00898], [18.39724, 46.007455], [18.397801, 46.006696], [18.395075, 46.006302], [18.393986, 46.005912], [18.393439, 46.005531], [18.393448, 46.004768], [18.391835, 46.002856], [18.392938, 46.0021], [18.391302, 46.002091], [18.394123, 45.99449], [18.391402, 45.993712], [18.393093, 45.989154], [18.390373, 45.988376], [18.390929, 45.987239], [18.387667, 45.986457], [18.391034, 45.978482], [18.391604, 45.976961], [18.392734, 45.973918], [18.387277, 45.973124], [18.380746, 45.971567], [18.380741, 45.971944], [18.380727, 45.973085], [18.380694, 45.975756], [18.380111, 45.978417], [18.377938, 45.97802], [18.37677, 45.984106], [18.372302, 45.991696], [18.370671, 45.991308], [18.367889, 45.995475], [18.361365, 45.993154], [18.360277, 45.992763], [18.358641, 45.991997], [18.359212, 45.990476], [18.355466, 45.984361], [18.355462, 45.984739], [18.354358, 45.985494], [18.353255, 45.98625], [18.351624, 45.985855], [18.350526, 45.986233], [18.349428, 45.986604], [18.348887, 45.985838], [18.348349, 45.985457], [18.348354, 45.985079], [18.347827, 45.983929], [18.34728, 45.983547], [18.346738, 45.983544], [18.347261, 45.985072], [18.347256, 45.98545], [18.347802, 45.985832], [18.348335, 45.986597], [18.347778, 45.98774], [18.347222, 45.988115], [18.346674, 45.988496], [18.346123, 45.988492], [18.345586, 45.988105], [18.345035, 45.988101], [18.342301, 45.988468], [18.342291, 45.989224], [18.341202, 45.988839], [18.336847, 45.98805], [18.335734, 45.989567], [18.333624, 45.989239], [18.33301, 45.989166], [18.333015, 45.988788], [18.332468, 45.988406], [18.330843, 45.987633], [18.331956, 45.986116], [18.336395, 45.98043], [18.34195, 45.97361], [18.341965, 45.97247], [18.338691, 45.972071], [18.338193, 45.96864], [18.339828, 45.968651], [18.340375, 45.96827], [18.343127, 45.967147], [18.342034, 45.96714], [18.345368, 45.962209], [18.341567, 45.96066], [18.341592, 45.958758], [18.341597, 45.95838], [18.339967, 45.957985], [18.334536, 45.956048], [18.335128, 45.952247], [18.332952, 45.95147], [18.333518, 45.950327], [18.331875, 45.950317], [18.333553, 45.947662], [18.333007, 45.947281], [18.333012, 45.946903], [18.327027, 45.94534], [18.327588, 45.944581], [18.323233, 45.943413], [18.318173, 45.954418], [18.311646, 45.952857], [18.311114, 45.952091], [18.310579, 45.950941], [18.310042, 45.95056], [18.309502, 45.949794], [18.30896, 45.94979], [18.308409, 45.949787], [18.305698, 45.948628], [18.309017, 45.945601], [18.309104, 45.939131], [18.309667, 45.93761], [18.309171, 45.934179], [18.309749, 45.931518], [18.309795, 45.928091], [18.309816, 45.926567], [18.310392, 45.924668], [18.30875, 45.924657], [18.308208, 45.924653], [18.306559, 45.925783], [18.304906, 45.926534], [18.303261, 45.927286], [18.302174, 45.9269], [18.301092, 45.926131], [18.300551, 45.926127], [18.300006, 45.925739], [18.300016, 45.924977], [18.300026, 45.924221], [18.300031, 45.923837], [18.297311, 45.92344], [18.291324, 45.922254], [18.291864, 45.92302], [18.29319, 45.926377], [18.293975, 45.928364], [18.287972, 45.928323], [18.287983, 45.927561], [18.287432, 45.927557], [18.287427, 45.927942], [18.283608, 45.927916], [18.282522, 45.927524], [18.280356, 45.926753], [18.275365, 45.932427], [18.281336, 45.934755], [18.28077, 45.935891], [18.264407, 45.9354], [18.257889, 45.933452], [18.258998, 45.932313], [18.260104, 45.930796], [18.259562, 45.930792], [18.259026, 45.93041], [18.257956, 45.928878], [18.256874, 45.928108], [18.25634, 45.926964], [18.255253, 45.926578], [18.254176, 45.926187], [18.25255, 45.925035], [18.251491, 45.92274], [18.250955, 45.922358], [18.249857, 45.922728], [18.24877, 45.922343], [18.239986, 45.926085], [18.226255, 45.932078], [18.226772, 45.934369], [18.227832, 45.935901], [18.227826, 45.936279], [18.228343, 45.93857], [18.228337, 45.938948], [18.228331, 45.939332], [18.228326, 45.93971], [18.228314, 45.940472], [18.227764, 45.940468], [18.22668, 45.94046], [18.225587, 45.940452], [18.223402, 45.940436], [18.221218, 45.94042], [18.216862, 45.940004], [18.215219, 45.939992], [18.213037, 45.94036], [18.210858, 45.939959], [18.208673, 45.939943], [18.207587, 45.939557], [18.204324, 45.939154], [18.19996, 45.938737], [18.193432, 45.937547], [18.19234, 45.937539], [18.191253, 45.937146], [18.191816, 45.936388], [18.19184, 45.93487], [18.191846, 45.934486], [18.194052, 45.9326], [18.194614, 45.931841], [18.19462, 45.931463], [18.194626, 45.931079], [18.194081, 45.930697], [18.192477, 45.928782], [18.191971, 45.926491], [18.191427, 45.926109], [18.190334, 45.926101], [18.187608, 45.92608], [18.186516, 45.926071], [18.184877, 45.926437], [18.175622, 45.924841], [18.167462, 45.923636], [18.163106, 45.92284], [18.147884, 45.919675], [18.142994, 45.918489], [18.143522, 45.919256], [18.144067, 45.919645], [18.14514, 45.920794], [18.146219, 45.921565], [18.143472, 45.922305], [18.142383, 45.922674], [18.140217, 45.921516], [18.136444, 45.918821], [18.1359, 45.918432], [18.134808, 45.918423], [18.134795, 45.919185], [18.135327, 45.92033], [18.135295, 45.922239], [18.13468, 45.926039], [18.1341, 45.928321], [18.133546, 45.929079], [18.133533, 45.929835], [18.132522, 45.931737], [18.13239, 45.932875], [18.1329, 45.934782], [18.132881, 45.935922], [18.13259, 45.936886], [18.132307, 45.937827], [18.131756, 45.937822], [18.131737, 45.938963], [18.131718, 45.940103], [18.131705, 45.940865], [18.131692, 45.941627], [18.131673, 45.942768], [18.132702, 45.946588], [18.132154, 45.946961], [18.13051, 45.946948], [18.128876, 45.946934], [18.122878, 45.946507], [18.12174, 45.949163], [18.121172, 45.950683], [18.120615, 45.951056], [18.120054, 45.952192], [18.119505, 45.952572], [18.118393, 45.953703], [18.116208, 45.953685], [18.114586, 45.952909], [18.114041, 45.952526], [18.112968, 45.951377], [18.112394, 45.953275], [18.110733, 45.954786], [18.110163, 45.955922], [18.109614, 45.956295], [18.105689, 45.962355], [18.10345, 45.965385], [18.102331, 45.966901], [18.102866, 45.967283], [18.101191, 45.969556], [18.100079, 45.970687], [18.098966, 45.971818], [18.097297, 45.973713], [18.096735, 45.974849], [18.095602, 45.977126], [18.098853, 45.978294], [18.10102, 45.979453], [18.102093, 45.980609], [18.102622, 45.981369], [18.103709, 45.981763], [18.106424, 45.982548], [18.107505, 45.983319], [18.108591, 45.983706], [18.111314, 45.984107], [18.112893, 45.987932], [18.113941, 45.990606], [18.114444, 45.992897], [18.114398, 45.995562], [18.114392, 45.99594], [18.114359, 45.997842], [18.114346, 45.998605], [18.113797, 45.998984], [18.113233, 45.999742], [18.113213, 46.000882], [18.112664, 46.001256], [18.113751, 46.001649], [18.11483, 46.002036], [18.114268, 46.003178], [18.115355, 46.003565], [18.114791, 46.004323], [18.114235, 46.005081], [18.11256, 46.007348], [18.112002, 46.007727], [18.111453, 46.008101], [18.111733, 46.008201], [18.115793, 46.009662], [18.115787, 46.01004], [18.115218, 46.01156], [18.114654, 46.012317], [18.114098, 46.013075], [18.112985, 46.014206], [18.111335, 46.014955], [18.111865, 46.015722], [18.1069, 46.018345], [18.116549, 46.029471], [18.125671, 46.039828], [18.128895, 46.042898], [18.134808, 46.049039], [18.133177, 46.048648], [18.131026, 46.046343], [18.130483, 46.046339], [18.126182, 46.041736], [18.123987, 46.042096], [18.122895, 46.042471], [18.11357, 46.043918], [18.112475, 46.043909], [18.110831, 46.044274], [18.109187, 46.044644], [18.107521, 46.045771], [18.103668, 46.047263], [18.103125, 46.047258], [18.103132, 46.046874], [18.095472, 46.047194], [18.095988, 46.048717], [18.095975, 46.049479], [18.094344, 46.049087], [18.093792, 46.049082], [18.090524, 46.04867], [18.090531, 46.048292], [18.087253, 46.047886], [18.086166, 46.047493], [18.077452, 46.045515], [18.076875, 46.047413], [18.077377, 46.049704], [18.0779, 46.050849], [18.07733, 46.052369], [18.074604, 46.051961], [18.073516, 46.051574], [18.069137, 46.051536], [18.069117, 46.052676], [18.068547, 46.054196], [18.06799, 46.054953], [18.067431, 46.055326], [18.066323, 46.056079], [18.064658, 46.057589], [18.064108, 46.057963], [18.064101, 46.058347], [18.063528, 46.059482], [18.063522, 46.059866], [18.063494, 46.061385], [18.062351, 46.06404], [18.06178, 46.06556], [18.06176, 46.066706], [18.061753, 46.067084], [18.061739, 46.067846], [18.061732, 46.068224], [18.062261, 46.068991], [18.062254, 46.069376], [18.062241, 46.070138], [18.062234, 46.070516], [18.062772, 46.071283], [18.063281, 46.07319], [18.063267, 46.073952], [18.063784, 46.07586], [18.064314, 46.076627], [18.066422, 46.081213], [18.065863, 46.081593], [18.065849, 46.082355], [18.065842, 46.082733], [18.065822, 46.083873], [18.065251, 46.085393], [18.065237, 46.086155], [18.06523, 46.086533], [18.065217, 46.087296], [18.065712, 46.089965], [18.06625, 46.090732], [18.066229, 46.091879], [18.066195, 46.093781], [18.067277, 46.094553], [18.06725, 46.096071], [18.066656, 46.098353], [18.065114, 46.099422], [18.06333, 46.100989], [18.062771, 46.101369], [18.062213, 46.102126], [18.061083, 46.104019], [18.059414, 46.105145], [18.057727, 46.107795], [18.057176, 46.108175], [18.057916, 46.115233], [18.058573, 46.121513], [18.058567, 46.121891], [18.05856, 46.122275], [18.058553, 46.122653], [18.058009, 46.122649], [18.057457, 46.122644], [18.05636, 46.122634], [18.054721, 46.12262], [18.054168, 46.122615], [18.053625, 46.12261], [18.053081, 46.122605], [18.052535, 46.122222], [18.051992, 46.122217], [18.051432, 46.122591], [18.050889, 46.122586], [18.050343, 46.122203], [18.0498, 46.122198], [18.049249, 46.122571], [18.048146, 46.122946], [18.047043, 46.123314], [18.047036, 46.123698], [18.048111, 46.124848], [18.048662, 46.124475], [18.050322, 46.123343], [18.050875, 46.123348], [18.055803, 46.123392], [18.05634, 46.123781], [18.056892, 46.123785], [18.057429, 46.124168], [18.057988, 46.123795], [18.059075, 46.123805], [18.059628, 46.12381], [18.060179, 46.12343], [18.060738, 46.123057], [18.060192, 46.122668], [18.060745, 46.122673], [18.060752, 46.122295], [18.061295, 46.122299], [18.061855, 46.12192], [18.062405, 46.121547], [18.063501, 46.121556], [18.064045, 46.121561], [18.064598, 46.121566], [18.065148, 46.121193], [18.066244, 46.121202], [18.066796, 46.121207], [18.068436, 46.121221], [18.073289, 46.125447], [18.073812, 46.126598], [18.073799, 46.127361], [18.075461, 46.126613], [18.076555, 46.126238], [18.077665, 46.125485], [18.078129, 46.125234], [18.078775, 46.124738], [18.079334, 46.124359], [18.079627, 46.124139], [18.081562, 46.123684], [18.082, 46.123465], [18.082293, 46.123296], [18.08237, 46.123197], [18.082649, 46.123035], [18.077105, 46.131799], [18.077006, 46.131957], [18.065742, 46.148997], [18.065198, 46.148992], [18.063542, 46.149356], [18.063535, 46.14974], [18.062447, 46.14973], [18.061888, 46.150104], [18.06242, 46.151249], [18.062413, 46.151633], [18.062385, 46.153157], [18.062351, 46.15506], [18.06233, 46.1562], [18.062296, 46.158103], [18.062826, 46.15887], [18.063356, 46.159637], [18.063895, 46.160404], [18.064971, 46.161554], [18.066578, 46.163477], [18.067115, 46.16386], [18.067633, 46.165767], [18.068143, 46.167674], [18.069745, 46.170353], [18.069738, 46.170738], [18.069725, 46.1715], [18.068614, 46.172253], [18.0686, 46.173015], [18.069124, 46.17416], [18.069663, 46.174927], [18.071284, 46.176082], [18.075079, 46.178401], [18.077246, 46.179939], [18.077239, 46.180323], [18.078316, 46.181473], [18.080495, 46.181876], [18.082098, 46.184555], [18.082091, 46.184933], [18.081531, 46.185312], [18.081518, 46.186074], [18.081511, 46.186453], [18.083148, 46.187229], [18.085334, 46.187248], [18.085327, 46.187626], [18.086425, 46.187635], [18.087515, 46.188029], [18.088579, 46.18994], [18.087461, 46.191071], [18.087968, 46.193741], [18.086816, 46.196781], [18.09393, 46.197219], [18.097797, 46.196112], [18.098334, 46.196494], [18.098328, 46.196878], [18.099439, 46.196125], [18.099989, 46.195752], [18.101647, 46.195382], [18.102205, 46.194624], [18.102749, 46.194628], [18.102756, 46.19425], [18.102762, 46.193866], [18.103322, 46.193493], [18.10386, 46.193875], [18.104964, 46.193506], [18.106068, 46.193131], [18.106081, 46.192375], [18.106095, 46.191613], [18.106101, 46.191229], [18.107192, 46.191622], [18.1094, 46.190878], [18.109938, 46.191261], [18.109958, 46.190121], [18.109446, 46.188214], [18.111088, 46.188227], [18.111639, 46.187847], [18.112192, 46.187852], [18.112723, 46.188619], [18.112717, 46.189003], [18.11271, 46.189381], [18.111619, 46.188994], [18.111606, 46.18975], [18.112153, 46.190139], [18.113244, 46.190526], [18.114367, 46.189017], [18.115445, 46.190166], [18.117284, 46.189334], [18.118755, 46.188669], [18.118742, 46.189431], [18.120956, 46.188309], [18.123171, 46.18718], [18.124274, 46.186811], [18.124268, 46.187189], [18.124819, 46.186816], [18.125356, 46.187198], [18.125903, 46.187587], [18.126441, 46.18797], [18.128629, 46.188372], [18.129182, 46.188376], [18.130271, 46.188385], [18.129733, 46.187996], [18.129189, 46.187992], [18.12974, 46.187618], [18.129746, 46.187234], [18.129221, 46.186089], [18.129791, 46.184569], [18.132018, 46.182685], [18.133135, 46.181553], [18.134419, 46.181369], [18.136277, 46.181593], [18.138873, 46.182379], [18.13969, 46.182747], [18.141306, 46.182851], [18.14384, 46.182494], [18.146271, 46.181758], [18.148222, 46.180802], [18.149608, 46.179783], [18.150177, 46.178263], [18.153847, 46.179182], [18.155749, 46.177508], [18.156233, 46.176786], [18.161172, 46.176447], [18.161716, 46.176451], [18.161722, 46.176067], [18.161184, 46.175685], [18.160646, 46.175296], [18.161197, 46.174923], [18.161513, 46.175099], [18.161735, 46.175305], [18.162282, 46.175693], [18.162813, 46.17646], [18.16336, 46.176842], [18.164464, 46.176473], [18.16447, 46.176089], [18.163923, 46.175706], [18.162844, 46.174551], [18.163397, 46.174555], [18.163948, 46.174182], [18.163416, 46.173415], [18.162875, 46.172649], [18.162882, 46.172271], [18.163435, 46.172275], [18.163985, 46.171895], [18.165088, 46.171526], [18.165635, 46.171908], [18.166173, 46.172296], [18.16727, 46.172305], [18.167556, 46.172298], [18.167814, 46.172309], [18.168527, 46.171898], [18.168924, 46.171555], [18.169261, 46.170728], [18.169489, 46.170797], [18.170577, 46.170806], [18.171344, 46.170754], [18.17168, 46.170437], [18.172677, 46.170634], [18.173324, 46.170546], [18.173875, 46.170454], [18.176643, 46.168566], [18.177202, 46.168192], [18.177753, 46.167812], [18.178856, 46.167443], [18.182147, 46.167468], [18.182691, 46.167472], [18.183788, 46.167481], [18.184338, 46.167107], [18.184356, 46.16596], [18.184368, 46.165198], [18.184939, 46.164062], [18.184945, 46.163684], [18.184952, 46.1633], [18.185508, 46.162542], [18.185514, 46.162163], [18.187176, 46.161414], [18.188291, 46.160282], [18.189397, 46.159144], [18.189403, 46.158766], [18.188859, 46.158761], [18.188871, 46.157999], [18.189439, 46.156479], [18.190173, 46.154839], [18.191444, 46.153404], [18.192227, 46.153835], [18.192233, 46.153457], [18.192783, 46.153077], [18.192251, 46.15231], [18.192813, 46.151174], [18.193934, 46.149658], [18.193946, 46.148896], [18.194507, 46.147759], [18.194531, 46.146235], [18.194537, 46.145857], [18.194549, 46.145095], [18.194011, 46.144712], [18.194017, 46.144328], [18.192933, 46.143558], [18.192401, 46.142791], [18.191854, 46.142409], [18.191322, 46.141643], [18.191346, 46.140118], [18.190806, 46.139352], [18.189733, 46.137825], [18.189195, 46.137436]]]}}]}