{"type":"FeatureCollection","features":[{"type":"Feature","properties":{"name":"Teraina","admin":"island","source":"© OpenStreetMap contributors, ODbL 1.0","osm_way":88311639},"geometry":{"type":"Polygon","coordinates":[[[-160.41048,4.69146],[-160.41048,4.69136],[-160.41044,4.69123],[-160.4104,4.69106],[-160.41038,4.69092],[-160.41038,4.69075],[-160.41038,4.69046],[-160.41038,4.69034],[-160.41041,4.69018],[-160.41042,4.6901],[-160.41042,4.69003],[-160.41037,4.68984],[-160.41036,4.68972],[-160.41036,4.68964],[-160.41039,4.68951],[-160.41044,4.68941],[-160.41044,4.68934],[-160.41042,4.68927],[-160.41038,4.68921],[-160.41024,4.68913],[-160.4102,4.68908],[-160.41012,4.68892],[-160.41005,4.68877],[-160.41001,4.68863],[-160.40994,4.68831],[-160.40986,4.68805],[-160.40976,4.68777],[-160.4096,4.68748],[-160.4094,4.68719],[-160.40913,4.68685],[-160.40882,4.68651],[-160.40849,4.68619],[-160.4081,4.68589],[-160.40785,4.68572],[-160.4075,4.68551],[-160.40718,4.68534],[-160.40688,4.6852],[-160.40666,4.68508],[-160.4061,4.6848],[-160.40601,4.68475],[-160.40592,4.6847],[-160.40569,4.68453],[-160.4053,4.68423],[-160.40523,4.68417],[-160.40516,4.68412],[-160.40467,4.68385],[-160.40425,4.68358],[-160.40376,4.68331],[-160.40348,4.68316],[-160.40332,4.6831],[-160.4032,4.68307],[-160.40302,4.68305],[-160.40295,4.68304],[-160.40289,4.68301],[-160.40273,4.68289],[-160.40266,4.68282],[-160.40262,4.68277],[-160.4026,4.6827],[-160.40256,4.68262],[-160.40247,4.68246],[-160.40242,4.68237],[-160.40237,4.68231],[-160.40205,4.68203],[-160.40148,4.68155],[-160.401,4.6811],[-160.40049,4.68069],[-160.40015,4.6804],[-160.39975,4.68006],[-160.39958,4.67994],[-160.39923,4.67974],[-160.39911,4.67966],[-160.39878,4.67943],[-160.39865,4.67935],[-160.39836,4.6792],[-160.39789,4.67902],[-160.39771,4.67895],[-160.39753,4.67884],[-160.3973,4.67868],[-160.39695,4.67839],[-160.3966,4.67813],[-160.39641,4.678],[-160.39598,4.67774],[-160.39546,4.67747],[-160.39505,4.67726],[-160.39452,4.677],[-160.39388,4.67671],[-160.39348,4.67658],[-160.39307,4.67645],[-160.39268,4.67634],[-160.39223,4.67619],[-160.3917,4.67603],[-160.3911,4.67587],[-160.39075,4.67578],[-160.39035,4.67567],[-160.38982,4.67549],[-160.3892,4.67528],[-160.38873,4.6751],[-160.38829,4.67494],[-160.38787,4.6748],[-160.38774,4.67474],[-160.38736,4.67453],[-160.38704,4.67433],[-160.38662,4.6741],[-160.38616,4.67389],[-160.38575,4.6737],[-160.38533,4.67348],[-160.38496,4.67332],[-160.38464,4.67315],[-160.38427,4.67295],[-160.3838,4.67269],[-160.38346,4.67252],[-160.38307,4.67231],[-160.38262,4.67208],[-160.38209,4.67179],[-160.3814,4.67142],[-160.3808,4.6711],[-160.38042,4.67092],[-160.37988,4.67069],[-160.37913,4.67038],[-160.37895,4.67031],[-160.37874,4.67023],[-160.37788,4.66992],[-160.37756,4.66983],[-160.37711,4.66971],[-160.3765,4.66961],[-160.37577,4.6695],[-160.37488,4.66937],[-160.37417,4.6693],[-160.37341,4.66919],[-160.37251,4.66909],[-160.37169,4.66899],[-160.37118,4.66896],[-160.37074,4.66894],[-160.37023,4.66893],[-160.36979,4.66891],[-160.36911,4.66887],[-160.3683,4.66883],[-160.36753,4.66879],[-160.36665,4.66875],[-160.36606,4.66874],[-160.36548,4.66872],[-160.36505,4.66869],[-160.36488,4.66867],[-160.36455,4.6686],[-160.36439,4.66858],[-160.36388,4.66855],[-160.3635,4.66855],[-160.36308,4.66855],[-160.36259,4.66858],[-160.36222,4.66862],[-160.36189,4.66868],[-160.36156,4.66876],[-160.36132,4.66881],[-160.36097,4.66886],[-160.36051,4.66894],[-160.35993,4.66907],[-160.35948,4.66916],[-160.35894,4.66926],[-160.35865,4.66931],[-160.35825,4.66941],[-160.3579,4.66948],[-160.35769,4.66955],[-160.35729,4.66972],[-160.35675,4.66997],[-160.35621,4.67023],[-160.35557,4.67056],[-160.35511,4.67082],[-160.35449,4.67121],[-160.3542,4.6714],[-160.35403,4.67154],[-160.35355,4.67195],[-160.35312,4.6723],[-160.35299,4.67244],[-160.35271,4.67274],[-160.35263,4.67283],[-160.35233,4.67315],[-160.35203,4.67343],[-160.35189,4.67358],[-160.35155,4.67402],[-160.35133,4.67432],[-160.35122,4.67451],[-160.351,4.67493],[-160.35091,4.67518],[-160.35077,4.67569],[-160.3507,4.67596],[-160.35051,4.67651],[-160.35043,4.6768],[-160.35039,4.67704],[-160.35037,4.67727],[-160.35035,4.67742],[-160.35035,4.67764],[-160.35036,4.67784],[-160.35041,4.6782],[-160.35045,4.67837],[-160.35049,4.67853],[-160.3506,4.67886],[-160.35071,4.67913],[-160.3508,4.67931],[-160.35098,4.67961],[-160.35104,4.67971],[-160.35109,4.67983],[-160.35112,4.68002],[-160.35113,4.68014],[-160.35113,4.68058],[-160.35115,4.68071],[-160.35116,4.68082],[-160.35128,4.68136],[-160.35133,4.68155],[-160.35138,4.68169],[-160.35154,4.68201],[-160.35161,4.68213],[-160.35181,4.68242],[-160.35188,4.68253],[-160.35196,4.68271],[-160.35203,4.68298],[-160.35205,4.68314],[-160.35206,4.68333],[-160.35202,4.68364],[-160.35198,4.684],[-160.35197,4.68419],[-160.35197,4.68449],[-160.35198,4.68463],[-160.35201,4.68474],[-160.35209,4.68494],[-160.3522,4.68514],[-160.35235,4.68536],[-160.35257,4.6856],[-160.35283,4.68584],[-160.35308,4.68604],[-160.35347,4.68629],[-160.35379,4.68651],[-160.35422,4.68675],[-160.35461,4.68697],[-160.35494,4.68712],[-160.35514,4.6872],[-160.35534,4.68724],[-160.35555,4.68726],[-160.35585,4.68726],[-160.35611,4.68723],[-160.35639,4.68717],[-160.35656,4.68716],[-160.35671,4.68718],[-160.35699,4.68725],[-160.35717,4.68732],[-160.35743,4.68748],[-160.35775,4.68767],[-160.35804,4.68783],[-160.35832,4.68797],[-160.35855,4.68807],[-160.3589,4.68818],[-160.35919,4.68826],[-160.35946,4.68835],[-160.35994,4.68855],[-160.36041,4.68872],[-160.36067,4.6888],[-160.36093,4.68887],[-160.36115,4.6889],[-160.36144,4.6889],[-160.36169,4.68888],[-160.36187,4.68887],[-160.36205,4.68887],[-160.36223,4.68891],[-160.36285,4.68904],[-160.36353,4.68917],[-160.36405,4.68926],[-160.36448,4.68934],[-160.36507,4.68953],[-160.36573,4.68973],[-160.36605,4.68982],[-160.36672,4.69001],[-160.36702,4.6901],[-160.36776,4.69028],[-160.36832,4.6904],[-160.36852,4.69046],[-160.36901,4.69062],[-160.36946,4.69084],[-160.36966,4.69093],[-160.37001,4.69104],[-160.37052,4.69116],[-160.3708,4.69124],[-160.37125,4.69141],[-160.37146,4.69151],[-160.37191,4.69177],[-160.37205,4.69184],[-160.37266,4.69207],[-160.37295,4.6922],[-160.37367,4.69256],[-160.3741,4.69276],[-160.37429,4.69287],[-160.37471,4.69313],[-160.37483,4.6932],[-160.37532,4.69346],[-160.37543,4.69353],[-160.37591,4.69383],[-160.3764,4.69409],[-160.37706,4.69458],[-160.37718,4.69466],[-160.37736,4.69475],[-160.37813,4.69514],[-160.37845,4.69531],[-160.37886,4.69554],[-160.37908,4.69568],[-160.37922,4.69575],[-160.37962,4.69592],[-160.38023,4.69618],[-160.38069,4.69639],[-160.38116,4.69662],[-160.38131,4.69669],[-160.38151,4.69675],[-160.38173,4.69679],[-160.38199,4.69681],[-160.38237,4.69683],[-160.38269,4.69681],[-160.38315,4.69675],[-160.38339,4.69671],[-160.38355,4.69672],[-160.38371,4.69673],[-160.38393,4.69679],[-160.38413,4.69688],[-160.38433,4.69697],[-160.38456,4.69706],[-160.38555,4.69742],[-160.38562,4.69745],[-160.38587,4.69757],[-160.386,4.69762],[-160.38647,4.69779],[-160.38656,4.69783],[-160.38695,4.69805],[-160.38708,4.69811],[-160.38731,4.69822],[-160.38745,4.69826],[-160.38765,4.6983],[-160.38827,4.6984],[-160.38914,4.69856],[-160.38953,4.69865],[-160.39018,4.69885],[-160.39029,4.69887],[-160.39154,4.69907],[-160.3917,4.69909],[-160.39189,4.69909],[-160.39274,4.69906],[-160.39285,4.69906],[-160.39299,4.69908],[-160.39345,4.69914],[-160.3936,4.69916],[-160.39377,4.69916],[-160.39453,4.69914],[-160.39463,4.69913],[-160.39474,4.69911],[-160.39516,4.69905],[-160.39526,4.69904],[-160.39642,4.69906],[-160.39676,4.69907],[-160.39691,4.69906],[-160.39706,4.69905],[-160.39731,4.69903],[-160.39739,4.69903],[-160.39748,4.69903],[-160.39765,4.69907],[-160.39804,4.69917],[-160.39827,4.69921],[-160.39834,4.69921],[-160.39877,4.69922],[-160.39904,4.69922],[-160.39913,4.69923],[-160.39967,4.69931],[-160.39984,4.69933],[-160.39995,4.69934],[-160.4001,4.69934],[-160.40046,4.69931],[-160.40072,4.69928],[-160.40103,4.69923],[-160.40124,4.69917],[-160.40135,4.69913],[-160.40147,4.69908],[-160.40189,4.69886],[-160.40203,4.69877],[-160.40238,4.6985],[-160.40263,4.69834],[-160.40296,4.69816],[-160.40337,4.69795],[-160.40386,4.6977],[-160.404,4.69765],[-160.40411,4.69762],[-160.40435,4.6976],[-160.40448,4.69757],[-160.40489,4.69745],[-160.40509,4.6974],[-160.4053,4.69731],[-160.40581,4.69709],[-160.40613,4.69695],[-160.40642,4.69679],[-160.40669,4.69661],[-160.40693,4.69644],[-160.4071,4.69629],[-160.40756,4.69586],[-160.40773,4.69569],[-160.40783,4.69562],[-160.40818,4.69546],[-160.4083,4.6954],[-160.40839,4.69533],[-160.40857,4.6952],[-160.40882,4.695],[-160.40915,4.69472],[-160.40941,4.69451],[-160.40964,4.69429],[-160.4098,4.69407],[-160.40989,4.69389],[-160.40995,4.69369],[-160.41004,4.69333],[-160.41012,4.69305],[-160.41015,4.69287],[-160.41016,4.69273],[-160.41015,4.69261],[-160.41017,4.69253],[-160.41027,4.69221],[-160.41028,4.69213],[-160.41029,4.69205],[-160.41029,4.69176],[-160.41029,4.69171],[-160.41032,4.69168],[-160.41039,4.69162],[-160.41044,4.69155],[-160.41048,4.69146]]]}}]}