{"type": "FeatureCollection", "features": [{"type": "Feature", "properties": {"name": "Kyoto-fu", "admin": "fu", "source": "\u00a9 OpenStreetMap contributors, ODbL 1.0", "osm_relation": 2137477}, "geometry": {"type": "Polygon", "coordinates": [[[135.969754, 34.740524], [135.970657, 34.740891], [135.971349, 34.741825], [135.971922, 34.742061], [135.972927, 34.742044], [135.973339, 34.741322], [135.974099, 34.741092], [135.974795, 34.74035], [135.976109, 34.741141], [135.976682, 34.740531], [135.976316, 34.739287], [135.977655, 34.737451], [135.978562, 34.736794], [135.979303, 34.736694], [135.980293, 34.737298], [135.980817, 34.737248], [135.981352, 34.734939], [135.983712, 34.734407], [135.98343, 34.732839], [135.98267, 34.732067], [135.983243, 34.730767], [135.984541, 34.72961], [135.985145, 34.727923], [135.986093, 34.726468], [135.985514, 34.725273], [135.985962, 34.724277], [135.985682, 34.723331], [135.985975, 34.722357], [135.98504, 34.719178], [135.985277, 34.718593], [135.986398, 34.717616], [135.986068, 34.717057], [135.986255, 34.715195], [135.989866, 34.714814], [135.990707, 34.713781], [135.992302, 34.714616], [135.99252, 34.714429], [135.992365, 34.713769], [135.991533, 34.712663], [135.99215, 34.712153], [135.998168, 34.713555], [135.999685, 34.712955], [136.002182, 34.714637], [136.002609, 34.715811], [136.004938, 34.717314], [136.006884, 34.716678], [136.009322, 34.716614], [136.012682, 34.714029], [136.013408, 34.713147], [136.013767, 34.711385], [136.012871, 34.708633], [136.013345, 34.707988], [136.015072, 34.70782], [136.01926, 34.708597], [136.0248, 34.706602], [136.027598, 34.706058], [136.028776, 34.706328], [136.02824, 34.707585], [136.028246, 34.709206], [136.027813, 34.709885], [136.02865, 34.710876], [136.028418, 34.711571], [136.029117, 34.713523], [136.029591, 34.713865], [136.031268, 34.713754], [136.031773, 34.715142], [136.033721, 34.716052], [136.033809, 34.717699], [136.037581, 34.719344], [136.038377, 34.71936], [136.039474, 34.720156], [136.039938, 34.723882], [136.040932, 34.725829], [136.041187, 34.727525], [136.04163, 34.727974], [136.041034, 34.730752], [136.041867, 34.734276], [136.043004, 34.73611], [136.044544, 34.737167], [136.047068, 34.737285], [136.047736, 34.737821], [136.04914, 34.738078], [136.049979, 34.738596], [136.055476, 34.738556], [136.053691, 34.73886], [136.052658, 34.740206], [136.051046, 34.739991], [136.049702, 34.740583], [136.048122, 34.742401], [136.04741, 34.744411], [136.044802, 34.746498], [136.043181, 34.746826], [136.042673, 34.747963], [136.040853, 34.748537], [136.039103, 34.749523], [136.038879, 34.752456], [136.037395, 34.754299], [136.038139, 34.756451], [136.036655, 34.756411], [136.034411, 34.756877], [136.030534, 34.755828], [136.0286, 34.757457], [136.028379, 34.75833], [136.028997, 34.760142], [136.030689, 34.761335], [136.031031, 34.761922], [136.029327, 34.765079], [136.030695, 34.768661], [136.031649, 34.770186], [136.033315, 34.771819], [136.034114, 34.77405], [136.033623, 34.775061], [136.033833, 34.777898], [136.033577, 34.779439], [136.031914, 34.780166], [136.030866, 34.779444], [136.029984, 34.779992], [136.029635, 34.780968], [136.029277, 34.780596], [136.028209, 34.7809], [136.027994, 34.780646], [136.025197, 34.781342], [136.023818, 34.782288], [136.022606, 34.782311], [136.020891, 34.785636], [136.019949, 34.786487], [136.020274, 34.788226], [136.020814, 34.789028], [136.020109, 34.790247], [136.021911, 34.790557], [136.022289, 34.791555], [136.021417, 34.791756], [136.021327, 34.792169], [136.019633, 34.792197], [136.016382, 34.794606], [136.016242, 34.797264], [136.015862, 34.797813], [136.014082, 34.797253], [136.013236, 34.796721], [136.012547, 34.795667], [136.01188, 34.795672], [136.011247, 34.795861], [136.011146, 34.797372], [136.010799, 34.798137], [136.010171, 34.798456], [136.010607, 34.799378], [136.010159, 34.799724], [136.011264, 34.801437], [136.011382, 34.802336], [136.012363, 34.803159], [136.014134, 34.805763], [136.01512, 34.807752], [136.015051, 34.809146], [136.01651, 34.810139], [136.016696, 34.81107], [136.018658, 34.812671], [136.019442, 34.812269], [136.020716, 34.812284], [136.022295, 34.812902], [136.02461, 34.814845], [136.025956, 34.814394], [136.026174, 34.814745], [136.027374, 34.814911], [136.028619, 34.816044], [136.029034, 34.81739], [136.027858, 34.821665], [136.026787, 34.821723], [136.026091, 34.82262], [136.025358, 34.822606], [136.024361, 34.823581], [136.021804, 34.824599], [136.021108, 34.825394], [136.018512, 34.826867], [136.017745, 34.828319], [136.016922, 34.828402], [136.016273, 34.828911], [136.015916, 34.828751], [136.01549, 34.826599], [136.012166, 34.825174], [136.009739, 34.826103], [136.005763, 34.826158], [136.005382, 34.826556], [136.00513, 34.827917], [136.003999, 34.829629], [136.003779, 34.831113], [136.002625, 34.832048], [136.002328, 34.832762], [136.002787, 34.833562], [136.002507, 34.834229], [136.002882, 34.8357], [136.002559, 34.837341], [136.003987, 34.838911], [136.004066, 34.840308], [136.003649, 34.841076], [136.004267, 34.842197], [136.005342, 34.842876], [136.003993, 34.844341], [136.001324, 34.845057], [135.999206, 34.844954], [135.998585, 34.844443], [135.997757, 34.8444], [135.996888, 34.84354], [135.995345, 34.843009], [135.994544, 34.842125], [135.992734, 34.842327], [135.991853, 34.842898], [135.989901, 34.841862], [135.989646, 34.84145], [135.987638, 34.840649], [135.987086, 34.840801], [135.986637, 34.841432], [135.984946, 34.841532], [135.981797, 34.839178], [135.979657, 34.83911], [135.977777, 34.838461], [135.974265, 34.838587], [135.97324, 34.837913], [135.971298, 34.838494], [135.969867, 34.837779], [135.971299, 34.840472], [135.971626, 34.842479], [135.971043, 34.843641], [135.972056, 34.845179], [135.972054, 34.846049], [135.971441, 34.846445], [135.970613, 34.846487], [135.970194, 34.847169], [135.967796, 34.846706], [135.967132, 34.847355], [135.967029, 34.848466], [135.966599, 34.84917], [135.962733, 34.850434], [135.962884, 34.853127], [135.962066, 34.853371], [135.961399, 34.85466], [135.959416, 34.853885], [135.958782, 34.855005], [135.957134, 34.854776], [135.955025, 34.853385], [135.953614, 34.853326], [135.952611, 34.852288], [135.951221, 34.852431], [135.949585, 34.85158], [135.948599, 34.851942], [135.947424, 34.851302], [135.946351, 34.851631], [135.946187, 34.851782], [135.947046, 34.853832], [135.945787, 34.856413], [135.945101, 34.857191], [135.945212, 34.858541], [135.944578, 34.859501], [135.943781, 34.859409], [135.943178, 34.859779], [135.942932, 34.861164], [135.942052, 34.862001], [135.94241, 34.862666], [135.940927, 34.863891], [135.941377, 34.868236], [135.94286, 34.870601], [135.94287, 34.871274], [135.943627, 34.872794], [135.943218, 34.874167], [135.943749, 34.874962], [135.943075, 34.875972], [135.942737, 34.877551], [135.943247, 34.878252], [135.941396, 34.87967], [135.940292, 34.880041], [135.939659, 34.881383], [135.939792, 34.882023], [135.94064, 34.882292], [135.941192, 34.884494], [135.940435, 34.886428], [135.940353, 34.88798], [135.939566, 34.888637], [135.939975, 34.889188], [135.940353, 34.890943], [135.940271, 34.892378], [135.941007, 34.893683], [135.939556, 34.893406], [135.936026, 34.891641], [135.93363, 34.887997], [135.932465, 34.887811], [135.930846, 34.888636], [135.92871, 34.888106], [135.927808, 34.886872], [135.927091, 34.886914], [135.926231, 34.885841], [135.924146, 34.885066], [135.923584, 34.883761], [135.923226, 34.883617], [135.922046, 34.883652], [135.920237, 34.884536], [135.918571, 34.884789], [135.915436, 34.883405], [135.914495, 34.883826], [135.913154, 34.88315], [135.912656, 34.883516], [135.911476, 34.882024], [135.911535, 34.881638], [135.910772, 34.881128], [135.910617, 34.880627], [135.909879, 34.880362], [135.910093, 34.879769], [135.909295, 34.877914], [135.909663, 34.877154], [135.908638, 34.876456], [135.907669, 34.876343], [135.906791, 34.875481], [135.907422, 34.874019], [135.904152, 34.873812], [135.900718, 34.871807], [135.897891, 34.871267], [135.897296, 34.871297], [135.895922, 34.873068], [135.891967, 34.87455], [135.889771, 34.874829], [135.888722, 34.875496], [135.885002, 34.875546], [135.885514, 34.876685], [135.885335, 34.877392], [135.885729, 34.878554], [135.886588, 34.879242], [135.888601, 34.87988], [135.888601, 34.881582], [135.886931, 34.883206], [135.884179, 34.884512], [135.88122, 34.883825], [135.879847, 34.884749], [135.878621, 34.885142], [135.877975, 34.886559], [135.875865, 34.886286], [135.874911, 34.887542], [135.874387, 34.888867], [135.872374, 34.88873], [135.86986, 34.890679], [135.866637, 34.89214], [135.867646, 34.893716], [135.867289, 34.896869], [135.866531, 34.898451], [135.863269, 34.902492], [135.862934, 34.903387], [135.867375, 34.906995], [135.869669, 34.907817], [135.871178, 34.909949], [135.871475, 34.910972], [135.871342, 34.91476], [135.86936, 34.916335], [135.869195, 34.918194], [135.868654, 34.919525], [135.870168, 34.921295], [135.870377, 34.922797], [135.871282, 34.923222], [135.871854, 34.923899], [135.870713, 34.926004], [135.872649, 34.926918], [135.872874, 34.928208], [135.874646, 34.930218], [135.875947, 34.930749], [135.876841, 34.932654], [135.877643, 34.932775], [135.879924, 34.934525], [135.878397, 34.936927], [135.878504, 34.937914], [135.877643, 34.939541], [135.876547, 34.940574], [135.877056, 34.941236], [135.876028, 34.94323], [135.876958, 34.945009], [135.878748, 34.946714], [135.878748, 34.947045], [135.876008, 34.949939], [135.875427, 34.953665], [135.874761, 34.953996], [135.874204, 34.955018], [135.871837, 34.955567], [135.870854, 34.955352], [135.869582, 34.956678], [135.867712, 34.956546], [135.863878, 34.957602], [135.863511, 34.958114], [135.863681, 34.959358], [135.863043, 34.960781], [135.862081, 34.961319], [135.861232, 34.962878], [135.860021, 34.963125], [135.859053, 34.964085], [135.858726, 34.964996], [135.857312, 34.96622], [135.856195, 34.966726], [135.856412, 34.968469], [135.855648, 34.969879], [135.85407, 34.970864], [135.852438, 34.970789], [135.852275, 34.971347], [135.852669, 34.972916], [135.854127, 34.973954], [135.854756, 34.974978], [135.853929, 34.977189], [135.855456, 34.977876], [135.856746, 34.979665], [135.856144, 34.981296], [135.856695, 34.982457], [135.856519, 34.982911], [135.855748, 34.983382], [135.855747, 34.983991], [135.855026, 34.984742], [135.853577, 34.984218], [135.852196, 34.984538], [135.850889, 34.984119], [135.849991, 34.984899], [135.849553, 34.984561], [135.849118, 34.984812], [135.849118, 34.987166], [135.849854, 34.988391], [135.850087, 34.989967], [135.849267, 34.991734], [135.843721, 34.990256], [135.843558, 34.989587], [135.843042, 34.990006], [135.84018, 34.989998], [135.834797, 34.990779], [135.8267948, 34.9912589], [135.8279549, 34.9931003], [135.8295349, 34.9935885], [135.8294702, 34.9950869], [135.8308858, 34.9963876], [135.8306933, 34.9965499], [135.832572, 34.999101], [135.832357, 35.000835], [135.833586, 35.000948], [135.833762, 34.9993], [135.835456, 34.999254], [135.836279, 34.999957], [135.836559, 35.001226], [135.835564, 35.00308], [135.834053, 35.004475], [135.8326826, 35.0094255], [135.831686, 35.00986], [135.830542, 35.009796], [135.829178, 35.009297], [135.828667, 35.008755], [135.82768, 35.009062], [135.8268352, 35.0083679], [135.824279, 35.008717], [135.822457, 35.011936], [135.821157, 35.012819], [135.820239, 35.012962], [135.820457, 35.014529], [135.820239, 35.015194], [135.820733, 35.015739], [135.820958, 35.015689], [135.82127, 35.013813], [135.824189, 35.013236], [135.824946, 35.012351], [135.831701, 35.011709], [135.8343429, 35.012421], [135.835464, 35.012329], [135.835559, 35.012692], [135.83595, 35.014447], [135.8356881, 35.0160318], [135.834746, 35.017392], [135.835171, 35.018686], [135.834883, 35.019079], [135.834518, 35.022081], [135.833724, 35.022242], [135.832724, 35.021655], [135.830938, 35.021375], [135.829431, 35.021596], [135.828617, 35.022201], [135.827374, 35.022133], [135.826397, 35.023743], [135.826746, 35.024381], [135.826634, 35.025617], [135.827469, 35.025942], [135.827575, 35.027327], [135.828077, 35.028167], [135.827739, 35.030379], [135.825598, 35.031956], [135.825655, 35.033106], [135.824827, 35.03404], [135.824617, 35.035638], [135.824027, 35.036095], [135.823231, 35.035839], [135.821534, 35.036151], [135.819223, 35.038814], [135.817204, 35.039933], [135.815633, 35.041417], [135.8154139, 35.042151], [135.8161825, 35.0436], [135.8147843, 35.0448294], [135.814757, 35.0452], [135.8156148, 35.046949], [135.81662, 35.047982], [135.818884, 35.049153], [135.8213867, 35.0495661], [135.82204, 35.050872], [135.8231208, 35.0509991], [135.8244517, 35.052263], [135.825342, 35.052427], [135.8258489, 35.0534261], [135.826983, 35.053853], [135.8311251, 35.0526351], [135.832824, 35.052844], [135.833287, 35.053014], [135.833379, 35.054176], [135.834852, 35.055554], [135.834804, 35.056576], [135.836031, 35.059361], [135.8358469, 35.0623301], [135.834325, 35.066086], [135.834418, 35.067752], [135.832825, 35.069944], [135.832699, 35.070724], [135.831892, 35.071456], [135.833999, 35.07471], [135.834219, 35.076074], [135.835246, 35.077142], [135.836468, 35.077695], [135.836591, 35.078935], [135.838317, 35.079079], [135.838106, 35.080039], [135.838307, 35.082289], [135.839196, 35.085014], [135.83985, 35.08586], [135.838912, 35.088119], [135.837086, 35.090046], [135.835307, 35.090912], [135.835046, 35.091327], [135.837032, 35.093478], [135.837579, 35.09493], [135.837323, 35.095889], [135.839286, 35.099829], [135.841312, 35.100737], [135.841433, 35.101243], [135.842938, 35.102515], [135.843016, 35.103805], [135.843461, 35.104553], [135.842949, 35.105839], [135.843688, 35.107691], [135.843262, 35.109903], [135.844212, 35.111464], [135.845095, 35.111838], [135.8444, 35.113648], [135.844955, 35.114325], [135.846668, 35.113858], [135.84731, 35.114165], [135.848119, 35.1189], [135.849866, 35.120589], [135.849478, 35.122003], [135.85018, 35.1234], [135.849325, 35.124757], [135.849372, 35.125762], [135.849606, 35.126939], [135.850957, 35.128354], [135.850716, 35.129487], [135.851237, 35.130784], [135.851879, 35.131324], [135.852294, 35.134267], [135.85012, 35.135258], [135.849799, 35.136862], [135.850602, 35.138194], [135.849519, 35.138776], [135.849751, 35.140372], [135.8488, 35.141599], [135.848765, 35.142171], [135.850034, 35.143266], [135.851045, 35.144969], [135.852595, 35.146043], [135.852293, 35.147141], [135.852942, 35.147854], [135.852672, 35.148702], [135.853012, 35.149398], [135.853604, 35.149812], [135.853386, 35.150646], [135.853881, 35.151922], [135.854563, 35.152731], [135.856763, 35.153615], [135.856397, 35.155095], [135.856861, 35.156972], [135.856127, 35.158267], [135.856089, 35.159564], [135.854519, 35.16004], [135.8502307, 35.1603674], [135.848371, 35.161328], [135.846813, 35.162387], [135.846516, 35.164152], [135.845313, 35.165544], [135.845757, 35.166877], [135.844097, 35.168876], [135.844165, 35.169874], [135.843783, 35.170683], [135.843977, 35.171993], [135.842363, 35.173907], [135.843169, 35.176555], [135.842661, 35.177832], [135.843349, 35.178701], [135.840917, 35.17973], [135.840213, 35.181914], [135.841015, 35.184014], [135.840794, 35.185749], [135.841007, 35.186555], [135.842334, 35.187654], [135.841908, 35.18984], [135.841466, 35.190525], [135.839821, 35.191439], [135.838779, 35.194117], [135.83733, 35.196262], [135.836969, 35.19976], [135.835708, 35.200945], [135.835241, 35.20221], [135.835994, 35.203293], [135.835412, 35.205264], [135.835601, 35.206509], [135.833748, 35.208918], [135.831046, 35.210504], [135.832568, 35.214138], [135.830791, 35.214865], [135.829964, 35.215778], [135.829914, 35.217172], [135.830749, 35.218408], [135.829382, 35.219997], [135.829324, 35.220481], [135.830668, 35.222667], [135.831871, 35.222667], [135.832714, 35.223548], [135.834648, 35.224], [135.837352, 35.225957], [135.838056, 35.226105], [135.837622, 35.227107], [135.837573, 35.23016], [135.83695, 35.231662], [135.837491, 35.233732], [135.837311, 35.234257], [135.837925, 35.23528], [135.837688, 35.237204], [135.836557, 35.239054], [135.835222, 35.23964], [135.834526, 35.241119], [135.836744, 35.241221], [135.838875, 35.243306], [135.839924, 35.243851], [135.83967, 35.245229], [135.840153, 35.247932], [135.840735, 35.248674], [135.842741, 35.249507], [135.842815, 35.250093], [135.843978, 35.251492], [135.842464, 35.253017], [135.842533, 35.253852], [135.84327, 35.255279], [135.846089, 35.257112], [135.84603, 35.258424], [135.844773, 35.260999], [135.844673, 35.261985], [135.845977, 35.263356], [135.846355, 35.264637], [135.847535, 35.266665], [135.850709, 35.268373], [135.852479, 35.268959], [135.8533, 35.270261], [135.854933, 35.271422], [135.85461, 35.27558], [135.855642, 35.276571], [135.858492, 35.278373], [135.858617, 35.281244], [135.859187, 35.282019], [135.860755, 35.28296], [135.860054, 35.283515], [135.85967, 35.285592], [135.858537, 35.287097], [135.858431, 35.289229], [135.855072, 35.288338], [135.85371, 35.286868], [135.851822, 35.286122], [135.851097, 35.283563], [135.850324, 35.282566], [135.849203, 35.279694], [135.847926, 35.279096], [135.846577, 35.279245], [135.846076, 35.278709], [135.845019, 35.278356], [135.841951, 35.278161], [135.840999, 35.277814], [135.840348, 35.277145], [135.840288, 35.275675], [135.838519, 35.275688], [135.837964, 35.274616], [135.837161, 35.274717], [135.834371, 35.274134], [135.831416, 35.276209], [135.829623, 35.276735], [135.827169, 35.280321], [135.825222, 35.281861], [135.825535, 35.283512], [135.825097, 35.284905], [135.824343, 35.285383], [135.822076, 35.288632], [135.820095, 35.290795], [135.820413, 35.29155], [135.820224, 35.292332], [135.820625, 35.293592], [135.82049, 35.294273], [135.821315, 35.294681], [135.821367, 35.297057], [135.820134, 35.298324], [135.819679, 35.299307], [135.81841, 35.299835], [135.816624, 35.299956], [135.815062, 35.300968], [135.815769, 35.303116], [135.814511, 35.30701], [135.810672, 35.308317], [135.810159, 35.309184], [135.811274, 35.310069], [135.811249, 35.31353], [135.810512, 35.314332], [135.81034, 35.315043], [135.80925, 35.315266], [135.80929, 35.316433], [135.808481, 35.316941], [135.807024, 35.317072], [135.805863, 35.316816], [135.803414, 35.317323], [135.801326, 35.318576], [135.798316, 35.31968], [135.797059, 35.320624], [135.7951644, 35.3212207], [135.794853, 35.322066], [135.791136, 35.323527], [135.790034, 35.328219], [135.788759, 35.328662], [135.785909, 35.330483], [135.785836, 35.331642], [135.784843, 35.332154], [135.784, 35.334371], [135.782257, 35.336269], [135.782509, 35.338438], [135.781912, 35.339535], [135.780818, 35.340562], [135.77905, 35.339927], [135.777905, 35.341064], [135.774314, 35.34282], [135.772521, 35.342888], [135.771081, 35.343484], [135.769931, 35.343348], [135.768788, 35.343937], [135.765021, 35.344104], [135.764072, 35.344557], [135.763732, 35.345416], [135.764009, 35.346303], [135.765263, 35.34782], [135.766248, 35.348502], [135.765978, 35.350075], [135.767329, 35.350876], [135.767669, 35.3531], [135.769221, 35.353485], [135.769721, 35.354301], [135.76961, 35.355174], [135.768785, 35.356014], [135.765804, 35.355237], [135.76481, 35.356422], [135.763057, 35.356269], [135.760034, 35.354354], [135.759639, 35.353089], [135.757675, 35.354202], [135.755181, 35.354446], [135.750753, 35.357004], [135.747159, 35.357954], [135.745127, 35.358906], [135.744141, 35.358938], [135.741955, 35.358232], [135.740235, 35.358409], [135.740429, 35.357297], [135.741114, 35.356057], [135.740752, 35.354045], [135.739498, 35.353536], [135.737781, 35.351774], [135.73637, 35.351146], [135.732294, 35.350968], [135.731479, 35.350552], [135.729698, 35.351814], [135.727797, 35.352581], [135.726697, 35.351942], [135.72403, 35.351842], [135.723049, 35.353116], [135.721359, 35.353368], [135.720417, 35.354397], [135.719693, 35.354435], [135.718801, 35.355403], [135.718385, 35.355417], [135.716722, 35.353471], [135.715086, 35.354101], [135.713082, 35.353382], [135.7125, 35.352436], [135.712414, 35.350724], [135.710724, 35.348001], [135.70746, 35.346997], [135.706449, 35.345991], [135.704947, 35.346571], [135.704143, 35.344824], [135.701904, 35.344373], [135.700883, 35.343678], [135.699513, 35.344875], [135.698487, 35.344992], [135.697538, 35.344632], [135.694867, 35.345726], [135.692351, 35.345941], [135.691048, 35.346708], [135.689952, 35.347854], [135.687537, 35.348143], [135.684884, 35.347387], [135.680854, 35.349888], [135.677114, 35.349838], [135.676202, 35.35079], [135.675192, 35.350272], [135.675249, 35.351418], [135.674079, 35.352891], [135.672179, 35.354088], [135.669609, 35.354218], [135.669026, 35.356276], [135.668198, 35.357066], [135.66628, 35.356571], [135.664627, 35.356884], [135.660904, 35.356407], [135.660082, 35.356969], [135.659328, 35.358497], [135.658409, 35.359077], [135.656978, 35.358937], [135.654161, 35.359854], [135.65273, 35.35984], [135.649482, 35.361229], [135.648119, 35.362809], [135.646389, 35.363675], [135.64543, 35.364831], [135.644082, 35.365313], [135.642056, 35.366906], [135.640742, 35.366808], [135.640645, 35.36562], [135.638978, 35.364372], [135.636438, 35.363719], [135.635754, 35.364293], [135.63428, 35.364522], [135.633641, 35.365645], [135.630998, 35.365869], [135.629343, 35.366758], [135.628368, 35.366879], [135.626239, 35.368394], [135.624857, 35.368609], [135.623471, 35.369899], [135.621152, 35.36963], [135.6187, 35.370479], [135.617581, 35.369854], [135.617076, 35.370205], [135.616316, 35.370116], [135.614995, 35.37106], [135.612557, 35.369489], [135.611707, 35.369272], [135.611145, 35.366801], [135.609454, 35.369283], [135.607874, 35.370037], [135.606906, 35.371656], [135.605186, 35.371275], [135.603023, 35.372109], [135.599859, 35.371164], [135.599176, 35.372054], [135.59573, 35.372922], [135.594948, 35.37265], [135.593869, 35.370482], [135.591655, 35.369936], [135.590829, 35.368862], [135.589993, 35.368354], [135.588806, 35.368661], [135.588102, 35.368257], [135.583948, 35.370202], [135.582713, 35.372119], [135.580751, 35.373525], [135.580081, 35.373668], [135.579862, 35.374609], [135.57905, 35.375087], [135.576867, 35.374811], [135.575554, 35.37523], [135.574277, 35.374357], [135.572578, 35.374597], [135.571728, 35.374264], [135.56952, 35.375229], [135.568241, 35.374842], [135.566605, 35.376025], [135.566078, 35.377191], [135.564385, 35.377695], [135.561934, 35.376597], [135.560399, 35.37678], [135.559395, 35.376423], [135.55878, 35.37648], [135.557738, 35.377526], [135.556499, 35.377587], [135.55478, 35.377057], [135.553846, 35.377708], [135.552788, 35.377869], [135.551229, 35.377658], [135.550719, 35.376889], [135.549153, 35.377075], [135.547976, 35.376671], [135.545386, 35.377181], [135.544195, 35.376858], [135.53698, 35.376671], [135.534917, 35.377204], [135.534012, 35.377967], [135.529933, 35.379016], [135.529143, 35.379608], [135.527588, 35.380113], [135.527615, 35.382051], [135.527146, 35.384686], [135.526155, 35.386172], [135.527066, 35.386967], [135.528332, 35.387304], [135.529002, 35.388966], [135.528647, 35.390507], [135.530394, 35.391496], [135.531642, 35.392797], [135.531669, 35.393262], [135.530906, 35.394553], [135.530926, 35.395381], [135.530444, 35.395803], [135.530163, 35.397408], [135.527669, 35.397802], [135.527039, 35.39958], [135.525647, 35.400916], [135.525136, 35.402698], [135.526355, 35.405011], [135.527599, 35.405518], [135.528632, 35.407372], [135.52997, 35.408424], [135.529988, 35.410092], [135.527531, 35.41241], [135.527989, 35.413617], [135.527735, 35.415016], [135.526701, 35.415991], [135.526516, 35.416654], [135.526992, 35.418679], [135.525793, 35.420419], [135.523931, 35.421831], [135.522255, 35.421948], [135.520808, 35.422926], [135.518925, 35.4228], [135.51566, 35.421909], [135.514206, 35.423156], [135.512847, 35.423179], [135.511461, 35.4244], [135.510796, 35.424561], [135.508147, 35.42322], [135.505694, 35.420897], [135.502049, 35.420031], [135.50082, 35.421609], [135.500507, 35.422394], [135.500657, 35.422976], [135.499704, 35.42415], [135.497934, 35.425016], [135.496004, 35.425136], [135.495276, 35.42615], [135.496594, 35.427937], [135.495461, 35.429389], [135.496569, 35.430341], [135.496816, 35.431126], [135.498092, 35.432331], [135.500242, 35.432448], [135.500789, 35.433008], [135.500661, 35.433439], [135.498992, 35.434579], [135.498856, 35.43567], [135.497943, 35.437424], [135.496783, 35.437897], [135.495539, 35.438933], [135.490984, 35.438552], [135.488803, 35.438737], [135.488211, 35.439138], [135.488105, 35.439474], [135.489354, 35.441028], [135.488034, 35.443341], [135.487893, 35.444179], [135.487248, 35.444834], [135.487182, 35.446348], [135.486237, 35.447422], [135.486121, 35.448573], [135.484055, 35.447994], [135.482276, 35.448601], [135.480621, 35.448156], [135.478743, 35.449729], [135.474752, 35.452042], [135.473612, 35.453366], [135.472623, 35.453913], [135.470944, 35.453963], [135.470322, 35.454487], [135.470756, 35.455688], [135.469935, 35.456617], [135.4694627, 35.4581449], [135.467116, 35.460427], [135.466077, 35.460794], [135.465111, 35.461772], [135.462859, 35.4621577], [135.460298, 35.465655], [135.459839, 35.467333], [135.458381, 35.468179], [135.458429, 35.468857], [135.4596941, 35.470663], [135.459003, 35.473168], [135.461177, 35.476117], [135.462481, 35.478807], [135.466379, 35.482046], [135.4669, 35.483976], [135.469565, 35.484726], [135.469241, 35.48661], [135.470121, 35.487954], [135.470436, 35.489139], [135.472702, 35.489959], [135.474417, 35.488129], [135.475033, 35.488047], [135.475498, 35.488269], [135.476303, 35.489681], [135.475612, 35.490962], [135.47595, 35.492082], [135.475109, 35.493123], [135.474171, 35.49698], [135.472576, 35.501176], [135.474089, 35.50287], [135.475039, 35.504714], [135.476224, 35.505493], [135.472846, 35.508319], [135.471353, 35.508324], [135.469986, 35.509392], [135.46677, 35.509313], [135.46633, 35.510545], [135.464693, 35.511825], [135.464083, 35.512963], [135.459827, 35.5144], [135.4559287, 35.517562], [135.454328, 35.517985], [135.453147, 35.518867], [135.452165, 35.520855], [135.449926, 35.520796], [135.449796, 35.521235], [135.449339, 35.52373], [135.449406, 35.525893], [135.449838, 35.527201], [135.451375, 35.527928], [135.451928, 35.531036], [135.453561, 35.532087], [135.453843, 35.533128], [135.454515, 35.534046], [135.454161, 35.537596], [135.455507, 35.538874], [135.456083, 35.540018], [135.4581, 35.541529], [135.45929, 35.543091], [135.460292, 35.543866], [135.459956, 35.544558], [135.459974, 35.546267], [135.460484, 35.548457], [135.463529, 35.549569], [135.464994, 35.550918], [135.466604, 35.551815], [135.470664, 35.55299], [135.472311, 35.55379], [135.474122, 35.553717], [135.476476, 35.554606], [135.477355, 35.555254], [135.48041, 35.555716], [135.4813, 35.556442], [135.483772, 35.55684], [135.486861, 35.558048], [135.4947753, 35.5593292], [135.4997749, 35.5686328], [135.5131216, 35.5808846], [135.5169846, 35.5823942], [135.5509521, 35.6003842], [135.5817756, 35.6143957], [135.6193559, 35.683835], [135.6223932, 35.697715], [135.6231657, 35.7001198], [135.6320225, 35.7117357], [135.679535, 35.8693841], [135.4958042, 36.1031939], [135.475154, 36.1500281], [135.1101547, 35.9574467], [135.1050941, 35.955729], [135.0929671, 35.9543549], [135.0812298, 35.9524442], [135.0580769, 35.9472851], [135.0429493, 35.9427511], [135.035997, 35.9403016], [135.0287228, 35.9376609], [135.0152271, 35.9318947], [134.9957424, 35.9261242], [134.9868375, 35.9231355], [134.9773746, 35.9195906], [134.9682122, 35.9156806], [134.9513679, 35.9078253], [134.9428707, 35.9033064], [134.9276787, 35.8940592], [134.9201685, 35.889018], [134.9130005, 35.883509], [134.9033017, 35.8810055], [134.8850412, 35.8750419], [134.8759431, 35.8715992], [134.8590989, 35.8640699], [134.8631443, 35.8409116], [134.8513426, 35.754814], [134.8591747, 35.7026088], [134.8629083, 35.6846418], [134.8635735, 35.6756655], [134.8669423, 35.6613187], [134.8677683, 35.6595012], [134.8673499, 35.6586295], [134.867559, 35.657477], [134.867345, 35.656085], [134.866133, 35.654831], [134.865688, 35.653276], [134.864101, 35.651658], [134.864909, 35.650972], [134.866588, 35.650567], [134.867689, 35.649679], [134.866911, 35.647179], [134.866143, 35.646482], [134.865834, 35.645481], [134.865844, 35.644971], [134.866734, 35.643926], [134.867084, 35.641418], [134.865949, 35.640051], [134.86579, 35.638336], [134.866214, 35.637333], [134.867427, 35.636142], [134.868735, 35.636575], [134.871259, 35.636446], [134.87095, 35.63354], [134.870314, 35.63136], [134.870902, 35.629918], [134.87112, 35.627994], [134.872037, 35.626255], [134.871932, 35.624775], [134.872895, 35.624154], [134.872821, 35.622806], [134.873897, 35.621156], [134.872117, 35.617663], [134.871969, 35.616511], [134.870677, 35.614832], [134.868203, 35.614613], [134.866379, 35.613434], [134.867458, 35.608987], [134.867362, 35.608336], [134.866205, 35.606735], [134.866738, 35.604823], [134.865858, 35.602913], [134.866064, 35.602068], [134.865357, 35.599013], [134.863674, 35.596927], [134.862517, 35.596849], [134.861431, 35.596374], [134.861084, 35.595222], [134.860364, 35.594518], [134.859356, 35.594346], [134.857942, 35.593444], [134.856175, 35.593543], [134.855237, 35.593272], [134.855173, 35.592881], [134.856387, 35.591843], [134.853727, 35.58908], [134.854106, 35.588506], [134.855276, 35.587875], [134.856117, 35.586551], [134.857184, 35.58702], [134.858463, 35.586634], [134.85978, 35.586978], [134.860673, 35.586817], [134.861913, 35.587271], [134.862594, 35.587051], [134.862409, 35.584041], [134.863946, 35.583809], [134.864586, 35.582874], [134.865701, 35.582324], [134.866063, 35.581059], [134.868955, 35.579769], [134.86906, 35.578009], [134.868586, 35.577123], [134.867674, 35.576371], [134.867758, 35.576139], [134.870281, 35.575503], [134.871396, 35.576347], [134.871968, 35.576402], [134.872964, 35.575373], [134.874355, 35.575067], [134.875763, 35.573952], [134.878458, 35.570587], [134.880032, 35.569503], [134.880675, 35.567911], [134.881212, 35.567384], [134.880597, 35.566251], [134.880653, 35.564587], [134.881052, 35.564034], [134.88358, 35.563111], [134.883934, 35.562315], [134.885104, 35.562145], [134.887748, 35.560076], [134.890753, 35.561322], [134.891684, 35.559922], [134.892915, 35.558992], [134.894223, 35.558866], [134.896358, 35.557993], [134.897094, 35.558155], [134.898674, 35.557013], [134.900876, 35.556063], [134.901718, 35.555389], [134.901325, 35.554174], [134.902816, 35.551885], [134.903054, 35.549443], [134.904019, 35.549447], [134.906791, 35.548322], [134.907462, 35.546676], [134.910489, 35.546564], [134.913399, 35.545165], [134.914569, 35.545309], [134.914807, 35.54494], [134.91453, 35.543613], [134.914874, 35.54185], [134.916964, 35.541494], [134.917973, 35.540851], [134.919031, 35.539479], [134.919292, 35.538121], [134.918128, 35.536218], [134.917468, 35.535719], [134.917446, 35.534536], [134.918167, 35.532755], [134.917768, 35.531657], [134.918056, 35.530753], [134.916986, 35.529282], [134.915384, 35.528976], [134.915129, 35.527708], [134.918428, 35.525077], [134.920069, 35.523336], [134.921942, 35.522994], [134.922197, 35.522194], [134.923151, 35.52169], [134.923295, 35.516369], [134.924936, 35.514682], [134.926987, 35.513202], [134.9268994, 35.5125279], [134.930064, 35.511677], [134.931788, 35.512154], [134.932852, 35.513283], [134.936433, 35.512433], [134.939166, 35.513144], [134.940225, 35.513927], [134.94211, 35.514201], [134.943357, 35.513958], [134.943873, 35.513486], [134.944932, 35.514327], [134.947786, 35.514835], [134.949206, 35.513918], [134.950059, 35.514453], [134.95124, 35.5143], [134.95272, 35.514561], [134.952748, 35.515559], [134.954217, 35.516162], [134.955165, 35.516005], [134.95614, 35.514939], [134.957022, 35.514696], [134.958291, 35.512924], [134.960548, 35.512928], [134.963436, 35.514525], [134.964184, 35.51578], [134.964123, 35.516891], [134.965343, 35.519896], [134.966801, 35.52017], [134.967676, 35.521425], [134.971086, 35.522842], [134.971718, 35.524191], [134.974395, 35.525114], [134.976939, 35.524605], [134.978087, 35.524043], [134.979495, 35.524065], [134.980111, 35.524979], [134.980848, 35.525325], [134.98204, 35.528451], [134.985022, 35.529598], [134.988337, 35.529585], [134.988465, 35.530817], [134.988919, 35.531366], [134.990039, 35.531667], [134.990909, 35.532293], [134.992162, 35.53241], [134.993133, 35.534204], [134.995228, 35.534353], [134.996409, 35.53523], [135.001577, 35.534312], [135.00485, 35.535722], [135.008008, 35.533633], [135.008979, 35.533895], [135.010429, 35.535082], [135.013339, 35.535807], [135.014153, 35.536879], [135.015697, 35.537492], [135.022298, 35.538573], [135.024123, 35.538458], [135.026411, 35.539402], [135.027188, 35.54003], [135.030032, 35.540268], [135.031606, 35.539186], [135.032845, 35.539699], [135.033783, 35.539321], [135.035517, 35.539802], [135.036947, 35.538569], [135.037083, 35.536703], [135.036221, 35.534425], [135.036191, 35.53061], [135.037932, 35.528884], [135.039204, 35.528791], [135.040072, 35.526643], [135.039471, 35.525674], [135.039471, 35.52503], [135.040625, 35.524637], [135.040849, 35.524122], [135.04041, 35.523017], [135.040683, 35.521909], [135.042961, 35.520009], [135.043632, 35.517726], [135.043481, 35.516608], [135.042846, 35.515578], [135.04356, 35.512989], [135.042901, 35.511187], [135.043454, 35.509924], [135.045156, 35.508693], [135.043944, 35.506717], [135.042411, 35.505555], [135.041161, 35.503622], [135.039486, 35.502784], [135.037919, 35.502506], [135.037775, 35.501468], [135.034769, 35.499591], [135.032164, 35.497158], [135.03365, 35.497093], [135.035609, 35.495746], [135.041416, 35.494612], [135.042163, 35.494061], [135.04218, 35.49307], [135.042704, 35.492269], [135.041817, 35.490764], [135.04221, 35.489082], [135.041416, 35.487139], [135.041416, 35.485711], [135.040133, 35.481661], [135.039334, 35.481362], [135.038544, 35.480427], [135.035665, 35.480228], [135.035335, 35.478447], [135.03566, 35.477672], [135.035099, 35.476631], [135.035344, 35.474976], [135.036767, 35.475472], [135.039039, 35.474928], [135.041032, 35.473314], [135.040791, 35.472242], [135.041037, 35.469747], [135.041552, 35.469124], [135.041493, 35.467856], [135.041767, 35.467414], [135.042894, 35.467023], [135.043596, 35.466201], [135.043849, 35.464755], [135.044622, 35.463642], [135.04444, 35.462926], [135.04341, 35.462042], [135.043756, 35.460805], [135.044876, 35.459657], [135.045424, 35.456539], [135.045277, 35.455309], [135.046037, 35.454254], [135.047224, 35.453613], [135.047781, 35.452181], [135.049799, 35.451071], [135.050699, 35.448031], [135.050336, 35.446209], [135.050889, 35.445311], [135.05124, 35.443396], [135.051835, 35.442539], [135.050631, 35.441778], [135.049381, 35.440137], [135.049605, 35.439089], [135.049318, 35.437612], [135.048723, 35.436721], [135.048643, 35.435868], [135.047958, 35.435148], [135.048596, 35.431982], [135.047097, 35.429923], [135.047726, 35.428642], [135.046911, 35.427487], [135.048385, 35.426319], [135.047558, 35.425801], [135.047583, 35.424958], [135.047051, 35.423649], [135.049441, 35.420316], [135.050184, 35.419836], [135.049556, 35.41857], [135.050161, 35.417017], [135.049724, 35.415217], [135.050254, 35.413659], [135.048827, 35.411587], [135.049824, 35.409558], [135.049167, 35.407743], [135.048404, 35.407263], [135.046685, 35.407074], [135.04533, 35.407589], [135.044501, 35.408617], [135.04053, 35.4088], [135.038398, 35.409754], [135.036996, 35.409064], [135.036412, 35.409102], [135.035788, 35.409662], [135.033973, 35.40997], [135.030034, 35.4101], [135.02956, 35.409632], [135.029337, 35.40872], [135.029721, 35.405581], [135.027976, 35.404698], [135.025862, 35.402385], [135.023592, 35.401041], [135.021518, 35.396883], [135.019241, 35.394123], [135.016204, 35.393059], [135.014002, 35.394111], [135.012965, 35.393592], [135.011644, 35.391632], [135.009888, 35.391759], [135.008588, 35.390948], [135.006829, 35.391223], [135.00558, 35.390788], [135.004452, 35.388667], [135.002627, 35.387909], [135.001966, 35.38705], [135.000126, 35.386662], [134.997402, 35.387072], [134.995489, 35.386509], [134.991826, 35.38608], [134.991081, 35.385635], [134.990554, 35.385713], [134.988309, 35.387463], [134.987074, 35.388878], [134.987103, 35.390603], [134.988611, 35.392832], [134.988636, 35.393301], [134.987936, 35.394178], [134.986057, 35.395078], [134.985478, 35.396214], [134.98347, 35.397321], [134.982313, 35.397399], [134.980756, 35.398368], [134.976666, 35.398252], [134.974341, 35.399049], [134.971812, 35.399222], [134.970947, 35.398951], [134.966808, 35.40203], [134.966086, 35.403146], [134.965119, 35.403394], [134.963853, 35.406317], [134.959553, 35.408967], [134.958934, 35.409111], [134.954788, 35.408517], [134.95197, 35.410021], [134.950434, 35.410464], [134.949891, 35.411412], [134.946149, 35.41331], [134.944808, 35.413047], [134.944446, 35.411784], [134.942869, 35.411724], [134.941396, 35.410646], [134.939801, 35.41036], [134.938291, 35.409257], [134.937448, 35.408136], [134.935415, 35.407272], [134.934354, 35.407405], [134.933568, 35.40707], [134.932276, 35.405946], [134.932457, 35.405259], [134.931432, 35.403503], [134.931539, 35.4014], [134.929944, 35.400161], [134.927541, 35.399361], [134.927313, 35.397024], [134.925551, 35.393979], [134.923408, 35.394282], [134.923497, 35.392549], [134.922981, 35.391062], [134.923736, 35.390802], [134.923583, 35.389554], [134.925441, 35.386634], [134.925516, 35.385727], [134.926552, 35.385692], [134.92673, 35.38389], [134.926246, 35.38298], [134.927193, 35.381406], [134.927207, 35.379766], [134.926826, 35.377461], [134.924751, 35.375419], [134.923612, 35.373327], [134.92348, 35.372501], [134.920586, 35.368666], [134.92049, 35.366635], [134.918928, 35.364515], [134.920832, 35.360777], [134.922569, 35.355717], [134.923345, 35.354822], [134.923449, 35.354004], [134.922883, 35.352496], [134.921562, 35.351563], [134.919992, 35.35124], [134.918867, 35.350125], [134.91875, 35.346266], [134.917749, 35.346226], [134.91729, 35.345631], [134.917992, 35.344088], [134.917149, 35.340292], [134.917682, 35.339622], [134.921039, 35.33789], [134.923917, 35.337308], [134.925621, 35.336511], [134.926686, 35.334906], [134.92805, 35.330439], [134.927103, 35.328339], [134.924761, 35.326719], [134.924802, 35.326093], [134.925729, 35.324853], [134.926319, 35.322014], [134.924364, 35.321137], [134.921248, 35.317217], [134.921604, 35.315134], [134.9247, 35.31166], [134.929202, 35.310332], [134.934671, 35.307669], [134.937614, 35.307611], [134.939886, 35.30822], [134.940619, 35.308729], [134.941719, 35.308304], [134.943318, 35.308312], [134.944255, 35.307519], [134.946007, 35.307151], [134.946729, 35.306057], [134.947123, 35.303933], [134.951676, 35.302906], [134.955209, 35.299682], [134.956788, 35.299666], [134.957776, 35.298848], [134.960053, 35.297912], [134.963496, 35.298121], [134.966236, 35.297888], [134.967101, 35.297403], [134.967906, 35.295951], [134.976451, 35.295082], [134.980545, 35.29403], [134.983061, 35.292727], [134.984762, 35.292911], [134.986443, 35.292586], [134.987471, 35.291917], [134.989203, 35.291467], [134.990201, 35.290582], [134.991912, 35.290014], [134.992859, 35.289054], [134.995456, 35.289655], [134.996505, 35.289563], [134.997178, 35.29044], [134.999117, 35.290938], [134.999601, 35.289782], [134.999078, 35.288744], [134.999878, 35.287331], [135.002121, 35.28696], [135.004136, 35.285566], [135.007512, 35.285524], [135.008727, 35.284107], [135.009814, 35.283691], [135.011727, 35.28112], [135.011914, 35.280506], [135.011448, 35.279653], [135.011972, 35.276172], [135.011455, 35.274878], [135.0104, 35.273776], [135.010458, 35.272438], [135.009411, 35.270882], [135.010851, 35.269582], [135.01493, 35.268645], [135.018292, 35.269265], [135.019389, 35.26789], [135.021819, 35.266679], [135.023652, 35.266351], [135.023965, 35.265164], [135.026806, 35.265459], [135.028669, 35.265018], [135.030182, 35.264195], [135.032654, 35.263576], [135.033164, 35.262919], [135.035964, 35.262478], [135.036786, 35.261977], [135.03747, 35.260689], [135.038591, 35.26076], [135.039854, 35.261649], [135.040981, 35.263205], [135.041803, 35.263521], [135.042291, 35.26413], [135.04496, 35.26274], [135.049593, 35.261963], [135.052401, 35.262863], [135.054592, 35.264919], [135.055022, 35.264996], [135.055756, 35.26443], [135.056789, 35.264603], [135.0566, 35.262124], [135.056942, 35.260247], [135.055822, 35.259211], [135.057865, 35.257018], [135.058323, 35.254167], [135.058767, 35.253654], [135.059713, 35.253302], [135.060028, 35.252389], [135.061379, 35.251739], [135.060609, 35.248685], [135.061852, 35.247957], [135.063291, 35.247665], [135.064337, 35.246436], [135.064054, 35.245691], [135.064504, 35.245017], [135.064759, 35.243466], [135.064214, 35.242369], [135.067426, 35.238891], [135.067875, 35.237351], [135.070494, 35.238834], [135.071483, 35.238912], [135.072871, 35.23955], [135.07415, 35.240898], [135.074992, 35.243552], [135.078089, 35.244608], [135.080073, 35.24406], [135.081236, 35.244984], [135.081991, 35.246082], [135.0829, 35.24638], [135.083525, 35.247561], [135.083619, 35.248575], [135.084433, 35.249785], [135.084317, 35.250525], [135.085423, 35.253191], [135.087619, 35.253525], [135.089605, 35.254467], [135.091129, 35.256626], [135.091063, 35.257544], [135.091384, 35.258313], [135.092211, 35.258891], [135.093208, 35.258963], [135.093346, 35.25978], [135.094648, 35.260024], [135.097478, 35.258605], [135.098904, 35.25882], [135.100448, 35.259812], [135.101647, 35.261499], [135.104085, 35.263389], [135.106538, 35.264332], [135.107861, 35.265791], [135.10877, 35.26628], [135.109316, 35.266292], [135.110852, 35.265358], [135.111543, 35.264541], [135.112716, 35.264024], [135.115419, 35.263416], [135.117877, 35.263275], [135.119463, 35.262595], [135.122836, 35.263246], [135.123506, 35.26213], [135.126194, 35.262309], [135.128674, 35.260717], [135.130948, 35.261176], [135.13217, 35.262613], [135.133905, 35.263633], [135.134792, 35.264993], [135.137764, 35.26525], [135.13903, 35.264289], [135.139761, 35.263061], [135.14198, 35.26228], [135.144442, 35.262464], [135.145417, 35.26355], [135.147014, 35.263997], [135.148003, 35.263884], [135.149007, 35.26315], [135.150073, 35.263198], [135.150975, 35.262518], [135.152525, 35.26219], [135.153503, 35.261516], [135.154478, 35.261719], [135.157254, 35.26123], [135.160618, 35.258349], [135.161455, 35.258349], [135.161979, 35.257818], [135.160709, 35.256739], [135.161422, 35.255016], [135.161215, 35.253703], [135.162272, 35.25326], [135.161927, 35.252676], [135.163127, 35.251865], [135.162676, 35.251142], [135.162982, 35.249929], [135.164716, 35.248993], [135.165022, 35.247379], [135.165372, 35.24733], [135.166011, 35.246265], [135.16625, 35.244499], [135.167026, 35.242745], [135.166674, 35.241189], [135.166858, 35.240345], [135.166421, 35.239059], [135.164932, 35.238088], [135.164506, 35.235865], [135.162445, 35.233972], [135.161981, 35.231241], [135.160785, 35.230794], [135.16028, 35.230165], [135.156472, 35.229828], [135.154875, 35.227467], [135.154778, 35.226502], [135.156539, 35.226055], [135.157571, 35.224008], [135.159517, 35.222606], [135.161635, 35.221668], [135.161622, 35.220962], [135.163067, 35.220091], [135.164714, 35.21998], [135.165148, 35.2195], [135.166176, 35.220311], [135.167104, 35.220151], [135.168442, 35.220703], [135.170967, 35.220267], [135.171777, 35.217536], [135.173555, 35.215527], [135.174651, 35.215136], [135.175131, 35.214601], [135.177767, 35.214987], [135.178947, 35.214468], [135.179491, 35.215092], [135.182312, 35.215924], [135.183627, 35.214189], [135.184892, 35.213849], [135.185354, 35.211928], [135.187214, 35.211278], [135.188352, 35.209471], [135.188221, 35.209], [135.188835, 35.206829], [135.190495, 35.206083], [135.191814, 35.20424], [135.193617, 35.204795], [135.195837, 35.204055], [135.197058, 35.203017], [135.1975194, 35.202278], [135.197497, 35.201419], [135.19825, 35.200477], [135.198849, 35.197471], [135.200132, 35.19552], [135.199104, 35.193582], [135.196836, 35.193486], [135.195292, 35.194214], [135.192894, 35.194071], [135.189311, 35.192181], [135.188126, 35.191984], [135.1872, 35.191166], [135.186713, 35.190224], [135.187349, 35.187367], [135.189224, 35.186228], [135.188981, 35.185238], [135.189381, 35.184957], [135.19014, 35.183186], [135.189675, 35.18284], [135.189482, 35.182107], [135.188247, 35.181379], [135.188371, 35.18052], [135.188032, 35.179351], [135.188636, 35.178325], [135.187535, 35.17746], [135.187731, 35.176303], [135.186867, 35.173166], [135.187259, 35.171759], [135.187731, 35.172009], [135.189926, 35.171991], [135.191194, 35.171633], [135.193091, 35.172164], [135.194861, 35.171293], [135.196454, 35.169552], [135.198944, 35.168358], [135.198936, 35.166971], [135.20013, 35.165943], [135.200349, 35.165219], [135.201322, 35.165579], [135.203526, 35.164789], [135.204215, 35.164227], [135.205046, 35.163165], [135.204784, 35.162405], [135.205128, 35.161628], [135.205962, 35.160821], [135.20663, 35.160614], [135.210589, 35.16122], [135.213445, 35.162537], [135.216461, 35.161633], [135.217826, 35.162318], [135.219563, 35.162559], [135.220038, 35.162357], [135.222486, 35.163025], [135.223979, 35.164096], [135.225261, 35.163775], [135.226589, 35.165114], [135.22801, 35.165334], [135.228894, 35.16651], [135.228705, 35.168358], [135.229301, 35.16946], [135.229748, 35.171462], [135.229588, 35.172357], [135.231343, 35.174904], [135.232189, 35.177504], [135.236408, 35.177683], [135.237858, 35.176288], [135.238483, 35.176622], [135.240278, 35.176467], [135.241931, 35.176914], [135.243922, 35.176669], [135.246273, 35.177164], [135.249216, 35.17688], [135.24996, 35.178049], [135.253564, 35.176436], [135.255471, 35.176761], [135.257489, 35.177591], [135.260023, 35.175926], [135.261634, 35.176504], [135.263404, 35.175654], [135.266093, 35.175525], [135.267436, 35.175711], [135.268596, 35.176434], [135.269683, 35.176258], [135.270401, 35.176721], [135.271933, 35.176723], [135.273985, 35.177263], [135.274869, 35.175571], [135.276688, 35.174674], [135.277287, 35.174579], [135.278682, 35.175105], [135.280363, 35.174891], [135.281197, 35.174024], [135.281805, 35.172554], [135.283432, 35.171453], [135.285357, 35.171214], [135.289319, 35.172417], [135.289784, 35.171754], [135.290216, 35.168666], [135.290187, 35.16495], [135.291182, 35.164389], [135.292206, 35.161306], [135.291966, 35.160494], [135.29156, 35.159934], [135.289883, 35.158938], [135.287981, 35.158234], [135.287313, 35.155902], [135.285679, 35.154214], [135.285483, 35.153594], [135.285716, 35.152759], [135.284119, 35.151906], [135.283393, 35.150886], [135.280794, 35.151464], [135.278376, 35.151023], [135.27903, 35.150009], [135.278928, 35.149186], [135.280119, 35.148071], [135.27993, 35.146967], [135.281426, 35.146144], [135.282347, 35.145023], [135.284148, 35.144951], [135.285048, 35.14448], [135.286028, 35.144462], [135.287771, 35.142643], [135.288344, 35.142804], [135.289971, 35.142142], [135.290638, 35.142303], [135.291539, 35.141856], [135.293978, 35.14157], [135.294784, 35.14179], [135.295749, 35.143043], [135.297368, 35.143639], [135.298748, 35.143597], [135.301158, 35.142732], [135.303837, 35.142798], [135.305013, 35.143305], [135.306087, 35.143347], [135.306661, 35.143723], [135.306777, 35.144403], [135.307619, 35.144832], [135.308882, 35.144331], [135.311172, 35.144623], [135.314544, 35.145667], [135.315327, 35.146258], [135.318435, 35.146311], [135.319379, 35.146824], [135.320787, 35.146311], [135.324032, 35.146603], [135.325666, 35.1485], [135.326958, 35.149257], [135.328662, 35.149174], [135.330935, 35.149771], [135.333457, 35.149514], [135.336397, 35.149926], [135.339348, 35.149782], [135.340458, 35.150093], [135.340959, 35.149812], [135.340844, 35.145536], [135.34035, 35.144999], [135.337973, 35.144504], [135.337421, 35.144015], [135.339942, 35.140848], [135.339601, 35.139906], [135.339666, 35.137931], [135.34247, 35.135874], [135.343584, 35.135629], [135.345551, 35.136136], [135.349368, 35.135802], [135.352807, 35.136554], [135.354712, 35.136655], [135.357172, 35.13545], [135.357987, 35.134508], [135.358504, 35.133124], [135.360029, 35.132081], [135.363799, 35.131937], [135.364743, 35.13146], [135.365722, 35.131579], [135.367972, 35.131061], [135.369031, 35.132092], [135.370254, 35.132181], [135.370687, 35.131926], [135.371072, 35.130929], [135.372344, 35.130258], [135.372562, 35.128969], [135.373948, 35.1295], [135.374493, 35.129262], [135.37646, 35.129644], [135.377578, 35.129238], [135.378833, 35.129727], [135.379595, 35.129363], [135.38222, 35.129798], [135.382903, 35.129264], [135.384705, 35.129091], [135.386826, 35.129509], [135.38981, 35.128765], [135.390071, 35.127816], [135.391204, 35.126484], [135.389682, 35.125812], [135.389254, 35.123498], [135.387766, 35.121921], [135.386074, 35.120736], [135.385966, 35.119986], [135.386539, 35.118746], [135.386546, 35.117705], [135.387222, 35.116487], [135.389359, 35.114779], [135.391015, 35.114509], [135.391558, 35.113816], [135.392175, 35.113595], [135.393329, 35.111777], [135.393344, 35.110794], [135.392844, 35.110042], [135.390225, 35.109233], [135.389172, 35.108334], [135.388897, 35.105758], [135.389521, 35.105485], [135.389841, 35.104882], [135.388607, 35.103212], [135.388294, 35.100943], [135.387808, 35.100328], [135.387649, 35.099469], [135.388026, 35.097125], [135.388237, 35.096881], [135.388832, 35.097179], [135.389456, 35.098586], [135.390509, 35.098795], [135.391614, 35.098028], [135.39205, 35.097157], [135.393327, 35.097235], [135.397319, 35.09585], [135.397822, 35.094887], [135.400624, 35.093921], [135.401404, 35.092051], [135.401613, 35.090614], [135.404347, 35.08885], [135.403483, 35.088188], [135.402795, 35.088199], [135.401589, 35.087632], [135.401028, 35.086412], [135.400109, 35.085958], [135.399781, 35.082885], [135.398689, 35.081707], [135.399307, 35.080979], [135.399669, 35.079851], [135.399557, 35.07857], [135.400135, 35.077611], [135.399686, 35.076163], [135.398142, 35.076206], [135.397222, 35.075688], [135.395591, 35.075738], [135.394314, 35.074886], [135.393477, 35.073072], [135.391936, 35.072661], [135.389399, 35.073016], [135.389266, 35.0721], [135.386746, 35.072487], [135.385736, 35.071135], [135.383401, 35.070496], [135.382107, 35.068679], [135.379004, 35.067749], [135.378284, 35.067259], [135.377559, 35.066166], [135.376527, 35.065783], [135.376415, 35.064161], [135.377123, 35.063203], [135.377382, 35.061021], [135.374909, 35.060105], [135.374102, 35.05947], [135.373041, 35.059796], [135.371557, 35.058809], [135.370451, 35.057693], [135.368729, 35.05489], [135.369287, 35.054299], [135.369211, 35.053542], [135.370009, 35.052546], [135.369298, 35.048704], [135.371246, 35.045289], [135.376221, 35.043979], [135.376441, 35.042921], [135.378232, 35.040292], [135.380096, 35.039004], [135.380562, 35.036516], [135.379872, 35.035306], [135.380804, 35.033144], [135.381935, 35.031828], [135.382047, 35.02764], [135.381689, 35.026192], [135.379898, 35.025259], [135.379307, 35.023879], [135.380114, 35.022832], [135.379976, 35.022118], [135.378056, 35.020976], [135.37765, 35.020337], [135.378094, 35.018751], [135.377922, 35.01797], [135.378534, 35.017356], [135.378655, 35.01644], [135.379342, 35.015528], [135.380071, 35.015475], [135.380571, 35.014893], [135.380627, 35.014134], [135.381439, 35.012515], [135.381581, 35.010311], [135.384321, 35.010379], [135.385516, 35.011177], [135.389064, 35.011408], [135.39079, 35.0099], [135.393987, 35.008743], [135.395968, 35.009446], [135.39674, 35.010379], [135.397474, 35.010642], [135.399312, 35.00842], [135.403247, 35.006692], [135.407532, 35.009804], [135.408054, 35.010677], [135.409767, 35.011526], [135.411278, 35.010432], [135.411787, 35.009527], [135.413181, 35.009197], [135.414096, 35.008477], [135.415027, 35.006941], [135.416503, 35.005951], [135.418339, 35.002926], [135.421013, 35.002156], [135.422818, 35.002109], [135.425422, 35.003846], [135.427748, 35.004407], [135.428577, 35.005379], [135.433487, 35.00792], [135.436188, 35.008407], [135.438932, 35.007541], [135.440184, 35.007693], [135.441526, 35.007133], [135.4428093, 35.0056819], [135.443684, 35.005741], [135.446052, 35.005134], [135.446791, 35.005451], [135.44815, 35.004819], [135.45197, 35.001751], [135.452426, 35.002304], [135.454488, 35.001863], [135.455158, 35.00238], [135.457569, 35.001558], [135.459873, 35.001587], [135.463454, 34.999021], [135.464624, 34.998769], [135.466371, 34.997301], [135.467819, 34.997118], [135.468582, 34.996132], [135.471222, 34.994805], [135.475266, 34.994576], [135.476964, 34.994165], [135.47854, 34.994458], [135.479353, 34.994993], [135.481886, 34.995146], [135.482584, 34.994358], [135.482984, 34.992773], [135.486921, 34.992515], [135.487449, 34.992251], [135.488911, 34.990019], [135.490573, 34.989391], [135.492777, 34.989238], [135.493597, 34.988516], [135.493056, 34.98767], [135.49073, 34.986431], [135.487478, 34.985773], [135.486358, 34.985034], [135.483163, 34.981868], [135.484218, 34.980823], [135.484382, 34.978515], [135.485424, 34.978263], [135.48588, 34.976865], [135.487414, 34.975444], [135.486758, 34.974076], [135.486729, 34.973272], [135.486865, 34.972086], [135.487485, 34.971228], [135.48745, 34.969132], [135.488263, 34.967294], [135.48939, 34.967546], [135.490452, 34.968251], [135.490916, 34.968022], [135.489939, 34.966894], [135.488456, 34.966572], [135.487079, 34.964381], [135.486252, 34.963923], [135.485667, 34.963835], [135.485581, 34.964117], [135.48725, 34.966284], [135.487122, 34.966771], [135.485324, 34.966384], [135.483712, 34.964742], [135.481936, 34.96523], [135.481166, 34.962399], [135.483192, 34.960532], [135.484454, 34.960438], [135.484283, 34.959569], [135.484896, 34.9589], [135.485339, 34.957338], [135.487329, 34.957167], [135.486566, 34.956527], [135.485745, 34.956334], [135.485767, 34.955571], [135.484889, 34.954725], [135.484433, 34.953726], [135.483391, 34.953227], [135.480959, 34.950544], [135.481137, 34.949739], [135.482992, 34.948806], [135.484048, 34.947667], [135.486659, 34.946609], [135.488499, 34.946292], [135.48887, 34.945823], [135.488906, 34.944707], [135.490154, 34.942828], [135.490418, 34.941794], [135.492657, 34.941694], [135.494355, 34.940855], [135.495717, 34.941072], [135.497899, 34.940724], [135.499675, 34.941345], [135.502152, 34.943325], [135.504198, 34.946398], [135.506249, 34.945688], [135.507669, 34.944603], [135.509364, 34.944603], [135.5108, 34.943803], [135.512242, 34.944149], [135.513065, 34.943786], [135.514594, 34.94412], [135.514709, 34.942231], [135.515079, 34.941772], [135.515021, 34.941026], [135.514449, 34.94068], [135.515072, 34.939458], [135.51484, 34.938491], [135.515021, 34.936922], [135.517271, 34.93348], [135.518039, 34.933307], [135.518865, 34.933748], [135.5211363, 34.9335392], [135.522563, 34.930284], [135.524985, 34.928903], [135.527032, 34.928833], [135.527938, 34.92804], [135.530256, 34.927252], [135.533582, 34.927077], [135.534096, 34.926451], [135.538146, 34.9254], [135.538196, 34.924929], [135.537302, 34.924371], [135.53694, 34.92368], [135.536065, 34.920469], [135.537166, 34.91905], [135.538433, 34.918716], [135.540583, 34.915763], [135.541603, 34.915167], [135.543174, 34.915924], [135.544151, 34.917457], [135.546181, 34.916586], [135.54853, 34.916771], [135.549021, 34.918149], [135.54947, 34.918554], [135.550824, 34.918268], [135.553408, 34.915536], [135.557555, 34.917403], [135.560826, 34.917922], [135.562737, 34.917791], [135.566335, 34.916813], [135.567214, 34.916294], [135.57096, 34.916729], [135.572451, 34.916407], [135.573637, 34.91738], [135.573981, 34.91834], [135.575715, 34.919581], [135.577149, 34.920079], [135.581258, 34.922452], [135.581099, 34.923728], [135.580497, 34.924544], [135.581388, 34.926172], [135.581584, 34.927321], [135.581026, 34.927953], [135.581142, 34.929313], [135.580587, 34.930373], [135.581742, 34.935556], [135.581053, 34.937036], [135.577872, 34.937817], [135.57646, 34.938766], [135.5718, 34.939064], [135.569003, 34.936803], [135.567263, 34.936723], [135.567299, 34.935494], [135.565278, 34.933919], [135.564684, 34.933024], [135.5628, 34.933418], [135.56301, 34.934474], [135.565556, 34.937407], [135.565389, 34.937902], [135.566017, 34.940128], [135.564857, 34.940682], [135.564712, 34.942364], [135.563082, 34.942192], [135.562394, 34.941595], [135.562351, 34.938886], [135.562017, 34.937997], [135.559916, 34.936989], [135.558674, 34.935312], [135.55866, 34.934865], [135.559551, 34.933929], [135.559131, 34.933052], [135.558153, 34.932825], [135.557327, 34.934686], [135.557399, 34.935322], [135.558327, 34.936276], [135.558617, 34.937219], [135.557187, 34.938692], [135.559193, 34.940356], [135.559738, 34.942223], [135.562382, 34.943756], [135.561178, 34.946448], [135.562069, 34.947372], [135.561939, 34.947987], [135.562642, 34.949009], [135.562088, 34.950634], [135.563102, 34.951815], [135.562914, 34.953133], [135.563131, 34.953664], [135.564232, 34.953747], [135.566407, 34.952881], [135.567277, 34.953645], [135.56748, 34.954372], [135.568458, 34.954754], [135.569813, 34.954342], [135.571595, 34.955088], [135.574173, 34.95477], [135.574933, 34.955378], [135.576441, 34.955682], [135.577571, 34.955366], [135.578578, 34.955885], [135.578501, 34.956947], [135.578964, 34.958342], [135.578288, 34.960587], [135.573615, 34.960945], [135.571231, 34.963916], [135.570927, 34.965737], [135.571347, 34.966972], [135.571079, 34.96733], [135.57126, 34.968087], [135.570927, 34.969788], [135.572064, 34.969919], [135.571593, 34.970266], [135.572455, 34.970683], [135.572731, 34.971238], [135.574935, 34.971878], [135.575478, 34.972928], [135.576601, 34.973751], [135.580306, 34.974347], [135.582552, 34.976756], [135.584769, 34.976088], [135.584667, 34.97514], [135.585677, 34.974239], [135.585583, 34.973338], [135.586132, 34.972862], [135.586835, 34.971229], [135.586727, 34.97062], [135.588494, 34.969135], [135.589242, 34.967221], [135.58972, 34.967001], [135.590742, 34.96737], [135.592365, 34.96604], [135.594147, 34.969357], [135.594761, 34.969711], [135.59579, 34.968882], [135.597384, 34.969097], [135.598043, 34.969627], [135.599239, 34.969723], [135.600253, 34.970379], [135.601528, 34.970439], [135.602529, 34.971125], [135.603471, 34.971208], [135.603826, 34.970236], [135.605427, 34.969914], [135.607079, 34.970606], [135.607644, 34.969329], [135.610669, 34.970879], [135.613264, 34.971195], [135.613832, 34.968689], [135.613766, 34.967318], [135.61541, 34.966209], [135.615667, 34.962804], [135.617782, 34.960997], [135.618619, 34.959389], [135.618706, 34.958136], [135.617887, 34.957438], [135.616532, 34.957599], [135.617046, 34.956718], [135.617111, 34.955728], [135.615184, 34.953694], [135.616124, 34.952794], [135.614784, 34.952371], [135.615371, 34.951339], [135.614799, 34.950927], [135.614813, 34.950343], [135.614042, 34.950148], [135.614086, 34.948323], [135.613659, 34.947411], [135.612627, 34.946686], [135.612982, 34.946382], [135.613859, 34.94643], [135.613975, 34.945971], [135.612537, 34.945193], [135.611523, 34.943898], [135.611678, 34.943374], [135.613076, 34.942187], [135.613149, 34.941704], [135.610997, 34.942187], [135.611197, 34.940828], [135.610801, 34.93974], [135.610316, 34.939364], [135.609251, 34.939895], [135.608497, 34.939585], [135.608069, 34.938218], [135.606982, 34.937681], [135.607685, 34.936601], [135.6062, 34.935043], [135.605707, 34.934978], [135.60533, 34.936135], [135.603439, 34.936034], [135.603919, 34.935146], [135.603202, 34.934949], [135.602673, 34.933977], [135.602035, 34.93353], [135.601928, 34.932507], [135.600444, 34.930821], [135.601111, 34.929717], [135.599322, 34.928292], [135.603458, 34.927259], [135.605538, 34.927414], [135.607827, 34.928374], [135.609262, 34.928123], [135.611635, 34.928466], [135.615199, 34.927625], [135.617119, 34.928736], [135.617829, 34.930508], [135.618858, 34.931194], [135.619111, 34.931963], [135.622497, 34.933506], [135.62375, 34.934908], [135.627576, 34.93359], [135.628108, 34.933733], [135.629159, 34.935057], [135.630405, 34.935147], [135.632806, 34.934706], [135.634389, 34.933584], [135.634317, 34.932356], [135.635491, 34.93195], [135.636574, 34.931038], [135.638479, 34.932123], [135.640541, 34.931449], [135.641077, 34.930722], [135.642765, 34.930662], [135.643283, 34.929409], [135.644887, 34.927591], [135.64596, 34.927269], [135.646554, 34.926547], [135.648536, 34.925986], [135.64947, 34.925133], [135.649622, 34.924776], [135.649307, 34.924436], [135.650155, 34.923988], [135.650706, 34.923028], [135.650361, 34.921239], [135.650821, 34.919898], [135.651719, 34.918572], [135.653456, 34.917851], [135.653514, 34.91729], [135.653253, 34.91621], [135.652486, 34.917063], [135.648249, 34.916854], [135.648223, 34.915864], [135.648947, 34.914927], [135.648404, 34.914284], [135.648249, 34.91349], [135.648137, 34.910699], [135.648502, 34.909547], [135.650579, 34.909524], [135.651719, 34.910007], [135.653709, 34.909578], [135.656742, 34.906703], [135.657538, 34.906673], [135.658856, 34.906047], [135.661577, 34.903846], [135.662286, 34.903727], [135.662684, 34.903983], [135.662909, 34.904526], [135.662728, 34.905182], [135.664023, 34.904973], [135.664382, 34.904067], [135.663752, 34.902414], [135.663907, 34.902176], [135.664472, 34.902528], [135.665007, 34.904138], [135.665616, 34.904425], [135.66681, 34.904347], [135.668811, 34.903822], [135.670219, 34.902761], [135.671384, 34.902385], [135.673027, 34.901269], [135.673436, 34.900214], [135.674796, 34.90013], [135.67577, 34.899301], [135.675184, 34.89855], [135.676346, 34.897929], [135.67514, 34.894923], [135.676997, 34.895186], [135.677134, 34.894071], [135.6789295, 34.8914461], [135.679567, 34.8897502], [135.6827524, 34.8878962], [135.681126, 34.885297], [135.679922, 34.881341], [135.682201, 34.880537], [135.682382, 34.879917], [135.682871, 34.879625], [135.683519, 34.877633], [135.681894, 34.875444], [135.682179, 34.87264], [135.682552, 34.872151], [135.684593, 34.871257], [135.685252, 34.870619], [135.686356, 34.870326], [135.688494, 34.869074], [135.689522, 34.869325], [135.691118, 34.868889], [135.691281, 34.865961], [135.691929, 34.865102], [135.691092, 34.862973], [135.691382, 34.861381], [135.6936306, 34.8606559], [135.6945288, 34.8610605], [135.6946526, 34.8606694], [135.6942105, 34.8605581], [135.6944981, 34.8600012], [135.6937021, 34.8601121], [135.69148, 34.858577], [135.690651, 34.856519], [135.690999, 34.855929], [135.692384, 34.855273], [135.691722, 34.85294], [135.692359, 34.852129], [135.694614, 34.850638], [135.694509, 34.849511], [135.694914, 34.848282], [135.695406, 34.848103], [135.697234, 34.848891], [135.698276, 34.84972], [135.701486, 34.850942], [135.702257, 34.85173], [135.705202, 34.851038], [135.706154, 34.849756], [135.707721, 34.849272], [135.708984, 34.847322], [135.710171, 34.84663], [135.709914, 34.844739], [135.710219, 34.844166], [135.711174, 34.843886], [135.711387, 34.842509], [135.711872, 34.842139], [135.711054, 34.841649], [135.711054, 34.841339], [135.711384, 34.841316], [135.712166, 34.840051], [135.713193, 34.840075], [135.715687, 34.837862], [135.715767, 34.836576], [135.717179, 34.835547], [135.717259, 34.834611], [135.718235, 34.833227], [135.7177, 34.832541], [135.719352, 34.831062], [135.71954, 34.829696], [135.720617, 34.829463], [135.72231, 34.827966], [135.723275, 34.826234], [135.723054, 34.825145], [135.724168, 34.823284], [135.727772, 34.823141], [135.730205, 34.822198], [135.73108, 34.822664], [135.732493, 34.822419], [135.733267, 34.820827], [135.735085, 34.81989], [135.736437, 34.816317], [135.736777, 34.813681], [135.737717, 34.812971], [135.738021, 34.811915], [135.739041, 34.811611], [135.740971, 34.809637], [135.741882, 34.808396], [135.742186, 34.806642], [135.742908, 34.805432], [135.745483, 34.804227], [135.746025, 34.803642], [135.746603, 34.801591], [135.745982, 34.798721], [135.74494, 34.796843], [135.743867, 34.795876], [135.743375, 34.793878], [135.740653, 34.793401], [135.739481, 34.791177], [135.739669, 34.790419], [135.740219, 34.790162], [135.740776, 34.788469], [135.737952, 34.787252], [135.736539, 34.785683], [135.736105, 34.784574], [135.733911, 34.784007], [135.732294, 34.782749], [135.731832, 34.781615], [135.730903, 34.781209], [135.729417, 34.779534], [135.728635, 34.777998], [135.729235, 34.777306], [135.729047, 34.776], [135.729792, 34.774789], [135.729618, 34.773447], [135.729857, 34.771491], [135.730782, 34.769874], [135.730421, 34.768991], [135.730493, 34.768174], [135.730124, 34.767769], [135.730161, 34.766367], [135.730949, 34.764989], [135.731564, 34.764769], [135.732171, 34.763975], [135.731802, 34.76252], [135.732706, 34.758863], [135.73207, 34.757337], [135.733444, 34.756358], [135.733202, 34.754879], [135.736636, 34.755303], [135.736444, 34.752337], [135.736799, 34.751206], [135.736387, 34.750757], [135.736395, 34.749967], [135.738556, 34.749272], [135.739229, 34.748271], [135.742846, 34.747664], [135.747167, 34.746465], [135.748101, 34.745631], [135.747462, 34.744176], [135.747502, 34.74339], [135.749089, 34.741427], [135.751014, 34.740566], [135.7532, 34.738425], [135.754258, 34.73809], [135.756956, 34.736116], [135.756983, 34.735305], [135.755279, 34.73392], [135.75539, 34.730282], [135.75471, 34.72857], [135.755514, 34.727532], [135.756403, 34.728411], [135.756855, 34.728411], [135.759158, 34.727519], [135.761335, 34.72598], [135.763149, 34.72614], [135.7645, 34.725561], [135.766002, 34.725356], [135.769319, 34.725765], [135.770625, 34.725137], [135.771857, 34.725857], [135.773263, 34.725808], [135.774095, 34.725265], [135.773336, 34.724642], [135.773541, 34.7242], [135.774179, 34.724427], [135.775887, 34.724005], [135.777727, 34.723109], [135.778068, 34.723086], [135.778196, 34.723774], [135.778523, 34.723933], [135.778788, 34.723437], [135.779549, 34.72312], [135.781434, 34.723047], [135.783827, 34.723702], [135.784576, 34.724515], [135.787043, 34.724222], [135.787284, 34.724497], [135.789647, 34.724405], [135.791396, 34.724882], [135.795306, 34.723342], [135.795559, 34.722364], [135.795216, 34.72183], [135.795844, 34.720614], [135.797488, 34.72097], [135.797956, 34.722129], [135.799072, 34.723108], [135.800622, 34.722232], [135.803598, 34.721916], [135.804102, 34.719757], [135.805468, 34.7182], [135.8084, 34.717666], [135.8115592, 34.7176789], [135.8126747, 34.7168061], [135.8122379, 34.7166323], [135.811891, 34.715047], [135.8096106, 34.7150017], [135.81212, 34.7143681], [135.8127481, 34.7150744], [135.8131364, 34.7149028], [135.8132434, 34.7152506], [135.8136493, 34.7152046], [135.816494, 34.714161], [135.817344, 34.713001], [135.819786, 34.711694], [135.823385, 34.712307], [135.824173, 34.71273], [135.824519, 34.713506], [135.825499, 34.713296], [135.826824, 34.71363], [135.827901, 34.712336], [135.829553, 34.712702], [135.83047, 34.713633], [135.831086, 34.713247], [135.831973, 34.713377], [135.834109, 34.712394], [135.836006, 34.712371], [135.837219, 34.711849], [135.839001, 34.711799], [135.839477, 34.711377], [135.839737, 34.71051], [135.841744, 34.709292], [135.843511, 34.708964], [135.845251, 34.709089], [135.849284, 34.708274], [135.8492181, 34.7059858], [135.850879, 34.706053], [135.851038, 34.705754], [135.855024, 34.705969], [135.859562, 34.707113], [135.862212, 34.706798], [135.863309, 34.706241], [135.8643645, 34.7064251], [135.8642799, 34.7076869], [135.8656, 34.708366], [135.8657277, 34.709542], [135.8660959, 34.7098553], [135.8681168, 34.7104815], [135.8691431, 34.7103029], [135.871562, 34.7111606], [135.8731668, 34.7111789], [135.8736206, 34.7117976], [135.8736491, 34.7128717], [135.8759043, 34.7139171], [135.876745, 34.713674], [135.877137, 34.712623], [135.877852, 34.712251], [135.8795017, 34.7128019], [135.881244, 34.714073], [135.883397, 34.713102], [135.884396, 34.713186], [135.885159, 34.71362], [135.887065, 34.711772], [135.889134, 34.710572], [135.889317, 34.708961], [135.890171, 34.708316], [135.890317, 34.710207], [135.891076, 34.712485], [135.891775, 34.713419], [135.891602, 34.714036], [135.892311, 34.716374], [135.892247, 34.718116], [135.893622, 34.719574], [135.894003, 34.721225], [135.894887, 34.722675], [135.894542, 34.723355], [135.895386, 34.724888], [135.89683, 34.725097], [135.897231, 34.72564], [135.897494, 34.728489], [135.896986, 34.729261], [135.897386, 34.730872], [135.898385, 34.731425], [135.901077, 34.731019], [135.903021, 34.732916], [135.903421, 34.733746], [135.902958, 34.734781], [135.903185, 34.736287], [135.905387, 34.736855], [135.906168, 34.738361], [135.907714, 34.739684], [135.908359, 34.741209], [135.911286, 34.743172], [135.911749, 34.743852], [135.911995, 34.745736], [135.912404, 34.746244], [135.913648, 34.746779], [135.913321, 34.747523], [135.913657, 34.748275], [135.913603, 34.749327], [135.914182, 34.750336], [135.91507, 34.751027], [135.915077, 34.752282], [135.915926, 34.753012], [135.916156, 34.753686], [135.917992, 34.753792], [135.920971, 34.752996], [135.921392, 34.754281], [135.92228, 34.754871], [135.924417, 34.757672], [135.925301, 34.757724], [135.926708, 34.756974], [135.9287905, 34.7566322], [135.9277372, 34.7555967], [135.927365, 34.754519], [135.928794, 34.75294], [135.929009, 34.752236], [135.925793, 34.74806], [135.924789, 34.746082], [135.923194, 34.745024], [135.923182, 34.744595], [135.923979, 34.743476], [135.923425, 34.742697], [135.923431, 34.742119], [135.923923, 34.741446], [135.925569, 34.740339], [135.9268585, 34.7403564], [135.928095, 34.739381], [135.930624, 34.738149], [135.931377, 34.738199], [135.932472, 34.737647], [135.933973, 34.738288], [135.934449, 34.738977], [135.936561, 34.740216], [135.937707, 34.739824], [135.938404, 34.738859], [135.939126, 34.739432], [135.9413, 34.738996], [135.941717, 34.738673], [135.941968, 34.737728], [135.942896, 34.737492], [135.943827, 34.741322], [135.944649, 34.741838], [135.946194, 34.742056], [135.948148, 34.744431], [135.949863, 34.744314], [135.951229, 34.746308], [135.952501, 34.747059], [135.953629, 34.747171], [135.954775, 34.748298], [135.955386, 34.747793], [135.955709, 34.746642], [135.95785, 34.744622], [135.958089, 34.743946], [135.957945, 34.742464], [135.95855, 34.740299], [135.96078, 34.740536], [135.962182, 34.740013], [135.96256, 34.740567], [135.963668, 34.741096], [135.964274, 34.742201], [135.965989, 34.743187], [135.968097, 34.741321], [135.969754, 34.740524]]]}}]}