{"type": "FeatureCollection", "features": [{"type": "Feature", "geometry": {"type": "Polygon", "coordinates": [[[42.4192689, 43.428105], [42.4191315, 43.4301839], [42.4192115, 43.4305617], [42.4196398, 43.4325836], [42.4204123, 43.4339432], [42.4212277, 43.4350183], [42.4213779, 43.4362453], [42.4212176, 43.4371415], [42.4203593, 43.4382006], [42.4168206, 43.439578], [42.4166631, 43.4409124], [42.4170588, 43.4417639], [42.4174074, 43.4426264], [42.4186348, 43.4473192], [42.4186747, 43.4482066], [42.4197132, 43.4497057], [42.4206462, 43.4510803], [42.4214399, 43.4517411], [42.4211826, 43.4525733], [42.4214744, 43.4531603], [42.4215638, 43.4537973], [42.4215499, 43.4541869], [42.4204287, 43.4547363], [42.4195099, 43.4544772], [42.4168356, 43.4552229], [42.4150283, 43.4569277], [42.413096, 43.4575564], [42.4110533, 43.4573766], [42.4094483, 43.4563508], [42.4050822, 43.4560344], [42.4011178, 43.4594248], [42.3973094, 43.460202], [42.3922705, 43.4607292], [42.3912704, 43.4629245], [42.3912704, 43.4663019], [42.3866605, 43.4703475], [42.391137, 43.4775942], [42.3921171, 43.4803449], [42.3914243, 43.4835394], [42.3900636, 43.4887335], [42.3911884, 43.4919642], [42.3909574, 43.4962659], [42.3895631, 43.4966508], [42.3849759, 43.4990202], [42.3807103, 43.5029259], [42.3768292, 43.5052741], [42.3731643, 43.5072721], [42.3698304, 43.5109781], [42.3662604, 43.514691], [42.3612689, 43.5225687], [42.3751822, 43.5307479], [42.3730703, 43.5309821], [42.3691393, 43.5324725], [42.3653676, 43.5325837], [42.362972, 43.5319671], [42.358955, 43.5319135], [42.3559285, 43.5326896], [42.3544021, 43.5349678], [42.3543281, 43.5378904], [42.3566024, 43.5405722], [42.3565381, 43.5436664], [42.3552186, 43.5454231], [42.3529273, 43.5466929], [42.3559093, 43.549354], [42.3576933, 43.5517066], [42.3577791, 43.5532502], [42.3561856, 43.5543278], [42.3555258, 43.5552061], [42.3557354, 43.5589794], [42.3563691, 43.5618812], [42.3548325, 43.5639879], [42.3518065, 43.5690586], [42.3539603, 43.5738054], [42.3569298, 43.5847129], [42.3592088, 43.5916893], [42.3616862, 43.5979726], [42.3658111, 43.6069618], [42.3615709, 43.608627], [42.3595613, 43.6107476], [42.3595304, 43.6121459], [42.3558181, 43.6147015], [42.3517071, 43.6154316], [42.3547546, 43.6172825], [42.3616773, 43.6194026], [42.3669525, 43.620322], [42.3740924, 43.6211419], [42.3671512, 43.6323414], [42.3768846, 43.6372076], [42.3716933, 43.6416558], [42.3695044, 43.6448126], [42.3671906, 43.6457398], [42.3630223, 43.643114], [42.3594033, 43.6418462], [42.3531293, 43.6396256], [42.344041, 43.6378306], [42.3461398, 43.6415485], [42.3470294, 43.6447864], [42.3496942, 43.6459108], [42.3410999, 43.6530342], [42.3478855, 43.6559276], [42.3521044, 43.6637061], [42.3453029, 43.6690593], [42.3402018, 43.6752212], [42.3367334, 43.676697], [42.3349395, 43.682762], [42.3326631, 43.6886693], [42.3289669, 43.6903232], [42.3279085, 43.6925873], [42.3297626, 43.6961408], [42.3297447, 43.7000925], [42.3249701, 43.7036674], [42.3198163, 43.7046763], [42.3158352, 43.7097738], [42.310529, 43.7209222], [42.3110303, 43.7257178], [42.3135468, 43.7283934], [42.3151742, 43.7321255], [42.317402, 43.7368767], [42.3138973, 43.7390341], [42.3098, 43.7420733], [42.303261, 43.7438088], [42.3003466, 43.7425187], [42.2934363, 43.7504487], [42.2874317, 43.7619598], [42.2859725, 43.7656093], [42.286651, 43.7736638], [42.2848291, 43.7783561], [42.2845078, 43.7821431], [42.2812425, 43.7788012], [42.2717776, 43.787834], [42.2669165, 43.7859052], [42.2594947, 43.7840753], [42.2489473, 43.784103], [42.2432494, 43.7840586], [42.2414092, 43.7840443], [42.2403877, 43.7825721], [42.2410775, 43.7779124], [42.2384854, 43.7752564], [42.2316492, 43.7742218], [42.2252406, 43.7741301], [42.2181112, 43.7781526], [42.2077396, 43.7814469], [42.2008606, 43.7831412], [42.1795263, 43.7928811], [42.1734698, 43.7959156], [42.1675575, 43.7981269], [42.1648866, 43.8010669], [42.1663117, 43.8030745], [42.1476102, 43.8127603], [42.1257647, 43.8096508], [42.1199771, 43.8070796], [42.1104041, 43.811435], [42.1037588, 43.8177572], [42.0939382, 43.8210262], [42.0871639, 43.8225763], [42.0782019, 43.8228375], [42.0765773, 43.8224893], [42.0716252, 43.8211204], [42.0627754, 43.8235041], [42.055601, 43.8269717], [42.0452321, 43.8306606], [42.0385099, 43.8319315], [42.0348492, 43.8335989], [42.0315167, 43.8351485], [42.0265341, 43.8374356], [42.0181408, 43.8429803], [42.0103896, 43.8463239], [42.0046817, 43.8490672], [42.0001717, 43.8531436], [41.9930309, 43.8574252], [41.9878453, 43.8593352], [41.9816856, 43.8644093], [41.9779188, 43.8680297], [41.9762852, 43.8695998], [41.9716443, 43.8749067], [41.9664181, 43.8836405], [41.9650334, 43.8899543], [41.9605582, 43.894847], [41.9085387, 43.8880378], [41.9027085, 43.8865867], [41.890676, 43.8952174], [41.8887985, 43.8971038], [41.8885893, 43.8974981], [41.887761, 43.8981954], [41.8840031, 43.9000333], [41.8808834, 43.9020032], [41.8810384, 43.9034087], [41.8826445, 43.9038857], [41.884431, 43.9042644], [41.8852035, 43.9044419], [41.8853545, 43.904703], [41.8859296, 43.9049153], [41.8863201, 43.9050817], [41.8865395, 43.905308], [41.8923272, 43.9163484], [41.8871332, 43.9176888], [41.885145, 43.9140261], [41.881338, 43.9149147], [41.8811245, 43.9166063], [41.8797962, 43.9180415], [41.8789422, 43.9193401], [41.8786098, 43.9210298], [41.8790196, 43.9231745], [41.8794933, 43.9247235], [41.8772087, 43.9247786], [41.8768908, 43.9201823], [41.8801827, 43.9166977], [41.8806349, 43.9158202], [41.8808737, 43.9152225], [41.880525, 43.9140064], [41.8783529, 43.910744], [41.8776006, 43.9086001], [41.8794284, 43.9050796], [41.8795577, 43.9027097], [41.8792999, 43.9004734], [41.8776604, 43.8977853], [41.8724133, 43.894642], [41.8664979, 43.8932894], [41.8639559, 43.8914426], [41.8608421, 43.8894735], [41.8581251, 43.8879039], [41.8534261, 43.8882943], [41.8465498, 43.8905131], [41.8437162, 43.8864895], [41.801329, 43.9129415], [41.7981236, 43.9107332], [41.7951114, 43.9085071], [41.798861, 43.8989036], [41.7739287, 43.8601747], [41.8062843, 43.851296], [41.8057331, 43.8395451], [41.8099973, 43.8330065], [41.8098026, 43.8234527], [41.8173186, 43.8159147], [41.8188717, 43.8057662], [41.8187105, 43.7969468], [41.8028234, 43.7912609], [41.8090791, 43.7885698], [41.8216191, 43.7814964], [41.8146371, 43.773606], [41.8092305, 43.7679528], [41.8123348, 43.7638323], [41.8142876, 43.7567989], [41.8126128, 43.7535314], [41.8094614, 43.7512193], [41.8072804, 43.7479641], [41.8073534, 43.7441021], [41.8028849, 43.7407192], [41.8007476, 43.7383819], [41.8154599, 43.7277261], [41.8064824, 43.7135703], [41.7987693, 43.7068129], [41.7962297, 43.7066912], [41.7944835, 43.7072855], [41.7859309, 43.714112], [41.7764217, 43.7167333], [41.7742111, 43.7182576], [41.7660257, 43.7221326], [41.7644225, 43.7258479], [41.7611815, 43.7215145], [41.7567599, 43.7135331], [41.7530812, 43.7106806], [41.7519594, 43.708318], [41.7495636, 43.7058021], [41.7459193, 43.7036839], [41.7406646, 43.6995822], [41.7365483, 43.6982103], [41.7320094, 43.6986866], [41.7251842, 43.6990334], [41.7206158, 43.69326], [41.720711, 43.689765], [41.7184957, 43.6855898], [41.7165834, 43.6825103], [41.7090472, 43.6782775], [41.7084255, 43.6757187], [41.706987, 43.6718925], [41.7057109, 43.6660403], [41.7206974, 43.6614564], [41.7285749, 43.656489], [41.7341251, 43.6504739], [41.742439, 43.6440245], [41.7477155, 43.6431624], [41.7490985, 43.6401879], [41.748206, 43.6372682], [41.7458738, 43.6305228], [41.7414341, 43.6275044], [41.732445, 43.6245947], [41.7199261, 43.6219522], [41.7176843, 43.6227409], [41.7128898, 43.6230387], [41.7080211, 43.6216836], [41.7006166, 43.6202044], [41.6976163, 43.6210106], [41.690555, 43.6215448], [41.6985185, 43.612901], [41.6984117, 43.6105138], [41.6999917, 43.6062484], [41.7015469, 43.6014321], [41.7052466, 43.5993225], [41.7105086, 43.59258], [41.7009057, 43.5871088], [41.6979527, 43.5776196], [41.6910263, 43.5753932], [41.6775498, 43.5736877], [41.6714148, 43.5721769], [41.6674965, 43.5693272], [41.6612992, 43.560648], [41.6571053, 43.5572529], [41.6615831, 43.5383981], [41.660434, 43.5180199], [41.6603129, 43.5152653], [41.6527991, 43.5167268], [41.6479965, 43.5166544], [41.6459135, 43.515232], [41.6449398, 43.5102911], [41.6423604, 43.509064], [41.6399535, 43.5059945], [41.6381073, 43.5041989], [41.6320522, 43.5043385], [41.6282837, 43.5047929], [41.6243026, 43.5061712], [41.6199041, 43.5095811], [41.6168921, 43.5100178], [41.6119645, 43.512888], [41.6041584, 43.5193164], [41.595554, 43.5248432], [41.5928013, 43.5254572], [41.5848986, 43.523798], [41.5791641, 43.525582], [41.5720502, 43.5246394], [41.5742592, 43.523119], [41.5788588, 43.5184196], [41.5787493, 43.5158484], [41.5819045, 43.5128359], [41.5822838, 43.509886], [41.5836097, 43.5054441], [41.5823193, 43.4988594], [41.5819957, 43.4972083], [41.5807909, 43.4948824], [41.5803908, 43.4941101], [41.5802316, 43.4938028], [41.5784189, 43.4903035], [41.5761428, 43.4843055], [41.5758597, 43.4835595], [41.5788842, 43.4831504], [41.5799153, 43.483011], [41.5823862, 43.4826768], [41.5874518, 43.4821505], [41.5877859, 43.4821158], [41.5882874, 43.4820637], [41.5891725, 43.4819718], [41.5879832, 43.4777706], [41.5879609, 43.471337], [41.589159, 43.4698392], [41.5894828, 43.4656038], [41.5927859, 43.4543152], [41.5933989, 43.4527529], [41.5936481, 43.4520937], [41.5925859, 43.4505827], [41.5910068, 43.4493959], [41.5761523, 43.4429262], [41.5727354, 43.4396942], [41.5847098, 43.4306], [41.5873879, 43.4283334], [41.591874, 43.425365], [41.593753, 43.424076], [41.593755, 43.424074], [41.595442, 43.422479], [41.595446, 43.422474], [41.59602, 43.42122], [41.596021, 43.421216], [41.596397, 43.418794], [41.596394, 43.418783], [41.595207, 43.417309], [41.594158, 43.415418], [41.594142, 43.415408], [41.590013, 43.414533], [41.590012, 43.414532], [41.586285, 43.413843], [41.582716, 43.413184], [41.582701, 43.413184], [41.581394, 43.413555], [41.580846, 43.413538], [41.580701, 43.412979], [41.5807, 43.412976], [41.580204, 43.412092], [41.580203, 43.412089], [41.579621, 43.411362], [41.579619, 43.41136], [41.578837, 43.410637], [41.578649, 43.41005], [41.578372, 43.409094], [41.578383, 43.408549], [41.578858, 43.40821], [41.578869, 43.408204], [41.578842, 43.408196], [41.579951, 43.407573], [41.5870285, 43.4089447], [41.5881013, 43.406887], [41.5881443, 43.4045486], [41.5873503, 43.3997001], [41.5847051, 43.3949366], [41.5819057, 43.3883819], [41.579255, 43.3853166], [41.5690927, 43.3774568], [41.5587386, 43.3769538], [41.5571584, 43.3753346], [41.5562487, 43.3716783], [41.5586736, 43.3694181], [41.559184, 43.3691654], [41.5715084, 43.3630635], [41.5743115, 43.357853], [41.5745414, 43.3570815], [41.5771792, 43.3482291], [41.5774429, 43.3465137], [41.5783442, 43.3406502], [41.5777748, 43.3389535], [41.5772005, 43.3368308], [41.5722461, 43.3321498], [41.5648686, 43.3295591], [41.561375, 43.3301749], [41.5588715, 43.3289764], [41.5585303, 43.3288131], [41.5582922, 43.3286714], [41.5564417, 43.3275698], [41.5510358, 43.3277317], [41.5492234, 43.3280353], [41.5482979, 43.3281903], [41.5462023, 43.3285413], [41.5437859, 43.3267331], [41.5423892, 43.3266462], [41.5394521, 43.3282262], [41.5377958, 43.3285216], [41.5323506, 43.3302961], [41.5274864, 43.3283815], [41.5263354, 43.3249141], [41.5242999, 43.3244076], [41.5215706, 43.325387], [41.520046, 43.325053], [41.518941, 43.3226875], [41.5161282, 43.3216464], [41.5117532, 43.3193527], [41.5060345, 43.315866], [41.5139369, 43.3051494], [41.5132144, 43.3031516], [41.5126761, 43.3029832], [41.5123353, 43.3028766], [41.5120868, 43.3027989], [41.512058, 43.3027839], [41.5077046, 43.3005066], [41.5053508, 43.2983521], [41.5103917, 43.2862922], [41.5056226, 43.2818574], [41.5048575, 43.2784744], [41.5056059, 43.277733], [41.5078752, 43.2766664], [41.5113545, 43.276227], [41.5159436, 43.2737999], [41.5184139, 43.2738721], [41.520942, 43.272696], [41.521796, 43.272356], [41.5242963, 43.2720281], [41.5256414, 43.271826], [41.5259593, 43.2712821], [41.5267048, 43.2710027], [41.5277886, 43.2711649], [41.5282724, 43.271495], [41.5308624, 43.2719187], [41.5335446, 43.2717469], [41.535185, 43.271484], [41.538306, 43.270848], [41.53931, 43.2706894], [41.540407, 43.270546], [41.5437128, 43.2703267], [41.5446286, 43.2695446], [41.5458626, 43.2686485], [41.5476276, 43.263674], [41.5506349, 43.2614757], [41.5511975, 43.2593141], [41.552755, 43.257105], [41.553209, 43.256449], [41.5552778, 43.2549116], [41.558837, 43.252719], [41.560704, 43.250643], [41.5618286, 43.2493446], [41.563116, 43.249254], [41.564437, 43.249476], [41.5697325, 43.2509406], [41.572222, 43.251842], [41.574673, 43.252708], [41.5765113, 43.2534693], [41.5772017, 43.2524238], [41.5775457, 43.252068], [41.5803652, 43.2494125], [41.5808926, 43.2453674], [41.583111, 43.241934], [41.583495, 43.241031], [41.5834875, 43.2374197], [41.5877007, 43.2343623], [41.5896305, 43.2348584], [41.5904207, 43.2354329], [41.591666, 43.236462], [41.5924413, 43.2362957], [41.5971693, 43.2333692], [41.5985677, 43.2322189], [41.6007141, 43.2311202], [41.6044111, 43.2309901], [41.6078713, 43.2287689], [41.6113058, 43.2269972], [41.614373, 43.2254386], [41.6164275, 43.2231206], [41.6166314, 43.2216587], [41.6173394, 43.2205721], [41.6198184, 43.2215531], [41.6216203, 43.221987], [41.6226751, 43.2217214], [41.6244239, 43.2208144], [41.6259068, 43.2213677], [41.6267043, 43.2213435], [41.6272402, 43.2217058], [41.6283399, 43.2214595], [41.6287731, 43.2217081], [41.6325522, 43.2219816], [41.6352765, 43.2215975], [41.6365674, 43.2221011], [41.6400487, 43.2240743], [41.6413874, 43.2253231], [41.6421971, 43.2266084], [41.6418568, 43.2271916], [41.6426202, 43.2300269], [41.6454899, 43.2311259], [41.6471868, 43.2312245], [41.6488324, 43.2323449], [41.6504536, 43.2327035], [41.6517019, 43.2336821], [41.6525457, 43.2343499], [41.6526204, 43.2353407], [41.6553144, 43.2362425], [41.6557306, 43.2364843], [41.6562461, 43.2365151], [41.6574873, 43.2370368], [41.6583094, 43.2381211], [41.6588055, 43.238224], [41.6592373, 43.2381931], [41.6599634, 43.2372141], [41.6610137, 43.2368037], [41.6618666, 43.2358516], [41.6634794, 43.235144], [41.6639073, 43.2339502], [41.6646712, 43.2339687], [41.6651428, 43.2337167], [41.6655904, 43.2328105], [41.6682833, 43.2327558], [41.6701202, 43.2300251], [41.6711743, 43.2295535], [41.673401, 43.227774], [41.6767194, 43.2276999], [41.6779611, 43.2267974], [41.6790361, 43.2254033], [41.6790686, 43.2248284], [41.6798837, 43.2238604], [41.6801426, 43.2221119], [41.6801548, 43.221393], [41.6813506, 43.2210563], [41.6823742, 43.2204701], [41.6825021, 43.2196169], [41.6843429, 43.2169829], [41.68658, 43.217903], [41.6877723, 43.2181509], [41.6894606, 43.2181284], [41.690551, 43.2178222], [41.692214, 43.2186839], [41.6937725, 43.218887], [41.6952985, 43.2192625], [41.6988659, 43.218852], [41.7000026, 43.2193361], [41.7023528, 43.2196261], [41.703798, 43.2207052], [41.7051547, 43.2235534], [41.7063117, 43.2248017], [41.7067087, 43.2258493], [41.7090744, 43.2269672], [41.7107734, 43.2271622], [41.7123509, 43.2269697], [41.7138663, 43.2278735], [41.7133513, 43.2289289], [41.7148396, 43.2306995], [41.7148748, 43.2321338], [41.7148319, 43.2328999], [41.7154327, 43.2335096], [41.7165056, 43.2342287], [41.716806, 43.2351042], [41.7174712, 43.2355263], [41.7181578, 43.2359483], [41.7185226, 43.2365111], [41.7194024, 43.2374022], [41.7202821, 43.2380431], [41.7212263, 43.2388716], [41.7221704, 43.239872], [41.7231108, 43.2399625], [41.7252158, 43.2411196], [41.7257726, 43.2439005], [41.7281118, 43.2415066], [41.7287794, 43.2413571], [41.7294446, 43.241107], [41.730024, 43.2407943], [41.7308823, 43.2407474], [41.7316118, 43.2409507], [41.7341438, 43.2401534], [41.737203, 43.239393], [41.739498, 43.238545], [41.744555, 43.237471], [41.745493, 43.237071], [41.747818, 43.234091], [41.750305, 43.232761], [41.751813, 43.231037], [41.75295, 43.230033], [41.7590481, 43.2258868], [41.760106, 43.2251675], [41.7647408, 43.2229472], [41.7681312, 43.221321], [41.7712211, 43.2202577], [41.7731522, 43.2182562], [41.7750834, 43.2185377], [41.7762794, 43.2190894], [41.7779159, 43.2197574], [41.7787312, 43.2206643], [41.780877, 43.2209457], [41.7833558, 43.2211455], [41.784368, 43.219956], [41.7857747, 43.2189698], [41.7876541, 43.2191747], [41.787874, 43.218653], [41.787619, 43.2165845], [41.7888593, 43.2147846], [41.7895459, 43.2141904], [41.790679, 43.214406], [41.7908334, 43.2140027], [41.7919921, 43.2128767], [41.7928504, 43.2115005], [41.7933225, 43.2105309], [41.793065, 43.2099991], [41.7941736, 43.2091799], [41.794567, 43.2079347], [41.7955111, 43.2075281], [41.7964553, 43.2072778], [41.7973136, 43.2065897], [41.8001889, 43.2040246], [41.801785, 43.203538], [41.803944, 43.2020382], [41.806502, 43.202513], [41.8101024, 43.2033364], [41.8109607, 43.2044313], [41.8129562, 43.2048692], [41.8139218, 43.2064333], [41.815307, 43.207754], [41.816254, 43.208755], [41.8176927, 43.2091356], [41.819188, 43.209994], [41.820932, 43.211688], [41.823198, 43.212969], [41.826552, 43.2128679], [41.8283616, 43.2133946], [41.830688, 43.2147], [41.833778, 43.214542], [41.835812, 43.213868], [41.8369376, 43.2128519], [41.8393449, 43.2116378], [41.8401817, 43.2114502], [41.8411044, 43.2115284], [41.842067, 43.212091], [41.8427781, 43.2125918], [41.8436579, 43.2128733], [41.8443231, 43.2127169], [41.8448381, 43.212279], [41.8454818, 43.2118724], [41.8461684, 43.211544], [41.8467263, 43.2114658], [41.8471555, 43.211325], [41.8479065, 43.2113094], [41.8483786, 43.2115127], [41.849214, 43.21241], [41.8501662, 43.2132663], [41.850793, 43.214099], [41.8517474, 43.2152503], [41.8524341, 43.2153285], [41.8532924, 43.2155005], [41.853979, 43.2157977], [41.8539791, 43.2164231], [41.8542523, 43.2169391], [41.8546657, 43.2172051], [41.8551163, 43.2180651], [41.855441, 43.219283], [41.8553738, 43.2200667], [41.85576, 43.2205983], [41.8568329, 43.2215052], [41.8574337, 43.2221307], [41.8577137, 43.2227462], [41.8574992, 43.2236218], [41.8574133, 43.2247163], [41.8575421, 43.225373], [41.8582716, 43.2257169], [41.8589583, 43.226186], [41.8594304, 43.2266551], [41.8594304, 43.2270928], [41.8592587, 43.2276244], [41.8589154, 43.2281247], [41.8590441, 43.2286251], [41.8596449, 43.2290316], [41.861104, 43.2294693], [41.8620053, 43.2300009], [41.8623486, 43.2313767], [41.8628207, 43.2317832], [41.864151, 43.2326274], [41.8658451, 43.233763], [41.8655374, 43.2348289], [41.8646006, 43.2361705], [41.8632702, 43.2379213], [41.8624119, 43.2392344], [41.8616823, 43.2406412], [41.8621115, 43.2417667], [41.8629269, 43.2426733], [41.8652443, 43.2435174], [41.866791, 43.244063], [41.8684065, 43.2442313], [41.8713608, 43.244539], [41.8731203, 43.2451643], [41.8746224, 43.2454143], [41.8757811, 43.2456332], [41.8771544, 43.2455706], [41.8782702, 43.2459145], [41.8789343, 43.2462996], [41.879239, 43.246719], [41.8799488, 43.24735], [41.880058, 43.24766], [41.8799364, 43.2483287], [41.880587, 43.2492408], [41.8815809, 43.2506344], [41.8833331, 43.2518611], [41.8860082, 43.251848], [41.8876497, 43.2511291], [41.8895559, 43.2502773], [41.8916086, 43.2491129], [41.8918375, 43.2479459], [41.8916945, 43.2469977], [41.891531, 43.2464772], [41.892561, 43.2453831], [41.8934611, 43.2452367], [41.894019, 43.2448616], [41.8943194, 43.2444709], [41.8938055, 43.24382], [41.8938914, 43.2432573], [41.8946631, 43.2427878], [41.8955375, 43.2427604], [41.8956287, 43.2422016], [41.8964602, 43.2410957], [41.8983645, 43.2402946], [41.89896, 43.239599], [41.900108, 43.237985], [41.9008269, 43.2372503], [41.9010575, 43.2370705], [41.9018997, 43.2364413], [41.9023243, 43.2363168], [41.9024952, 43.2361205], [41.9024629, 43.235429], [41.901551, 43.2346239], [41.9010146, 43.2345966], [41.8996842, 43.2335492], [41.8989171, 43.2332717], [41.8988366, 43.2330176], [41.8993623, 43.2323376], [41.8994964, 43.2312471], [41.8993784, 43.2310048], [41.8993999, 43.2308094], [41.9009877, 43.2301605], [41.9034232, 43.2285736], [41.9056011, 43.2283], [41.9065024, 43.2274518], [41.9084899, 43.2270141], [41.9094984, 43.2264434], [41.913114, 43.2256382], [41.914244, 43.2258264], [41.9156495, 43.225975], [41.9174197, 43.2257326], [41.9189313, 43.2260744], [41.9239256, 43.2258242], [41.9260391, 43.2254646], [41.927509, 43.2253395], [41.9291076, 43.2245734], [41.9314787, 43.2242607], [41.9334474, 43.2246633], [41.934649, 43.2239871], [41.9370577, 43.2237252], [41.9380876, 43.2238776], [41.9387582, 43.2245265], [41.9393644, 43.2246359], [41.939808, 43.2251903], [41.9418444, 43.2251896], [41.9429465, 43.2238573], [41.9452532, 43.2224344], [41.9454469, 43.2220287], [41.9450744, 43.221604], [41.9446524, 43.2206486], [41.9450786, 43.2188604], [41.9446924, 43.2174452], [41.9452103, 43.2164533], [41.9458619, 43.2144193], [41.9469347, 43.2135201], [41.9481216, 43.2132404], [41.9495955, 43.2125036], [41.9507565, 43.2115556], [41.9498453, 43.2112612], [41.9497491, 43.2105904], [41.9510439, 43.2101578], [41.9518485, 43.2090317], [41.9517306, 43.2083905], [41.9512906, 43.2081168], [41.9532677, 43.204325], [41.9540033, 43.2042455], [41.9588359, 43.2025263], [41.9587394, 43.2031988], [41.9592222, 43.2039653], [41.9595226, 43.2042077], [41.9616147, 43.2068588], [41.9633635, 43.2074531], [41.9638141, 43.2078597], [41.9636103, 43.208282], [41.9648763, 43.2095879], [41.9660243, 43.2097443], [41.967911, 43.2110392], [41.9688352, 43.2114099], [41.9700577, 43.2127041], [41.9738235, 43.2125556], [41.9772455, 43.21362], [41.98028, 43.2147712], [41.9826234, 43.2147956], [41.985357, 43.2153392], [41.9910089, 43.2136374], [41.9942703, 43.213567], [41.9971886, 43.2127694], [41.9979757, 43.2133716], [42.0007721, 43.2136453], [42.0026841, 43.2138457], [42.0083489, 43.216817], [42.0107226, 43.2177425], [42.0117097, 43.2176643], [42.0133297, 43.216773], [42.0163338, 43.2165775], [42.0191394, 43.2170935], [42.01959, 43.2161787], [42.0221345, 43.2146987], [42.0238762, 43.213356], [42.0243911, 43.2105332], [42.0259468, 43.2095088], [42.0274918, 43.208242], [42.0276277, 43.2073483], [42.0285002, 43.2046369], [42.0294712, 43.2040504], [42.0297283, 43.2035586], [42.0307142, 43.2032937], [42.0333927, 43.2021422], [42.0357511, 43.2004011], [42.0359439, 43.1989442], [42.0372053, 43.1985415], [42.0372353, 43.1974062], [42.0351809, 43.1943684], [42.037473, 43.193167], [42.0385926, 43.1903842], [42.037983, 43.1881682], [42.0403755, 43.1868227], [42.0417061, 43.1875586], [42.0428002, 43.1877771], [42.0454397, 43.1870335], [42.0478126, 43.1871686], [42.0518661, 43.1905657], [42.0529068, 43.1919815], [42.0529604, 43.1936554], [42.0544543, 43.1935576], [42.0551946, 43.1945197], [42.0567887, 43.1955154], [42.0578339, 43.1961466], [42.0590793, 43.1959964], [42.0633244, 43.1960254], [42.065159, 43.1953527], [42.0678627, 43.1970343], [42.0689473, 43.1972606], [42.0706844, 43.1974841], [42.0728014, 43.1997012], [42.0736275, 43.2010386], [42.0750115, 43.2028295], [42.076232, 43.2038882], [42.0774797, 43.2042291], [42.0806938, 43.2046918], [42.0821582, 43.206162], [42.0832976, 43.2073856], [42.0841483, 43.2079943], [42.0855432, 43.2091981], [42.0863842, 43.2098272], [42.0902206, 43.2120981], [42.0929385, 43.2122419], [42.0941787, 43.2132169], [42.0954182, 43.2139761], [42.0979019, 43.2131747], [42.1020915, 43.2115209], [42.1043875, 43.2087527], [42.1078636, 43.2086745], [42.1085932, 43.2084946], [42.1097305, 43.2082913], [42.1165433, 43.2101134], [42.1186193, 43.2120995], [42.1218755, 43.2102932], [42.1249439, 43.2108718], [42.1259954, 43.2105434], [42.1269663, 43.2104457], [42.1274706, 43.2105082], [42.1288599, 43.210373], [42.1298783, 43.2105288], [42.1315851, 43.211079], [42.1322036, 43.2126985], [42.135305, 43.216986], [42.137171, 43.2178903], [42.1399605, 43.2169755], [42.1410549, 43.2173039], [42.1421277, 43.2177731], [42.1434206, 43.2177281], [42.1458721, 43.2178278], [42.1477228, 43.218291], [42.1488011, 43.2191726], [42.1501744, 43.2194541], [42.1539509, 43.220445], [42.1568906, 43.2211017], [42.1586609, 43.220961], [42.160238, 43.2213148], [42.1614933, 43.2219716], [42.162255, 43.2226596], [42.1633601, 43.2232303], [42.1652786, 43.2229847], [42.1671688, 43.2221884], [42.1698169, 43.2213772], [42.1719378, 43.2212327], [42.1724742, 43.2197081], [42.1746522, 43.2184806], [42.1755203, 43.217426], [42.176519, 43.2168699], [42.1794483, 43.2160423], [42.1805731, 43.2149855], [42.1821305, 43.2154637], [42.1830639, 43.2164645], [42.1844265, 43.2172479], [42.1864155, 43.2170328], [42.1870355, 43.2178068], [42.1914029, 43.2178958], [42.193228, 43.219089], [42.1933867, 43.2199348], [42.1941764, 43.2209788], [42.1943291, 43.2225287], [42.1944852, 43.2240097], [42.1967167, 43.2268355], [42.1993559, 43.2279373], [42.2007732, 43.2277922], [42.2017479, 43.2279287], [42.2035718, 43.2286636], [42.2060394, 43.2278193], [42.2101666, 43.2290279], [42.2108829, 43.2293564], [42.2128571, 43.2292939], [42.2140965, 43.2301938], [42.2161937, 43.2309824], [42.2196162, 43.2294033], [42.2196377, 43.2287936], [42.2205496, 43.2283871], [42.2249539, 43.228422], [42.2315038, 43.2273552], [42.2353781, 43.2284672], [42.237699, 43.229315], [42.239106, 43.229275], [42.2411656, 43.2283782], [42.2422338, 43.2282939], [42.2444228, 43.2281713], [42.2457167, 43.2283335], [42.2464113, 43.2280967], [42.2467959, 43.2271441], [42.2496626, 43.2261862], [42.2499628, 43.2231139], [42.2518863, 43.221112], [42.253321, 43.2195087], [42.2537728, 43.217588], [42.2536673, 43.2171871], [42.2538849, 43.2151151], [42.2528331, 43.2122551], [42.2575555, 43.2120813], [42.260173, 43.2111859], [42.2625591, 43.2112742], [42.2640605, 43.2106814], [42.265442, 43.210687], [42.2681615, 43.2112515], [42.2695357, 43.2119948], [42.2717807, 43.2118123], [42.2735033, 43.2121505], [42.2768261, 43.2118192], [42.2784031, 43.2125663], [42.2801434, 43.2126799], [42.2845943, 43.2125287], [42.285347, 43.212297], [42.2871383, 43.211755], [42.2885778, 43.2107686], [42.2890257, 43.2105198], [42.2920099, 43.2107137], [42.2952318, 43.2109231], [42.2948036, 43.212138], [42.2944486, 43.2131455], [42.2951676, 43.215045], [42.295754, 43.2157059], [42.2965542, 43.2166076], [42.2972909, 43.2170524], [42.2989886, 43.2173568], [42.3024197, 43.2187044], [42.3046, 43.2202106], [42.3047968, 43.2210477], [42.3059579, 43.2218087], [42.3066732, 43.2233439], [42.3066664, 43.222134], [42.3072694, 43.2214703], [42.3080328, 43.2210009], [42.3087092, 43.2199541], [42.3119766, 43.2187665], [42.3146233, 43.2182943], [42.317629, 43.2198824], [42.3183383, 43.2201531], [42.3192195, 43.2205815], [42.3209613, 43.2209982], [42.3220757, 43.2203478], [42.3241492, 43.2197085], [42.3255975, 43.2197825], [42.3263563, 43.2201381], [42.3278254, 43.2203186], [42.3293999, 43.2200276], [42.3302597, 43.2205751], [42.3320496, 43.2204335], [42.3363982, 43.2192634], [42.3383808, 43.2194869], [42.3410635, 43.2204313], [42.34113, 43.2214673], [42.3415238, 43.2218884], [42.3415226, 43.2235634], [42.3422648, 43.2245078], [42.3439159, 43.2248467], [42.3467837, 43.2260777], [42.3481643, 43.2274653], [42.3487718, 43.2292359], [42.3492767, 43.2295911], [42.350229, 43.2303498], [42.350272, 43.2305213], [42.3505076, 43.2315755], [42.3501033, 43.2340409], [42.351646, 43.2360244], [42.352292, 43.2369841], [42.3531563, 43.2375381], [42.3532408, 43.2405687], [42.3536117, 43.2419189], [42.3541137, 43.2436373], [42.3558527, 43.2452881], [42.3573219, 43.2461254], [42.3582034, 43.2468494], [42.3612788, 43.245925], [42.3634006, 43.2454114], [42.3662554, 43.2454518], [42.3692156, 43.2451528], [42.3723868, 43.2459535], [42.3743813, 43.2462467], [42.376019, 43.2471264], [42.377181, 43.2462001], [42.3784026, 43.2457389], [42.3793219, 43.2453803], [42.3804298, 43.2443285], [42.3829078, 43.244664], [42.3854272, 43.2446311], [42.3870202, 43.2436754], [42.3881168, 43.2438003], [42.3892025, 43.2445209], [42.3902498, 43.2446951], [42.3918326, 43.2458414], [42.3929762, 43.2459947], [42.3944309, 43.2465412], [42.3968976, 43.2464886], [42.3988687, 43.2464672], [42.4008615, 43.2472541], [42.4011482, 43.2474369], [42.4042749, 43.2474221], [42.4060183, 43.2481599], [42.4070299, 43.2485174], [42.4103252, 43.2503387], [42.4111789, 43.2530749], [42.4114453, 43.2563051], [42.4128727, 43.256396], [42.4133653, 43.2569097], [42.4137762, 43.2569824], [42.4140893, 43.2575977], [42.4145696, 43.2584674], [42.4150077, 43.2595118], [42.4151167, 43.2605458], [42.4151015, 43.2610733], [42.4144578, 43.2616515], [42.413967, 43.2619112], [42.41391, 43.2624213], [42.4141047, 43.2631955], [42.4131805, 43.2643986], [42.4136945, 43.2661673], [42.4129974, 43.2672935], [42.4134617, 43.2685989], [42.4136305, 43.2696354], [42.4141699, 43.2709227], [42.4141138, 43.27222], [42.4144998, 43.2728549], [42.4153141, 43.2733114], [42.415984, 43.2747245], [42.4147189, 43.2759961], [42.4141447, 43.276171], [42.4100748, 43.2779746], [42.4094104, 43.2784009], [42.4094587, 43.2787689], [42.4068166, 43.2809675], [42.4054524, 43.2835529], [42.4050637, 43.2841171], [42.4042478, 43.2850243], [42.4040697, 43.285731], [42.4038086, 43.2865215], [42.4029581, 43.2869344], [42.401672, 43.2875984], [42.4012989, 43.2878236], [42.4007571, 43.2883234], [42.3993462, 43.2890614], [42.3988795, 43.2893699], [42.3972675, 43.2903699], [42.3979201, 43.2913142], [42.3981386, 43.2921904], [42.3984772, 43.2926465], [42.3984191, 43.2929671], [42.399252, 43.29386], [42.3993083, 43.2942123], [42.3999294, 43.2951962], [42.4000266, 43.2955267], [42.4005009, 43.2966733], [42.400487, 43.2968557], [42.4004744, 43.2969028], [42.4003887, 43.2972248], [42.400351, 43.2973734], [42.3999541, 43.2989414], [42.4002921, 43.2997071], [42.4002926, 43.2998649], [42.4002952, 43.3007496], [42.402576, 43.301397], [42.4038667, 43.3019722], [42.4051681, 43.3044352], [42.4050875, 43.3055051], [42.4059514, 43.3075893], [42.4064585, 43.3094479], [42.4064859, 43.3101353], [42.4065694, 43.3122316], [42.4091185, 43.3139548], [42.4099388, 43.3145093], [42.4100206, 43.3165961], [42.4100732, 43.3179381], [42.4103158, 43.3190312], [42.4100832, 43.3227559], [42.4101616, 43.3242662], [42.4107376, 43.3257312], [42.4108943, 43.3272812], [42.4112515, 43.3299477], [42.411729, 43.3306574], [42.412759, 43.3312287], [42.413598, 43.3318093], [42.4145499, 43.3329619], [42.415022, 43.3338359], [42.4152795, 43.3345851], [42.4148074, 43.338362], [42.4145928, 43.3391735], [42.4141637, 43.3398914], [42.4140778, 43.340422], [42.4145499, 43.3413896], [42.4154862, 43.3431295], [42.4156657, 43.3433558], [42.4164382, 43.3440113], [42.4300209, 43.3489204], [42.4315809, 43.3493198], [42.4351573, 43.3503438], [42.4357884, 43.3507339], [42.4361247, 43.3513263], [42.4363257, 43.3518758], [42.4367813, 43.3519781], [42.4378432, 43.3524103], [42.4366742, 43.3534996], [42.4356862, 43.3538584], [42.435229, 43.3538826], [42.4340757, 43.3542789], [42.4333996, 43.3543299], [42.4322754, 43.3543389], [42.4311796, 43.3545179], [42.431989, 43.3548617], [42.4313002, 43.3551409], [42.4305599, 43.3555201], [42.4297359, 43.3558711], [42.4252071, 43.358031], [42.4229167, 43.3591881], [42.4225433, 43.3593877], [42.4217923, 43.3598276], [42.421583, 43.3599439], [42.4209361, 43.3603035], [42.4201873, 43.3608027], [42.419447, 43.3611989], [42.4189127, 43.3614844], [42.4184213, 43.3618464], [42.418065, 43.3622574], [42.4173076, 43.3630663], [42.4162777, 43.3641677], [42.4155836, 43.3647861], [42.4151511, 43.3654453], [42.4130763, 43.369887], [42.4119886, 43.3703243], [42.4123546, 43.3717548], [42.4131318, 43.3724812], [42.4132972, 43.3731512], [42.413021, 43.3732675], [42.4126625, 43.3738397], [42.4112649, 43.3746115], [42.4108488, 43.3748413], [42.4104227, 43.3759572], [42.4104459, 43.3767495], [42.4102502, 43.377012], [42.4096541, 43.3778116], [42.4095869, 43.3779469], [42.4096411, 43.3784404], [42.4093112, 43.3785828], [42.409138, 43.3786576], [42.4081158, 43.3790988], [42.4077761, 43.3797336], [42.4073545, 43.3805216], [42.4070757, 43.3810428], [42.4065155, 43.3812127], [42.405875, 43.381573], [42.4049346, 43.3818741], [42.404785, 43.381922], [42.4038095, 43.3826919], [42.4041047, 43.3839668], [42.4054678, 43.3857569], [42.405078, 43.38818], [42.4050846, 43.3883739], [42.4038328, 43.3902921], [42.4033077, 43.3920741], [42.4028305, 43.3928315], [42.4044027, 43.3942912], [42.4057498, 43.3949233], [42.4065954, 43.3952581], [42.4077506, 43.3962085], [42.4082497, 43.3973888], [42.4079897, 43.3985641], [42.4088991, 43.3991255], [42.4109371, 43.3999073], [42.4111553, 43.4002105], [42.4115237, 43.4007225], [42.4123576, 43.4010922], [42.4157277, 43.4025517], [42.416822, 43.4034203], [42.4171056, 43.4038302], [42.4176701, 43.4047951], [42.4178361, 43.4057721], [42.4175041, 43.4070144], [42.416757, 43.4076416], [42.4133718, 43.4094985], [42.4118761, 43.410319], [42.4110673, 43.4113508], [42.4101983, 43.4131666], [42.411444, 43.4134864], [42.4141181, 43.4147897], [42.4163265, 43.4155527], [42.4177943, 43.4164221], [42.4180468, 43.4168098], [42.4223888, 43.4192038], [42.4242513, 43.422218], [42.4243857, 43.4238062], [42.4242685, 43.4244154], [42.4194145, 43.4259024], [42.4192689, 43.428105]]]}, "properties": {"name": "Qaraçay rayon", "admin": "rayon", "source": "© OpenStreetMap contributors, ODbL 1.0", "osm_relation": 1059283}}]}