{"type":"FeatureCollection","features":[{"type":"Feature","properties":{"name":"Tolbo","admin":"sum","source":"© OpenStreetMap contributors, ODbL 1.0","osm_relation":7305004},"geometry":{"type":"Polygon","coordinates":[[[89.8636358,48.6231087],[89.9148534,48.5498846],[90.0519842,48.4382053],[90.0486798,48.4162786],[90.0238971,48.3954394],[89.9710274,48.4042148],[89.9660709,48.3833707],[89.975984,48.3482455],[89.929723,48.2812211],[90.0073754,48.2295192],[89.9825927,48.197592],[90.0255493,48.154624],[90.022245,48.1149292],[90.0751147,48.0685799],[90.0895033,48.1246469],[90.2882457,48.1953894],[90.4997245,48.1535217],[90.5278116,48.1722562],[90.6087683,48.1513172],[90.6682467,48.1755616],[90.8410346,48.1899145],[90.833771,48.226455],[90.820739,48.273022],[90.817642,48.301391],[90.820258,48.348945],[90.834243,48.413647],[90.833359,48.452459],[90.81643,48.526733],[90.80992,48.545297],[90.799584,48.562301],[90.77897,48.58491],[90.719284,48.638828],[90.5823335,48.6438544],[90.4633766,48.6405793],[90.4072025,48.5925204],[90.3642459,48.6056319],[90.2601587,48.5936132],[90.0883321,48.6798662],[90.0106797,48.6558612],[89.8950272,48.666774],[89.8636358,48.6231087]]]}},{"type":"Feature","properties":{"name":"Altai","admin":"audany","source":"© OpenStreetMap contributors, ODbL 1.0","osm_relation":3395771},"geometry":{"type":"Polygon","coordinates":[[[85.2024962,49.7344129],[85.2038042,49.7308744],[85.2059046,49.729459],[85.2077374,49.7291744],[85.2088178,49.7280871],[85.2098028,49.7261041],[85.2123075,49.7232156],[85.215526,49.7185296],[85.2133497,49.7151468],[85.2109095,49.7150473],[85.2097224,49.7154168],[85.2068298,49.7154085],[85.2064781,49.7133189],[85.2067969,49.7113502],[85.2054614,49.7098626],[85.2056403,49.7078142],[85.208244,49.7040595],[85.2097208,49.7031849],[85.2103348,49.7025264],[85.2091845,49.7018126],[85.2085705,49.7004754],[85.2086249,49.6992438],[85.208002,49.6978015],[85.2088523,49.6964468],[85.2129262,49.6938946],[85.2149409,49.6890682],[85.2131999,49.6867451],[85.2132621,49.6836274],[85.2126257,49.6801858],[85.2141206,49.6752514],[85.2083133,49.672758],[85.2082978,49.6640455],[85.2100854,49.661842],[85.2065102,49.6586019],[85.2036298,49.6574402],[85.2007166,49.6577121],[85.1989656,49.6586512],[85.1974898,49.659898],[85.1964392,49.6606105],[85.1950635,49.6607724],[85.1930124,49.6605133],[85.190561,49.6603352],[85.186834,49.659558],[85.1855833,49.6594608],[85.1836322,49.6599304],[85.1817062,49.66142],[85.1799302,49.6612257],[85.1778041,49.6609019],[85.1738269,49.6611933],[85.1723261,49.6614848],[85.168524,49.6603028],[85.1650721,49.6602542],[85.162996,49.6608695],[85.1609699,49.6624239],[85.159369,49.6642211],[85.1564174,49.6635896],[85.1525653,49.664302],[85.1492635,49.6660667],[85.146562,49.6652734],[85.144686,49.6653868],[85.1429257,49.6661709],[85.1415593,49.6653787],[85.1403836,49.6650872],[85.1388453,49.6649901],[85.1369568,49.6652249],[85.135456,49.6655568],[85.1341678,49.6659777],[85.1329046,49.6662043],[85.1319791,49.6662934],[85.1292025,49.6663501],[85.1266136,49.66669],[85.1257382,49.6666819],[85.1243499,49.6665039],[85.1231242,49.6668357],[85.1222613,49.6668034],[85.1214733,49.66686],[85.1204603,49.6665848],[85.1185967,49.6662772],[85.1182966,49.6637192],[85.117196,49.6624239],[85.1163455,49.6587969],[85.1173211,49.657291],[85.1161954,49.654522],[85.1136941,49.655607],[85.1126435,49.6585864],[85.1123653,49.6596624],[85.1110664,49.6609836],[85.109285,49.6614641],[85.108617,49.6623529],[85.1075779,49.6626172],[85.1052707,49.6619058],[85.1045891,49.661922],[85.1045641,49.6622944],[85.1050171,49.6630255],[85.1041265,49.6636501],[85.100972,49.6638423],[85.0944586,49.6660344],[85.0924362,49.6672772],[85.0897085,49.6672772],[85.0821934,49.6679497],[85.0796327,49.6694149],[85.0786677,49.6696551],[85.0778142,49.6703576],[85.0767085,49.6706971],[85.0749195,49.6712463],[85.0731009,49.6719368],[85.0718485,49.6720809],[85.0682579,49.6714624],[85.0647786,49.6707659],[85.0636931,49.6707119],[85.0598149,49.6697812],[85.0578387,49.6690906],[85.0566511,49.6692047],[85.0535338,49.6698052],[85.051873,49.6706218],[85.0474289,49.6727594],[85.0446733,49.6745787],[85.0439125,49.6757254],[85.0432352,49.6762417],[85.0421404,49.6783911],[85.0423074,49.6788353],[85.041593,49.680072],[85.0410549,49.6805703],[85.0404147,49.6822932],[85.040591,49.6825874],[85.0405075,49.6828575],[85.0400714,49.6830796],[85.0393663,49.6832597],[85.0382901,49.6832177],[85.0371396,49.6836559],[85.0361654,49.6845323],[85.0335026,49.6853307],[85.0310532,49.6858829],[85.0300392,49.6859314],[85.0277208,49.6845678],[85.0245173,49.6836405],[85.0212295,49.6822496],[85.0194169,49.6804223],[85.0178152,49.6794677],[85.0160448,49.6773402],[85.0149488,49.676931],[85.0121668,49.6749125],[85.0095956,49.6740942],[85.007488,49.6734123],[85.0050853,49.673194],[85.0039894,49.6724575],[85.0011231,49.6719938],[84.9986783,49.6711754],[84.9968236,49.6700024],[84.9942523,49.669484],[84.9915125,49.6694568],[84.9883932,49.6683928],[84.9861382,49.6690203],[84.9851687,49.6687338],[84.9836135,49.6690366],[84.9825763,49.6692385],[84.9798365,49.6707662],[84.9771177,49.6713527],[84.9755791,49.6730986],[84.9737034,49.6739305],[84.9727971,49.6763309],[84.9721227,49.6768492],[84.9708792,49.6770674],[84.9703313,49.6783221],[84.9689824,49.6790312],[84.9682026,49.6808995],[84.9669802,49.6821132],[84.9662215,49.6838587],[84.9644722,49.6853314],[84.9633341,49.6855359],[84.9622803,49.6862722],[84.9607628,49.6884539],[84.9590978,49.6895719],[84.9565476,49.6906081],[84.9525432,49.6914807],[84.9515948,49.6922851],[84.9518477,49.6933758],[84.9512365,49.6946846],[84.9484334,49.6949845],[84.9454828,49.6962524],[84.9424479,49.6957889],[84.9388228,49.696416],[84.936652,49.6960888],[84.9318889,49.6967295],[84.929423,49.6958298],[84.9271257,49.6962797],[84.9246388,49.6960206],[84.9232688,49.6953526],[84.9205922,49.6952299],[84.9184003,49.6961433],[84.9162927,49.6959797],[84.9138479,49.6969068],[84.9123726,49.6973703],[84.9106233,49.697343],[84.9101175,49.6970295],[84.9094852,49.6963342],[84.9078624,49.6963206],[84.9068507,49.6960343],[84.9037315,49.6960752],[84.899137,49.6983109],[84.8979146,49.6990334],[84.897198,49.6997422],[84.896355,49.6997014],[84.8955962,49.6992651],[84.8915918,49.6977929],[84.8898636,49.697602],[84.8881143,49.697861],[84.8866601,49.6990334],[84.8860489,49.6992242],[84.8844682,49.6992515],[84.8826767,49.6985426],[84.881644,49.6985972],[84.8808642,49.6991561],[84.8799579,49.6991288],[84.8790727,49.69827],[84.8770073,49.6982836],[84.8759957,49.6978201],[84.8740988,49.6982836],[84.8730661,49.6982291],[84.8717383,49.6974248],[84.8707056,49.6972885],[84.8697572,49.6975884],[84.8690196,49.6984336],[84.8685348,49.6983245],[84.8675442,49.6982018],[84.8662586,49.6991288],[84.8653102,49.6993469],[84.8637506,49.6987199],[84.8625703,49.6984472],[84.8615376,49.6985017],[84.8607157,49.6982836],[84.8597883,49.6974248],[84.8585449,49.6970567],[84.8568588,49.6972339],[84.8562371,49.6968727],[84.8557523,49.6964228],[84.8546985,49.6963069],[84.8539029,49.6965864],[84.9437897,49.6175193],[84.9437103,49.5865415],[84.9407783,49.5892026],[84.9371761,49.5946329],[84.9352494,49.5987596],[84.9319823,49.6026687],[84.9301393,49.602343],[84.9319823,49.5930039],[84.9337834,49.5899629],[84.9322546,49.5878992],[84.9312074,49.5874376],[84.930265,49.586107],[84.9285299,49.585502],[84.9280864,49.589344],[84.9270785,49.5914609],[84.9231678,49.594623],[84.9184147,49.597649],[84.9121213,49.5993005],[84.9062755,49.5996663],[84.8974721,49.5983166],[84.8880307,49.5975377],[84.8779027,49.5956462],[84.8711475,49.5945503],[84.8674301,49.5934553],[84.8657029,49.591871],[84.8636109,49.5911791],[84.8605649,49.5916405],[84.8555417,49.5920094],[84.850205,49.5915666],[84.8464907,49.5900444],[84.8444841,49.5897123],[84.8336398,49.5914282],[84.827065,49.5905426],[84.8232254,49.5906062],[84.8200204,49.5905887],[84.8135311,49.5885222],[84.8036475,49.5877126],[84.7999623,49.5903633],[84.7998817,49.5939697],[84.7964951,49.5947537],[84.7907703,49.5982031],[84.7823039,49.6007638],[84.7786755,49.6025928],[84.7809332,49.6058848],[84.778353,49.6083407],[84.7681934,49.6244311],[84.7569049,49.6241177],[84.749003,49.6324743],[84.7490836,49.6348243],[84.7502125,49.6370698],[84.7497287,49.6430746],[84.745939,49.6423959],[84.742875,49.6423437],[84.7370695,49.649131],[84.7549697,49.6907739],[84.7415042,49.7011008],[84.7306996,49.7088706],[84.6920769,49.7170042],[84.6824817,49.7198714],[84.6685324,49.7125205],[84.658534,49.7053248],[84.6540187,49.6864443],[84.6615174,49.6807578],[84.6626463,49.6711049],[84.6669198,49.6592058],[84.6727252,49.6564915],[84.6917544,49.6301763],[84.6802239,49.6104307],[84.6829654,49.5964262],[84.666194,49.5757257],[84.6701073,49.559423],[84.6483341,49.5308444],[84.640271,49.5277566],[84.621645,49.5312892],[84.5986769,49.4865829],[84.6035349,49.4857122],[84.604758,49.4858446],[84.6065605,49.4851894],[84.60832,49.4844018],[84.6093392,49.4845412],[84.6099615,49.4839209],[84.6128368,49.4832657],[84.6141457,49.48367],[84.6164846,49.4819483],[84.6190703,49.4817253],[84.6202826,49.4807912],[84.6232653,49.4812025],[84.6241128,49.4808261],[84.6236622,49.480129],[84.623909,49.4795714],[84.6250677,49.4791601],[84.6262801,49.4792646],[84.6273529,49.4788255],[84.6270311,49.4782051],[84.6293056,49.4770479],[84.6309793,49.4764484],[84.631784,49.4767133],[84.6325135,49.4765599],[84.6328139,49.4758907],[84.6338332,49.4753818],[84.6341014,49.4748171],[84.6334576,49.4733879],[84.6342623,49.4725165],[84.635936,49.4717635],[84.6374917,49.4708711],[84.6383715,49.4700624],[84.638468,49.4685354],[84.6391976,49.4677476],[84.640013,49.467378],[84.6401632,49.4662624],[84.6399593,49.4657743],[84.6390474,49.4654327],[84.6389401,49.4649027],[84.6394374,49.4646869],[84.6219778,49.4561023],[84.6007776,49.4448588],[84.6073007,49.4379105],[84.6098327,49.4366547],[84.5952844,49.4363477],[84.5729041,49.4478164],[84.478611,49.46],[84.4128084,49.3948596],[84.3968439,49.3962841],[84.3706655,49.3974292],[84.3509674,49.4034058],[84.3237616,49.3891574],[84.2854785,49.3691004],[84.266982,49.3794951],[84.2180156,49.4110291],[84.1830824,49.4030428],[84.1819346,49.4012798],[84.1804433,49.4002221],[84.1776109,49.3972895],[84.1756582,49.3947898],[84.1737485,49.3932396],[84.1707444,49.3916893],[84.1688776,49.389734],[84.167912,49.3893848],[84.1672897,49.3882395],[84.1653156,49.3877646],[84.1624832,49.3864516],[84.1576767,49.3831271],[84.1558742,49.3826243],[84.1559171,49.3815347],[84.154973,49.3807524],[84.1548872,49.3798583],[84.1540288,49.379523],[84.1539001,49.3788245],[84.1523981,49.3778187],[84.1505956,49.3775951],[84.1486215,49.3759745],[84.1440296,49.3752481],[84.1420555,49.3742421],[84.1404247,49.3725655],[84.1381502,49.3716993],[84.1346311,49.3721743],[84.1303825,49.3711404],[84.1276145,49.3722581],[84.1252541,49.3715316],[84.1239023,49.3705395],[84.1225505,49.3676192],[84.1214776,49.3663756],[84.1182589,49.365062],[84.1166281,49.3651738],[84.1140747,49.3667389],[84.1110062,49.3663895],[84.1101479,49.3643074],[84.1089892,49.363469],[84.1085601,49.3617361],[84.1067791,49.3611911],[84.1042685,49.3596957],[84.1011357,49.3585776],[84.0965652,49.3574875],[84.0939259,49.357194],[84.0925741,49.3567328],[84.0919304,49.3562995],[84.0919089,49.355419],[84.09078,49.3543516],[84.0905785,49.3541611],[84.0895905,49.3527666],[84.0894198,49.3525257],[84.087789,49.3516591],[84.0874457,49.3507505],[84.0865659,49.3502333],[84.0864587,49.3490172],[84.0857506,49.3480387],[84.0862012,49.3470602],[84.0862788,49.346708],[84.0860295,49.346508],[84.0851337,49.3463088],[84.083755,49.3463472],[84.082536,49.3454207],[84.0813088,49.3444879],[84.0769958,49.3374276],[84.0705585,49.3341837],[84.0481561,49.3291501],[84.0230064,49.3457107],[83.9978631,49.366924],[83.9609076,49.387579],[83.9156835,49.4051508],[83.892059,49.42568],[83.8826092,49.4345696],[83.8500411,49.4415924],[83.8040077,49.4526207],[83.7536539,49.4678217],[83.6913679,49.4799171],[83.6529921,49.4869738],[83.6104175,49.5350899],[83.5883117,49.5539226],[83.5698059,49.5735897],[83.5157044,49.582169],[83.4826301,49.5788867],[83.469678,49.5804865],[83.4571142,49.5820382],[83.4379615,49.5989935],[83.4226899,49.6141936],[83.4078597,49.6196634],[83.3947277,49.6215261],[83.3849001,49.622944],[83.3768165,49.6249969],[83.3707809,49.6268917],[83.3625411,49.6297271],[83.3581513,49.6319976],[83.3531766,49.6353493],[83.3500098,49.6377321],[83.3481216,49.6397887],[83.3464908,49.6434014],[83.345075,49.6492797],[83.3446679,49.6525508],[83.3455973,49.6567],[83.3459583,49.6574228],[83.3464108,49.6581977],[83.3470353,49.6591525],[83.3481646,49.6608223],[83.3499512,49.6637233],[83.3526549,49.6688367],[83.3531674,49.6717955],[83.3533031,49.6725786],[83.3535327,49.6739041],[83.3515664,49.679698],[83.3471773,49.6828332],[83.3433852,49.6835375],[83.3377672,49.6827651],[83.3310255,49.6806068],[83.3241435,49.6766761],[83.3162432,49.674404],[83.3098878,49.6735859],[83.3010188,49.6741336],[83.2808283,49.6736807],[83.2691007,49.6732263],[83.2594096,49.6699541],[83.2532805,49.6685401],[83.2271763,49.6669543],[83.2129908,49.668886],[83.2068175,49.6708638],[83.2006001,49.6728772],[83.1944418,49.6743907],[83.1884765,49.6757238],[83.1838631,49.6768207],[83.1809234,49.6774178],[83.1781339,49.6778482],[83.1757446,49.6781308],[83.1692624,49.6788003],[83.1651735,49.6793617],[83.1581998,49.6803058],[83.1515264,49.681236],[83.1478143,49.681722],[83.1447243,49.6820552],[83.1419563,49.6820274],[83.1388664,49.6814859],[83.1341243,49.6800628],[83.1313884,49.6794866],[83.1288135,49.6794033],[83.1263995,49.6796602],[83.1233311,49.6804238],[83.11993,49.6815137],[83.1173873,49.6826938],[83.1157458,49.6836171],[83.1140935,49.6848318],[83.1127846,49.6859772],[83.1111646,49.687643],[83.1100488,49.6886981],[83.1089544,49.6896143],[83.107624,49.6903014],[83.1060254,49.6908844],[83.103311,49.6914535],[83.0986333,49.6919394],[83.0949211,49.6918006],[83.0920243,49.691162],[83.0893421,49.6898988],[83.0833983,49.6869281],[83.0805015,49.6858869],[83.0768537,49.6854566],[83.0737424,49.6859147],[83.0706739,49.6869559],[83.0665111,49.6884551],[83.0634641,49.6889688],[83.0603528,49.68883],[83.0574989,49.6883094],[83.0539799,49.6871502],[83.0497098,49.6856232],[83.045268,49.6844986],[83.0399251,49.6836795],[83.0350756,49.6829993],[83.030827,49.682791],[83.0271578,49.683027],[83.0239177,49.6836657],[83.0225053,49.6842911],[83.0208921,49.6856232],[83.0187464,49.6883719],[83.0181885,49.6909122],[83.0185103,49.693147],[83.0196476,49.695465],[83.0227804,49.6988932],[83.0254197,49.7017244],[83.0272436,49.7040004],[83.0283808,49.7065677],[83.0281663,49.7087185],[83.0276513,49.7118266],[83.0255699,49.7147681],[83.0211496,49.7176955],[83.0165577,49.719499],[83.0102491,49.7201649],[83.0048788,49.7199449],[82.9994559,49.7186528],[82.989043,49.7144736],[82.9777719,49.7110226],[82.9660092,49.7085249],[82.9584951,49.7085476],[82.9547732,49.710296],[82.9507001,49.714292],[82.9480667,49.7181288],[82.9497872,49.7267548],[82.9508054,49.7337225],[82.9536144,49.7402809],[82.95846,49.7455904],[82.9634811,49.7495155],[82.9674625,49.7529215],[82.9705524,49.7560684],[82.9727626,49.7595617],[82.9738784,49.7620151],[82.9736209,49.7647041],[82.9722261,49.7668939],[82.9678488,49.7699152],[82.9640293,49.7715782],[82.9607892,49.7723681],[82.9572272,49.772382],[82.9533219,49.7717722],[82.949481,49.7705388],[82.9445672,49.7691114],[82.9401898,49.7679888],[82.9363742,49.767798],[82.9339865,49.7683876],[82.9325755,49.7696074],[82.9318095,49.771245],[82.9323011,49.7740116],[82.9336705,49.7769366],[82.9370062,49.7809952],[82.9419922,49.7868444],[82.9465217,49.7920808],[82.9475049,49.7977473],[82.9462408,49.8002177],[82.9430165,49.8017815],[82.9317805,49.8054301],[82.9177003,49.8108684],[82.9069208,49.8141991],[82.9028477,49.8161249],[82.9014783,49.818096],[82.9026722,49.8238727],[82.9018294,49.8286068],[82.9005448,49.8319214],[82.8941192,49.8400969],[82.8934114,49.8408387],[82.9084684,49.8488766],[82.9145323,49.8633811],[82.9080609,49.8738646],[82.9079704,49.8740112],[82.9095523,49.8750684],[82.9101089,49.8764843],[82.9117786,49.8782399],[82.9150888,49.8790328],[82.9193658,49.8805052],[82.9209476,49.8819209],[82.9224416,49.8839594],[82.9237306,49.8854883],[82.9271872,49.886734],[82.9278464,49.8866019],[82.9288131,49.8869228],[82.9294136,49.8873427],[82.9288785,49.8880447],[82.9293733,49.8882321],[82.9299262,49.8883548],[82.9304901,49.8887724],[82.9310174,49.889013],[82.9315667,49.8890885],[82.9321306,49.8890083],[82.9334488,49.8889941],[82.935331,49.889315],[82.9376179,49.889984],[82.9382384,49.8906361],[82.9387071,49.8915183],[82.939725,49.8918958],[82.9403622,49.8918109],[82.9408529,49.8925657],[82.9414534,49.8929196],[82.9418831,49.8929561],[82.9431744,49.8930658],[82.9455399,49.8935188],[82.9467702,49.8933489],[82.9488647,49.8944152],[82.9503734,49.8942359],[82.9518381,49.8948492],[82.9536836,49.8945756],[82.9545038,49.8955191],[82.9562761,49.8954531],[82.9579605,49.8968117],[82.9591908,49.8971325],[82.9598939,49.8979439],[82.960399,49.8980065],[82.9613566,49.8979522],[82.9614174,49.8981631],[82.9612369,49.8982304],[82.9611907,49.8983377],[82.9612268,49.8983968],[82.9616955,49.8984534],[82.9626768,49.8982741],[82.963043,49.8977552],[82.9636435,49.8978213],[82.9641854,49.8986327],[82.9656355,49.8990289],[82.9668365,49.899812],[82.9678325,49.8999346],[82.9690482,49.900812],[82.9712013,49.9012366],[82.9715382,49.9023781],[82.9721827,49.9032743],[82.9731494,49.9035573],[82.973706,49.9040384],[82.9743065,49.9052459],[82.9770601,49.9072363],[82.9852478,49.9106982],[82.9851892,49.9108113],[82.987767,49.9105095],[82.9906671,49.909189],[82.9923662,49.9093587],[82.9935086,49.9088305],[82.9950319,49.9092267],[82.9969946,49.9088682],[82.998928,49.9076608],[83.0005685,49.9074533],[83.0020039,49.9078118],[83.0030292,49.9076231],[83.0045524,49.9067364],[83.0074232,49.9069251],[83.0097668,49.9059251],[83.0134871,49.905095],[83.0151861,49.9043969],[83.017515,49.9042271],[83.0179471,49.9045714],[83.0181155,49.9049535],[83.0188772,49.9053025],[83.0192287,49.9056704],[83.0201075,49.9058214],[83.0206202,49.9060949],[83.0209424,49.9066326],[83.0216308,49.906727],[83.021997,49.9076231],[83.0226268,49.9084438],[83.0251021,49.9091701],[83.025937,49.9101228],[83.0349664,49.9080006],[83.050647,49.9100514],[83.0508082,49.9133481],[83.064957,49.9179423],[83.0641105,49.9243008],[83.0561694,49.9341873],[83.043109,49.9442793],[83.0364982,49.9540839],[83.0515467,49.9579339],[83.0561485,49.9569757],[83.059189,49.9569493],[83.0651055,49.9562091],[83.0665025,49.9553368],[83.0683103,49.9554425],[83.0689266,49.9564734],[83.0725012,49.9563677],[83.0774317,49.9569757],[83.0805955,49.9564999],[83.084129,49.9546494],[83.0881555,49.9536185],[83.0908673,49.9532483],[83.0924697,49.9538299],[83.0951815,49.9533805],[83.1010569,49.9520851],[83.1050424,49.9499437],[83.106234,49.9499966],[83.1099729,49.9511334],[83.1089457,49.9507633],[83.1107125,49.9511995],[83.1130545,49.9510805],[83.114472,49.9513846],[83.115304,49.9533276],[83.1160538,49.9535788],[83.118817,49.9533409],[83.1213746,49.9525213],[83.1288731,49.9554028],[83.1325709,49.955231],[83.1342761,49.9559844],[83.1369467,49.9567642],[83.1384053,49.9582974],[83.1394736,49.9590111],[83.1398434,49.9599891],[83.142021,49.9606763],[83.1439932,49.9612314],[83.1536898,49.9629891],[83.1571822,49.9597248],[83.158497,49.9537771],[83.1687689,49.9531426],[83.1859845,49.9472734],[83.1988037,49.9386534],[83.1974889,49.9348982],[83.2100616,49.9304286],[83.2075553,49.9230224],[83.2000363,49.9195041],[83.2052955,49.9108791],[83.2119106,49.9065396],[83.2239081,49.9066189],[83.2287153,49.9001089],[83.2318379,49.8986798],[83.2355358,49.8916393],[83.2388638,49.8917452],[83.2418632,49.8905805],[83.2498753,49.8927246],[83.2611743,49.903417],[83.2752261,49.8928834],[83.2972489,49.8950273],[83.2988924,49.8964037],[83.3001045,49.9002148],[83.300536,49.9029142],[83.3007722,49.9035394],[83.3013577,49.9063808],[83.3041105,49.9079949],[83.307151,49.9081272],[83.3116501,49.910244],[83.3128622,49.9103763],[83.3143002,49.9113421],[83.3161902,49.9139086],[83.3181624,49.9152844],[83.3205249,49.9157077],[83.3220452,49.9154299],[83.3270732,49.9166072],[83.3296617,49.917715],[83.3107462,49.9308518],[83.3199292,49.9448674],[83.3216137,49.9462158],[83.3279823,49.9503139],[83.3477042,49.9583502],[83.3581404,49.9616807],[83.3857927,49.9587166],[83.3878054,49.9704816],[83.4049799,49.9822665],[83.4067056,49.9895579],[83.3713704,49.986335],[83.3574829,49.9919353],[83.3045624,50.0038733],[83.2679947,50.0160196],[83.2667621,50.0357639],[83.256819,50.053548],[83.2517241,50.0598263],[83.2513133,50.066473],[83.2559972,50.0761776],[83.2518885,50.0817674],[83.2636395,50.0995872],[83.2653651,50.1112876],[83.2758835,50.1256195],[83.3057427,50.1398768],[83.3222437,50.1421322],[83.3418131,50.1418159],[83.3438945,50.1381165],[83.3686995,50.1345405],[83.3820247,50.1338941],[83.3974528,50.1311432],[83.4171724,50.1329588],[83.4397459,50.1390517],[83.4456897,50.144305],[83.4475779,50.1515926],[83.4558606,50.1572294],[83.472619,50.1510839],[83.5134959,50.1659033],[83.5210705,50.1671541],[83.5196543,50.1802785],[83.5140967,50.1837136],[83.5212636,50.1953912],[83.5677194,50.192891],[83.6009145,50.1891818],[83.6420059,50.1884262],[83.67033,50.194773],[83.6795676,50.1888315],[83.7110996,50.1972456],[83.7234592,50.1975752],[83.7270212,50.1983101],[83.7289095,50.1986329],[83.7308192,50.1988252],[83.7328362,50.1983788],[83.7345743,50.1981041],[83.7362909,50.1980629],[83.7377608,50.1983307],[83.7392092,50.1985093],[83.7430715,50.1986604],[83.7436938,50.1985505],[83.7452173,50.1985367],[83.7457806,50.1987634],[83.7463599,50.1992063],[83.746891,50.199821],[83.7479424,50.200082],[83.7482643,50.2007069],[83.7492299,50.2009748],[83.7499702,50.2014692],[83.7505066,50.2020735],[83.7511825,50.2024169],[83.7515044,50.2025268],[83.7515151,50.2027946],[83.7513542,50.203289],[83.7517512,50.2036942],[83.7532854,50.2036255],[83.7537897,50.2039552],[83.7543154,50.203962],[83.755238,50.2035706],[83.7556994,50.2036187],[83.7569761,50.2048273],[83.7584674,50.2046968],[83.7588537,50.2048685],[83.7590253,50.2053285],[83.7605488,50.2059534],[83.76086,50.2063242],[83.7612247,50.2064753],[83.7620187,50.2067362],[83.7632418,50.2074916],[83.7633705,50.2080066],[83.7647867,50.2085765],[83.7645185,50.2092356],[83.7645292,50.2095172],[83.7648725,50.2096614],[83.7675333,50.2097918],[83.7691212,50.2091601],[83.7696361,50.2086795],[83.771975,50.2081439],[83.7725866,50.2081233],[83.7731659,50.2083842],[83.7733483,50.2090296],[83.7729514,50.2105608],[83.7734449,50.2131149],[83.7740457,50.2137123],[83.7749469,50.2140967],[83.7752688,50.2144812],[83.7782299,50.2156689],[83.7795174,50.2160053],[83.781867,50.2161976],[83.7828541,50.2161976],[83.7837016,50.2157444],[83.7845278,50.2155316],[83.7860834,50.2153257],[83.7869739,50.2153394],[83.7879074,50.2150716],[83.7884974,50.2147421],[83.7893343,50.2147215],[83.7901282,50.2144606],[83.7917805,50.2145499],[83.7929928,50.2140899],[83.7933254,50.2138358],[83.7945592,50.2133278],[83.7954605,50.2131836],[83.7958789,50.2128403],[83.7965548,50.2127167],[83.7969947,50.2128746],[83.7984323,50.212957],[83.7992585,50.2136985],[83.799634,50.2138015],[83.8002026,50.2137809],[83.800503,50.2138152],[83.8011575,50.2140487],[83.8016081,50.214083],[83.8025522,50.2138702],[83.8034105,50.2139251],[83.8039684,50.2141997],[83.8046336,50.2143851],[83.8048589,50.2147146],[83.8047731,50.2150442],[83.8049555,50.2152913],[83.8055992,50.2156346],[83.8060901,50.2153847],[83.8065433,50.215154],[83.807584,50.2148245],[83.8090646,50.2155728],[83.8096547,50.2155522],[83.8096985,50.215464],[83.8098049,50.2152501],[83.809483,50.2146872],[83.8098156,50.2140006],[83.8094723,50.2131973],[83.8093436,50.2122224],[83.8095152,50.211577],[83.8098585,50.2110964],[83.8110602,50.2106569],[83.8119078,50.2105677],[83.8124442,50.2102793],[83.813045,50.2089404],[83.8141286,50.2087138],[83.8145256,50.2081095],[83.8146543,50.2073062],[83.8139999,50.2068392],[83.8138068,50.2055689],[83.8139677,50.2050401],[83.813957,50.2045801],[83.8142574,50.2038315],[83.8148367,50.2034333],[83.8159418,50.2031517],[83.8171327,50.2031998],[83.8183665,50.2035363],[83.8190317,50.2037903],[83.81989,50.2042985],[83.8208341,50.2044564],[83.8217568,50.2043191],[83.8223255,50.2038247],[83.8221431,50.2032959],[83.8222182,50.2028427],[83.8214886,50.2025337],[83.821274,50.2022521],[83.8210273,50.2017508],[83.8211667,50.2014967],[83.8217246,50.2011808],[83.8220358,50.2009473],[83.8224006,50.2001438],[83.8222182,50.1997317],[83.8221323,50.1990243],[83.8223469,50.1986878],[83.8228619,50.1986191],[83.8236666,50.1989625],[83.825072,50.1990175],[83.8262415,50.1986672],[83.8266706,50.198729],[83.8271963,50.199251],[83.8279152,50.1992166],[83.8283765,50.1988458],[83.8296854,50.1985436],[83.8301253,50.198626],[83.830136,50.1989763],[83.8299107,50.1997111],[83.8305116,50.2000888],[83.8315952,50.2004734],[83.8332152,50.2008374],[83.8337409,50.2011464],[83.8345992,50.2014623],[83.8358974,50.2022246],[83.836863,50.202362],[83.8379574,50.2023345],[83.8391805,50.2024924],[83.8400495,50.2031654],[83.8402533,50.2036599],[83.8406825,50.2040856],[83.8413691,50.2042024],[83.841927,50.2040994],[83.8425064,50.2036324],[83.8430536,50.2034745],[83.8437831,50.2036461],[83.844856,50.2041268],[83.8460684,50.2043397],[83.8473987,50.2039552],[83.8474095,50.2037423],[83.8470662,50.2034745],[83.8466585,50.2034058],[83.8464868,50.2031654],[83.8467657,50.2029251],[83.8473022,50.2027397],[83.8485575,50.202671],[83.8503599,50.2024444],[83.8512719,50.202671],[83.8515723,50.202877],[83.8518834,50.2039277],[83.8523769,50.2042367],[83.8536646,50.2045022],[83.8540935,50.2046831],[83.8543939,50.2054934],[83.8548338,50.2057406],[83.8555419,50.2058985],[83.8562286,50.2062006],[83.8572371,50.2065852],[83.8583636,50.2066813],[83.8592327,50.2070933],[83.8600695,50.2073748],[83.860563,50.207828],[83.8611531,50.2079654],[83.8619685,50.208652],[83.8626337,50.2090228],[83.863492,50.2091807],[83.8641679,50.2091326],[83.8651228,50.2092906],[83.8663781,50.2091532],[83.8668609,50.2092562],[83.8679981,50.2090846],[83.8691676,50.2084666],[83.8717747,50.207725],[83.8724935,50.2071963],[83.8728583,50.2067019],[83.8734269,50.2065234],[83.8740277,50.2065646],[83.8745642,50.206132],[83.8755083,50.2062487],[83.8769352,50.2063311],[83.8782334,50.2061869],[83.8798535,50.2064684],[83.8814843,50.2066126],[83.8816988,50.2063723],[83.8816452,50.205974],[83.8820422,50.2058573],[83.8833082,50.2058985],[83.885293,50.2053629],[83.8860333,50.2054316],[83.8868165,50.2051981],[83.8887477,50.2053629],[83.8902926,50.20572],[83.8920522,50.2070384],[83.8933396,50.2074984],[83.8941657,50.2075877],[83.8971269,50.2090159],[83.8980496,50.2096888],[83.9011288,50.2109247],[83.9013219,50.211371],[83.902445,50.2117905],[83.9180052,50.2017267],[83.9407235,50.2020358],[83.9555991,50.2188475],[83.9583886,50.2348469],[83.9676904,50.2412356],[83.9910579,50.2407004],[84.0002203,50.2433352],[83.999877,50.2584416],[84.0006494,50.2713901],[83.9777112,50.2780824],[83.9838052,50.2869126],[83.9840197,50.2939729],[84.0014219,50.2943704],[84.0099191,50.2886264],[84.0121936,50.2865425],[84.0143394,50.2855279],[84.0174722,50.285473],[84.0192318,50.2858295],[84.0200901,50.2865425],[84.0213775,50.2881328],[84.023137,50.290107],[84.0245533,50.2902715],[84.0252828,50.2889828],[84.0265274,50.288078],[84.0290594,50.2879957],[84.0310764,50.2883796],[84.0332651,50.289449],[84.03481,50.2911763],[84.0374708,50.2937535],[84.0391874,50.2956727],[84.0411615,50.2969612],[84.0446376,50.297345],[84.0485,50.296358],[84.0521478,50.2950969],[84.0564394,50.2932326],[84.0607309,50.2910118],[84.0642499,50.2898054],[84.0690994,50.2897231],[84.0750217,50.2898602],[84.0783262,50.2891748],[84.0872097,50.2894215],[84.0995264,50.2902167],[84.1034317,50.2913134],[84.1064786,50.292931],[84.1155338,50.2949324],[84.1236877,50.2940277],[84.1264772,50.2930407],[84.1283655,50.290957],[84.1308546,50.2877489],[84.1342878,50.2857198],[84.136219,50.2840471],[84.1373777,50.2822372],[84.1370344,50.2785898],[84.1379785,50.2767523],[84.1402101,50.2760666],[84.1488361,50.2744758],[84.1522264,50.2743387],[84.1548872,50.2759569],[84.1563463,50.2771637],[84.160037,50.2774928],[84.1621398,50.277959],[84.1635561,50.2789737],[84.1693067,50.2809209],[84.1733837,50.2815242],[84.1809368,50.2822921],[84.1864299,50.2853908],[84.1920948,50.2904634],[84.1946268,50.2947405],[84.1977596,50.300662],[84.1974592,50.302526],[84.1957855,50.3033758],[84.1936826,50.3035951],[84.188919,50.3038418],[84.18437,50.305596],[84.1787481,50.309351],[84.1762161,50.3119821],[84.1784477,50.3154077],[84.1819238,50.3186687],[84.1832113,50.3192715],[84.1918373,50.3177918],[84.2012786,50.317874],[84.2058706,50.3173533],[84.2129516,50.3137086],[84.2166423,50.3109954],[84.229002,50.3063635],[84.2358255,50.3048834],[84.2435073,50.3061168],[84.254837,50.3089673],[84.2591285,50.3093236],[84.2622297,50.3101543],[84.2603348,50.3073527],[84.2597118,50.3010524],[84.2518466,50.2971724],[84.2507044,50.2951328],[84.2506785,50.2925126],[84.251587,50.2901411],[84.2560518,50.2893119],[84.2549615,50.2861109],[84.2576871,50.2834903],[84.2599195,50.2825117],[84.2605944,50.2788624],[84.2648255,50.2761086],[84.265734,50.273222],[84.2714967,50.2712975],[84.2747495,50.2682557],[84.2787915,50.2669981],[84.2786048,50.2642363],[84.280651,50.2615431],[84.2832857,50.2605685],[84.2849441,50.2587815],[84.288448,50.2573536],[84.2904408,50.2570714],[84.2902,50.2561394],[84.2916578,50.2539076],[84.2939448,50.2522828],[84.2969138,50.2513593],[84.300498,50.2484516],[84.3032531,50.2477161],[84.3080945,50.2482464],[84.3107096,50.2468052],[84.3183194,50.2470276],[84.3200903,50.2443136],[84.3194095,50.2424266],[84.3208601,50.2401855],[84.3249793,50.2389024],[84.3235884,50.235994],[84.3259685,50.2329756],[84.3258485,50.2285811],[84.329085,50.2264592],[84.3342741,50.2256036],[84.3367349,50.2216504],[84.3394632,50.2204867],[84.3473983,50.218383],[84.3574604,50.2138081],[84.3594452,50.2117952],[84.3618265,50.2086679],[84.3615778,50.2071083],[84.3625226,50.2054649],[84.3668318,50.2064617],[84.37112,50.2092937],[84.371403,50.2116777],[84.3765497,50.2144663],[84.3850833,50.2152607],[84.3910652,50.2158311],[84.3937061,50.2155162],[84.3992079,50.2137525],[84.4032891,50.2096671],[84.4074208,50.2088382],[84.4098473,50.2092264],[84.4125216,50.2120305],[84.412569,50.2164529],[84.4159301,50.2170509],[84.4216721,50.2248435],[84.4239331,50.2268933],[84.4315582,50.2300155],[84.4338384,50.236084],[84.4469701,50.2463503],[84.4568009,50.2472563],[84.4765198,50.2406672],[84.4769495,50.2388349],[84.4793493,50.2388942],[84.482009,50.2386007],[84.48498,50.2392599],[84.4900346,50.2376727],[84.4919382,50.2363249],[84.4949042,50.2350564],[84.4964698,50.2340216],[84.4981258,50.2324688],[84.49894,50.232052],[84.5001013,50.2317897],[84.5028077,50.2314659],[84.5069313,50.2284123],[84.509332,50.2257525],[84.5084941,50.224448],[84.5124901,50.2207179],[84.5157846,50.215063],[84.5201126,50.2130023],[84.5216297,50.2110808],[84.5240652,50.2092387],[84.5278785,50.2084515],[84.5302577,50.2060354],[84.5333953,50.2053699],[84.5366859,50.205696],[84.5413602,50.2073965],[84.5477989,50.2047927],[84.5540969,50.2034542],[84.562647,50.1983912],[84.5675221,50.1968412],[84.5695942,50.1979632],[84.5696638,50.2012537],[84.5811688,50.2080688],[84.5986706,50.2100696],[84.6027517,50.2117073],[84.6055569,50.2119278],[84.6120259,50.2108297],[84.6158706,50.2109803],[84.6281869,50.2106789],[84.6339276,50.2071385],[84.6498239,50.2001086],[84.6584938,50.1997841],[84.66137,50.1983222],[84.6606739,50.1952727],[84.6626991,50.1937373],[84.6714263,50.1932761],[84.6785772,50.1913609],[84.6920117,50.1886227],[84.6946697,50.1829185],[84.6994711,50.1778279],[84.7105207,50.1731235],[84.7271804,50.1642278],[84.7323641,50.1537314],[84.7441032,50.1441937],[84.7492686,50.1400029],[84.7577173,50.1368998],[84.7747927,50.1393227],[84.7811801,50.1429497],[84.7854656,50.1446079],[84.7916944,50.144316],[84.8052256,50.1472004],[84.8063425,50.1466761],[84.8175394,50.1451985],[84.8253745,50.1429846],[84.8134244,50.1361621],[84.8151104,50.1318951],[84.8132264,50.1288199],[84.8142713,50.1249682],[84.8139079,50.120772],[84.8166148,50.1166971],[84.8325813,50.1142754],[84.8335,50.1051],[84.8412514,50.0988472],[84.8507,50.0939],[84.8563631,50.0921128],[84.8603597,50.0930984],[84.8643733,50.0960678],[84.87278,50.095991],[84.8748756,50.097573],[84.8768451,50.1020799],[84.8838259,50.1019615],[84.8865853,50.1042151],[84.8963578,50.1002258],[84.9052835,50.0954081],[84.908574,50.0955906],[84.9183892,50.0930631],[84.9239949,50.0921596],[84.9287388,50.0928507],[84.9366773,50.0958828],[84.942693,50.097015],[84.9458311,50.0966095],[84.9516,50.0912],[84.9663,50.0725],[84.9748274,50.0669581],[84.9864452,50.0644708],[85.0060287,50.058236],[85.0062455,50.058167],[85.0241391,50.0602182],[85.026135,50.0540746],[85.0355435,50.0524943],[85.0394823,50.0484214],[85.0335224,50.0418265],[85.0339848,50.0365873],[85.0323637,50.0333558],[85.0325326,50.0326016],[85.0366276,50.0268588],[85.0373823,50.0201948],[85.0353651,50.0188759],[85.0492582,50.0103974],[85.0378305,50.0090701],[85.0328986,50.0035715],[85.0321626,49.9990559],[85.0252916,49.9999241],[85.0084594,49.995345],[84.9996892,49.9905196],[84.9934653,49.988835],[84.983576,49.983967],[84.9796927,49.9803063],[84.9780463,49.9762943],[84.9820148,49.975141],[84.9894279,49.9741098],[84.9930481,49.9725033],[84.9947261,49.9701275],[84.9946295,49.9682302],[84.9729465,49.9542789],[84.9785302,49.9536065],[84.9849266,49.9499191],[84.9793021,49.9456416],[84.978111,49.9425262],[84.9836473,49.9345574],[84.9836972,49.9316846],[84.9871379,49.9234157],[84.9875942,49.9206429],[84.9841429,49.9133174],[84.9854889,49.9067722],[84.9952089,49.9055937],[85.0001047,49.9033687],[85.0006323,49.9008908],[85.0039838,49.8999075],[85.004756,49.8982758],[85.0114973,49.8982907],[85.0196749,49.8946373],[85.0232711,49.8910524],[85.0344073,49.8888854],[85.0417282,49.8862801],[85.0546588,49.8863312],[85.0596988,49.8850363],[85.069781,49.8759228],[85.0803856,49.8685762],[85.0845827,49.8601758],[85.0874357,49.858013],[85.1004266,49.8521156],[85.1008287,49.8453266],[85.1054987,49.8431157],[85.1043555,49.8411592],[85.1051909,49.8385789],[85.1049324,49.8344193],[85.1002371,49.8278511],[85.1000836,49.8258171],[85.101607,49.8242126],[85.1084661,49.8227708],[85.1102666,49.8196772],[85.1124649,49.8183156],[85.1162021,49.8176631],[85.1212802,49.817961],[85.1233376,49.8145637],[85.1285916,49.8128614],[85.1305481,49.8095561],[85.1323508,49.808109],[85.1324387,49.8041223],[85.1355603,49.8003481],[85.139913,49.7980494],[85.1440966,49.7966549],[85.1445651,49.7964186],[85.1434882,49.7931025],[85.1396815,49.7906451],[85.1403613,49.788129],[85.1395003,49.7853787],[85.1415849,49.7831549],[85.1448704,49.7811213],[85.1431256,49.778634],[85.1481531,49.7737659],[85.1489489,49.7703956],[85.1479305,49.7691308],[85.1487477,49.7679097],[85.1505902,49.7672577],[85.1560308,49.7673655],[85.1590154,49.7678174],[85.163943,49.7693233],[85.1656995,49.7690824],[85.166959,49.7653945],[85.1718613,49.7627249],[85.1738618,49.759615],[85.1728286,49.7580528],[85.1752877,49.7545638],[85.1819553,49.7545221],[85.1862973,49.752661],[85.1923857,49.7505149],[85.1974004,49.7472636],[85.2033689,49.7452678],[85.2040504,49.7417661],[85.2027863,49.7399547],[85.1983069,49.7379392],[85.1985789,49.7371908],[85.1998614,49.7358094],[85.2024962,49.7344129]]]}},{"type":"Feature","properties":{"name":"Qostanai","admin":"oblysy","source":"© OpenStreetMap contributors, ODbL 1.0","osm_relation":1288730},"geometry":{"type":"Polygon","coordinates":[[[59.99412,51.96465],[60.01025,51.94041],[60.0299,51.93613],[60.03272,51.91352],[60.07452,51.88827],[60.05891,51.87015],[60.14391,51.87046],[60.14294,51.85936],[60.15727,51.85786],[60.16176,51.89219],[60.14787,51.89394],[60.14482,51.90689],[60.32035,51.8314],[60.42799,51.79845],[60.51749,51.79773],[60.51888,51.7733],[60.47759,51.76632],[60.45661,51.74867],[60.45336,51.7345],[60.43055,51.71847],[60.35329,51.68928],[60.36186,51.67714],[60.38592,51.67191],[60.41554,51.647],[60.52701,51.63787],[60.53803,51.61801],[60.93563,51.61526],[60.93468,51.60165],[60.91022,51.56811],[60.91041,51.55135],[60.94274,51.52262],[60.95175,51.49072],[60.99113,51.48792],[60.99896,51.46778],[61.02015,51.46157],[61.08803,51.46802],[61.10756,51.44777],[61.13129,51.45812],[61.14948,51.45086],[61.20298,51.46107],[61.2172,51.44915],[61.23532,51.45141],[61.25272,51.44069],[61.35081,51.43976],[61.36678,51.42668],[61.38928,51.42754],[61.39014,51.42018],[61.40483,51.41668],[61.42148,51.42298],[61.44785,51.40955],[61.50053,51.40926],[61.54969,51.3233],[61.68979,51.25596],[61.78709,51.26913],[61.85215,51.31707],[61.91366,51.26246],[61.9421,51.16092],[61.95194,51.14121],[61.9977,51.10839],[61.99474,51.08934],[62.07325,51.07305],[62.081,51.11135],[62.13116,51.13876],[62.18108,51.12944],[62.28303,51.08016],[62.27558,51.04116],[62.20849,51.01304],[62.22858,50.97842],[62.43026,50.85283],[62.31147,50.84144],[62.27649,50.80156],[62.22184,50.81362],[62.23571,50.78559],[62.26326,50.75613],[62.27646,50.72184],[62.22954,50.67602],[62.26693,50.64151],[62.4398,50.68871],[62.49704,50.5907],[62.49463,50.55622],[62.52851,50.51561],[62.501,50.50079],[62.50702,50.47787],[62.55091,50.44373],[62.55761,50.41631],[62.63469,50.38565],[62.64318,50.37536],[62.63886,50.35133],[62.6634,50.33763],[62.66777,50.30979],[62.69052,50.30743],[62.69481,50.3002],[62.68825,50.29623],[62.70893,50.29],[62.73459,50.26488],[62.73511,50.25047],[62.72129,50.23708],[62.7403,50.2172],[62.7367,50.21212],[62.75863,50.19623],[62.79171,50.18858],[62.78207,50.17729],[62.7976,50.16303],[62.80048,50.17224],[62.82108,50.16528],[62.82249,50.15137],[62.83519,50.14405],[62.83184,50.13621],[62.8473,50.12774],[62.84222,50.12014],[62.85664,50.1132],[62.85965,50.10233],[62.88523,50.09207],[62.8757,50.07956],[62.88471,50.07604],[62.88093,50.06188],[62.89123,50.0578],[62.89098,50.03857],[62.9102,50.03305],[62.91632,50.01849],[62.92588,50.01903],[62.95298,49.99744],[62.94044,49.98807],[62.94853,49.95512],[62.92049,49.94021],[62.92529,49.93316],[62.91052,49.91643],[62.93185,49.90612],[62.92278,49.8999],[62.93603,49.89081],[62.92602,49.88176],[62.90451,49.8875],[62.89648,49.88273],[62.79067,49.93689],[62.73959,49.94019],[62.65829,49.90846],[62.63769,49.88542],[62.59873,49.86251],[62.59632,49.80652],[62.55509,49.7353],[62.43796,49.68366],[62.4521,49.62497],[62.45084,49.5802],[62.47317,49.56205],[62.43366,49.55701],[62.36734,49.57777],[62.30484,49.49727],[62.33861,49.47754],[62.45074,49.372],[62.54745,49.25327],[62.52127,49.23764],[62.49633,49.24383],[62.37609,49.23563],[62.36143,49.2008],[62.44575,49.19825],[62.54879,49.01813],[62.58423,48.99427],[62.72784,48.926],[62.84544,48.84881],[62.9532,48.88994],[63.02038,48.9294],[63.13017,48.86341],[63.12546,48.83556],[63.04927,48.75807],[63.07871,48.68244],[63.41676,48.60177],[63.46731,48.56376],[63.58574,48.53432],[63.7708,48.454],[63.84449,48.38546],[63.90298,48.29755],[64.01607,48.17028],[64.28285,48.34771],[64.22746,48.46178],[64.57863,48.51077],[64.49083,48.56554],[64.53071,48.59973],[64.46867,48.67473],[64.69802,48.67566],[64.74581,48.93774],[65.48613,48.82833],[65.66761,48.87606],[65.73684,48.87559],[65.7533,48.88674],[65.7754,48.98218],[66.07309,48.99315],[66.41243,49.24152],[66.54218,49.27041],[66.59718,49.32436],[66.65144,49.45668],[66.83702,49.57874],[67.04172,49.64748],[67.37375,49.93818],[67.39912,49.91545],[67.63818,50.11881],[67.57586,50.16285],[67.60622,50.18843],[67.59934,50.22316],[67.63019,50.2365],[67.74685,50.24774],[67.86031,50.29779],[67.96418,50.31718],[68.01691,50.36613],[68.01691,50.39263],[68.09042,50.44049],[68.09202,50.46491],[67.99134,50.51269],[68.00892,50.53809],[67.93632,50.55777],[67.91382,50.53386],[67.85318,50.51252],[67.83328,50.49722],[67.78359,50.48451],[67.74692,50.4897],[67.6476,50.48143],[67.56371,50.49331],[67.55365,50.4846],[67.47422,50.46925],[67.48885,50.4506],[67.13119,50.38414],[67.0643,50.5309],[67.09462,50.54619],[67.10999,50.62241],[66.9909,50.65819],[66.85016,50.64504],[66.72449,50.6115],[66.66632,50.63586],[66.64003,50.62704],[66.49551,50.6731],[66.43314,50.71065],[66.3156,50.68543],[66.24064,50.82737],[66.2018,50.82513],[66.17843,50.80015],[66.1565,50.80986],[66.13275,50.78814],[66.10955,50.7982],[66.11681,50.80481],[66.09185,50.81485],[66.10188,50.82327],[66.08428,50.8294],[66.088,50.87174],[66.06115,50.88369],[66.07066,50.8876],[65.98953,50.94659],[65.99444,50.94935],[65.94989,50.95941],[65.94172,50.94255],[65.86194,50.96438],[65.82461,50.88525],[65.78929,50.85445],[65.66672,50.84743],[65.62796,50.82735],[65.60463,50.8309],[65.58529,50.89562],[65.57936,50.89637],[65.61421,51.00611],[65.61004,51.05456],[65.63296,51.08237],[65.56066,51.13624],[65.45041,51.18573],[65.42534,51.20393],[65.4792,51.24292],[65.40307,51.30159],[65.38749,51.32758],[65.54564,51.40368],[65.46151,51.44008],[65.53717,51.51405],[65.56916,51.58338],[65.57733,51.62816],[65.52091,51.68433],[65.38314,51.6849],[65.35242,51.79349],[65.51776,51.79568],[65.76048,51.87244],[65.76851,51.92051],[65.81657,51.99384],[65.8497,52.08081],[65.86814,52.08268],[65.8546,52.09306],[65.86895,52.14087],[65.99865,52.20464],[66.01877,52.76092],[66.12771,52.76422],[66.11727,52.89378],[66.3067,52.88647],[66.32076,52.97007],[66.06976,52.9816],[66.05268,53.06145],[66.20579,53.09372],[66.19919,53.11112],[66.40072,53.08964],[66.39933,53.15504],[66.25637,53.19373],[66.24824,53.50337],[66.11032,53.50291],[66.10392,53.61022],[66.15385,53.66746],[66.17195,53.66809],[66.17855,53.8054],[66.04708,53.80334],[66.02454,53.93272],[66.00136,53.92751],[65.96357,53.99693],[66.07556,54.05001],[66.15176,54.07619],[66.31662,54.10186],[66.26688,54.18346],[66.19211,54.18305],[66.03137,54.2515],[66.0799,54.25804],[66.17568,54.29371],[66.08777,54.41639],[66.10768,54.4433],[66.07436,54.46985],[66.10948,54.49014],[66.07795,54.56907],[66.07402,54.64085],[65.99864,54.62515],[65.96419,54.63782],[65.98178,54.71704],[65.84529,54.69724],[65.83077,54.65316],[65.7997,54.62402],[65.78225,54.6249],[65.77968,54.61234],[65.74729,54.60742],[65.63309,54.64078],[65.55375,54.63616],[65.53052,54.64952],[65.48955,54.65554],[65.46484,54.64227],[65.45645,54.62438],[65.49483,54.59665],[65.49572,54.57844],[65.50383,54.57092],[65.4647,54.56645],[65.42588,54.58122],[65.3794,54.57339],[65.3579,54.5774],[65.30603,54.5684],[65.26361,54.54662],[65.23801,54.5494],[65.21445,54.54139],[65.22334,54.49007],[65.21448,54.47715],[65.21831,54.47035],[65.20128,54.46585],[65.20091,54.45218],[65.22201,54.43699],[65.23919,54.37575],[65.26272,54.36242],[65.22196,54.33429],[65.19094,54.34286],[65.10857,54.33355],[65.05751,54.37488],[64.9744,54.42412],[64.73757,54.35386],[64.69836,54.3647],[64.65904,54.36075],[64.63566,54.37409],[64.6293,54.39251],[64.61604,54.39886],[64.60347,54.38884],[64.61181,54.38661],[64.59004,54.38124],[64.59755,54.37321],[64.57994,54.37566],[64.56332,54.36781],[64.56763,54.36226],[64.54451,54.36521],[64.52261,54.35452],[64.47951,54.36636],[64.46258,54.35966],[64.46455,54.34294],[64.45172,54.33738],[64.45659,54.33249],[64.42095,54.32654],[64.35647,54.337],[64.2759,54.32929],[64.2315,54.31684],[64.23085,54.32376],[64.21454,54.32376],[64.19197,54.30959],[64.14826,54.30554],[64.07216,54.31811],[64.07856,54.31282],[64.06582,54.31009],[64.07162,54.30283],[64.06568,54.29702],[64.02948,54.28289],[64.01148,54.29089],[64.02669,54.29989],[64.01744,54.3015],[64.02326,54.30696],[63.98682,54.30123],[63.98137,54.29693],[63.98622,54.29121],[63.97483,54.29046],[63.97807,54.27868],[64.02127,54.23033],[64.0039,54.21165],[63.96159,54.20053],[63.94363,54.20627],[63.91333,54.19805],[63.89772,54.2163],[63.79397,54.27182],[63.64499,54.24267],[63.62317,54.22829],[63.53859,54.20948],[63.52659,54.21607],[63.51035,54.20598],[63.49273,54.21579],[63.49087,54.20822],[63.45609,54.19587],[63.44544,54.202],[63.40572,54.20039],[63.36708,54.18786],[63.32755,54.2022],[63.26314,54.19069],[63.22499,54.19776],[63.22333,54.18911],[63.19675,54.18591],[63.17135,54.19377],[63.15128,54.18244],[63.15735,54.17692],[63.15053,54.16316],[63.16952,54.15308],[63.15437,54.14112],[63.15453,54.12513],[63.10104,54.1157],[63.08181,54.10419],[63.04991,54.10076],[62.9773,54.11144],[62.96193,54.10742],[62.92315,54.11884],[62.89997,54.11248],[62.85883,54.11757],[62.80623,54.11172],[62.79874,54.10049],[62.77854,54.09445],[62.66196,54.09231],[62.61534,54.07213],[62.59438,54.07377],[62.59195,54.06228],[62.57522,54.05912],[62.56875,54.04654],[62.59811,53.98836],[62.58689,53.98672],[62.57828,53.9701],[62.58473,53.96453],[62.56226,53.94852],[62.56007,53.93816],[62.51661,53.91353],[62.47549,53.93103],[62.44671,53.92694],[62.39642,54.00379],[62.45938,54.01364],[62.49401,54.03263],[62.41879,54.04698],[62.38932,54.04769],[62.33925,54.03222],[62.2142,54.03916],[62.20577,54.0312],[62.17614,54.02858],[62.16518,54.03737],[62.15494,54.03284],[62.07505,54.05113],[62.06785,54.03947],[62.00962,54.03904],[62.04387,53.94846],[61.93233,53.94991],[61.85625,53.96337],[61.8762,53.97993],[61.89297,54.00908],[61.87181,54.01638],[61.85026,54.00844],[61.84431,54.01333],[61.85245,54.02914],[61.84591,54.03172],[61.81866,54.01915],[61.78204,53.98457],[61.74588,54.00056],[61.74131,54.0157],[61.72517,54.02954],[61.70065,54.01886],[61.66723,54.01707],[61.66043,54.02977],[61.61385,53.99047],[61.61156,53.96815],[61.57099,53.9676],[61.56914,54.00819],[61.54209,54.00866],[61.55181,54.01296],[61.48063,54.03011],[61.48339,54.05072],[61.47289,54.07045],[61.48057,54.08277],[61.40059,54.08686],[61.349,54.07299],[61.33336,54.07917],[61.29383,54.07387],[61.26607,54.0416],[61.24651,54.03781],[61.24357,54.02852],[61.27234,53.99272],[61.26465,53.9652],[61.27987,53.92857],[61.20506,53.91886],[61.17136,53.94307],[61.18038,53.97195],[61.08016,53.97047],[61.08856,53.95642],[61.07979,53.94539],[61.06471,53.94516],[61.05435,53.95838],[61.02936,53.95511],[60.99714,53.9349],[60.99349,53.90698],[61.03621,53.9085],[61.05729,53.89405],[61.1369,53.90452],[61.17925,53.85256],[61.20732,53.84729],[61.21041,53.83815],[61.23721,53.84178],[61.22718,53.79561],[61.17032,53.77225],[61.11467,53.72093],[61.05848,53.72132],[61.04243,53.65301],[60.9986,53.65079],[60.99558,53.67292],[60.89593,53.66789],[60.90029,53.62867],[61.12178,53.61513],[61.12645,53.58994],[61.21464,53.56361],[61.27,53.56715],[61.34956,53.55866],[61.3912,53.6021],[61.50723,53.59498],[61.51001,53.58922],[61.55307,53.59305],[61.56518,53.53834],[61.5822,53.54055],[61.59326,53.52612],[61.55918,53.50793],[61.56893,53.50454],[61.56724,53.4967],[61.55561,53.49764],[61.55046,53.5071],[61.53334,53.50501],[61.51471,53.49058],[61.51864,53.47302],[61.48779,53.4759],[61.46477,53.46284],[61.45389,53.46818],[61.42579,53.46242],[61.42845,53.45554],[61.36688,53.46738],[61.36833,53.48052],[61.35942,53.49307],[61.31513,53.50728],[61.32189,53.51913],[61.2583,53.50796],[61.22883,53.48391],[61.21669,53.43179],[61.15525,53.4055],[61.17704,53.31176],[61.22624,53.28339],[61.34193,53.28505],[61.40023,53.27389],[61.45665,53.23952],[61.52712,53.21534],[61.63048,53.22322],[61.63939,53.24893],[61.67393,53.26566],[61.73239,53.23916],[61.75075,53.20658],[61.78415,53.18464],[61.91596,53.14206],[62.0274,53.14194],[62.11931,53.11182],[62.14736,53.068],[62.13044,52.99006],[62.02934,52.95105],[61.96076,52.95015],[61.84785,53.0033],[61.83418,52.99286],[61.81331,52.99805],[61.71656,52.99144],[61.70177,52.99821],[61.67319,52.96854],[61.63209,52.95412],[61.55715,53.01212],[61.52264,53.0155],[61.46902,53.0366],[61.39074,52.99235],[61.30684,52.99595],[61.25103,53.03618],[61.16754,53.00161],[61.14314,52.99877],[61.12175,52.98768],[61.11225,52.96921],[61.0946,52.96687],[61.05401,52.98061],[61.00864,52.97811],[61.03041,52.95047],[61.07418,52.9243],[60.98376,52.8851],[60.97534,52.86918],[60.94293,52.84904],[60.88779,52.83082],[60.87061,52.83276],[60.88482,52.82125],[60.8344,52.77414],[60.71191,52.76436],[60.71455,52.66303],[60.74441,52.6516],[60.74467,52.63174],[60.76146,52.62669],[60.8171,52.6312],[60.84307,52.64103],[60.84183,52.52225],[60.98233,52.50787],[60.99223,52.42306],[61.0668,52.34709],[61.01065,52.32607],[60.97895,52.28832],[60.94466,52.26692],[60.83641,52.23039],[60.78049,52.22906],[60.76984,52.20497],[60.71675,52.15615],[60.51085,52.15638],[60.33945,52.05485],[60.19766,51.99088],[60.00199,51.99328],[60.00326,51.97115],[59.99412,51.96465]]]}}]}