{"type": "FeatureCollection", "features": [{"type": "Feature", "properties": {"name": "Kolarivska", "admin": "municipality", "source": "\u00a9 OpenStreetMap contributors, ODbL 1.0", "osm_relation": 12313142}, "geometry": {"type": "Polygon", "coordinates": [[[36.49298, 47.01285], [36.49334, 47.01174], [36.48265, 47.00969], [36.48557, 47.0058], [36.45766, 47.00313], [36.46549, 46.98705], [36.42621, 46.98366], [36.42672, 46.98248], [36.42537, 46.98118], [36.42933, 46.97406], [36.44003, 46.96694], [36.44121, 46.96464], [36.44003, 46.96279], [36.44077, 46.96187], [36.43496, 46.95854], [36.43538, 46.9566], [36.43104, 46.95276], [36.41935, 46.93546], [36.42752, 46.93475], [36.42783, 46.93162], [36.42229, 46.93119], [36.42677, 46.92843], [36.42928, 46.92343], [36.43456, 46.91944], [36.44828, 46.92008], [36.44943, 46.91384], [36.46302, 46.90333], [36.44964, 46.90151], [36.44498, 46.90241], [36.44438, 46.90375], [36.43376, 46.90308], [36.4368, 46.90018], [36.41173, 46.90875], [36.3337, 46.86162], [36.29052, 46.90813], [36.28411, 46.90794], [36.28119, 46.90981], [36.27829, 46.90872], [36.27143, 46.91152], [36.24797, 46.91202], [36.22747, 46.90101], [36.1615, 46.93185], [36.16856, 46.96451], [36.16736, 46.9742], [36.18001, 46.97475], [36.17558, 47.02068], [36.21931, 47.02321], [36.21761, 47.03937], [36.22008, 47.03942], [36.21827, 47.04805], [36.21636, 47.04903], [36.21726, 47.05196], [36.22068, 47.05308], [36.22868, 47.06034], [36.24255, 47.06382], [36.26161, 47.07651], [36.28026, 47.08252], [36.32619, 47.08665], [36.32493, 47.08953], [36.42505, 47.1032], [36.45791, 47.04909], [36.47259, 47.0515], [36.47259, 47.04884], [36.47498, 47.0481], [36.47525, 47.04503], [36.48154, 47.04341], [36.47757, 47.04006], [36.4858, 47.03653], [36.48445, 47.03517], [36.48537, 47.03049], [36.48887, 47.03245], [36.49198, 47.0305], [36.49511, 47.03134], [36.49344, 47.03], [36.49568, 47.02773], [36.49315, 47.02694], [36.49207, 47.02444], [36.49377, 47.022], [36.49266, 47.02094], [36.49412, 47.02071], [36.49285, 47.01784], [36.49298, 47.01306], [36.49298, 47.01285]]]}}]}