{"type": "FeatureCollection", "features": [{"type": "Feature", "properties": {"name": "Izhemsky District", "admin": "district", "source": "osm/rel/1082928", "osm_relation": 1082928}, "geometry": {"type": "Polygon", "coordinates": [[[51.9576958, 64.4725808], [52.0067564, 64.4971794], [52.0163877, 64.501996], [52.0174258, 64.5025323], [52.037268, 64.5132033], [52.063875, 64.5275371], [52.0727521, 64.5323159], [52.0929552, 64.5434519], [52.1253394, 64.5613324], [52.1305074, 64.5638405], [52.1680261, 64.5816067], [52.1832282, 64.5893263], [52.1894702, 64.5925805], [52.2282641, 64.6132201], [52.25048, 64.6237785], [52.2721589, 64.6350085], [52.3277322, 64.6618496], [52.3451828, 64.6642622], [52.3702176, 64.6676511], [52.4666204, 64.680876], [52.467644, 64.6810123], [52.5129543, 64.6862915], [52.5140933, 64.6864234], [52.5575463, 64.6915472], [52.5962731, 64.6975113], [52.6097417, 64.6994589], [52.6687098, 64.7079661], [52.7064428, 64.713418], [52.7364076, 64.7172887], [52.7366805, 64.7173267], [52.7695187, 64.7215991], [52.7996545, 64.7255109], [52.8503953, 64.7320867], [52.8795243, 64.7358825], [52.8823097, 64.7362405], [52.9639917, 64.7481541], [52.9938811, 64.7525002], [52.9956015, 64.7527532], [53.0151547, 64.7555971], [53.0244567, 64.7569532], [53.0760835, 64.7645342], [53.0946099, 64.7672617], [53.1227123, 64.7713653], [53.1325109, 64.7800155], [53.1342432, 64.7815928], [53.1558305, 64.8016773], [53.1960309, 64.8376492], [53.2053329, 64.8456389], [53.232845, 64.8692479], [53.2421433, 64.8768863], [53.2444766, 64.8788093], [53.1949928, 64.9168003], [53.1947819, 64.9169696], [53.1830369, 64.9264293], [53.1718989, 64.9353892], [53.1671094, 64.9392388], [53.1206362, 64.9761375], [53.1028905, 64.9891305], [53.1015396, 64.9901098], [53.0287658, 65.0422684], [53.0220336, 65.0469097], [53.0113935, 65.0542198], [52.9991418, 65.0635394], [52.9789874, 65.0788511], [52.9730267, 65.0833811], [52.9452643, 65.10443], [52.8763753, 65.15615], [52.8585978, 65.1695287], [52.8376932, 65.18515], [52.8184432, 65.1995283], [52.8027701, 65.2112287], [52.8023641, 65.2115364], [52.8000981, 65.2132196], [52.7711176, 65.2350086], [52.7635779, 65.2400775], [52.7361638, 65.2584478], [52.7399723, 65.2711178], [52.7402526, 65.2720574], [52.7480508, 65.2984798], [52.753791, 65.3206411], [52.8040081, 65.3314999], [52.8133892, 65.3333064], [52.8148885, 65.3314527], [52.815714, 65.3299336], [52.8169521, 65.3291976], [52.8187531, 65.3286964], [52.8206292, 65.3290096], [52.8214171, 65.3300903], [52.8209669, 65.331484], [52.8213421, 65.3321104], [52.8228804, 65.3327368], [52.8253568, 65.3326115], [52.8284711, 65.3319382], [52.8300845, 65.3319225], [52.8319605, 65.3325332], [52.8358627, 65.3335511], [52.8388644, 65.3340365], [52.8405153, 65.3339895], [52.8433669, 65.3331753], [52.8450553, 65.3326585], [52.8482446, 65.3323297], [52.8496704, 65.3320791], [52.8508465, 65.3317323], [52.8538338, 65.3319404], [52.8515539, 65.3363798], [52.8484596, 65.3426242], [52.8405092, 65.3477178], [52.8358688, 65.3497706], [52.8302161, 65.3517377], [52.8384229, 65.3579487], [52.8718751, 65.3955359], [52.9017544, 65.4281315], [52.9017965, 65.4281739], [52.9325663, 65.4622926], [52.9590052, 65.4929264], [52.9594176, 65.4934041], [52.9975736, 65.5355375], [53.036928, 65.5779588], [53.0620271, 65.6059178], [53.0891452, 65.6348209], [53.0893326, 65.6350146], [53.1191668, 65.6696891], [53.1527013, 65.7087151], [53.212361, 65.7688947], [53.342408, 65.8978924], [53.3470937, 65.9025579], [53.3930105, 65.9510309], [53.3977369, 65.9560677], [53.4395061, 66.0006899], [53.4416389, 66.0029725], [53.464886, 66.0261664], [53.5117246, 66.0724892], [53.5310411, 66.0920016], [53.5341417, 66.0951364], [53.5648617, 66.1261945], [53.5676131, 66.1290865], [53.5707313, 66.1323514], [53.5708516, 66.1324774], [53.6571674, 66.2226883], [53.6807023, 66.2413134], [53.7347942, 66.2990384], [53.7909567, 66.3589027], [53.9132259, 66.3152046], [53.9439591, 66.3042274], [53.966015, 66.2956929], [54.0186983, 66.2753746], [54.0969833, 66.2444851], [54.1407382, 66.2270207], [54.17216, 66.2144813], [54.1835442, 66.2099396], [54.2457271, 66.1860495], [54.3043432, 66.1625229], [54.4349244, 66.1101097], [54.4802723, 66.0920607], [54.5033648, 66.0828506], [54.5734026, 66.0531776], [54.6239688, 66.0328841], [54.6738753, 66.0126933], [54.7604508, 65.9768322], [54.8364787, 65.9448231], [54.8927104, 65.9219373], [55.0115102, 65.8739377], [55.0527314, 65.8575941], [55.0619793, 65.853482], [55.0901138, 65.8506152], [55.1008739, 65.850531], [55.1520213, 65.8508977], [55.1774642, 65.8510868], [55.2031139, 65.8512689], [55.2549893, 65.8516216], [55.2955207, 65.8518567], [55.5053336, 65.8529701], [55.5131204, 65.8480429], [55.5159517, 65.8461046], [55.5123074, 65.8451525], [55.5134403, 65.8441275], [55.5141523, 65.8439276], [55.5148459, 65.8432312], [55.5180904, 65.8404214], [55.5194519, 65.8391527], [55.5216246, 65.838382], [55.5224936, 65.8375401], [55.5236264, 65.8370987], [55.5245794, 65.8364967], [55.5260858, 65.8360935], [55.5269838, 65.8355243], [55.5288957, 65.8341605], [55.5301598, 65.8322384], [55.5274668, 65.8309969], [55.5256802, 65.8296299], [55.5252457, 65.8274117], [55.5242937, 65.8249115], [55.524211, 65.8232772], [55.5249969, 65.8212565], [55.5274141, 65.819763], [55.5292974, 65.8190155], [55.5313542, 65.8185646], [55.5322233, 65.8178763], [55.531528, 65.8168083], [55.5295581, 65.8166659], [55.528747, 65.8173661], [55.5280807, 65.8176034], [55.5271537, 65.8173898], [55.5247442, 65.8174928], [55.5196548, 65.8168268], [55.5149895, 65.8154947], [55.5108058, 65.814565], [55.5075508, 65.8133849], [55.5038275, 65.8103721], [55.4999637, 65.8093934], [55.4974346, 65.8086257], [55.4991476, 65.807555], [55.498184, 65.8071959], [55.4992846, 65.8067065], [55.5005959, 65.8066009], [55.5016263, 65.8058619], [55.5002213, 65.8055932], [55.5018136, 65.8048158], [55.4992612, 65.8044319], [55.4976922, 65.8011014], [55.4960764, 65.801159], [55.494367, 65.8006022], [55.494648, 65.800391], [55.497177, 65.8004102], [55.4955144, 65.7995175], [55.4928997, 65.7988229], [55.4893089, 65.7982792], [55.4853748, 65.7987496], [55.482354, 65.7998535], [55.4776472, 65.7998151], [55.475563, 65.7987016], [55.4735492, 65.798884], [55.4746498, 65.7977224], [55.4713011, 65.7977608], [55.4653532, 65.798308], [55.4633861, 65.7977032], [55.4608805, 65.7966471], [55.4582812, 65.7972616], [55.4583046, 65.7979336], [55.4565952, 65.797924], [55.4551199, 65.7979816], [55.4564547, 65.7973288], [55.4561737, 65.797012], [55.4540896, 65.7973384], [55.4500384, 65.7976552], [55.4461941, 65.7975632], [55.4458233, 65.7976552], [55.4461043, 65.798212], [55.4456828, 65.7983272], [55.444629, 65.7978088], [55.4439968, 65.7975112], [55.4434582, 65.7978376], [55.4436455, 65.798404], [55.4424747, 65.7985192], [55.4417722, 65.7982984], [55.4419595, 65.797396], [55.4413038, 65.7973], [55.4409057, 65.7979336], [55.4377444, 65.7970504], [55.4376341, 65.7955331], [55.439969, 65.794535], [55.4391268, 65.7936579], [55.4365033, 65.7933732], [55.4286341, 65.7939739], [55.4256469, 65.7920174], [55.4213283, 65.7907455], [55.4169968, 65.7904253], [55.4155549, 65.7899499], [55.4113299, 65.7912991], [55.4078873, 65.7904239], [55.4044513, 65.7880992], [55.4037903, 65.7865595], [55.3998779, 65.7858882], [55.395897, 65.78633], [55.3933269, 65.7855084], [55.3907011, 65.7853346], [55.389907, 65.7846185], [55.3878343, 65.7842873], [55.3854444, 65.7831523], [55.3819197, 65.7821841], [55.3767302, 65.7806326], [55.3727051, 65.7809078], [55.3723277, 65.780065], [55.3731243, 65.7792393], [55.3711118, 65.7789297], [55.3697281, 65.777674], [55.3688057, 65.7780524], [55.3678413, 65.7782072], [55.3676736, 65.7777428], [55.3672963, 65.7771923], [55.3662061, 65.7773643], [55.3650321, 65.77776], [55.363942, 65.7774503], [55.3646128, 65.776745], [55.3641097, 65.7761429], [55.3648225, 65.7748698], [55.364487, 65.7738547], [55.3626019, 65.7723706], [55.3619016, 65.769365], [55.35605, 65.7503811], [55.3530728, 65.7411967], [55.3472332, 65.7221786], [55.3424771, 65.7066783], [55.3423453, 65.7062075], [55.3379873, 65.6917099], [55.3320002, 65.673064], [55.3318834, 65.6727074], [55.3300437, 65.6669283], [55.322021, 65.6438363], [55.3203644, 65.6390585], [55.3179002, 65.6319815], [55.309838, 65.6046549], [55.3093462, 65.6030202], [55.3074859, 65.5971314], [55.2999478, 65.5712634], [55.2965356, 65.559776], [55.2928992, 65.5474519], [55.2607876, 65.5265877], [55.2540732, 65.522203], [55.2457453, 65.516388], [55.2450585, 65.5159052], [55.1981767, 65.4831519], [55.1977084, 65.4828298], [55.152893, 65.4517281], [55.1359871, 65.4399896], [55.1345798, 65.4391077], [55.0756366, 65.4018145], [55.0751277, 65.4014801], [55.0404405, 65.379306], [55.0056219, 65.3569963], [54.9773602, 65.3388631], [54.9666016, 65.3321763], [54.9358623, 65.3116321], [54.9203811, 65.3010403], [54.9032169, 65.2909535], [54.8771999, 65.2735745], [54.8319752, 65.2454151], [54.8212428, 65.2381775], [54.7816369, 65.2120577], [54.7593901, 65.1724369], [54.7583299, 65.1673504], [54.7567639, 65.1603401], [54.7528947, 65.1431077], [54.7515059, 65.1368682], [54.7439144, 65.1165986], [54.7378397, 65.1003669], [54.7320996, 65.0847245], [54.7265214, 65.0693461], [54.7231517, 65.0600261], [54.7213436, 65.0545065], [54.7161935, 65.0387557], [54.7160529, 65.0383554], [54.7058449, 65.0088852], [54.7099587, 65.0081841], [54.6940502, 64.9652464], [54.6840172, 64.9310885], [54.640298, 64.8139618], [54.6440136, 64.8134209], [54.6147135, 64.7197435], [54.6052179, 64.6903977], [54.5920676, 64.6361479], [54.584602, 64.6031795], [54.5690736, 64.5399142], [54.5594168, 64.4942278], [54.5699327, 64.4886336], [54.6382524, 64.4501988], [54.757402, 64.3827643], [54.7149065, 64.3750936], [54.698822, 64.3723025], [54.5742649, 64.3502369], [54.4816932, 64.3316411], [54.4472163, 64.3256282], [54.3492911, 64.3085261], [54.2544163, 64.291891], [54.2476207, 64.2907033], [54.2425548, 64.2897942], [54.2075319, 64.2940543], [54.205599, 64.2942843], [54.1297061, 64.3033935], [54.1266338, 64.3037648], [54.0846119, 64.3086632], [54.0836556, 64.3087736], [54.0415602, 64.3145928], [53.9893303, 64.3217918], [53.986034, 64.3222212], [53.9531901, 64.3265507], [53.9046661, 64.3329305], [53.9040952, 64.3322407], [53.8650475, 64.334831], [53.7851409, 64.3419696], [53.7850203, 64.3419887], [53.7442415, 64.3454497], [53.7106669, 64.3481786], [53.7029798, 64.3487976], [53.6821184, 64.3504655], [53.6760881, 64.3433382], [53.6723905, 64.3389673], [53.6704405, 64.3397856], [53.6698164, 64.3403553], [53.6710981, 64.3404418], [53.6715975, 64.3407878], [53.6722633, 64.3406004], [53.6728292, 64.3405283], [53.673262, 64.340759], [53.672979, 64.3408743], [53.6723237, 64.3409884], [53.6718138, 64.3410905], [53.6716307, 64.3413211], [53.6712146, 64.3414221], [53.6706487, 64.3409031], [53.6698164, 64.3407734], [53.6692164, 64.3410088], [53.6693503, 64.3412995], [53.668801, 64.3413644], [53.6678356, 64.3409896], [53.6670533, 64.3406941], [53.6663209, 64.3407445], [53.6656884, 64.3411914], [53.665239, 64.3412202], [53.6649726, 64.3410401], [53.6655219, 64.340586], [53.6658881, 64.3401391], [53.6656384, 64.3396429], [53.6644233, 64.3396417], [53.6642402, 64.3400093], [53.6647729, 64.3405283], [53.6640239, 64.3409031], [53.6627422, 64.3406292], [53.6621929, 64.3409968], [53.6614938, 64.3410905], [53.660828, 64.3408382], [53.6602287, 64.3403481], [53.6597627, 64.3405283], [53.6601954, 64.3411193], [53.6600956, 64.3414365], [53.6592134, 64.3415734], [53.6577153, 64.3414365], [53.6567998, 64.3412058], [53.6558762, 64.3412737], [53.6552437, 64.3408628], [53.6544614, 64.3407187], [53.6528967, 64.3410575], [53.6518481, 64.340661], [53.6508161, 64.3407043], [53.6503999, 64.3410502], [53.650117, 64.3414611], [53.6493346, 64.341598], [53.6495177, 64.3418935], [53.6501836, 64.3420881], [53.6500504, 64.3423115], [53.6494345, 64.3423043], [53.6488519, 64.342016], [53.6470542, 64.3415692], [53.646172, 64.3416413], [53.6457559, 64.3418647], [53.6455895, 64.3422034], [53.645939, 64.3424125], [53.6463218, 64.3423836], [53.6469211, 64.342117], [53.647748, 64.3423543], [53.6477367, 64.3427007], [53.6470875, 64.3430683], [53.6475702, 64.3433782], [53.649085, 64.3435728], [53.6499838, 64.3433854], [53.6503845, 64.3434347], [53.6525031, 64.3444539], [53.6533961, 64.345115], [53.6527855, 64.3456157], [53.6514153, 64.3455691], [53.6511823, 64.3452015], [53.6507994, 64.345079], [53.6501669, 64.3452664], [53.6493513, 64.3450358], [53.6482361, 64.3450214], [53.6470875, 64.3457132], [53.646222, 64.3457276], [53.6451067, 64.3452159], [53.6440082, 64.3453961], [53.6434589, 64.3453889], [53.643359, 64.3458285], [53.6430261, 64.3460014], [53.6422604, 64.3458933], [53.6414614, 64.3457276], [53.642277, 64.3454033], [53.6420107, 64.3452159], [53.6409121, 64.3445313], [53.6404461, 64.3447403], [53.6386983, 64.3452808], [53.637782, 64.3459948], [53.636652, 64.3461273], [53.6354986, 64.3466063], [53.6299891, 64.3484457], [53.6059985, 64.3511269], [53.5731517, 64.3547754], [53.5290692, 64.353403], [53.5284175, 64.3533954], [53.4844772, 64.3520834], [53.4831359, 64.3520557], [53.4353564, 64.3508438], [53.4336292, 64.350805], [53.1838104, 64.3452096], [53.1217901, 64.3340493], [53.120944, 64.3338316], [53.1201402, 64.333989], [53.1198692, 64.3341534], [53.1189753, 64.3347132], [53.1184898, 64.3352001], [53.118063, 64.3354355], [53.1168221, 64.3358193], [53.1157045, 64.3359416], [53.1143928, 64.3359601], [53.1131151, 64.3359748], [53.112587, 64.3361667], [53.1121355, 64.3364913], [53.1120674, 64.3367938], [53.1120589, 64.3375426], [53.1117097, 64.3379152], [53.1105768, 64.3385865], [53.1096654, 64.3390882], [53.1090777, 64.3391693], [53.1084218, 64.3391398], [53.1078, 64.3388853], [53.1074167, 64.3385976], [53.1074252, 64.3382656], [53.1076637, 64.3379152], [53.1086688, 64.3374356], [53.1096569, 64.3370262], [53.1105114, 64.3365], [53.10997, 64.3364274], [53.0871679, 64.3387965], [53.0562738, 64.3419741], [53.0196948, 64.3456647], [52.9800619, 64.3497179], [52.928572, 64.3548927], [52.8863332, 64.360171], [52.8366434, 64.3665981], [52.8032321, 64.3710119], [52.7607561, 64.3769234], [52.7353654, 64.3803712], [52.680455, 64.3860139], [52.6102154, 64.3941169], [52.5655088, 64.3992646], [52.5170195, 64.4041577], [52.4793369, 64.4072331], [52.4703196, 64.4082991], [52.433776, 64.4125013], [52.4046835, 64.4158831], [52.393056, 64.4172153], [52.3764927, 64.4188137], [52.3349659, 64.4228094], [52.3040699, 64.4258007], [52.2745028, 64.4286688], [52.2708959, 64.429017], [52.2555666, 64.4313522], [52.2177963, 64.4351459], [52.1510815, 64.4419804], [52.0807424, 64.4489869], [52.0208735, 64.4555864], [51.983892, 64.4597513], [51.9829317, 64.4598633], [51.9439018, 64.4637919], [51.9409674, 64.4640828], [51.9576958, 64.4725808]]]}}]}