{"type":"FeatureCollection","features":[{"type":"Feature","properties":{"name":"Dobeles","admin":"novads","source":"© OpenStreetMap contributors, ODbL 1.0","osm_relation":13047879},"geometry":{"type":"Polygon","coordinates":[[[23.3034111,56.3785053],[23.3028254,56.3782716],[23.3026182,56.378485],[23.3023836,56.3784846],[23.3022407,56.3782208],[23.3009998,56.3777081],[23.3000218,56.3776991],[23.2995521,56.3775266],[23.2989522,56.3776087],[23.2988631,56.3775442],[23.299055,56.3773891],[23.2989531,56.3773385],[23.2983496,56.3775207],[23.2980999,56.377346],[23.2982081,56.3771733],[23.2977983,56.377099],[23.2975722,56.3767556],[23.2963773,56.3764626],[23.2961196,56.3760369],[23.2956929,56.3757686],[23.2947766,56.3756367],[23.2940736,56.3750842],[23.2935801,56.3750928],[23.2926672,56.3756383],[23.2917362,56.3757439],[23.2916011,56.3756106],[23.2917766,56.375355],[23.2915904,56.3752021],[23.291255,56.3753064],[23.291238,56.3755756],[23.2906417,56.3754591],[23.2895837,56.3745325],[23.2891276,56.3738854],[23.2847834,56.3737077],[23.2835611,56.3730557],[23.283682,56.3725787],[23.2828685,56.371901],[23.2823187,56.3719605],[23.2820865,56.3722002],[23.2817909,56.3722388],[23.2816985,56.3726949],[23.2815198,56.3727864],[23.2803696,56.3726726],[23.279975,56.3725325],[23.2799645,56.3722478],[23.27981,56.3721656],[23.2793561,56.3721816],[23.2793757,56.3720252],[23.2096633,56.369146],[23.1770126,56.3685951],[23.1704121,56.3668866],[23.170363,56.3665682],[23.1720343,56.3652549],[23.1813466,56.3583974],[23.1724206,56.3545409],[23.1761809,56.3447171],[23.1841945,56.3423281],[23.1841099,56.3374161],[23.1765345,56.3336893],[23.1460196,56.3267696],[23.1124091,56.312897],[23.1136437,56.3104578],[23.1151799,56.308061],[23.0937387,56.3048859],[23.0932498,56.3046383],[23.0898935,56.3086804],[23.0850971,56.3174408],[23.0704217,56.3243608],[23.0452315,56.3200376],[23.04506,56.3204869],[23.0420175,56.3223947],[23.0395274,56.3235263],[23.0367486,56.3252228],[23.034601,56.3259638],[23.0327902,56.3270982],[23.0286439,56.3305403],[23.0269406,56.3311543],[23.0266093,56.3318248],[23.0271255,56.3323615],[23.0272175,56.3328514],[23.0265319,56.3342161],[23.0266598,56.3353965],[23.0240818,56.3403296],[23.0153127,56.3460877],[23.013097,56.3519325],[23.0132806,56.3521586],[23.0079213,56.3625023],[23.0080228,56.3626179],[23.0051017,56.3684601],[23.0188952,56.3706158],[23.0022503,56.4064236],[22.9776048,56.4056954],[22.9691717,56.4138909],[22.9410598,56.4148102],[22.940229,56.4143756],[22.9408013,56.4135858],[22.9400638,56.4122282],[22.935704,56.4106419],[22.9358297,56.4085353],[22.93512,56.406539],[22.9350079,56.4057932],[22.9365388,56.4046768],[22.9369784,56.4041022],[22.9370373,56.403921],[22.9366539,56.4028421],[22.9362527,56.4024896],[22.9323355,56.4008025],[22.9216572,56.3987979],[22.9175975,56.3999194],[22.9131013,56.3993584],[22.9104532,56.3998529],[22.9100074,56.4000632],[22.9093754,56.3996448],[22.9089464,56.3995957],[22.9080542,56.3998435],[22.9076965,56.40016],[22.905885,56.4000121],[22.9053698,56.4002654],[22.9037638,56.4000561],[22.9024085,56.4003512],[22.902356,56.400103],[22.9018004,56.4000978],[22.9016488,56.4001951],[22.9017345,56.4009944],[22.9014192,56.4010075],[22.9008142,56.400544],[22.9003647,56.4004446],[22.8998242,56.4005225],[22.8988106,56.4013184],[22.8980762,56.4011719],[22.8978401,56.4006226],[22.8963868,56.4009819],[22.8960428,56.4008135],[22.8960564,56.4005043],[22.8952501,56.400029],[22.8951933,56.3983795],[22.8956326,56.3979237],[22.8952691,56.3977073],[22.8946911,56.397677],[22.8952164,56.3973055],[22.894658,56.3968784],[22.8935197,56.3967868],[22.8931791,56.3963044],[22.8919535,56.3961603],[22.8914132,56.3963704],[22.890989,56.3961157],[22.8905786,56.3961744],[22.8906305,56.3964088],[22.8903845,56.3966107],[22.8897406,56.3967864],[22.8884379,56.3967956],[22.8879615,56.3961464],[22.8879434,56.3956213],[22.8875,56.3950904],[22.8877607,56.3946567],[22.8880856,56.3945819],[22.8879842,56.3942021],[22.8874473,56.3939087],[22.8873098,56.3939947],[22.8872856,56.3944889],[22.8861875,56.3945351],[22.8869059,56.3937189],[22.8873933,56.3936027],[22.8868949,56.3932335],[22.8869894,56.3929328],[22.8864777,56.3926701],[22.8866799,56.3925322],[22.8835125,56.3919801],[22.8833093,56.3917762],[22.8820696,56.3916364],[22.8809176,56.3911657],[22.8788761,56.3931863],[22.8773103,56.3935455],[22.8769087,56.3938103],[22.8759862,56.3962245],[22.8747107,56.3967997],[22.8705944,56.3970316],[22.8590561,56.3999965],[22.8389772,56.4014929],[22.8369892,56.4015053],[22.8336555,56.4019346],[22.8313449,56.4026425],[22.8279532,56.4021321],[22.8233312,56.4054115],[22.8231057,56.4057618],[22.8168278,56.4100713],[22.8159938,56.4097903],[22.8141465,56.4100972],[22.8103428,56.4128005],[22.8078362,56.414229],[22.8066785,56.4144062],[22.8049502,56.4151028],[22.8027909,56.4162792],[22.7828343,56.4202974],[22.7840452,56.4208628],[22.7825075,56.4217312],[22.7780331,56.4219865],[22.7761258,56.4218706],[22.7749086,56.4216158],[22.7734979,56.4209344],[22.7717427,56.4219837],[22.7689414,56.4216808],[22.7678729,56.4213385],[22.7670752,56.4216461],[22.7651716,56.4215503],[22.7648005,56.4224227],[22.7643315,56.4229399],[22.7646707,56.4235035],[22.763426,56.4238713],[22.7628807,56.4244888],[22.7612259,56.4248911],[22.7592957,56.4245222],[22.7576848,56.4234805],[22.7530268,56.4235596],[22.7511282,56.4231651],[22.7504957,56.4227243],[22.748119,56.4226274],[22.7426953,56.4232739],[22.7414585,56.4230764],[22.7398714,56.4231472],[22.7382531,56.4228462],[22.7332535,56.4235255],[22.7302634,56.4237572],[22.7294423,56.4236079],[22.7353654,56.4383132],[22.7324082,56.4386259],[22.7336881,56.4403489],[22.7305125,56.442058],[22.7319132,56.4423188],[22.7329348,56.4436636],[22.7352698,56.4455834],[22.736291,56.4459549],[22.7306008,56.4510948],[22.7359065,56.4515773],[22.7376009,56.4503842],[22.7378995,56.449806],[22.743853,56.4485291],[22.7449175,56.4488891],[22.7480538,56.4505142],[22.750634,56.450067],[22.7536326,56.4513093],[22.7504814,56.4536253],[22.7488904,56.455837],[22.7447796,56.4590271],[22.7428137,56.4600384],[22.7423653,56.4606745],[22.7426172,56.4617789],[22.7431653,56.4623286],[22.7472832,56.4647906],[22.7485989,56.4658938],[22.7545949,56.4695137],[22.7554406,56.4730808],[22.7538651,56.4735939],[22.7540081,56.4742203],[22.7535364,56.4748151],[22.7536186,56.4751177],[22.7486178,56.476215],[22.7459853,56.4777653],[22.7468234,56.4782725],[22.7454912,56.4792837],[22.7452821,56.4798844],[22.7456301,56.4814346],[22.7445656,56.4829163],[22.7423383,56.4835989],[22.741759,56.4831412],[22.7392898,56.4841377],[22.7390261,56.4836694],[22.7378902,56.4828532],[22.7361337,56.48252],[22.7354572,56.4822298],[22.7328095,56.4824197],[22.7306187,56.4799514],[22.728715,56.4807733],[22.725441,56.4868162],[22.7239183,56.4859023],[22.7228992,56.4847011],[22.7240198,56.4836607],[22.7198785,56.4830474],[22.7138768,56.4832198],[22.7151064,56.4848519],[22.7123657,56.48563],[22.7122919,56.4876597],[22.7113037,56.4891052],[22.7125723,56.489367],[22.7125229,56.4906014],[22.7115719,56.491587],[22.7130083,56.4921109],[22.7105774,56.4941933],[22.711792,56.4945958],[22.7154523,56.4947603],[22.715873,56.4947224],[22.7174418,56.4936468],[22.7238275,56.4945098],[22.7252635,56.4965365],[22.7288612,56.5010037],[22.7310798,56.5042066],[22.7312218,56.5041857],[22.7335043,56.5076493],[22.734101,56.5088822],[22.7322955,56.510288],[22.7315248,56.5102538],[22.7287431,56.5106144],[22.7276287,56.5111464],[22.7243306,56.5185642],[22.7236306,56.5197768],[22.7228764,56.5217416],[22.7252218,56.5230784],[22.7271202,56.5237069],[22.7287327,56.5237652],[22.7317968,56.525723],[22.7323549,56.5248542],[22.7316692,56.5245546],[22.7326656,56.5244739],[22.7332766,56.5241168],[22.7365511,56.5244241],[22.7363888,56.5248059],[22.7365025,56.5249192],[22.735992,56.5259436],[22.7377154,56.5275021],[22.7375417,56.5281649],[22.7381294,56.5289953],[22.7380227,56.5296349],[22.7369838,56.5311669],[22.7380093,56.5323875],[22.7383404,56.5337787],[22.7421028,56.5341915],[22.7419264,56.5373814],[22.7410652,56.54056],[22.7425491,56.5411747],[22.743972,56.5423885],[22.7437024,56.5424944],[22.7444033,56.543039],[22.7442531,56.5430973],[22.7467398,56.5449989],[22.7359639,56.5485557],[22.7405033,56.5544095],[22.7368669,56.5667232],[22.7384813,56.5667716],[22.7397384,56.5665018],[22.7412212,56.5658981],[22.7421019,56.5649519],[22.7443798,56.5649818],[22.7447577,56.5646879],[22.7458545,56.5645686],[22.7482497,56.5636412],[22.7478264,56.562483],[22.7472772,56.5617107],[22.747295,56.5601823],[22.7480382,56.5593638],[22.74812,56.5590232],[22.7495337,56.558541],[22.7518731,56.5583208],[22.7521348,56.5581485],[22.7520752,56.5576052],[22.7543716,56.5572442],[22.755107,56.557726],[22.7559382,56.5576531],[22.7568313,56.55658],[22.7586423,56.5565087],[22.760663,56.5568772],[22.7617897,56.5576866],[22.7619864,56.5580632],[22.7641346,56.5589229],[22.7642288,56.5592083],[22.7657707,56.5593507],[22.7666114,56.5599708],[22.7671936,56.5598406],[22.7678886,56.5601833],[22.7682684,56.5600711],[22.7687568,56.5602604],[22.7696264,56.5601108],[22.7700457,56.5604515],[22.7704484,56.5602407],[22.7705295,56.560597],[22.7707166,56.5604508],[22.7712749,56.5608292],[22.7728523,56.560802],[22.7738612,56.5612044],[22.7747084,56.5612048],[22.7757848,56.5631464],[22.7761997,56.563618],[22.7763462,56.5644187],[22.7774046,56.5647141],[22.7821386,56.564434],[22.7869833,56.5638511],[22.7870669,56.5637312],[22.7882179,56.5639444],[22.7865916,56.5659742],[22.7837099,56.5652599],[22.7801427,56.567303],[22.7792688,56.5690589],[22.7794355,56.5703588],[22.7782413,56.5717471],[22.7802437,56.5720501],[22.7810804,56.5726983],[22.7833171,56.5723263],[22.7850628,56.5713091],[22.787927,56.5721162],[22.7877972,56.5715327],[22.7893374,56.5713008],[22.7902991,56.5708673],[22.7905678,56.5702831],[22.7912001,56.5697215],[22.7910976,56.5693699],[22.7894424,56.5692363],[22.7885715,56.5685255],[22.7905049,56.5679035],[22.7924741,56.568511],[22.7940194,56.5687533],[22.7965954,56.567832],[22.7988146,56.5676968],[22.7999974,56.5673638],[22.8004942,56.5674235],[22.8019093,56.5690329],[22.8025865,56.5689357],[22.8032116,56.5683817],[22.8061933,56.5679888],[22.8087227,56.5686029],[22.8081169,56.5694035],[22.8071484,56.569519],[22.8054727,56.5701707],[22.8053632,56.5706183],[22.8066542,56.5715598],[22.8072105,56.5713889],[22.8087271,56.5718284],[22.8095966,56.5722638],[22.8087278,56.5736662],[22.8068103,56.5746124],[22.804675,56.5752587],[22.8038389,56.5749813],[22.800676,56.5745378],[22.8000501,56.5741858],[22.7990877,56.5743086],[22.7989737,56.5748896],[22.799081,56.5763563],[22.7979614,56.5765683],[22.7972081,56.5758027],[22.7959588,56.5753952],[22.7951951,56.57553],[22.7929652,56.5767114],[22.7922543,56.5756417],[22.7916194,56.5755273],[22.7912509,56.5760268],[22.7917279,56.5764807],[22.7909232,56.5778878],[22.7909742,56.5789837],[22.7892279,56.5799493],[22.7919828,56.5827769],[22.7902435,56.5841863],[22.7904785,56.5849729],[22.7911832,56.5851185],[22.7906989,56.5858011],[22.789532,56.5857861],[22.7890965,56.5870156],[22.7885551,56.5878091],[22.7881888,56.5877961],[22.788417,56.5881535],[22.7871827,56.5880794],[22.786735,56.5882515],[22.783897,56.5884044],[22.7838193,56.5876128],[22.7820193,56.5885588],[22.7801938,56.5876058],[22.7784161,56.5876687],[22.7753251,56.58929],[22.776646,56.5898081],[22.778921,56.5889531],[22.7806084,56.5893636],[22.7816343,56.591123],[22.7823361,56.5913409],[22.7825653,56.5923303],[22.7813535,56.5931851],[22.7816032,56.5936698],[22.7827207,56.5941005],[22.7811735,56.5952621],[22.7813091,56.5958483],[22.7800969,56.5976005],[22.7831249,56.5979811],[22.7833557,56.5984564],[22.7833409,56.5986696],[22.7824633,56.5987364],[22.7818603,56.5994578],[22.7813506,56.5992912],[22.7801929,56.5993745],[22.7800233,56.600076],[22.7786552,56.6019399],[22.776523,56.6029165],[22.775549,56.6037772],[22.7758372,56.6067875],[22.7779827,56.6118284],[22.7791381,56.6121027],[22.782109,56.6118432],[22.7848496,56.610004],[22.7868072,56.6097568],[22.7965918,56.6076189],[22.7975524,56.6086686],[22.7990961,56.609159],[22.7998441,56.6092104],[22.8016117,56.6090303],[22.8023633,56.6092015],[22.8040074,56.60855],[22.8084501,56.6081323],[22.8093834,56.6057387],[22.8171288,56.6047207],[22.8199622,56.6048762],[22.8206508,56.6052556],[22.8206499,56.6060301],[22.8201646,56.6061647],[22.819125,56.606974],[22.8165543,56.6080229],[22.8156256,56.6087393],[22.8192045,56.6090601],[22.823639,56.6090453],[22.8222869,56.6050487],[22.8228178,56.6048073],[22.8240177,56.6052218],[22.8246127,56.6050909],[22.8265412,56.6051517],[22.8278874,56.6054423],[22.8286244,56.6050753],[22.8299522,56.6051434],[22.8300303,56.6048371],[22.8304882,56.6048338],[22.8303439,56.6046152],[22.8304267,56.6043077],[22.8315297,56.6043156],[22.8317505,56.6044313],[22.8318944,56.6048712],[22.8325629,56.6051113],[22.8337227,56.6052018],[22.8343518,56.6054962],[22.8352706,56.6055097],[22.8365108,56.6058327],[22.8373898,56.6056768],[22.8383654,56.6058998],[22.8387876,56.606237],[22.8396048,56.6063342],[22.8397939,56.6066344],[22.8410609,56.6073502],[22.8419965,56.6082376],[22.8430961,56.6083184],[22.8437844,56.6087102],[22.8446699,56.6089369],[22.8449148,56.6092823],[22.8451899,56.6093427],[22.8417302,56.6100776],[22.8418436,56.6106652],[22.8416095,56.6117205],[22.8417163,56.6121957],[22.8420613,56.6124394],[22.8426393,56.6125429],[22.842048,56.613834],[22.8406745,56.613935],[22.8422539,56.6158997],[22.8454345,56.6211317],[22.8461983,56.6224444],[22.8461123,56.6229516],[22.8463319,56.6235316],[22.8471474,56.6247101],[22.8483739,56.6253243],[22.8492461,56.6255279],[22.8494901,56.6258083],[22.8487578,56.6263703],[22.8485136,56.6262464],[22.8481557,56.6265742],[22.8473692,56.6267126],[22.8465523,56.6270924],[22.8464355,56.6274242],[22.8461355,56.6275143],[22.8459964,56.6277873],[22.8447358,56.6276568],[22.844609,56.6273017],[22.8438204,56.6278244],[22.8439401,56.6284675],[22.8443214,56.6291793],[22.8441566,56.6293552],[22.8445356,56.6297038],[22.8450356,56.6299933],[22.8454675,56.6299966],[22.8460116,56.6295705],[22.8462127,56.6296799],[22.8459608,56.6301782],[22.8454423,56.6302242],[22.8452374,56.6304347],[22.846106,56.6310302],[22.8471796,56.6311627],[22.8472597,56.6318711],[22.8465558,56.6319286],[22.847038,56.6323127],[22.8470825,56.6325462],[22.847441,56.6326217],[22.8471732,56.6331173],[22.8480044,56.6337762],[22.847324,56.6348618],[22.8459165,56.6354397],[22.8454077,56.6354914],[22.8454269,56.6360497],[22.845811,56.6365093],[22.8469046,56.6367959],[22.8482546,56.6366075],[22.8486569,56.6367049],[22.8491564,56.636483],[22.8504221,56.6365382],[22.8512537,56.6368725],[22.8522802,56.6368058],[22.8515478,56.6372495],[22.8520573,56.6374397],[22.8527714,56.6381929],[22.8548516,56.6380265],[22.8549953,56.637609],[22.8564028,56.6377655],[22.8570195,56.6383467],[22.8592816,56.6393918],[22.8604427,56.6392521],[22.8610707,56.6388757],[22.8616437,56.6391688],[22.8621244,56.6387054],[22.8626719,56.6387136],[22.8628104,56.6390684],[22.8625148,56.6393494],[22.8624998,56.6397214],[22.8630392,56.6397695],[22.8633931,56.6402487],[22.8639845,56.6403034],[22.8647502,56.6412241],[22.8659347,56.6421243],[22.8658433,56.642438],[22.8659638,56.6426811],[22.8653356,56.6427525],[22.8654636,56.6431477],[22.8650951,56.6435927],[22.8644375,56.6437826],[22.8641563,56.6435722],[22.8589413,56.6467537],[22.8574186,56.6473522],[22.8572481,56.6480858],[22.8577831,56.6488139],[22.8575442,56.6509083],[22.8561402,56.651319],[22.8552589,56.6519582],[22.855102,56.6528819],[22.8521442,56.6540514],[22.8482881,56.6543655],[22.8451243,56.6541833],[22.8426742,56.6637742],[22.8393934,56.6756467],[22.8336379,56.6752036],[22.8330861,56.6805258],[22.8200985,56.6796636],[22.7937458,56.6776062],[22.7932898,56.6785078],[22.791601,56.6783542],[22.7903614,56.6793587],[22.7897549,56.6812763],[22.7890228,56.6822212],[22.8047438,56.6834655],[22.8032675,56.6890012],[22.8028548,56.689593],[22.8029891,56.6896261],[22.8030904,56.693851],[22.8038574,56.6942189],[22.8096568,56.6936508],[22.8125049,56.6937518],[22.8150078,56.6936549],[22.8149812,56.6934223],[22.8188921,56.6932855],[22.8189134,56.6934744],[22.8310336,56.6929152],[22.8310244,56.6931193],[22.8337583,56.6930851],[22.8338102,56.6929759],[22.838537,56.6929072],[22.8473066,56.6922973],[22.8474484,56.6934055],[22.8468272,56.6937593],[22.8468121,56.6975241],[22.8467001,56.6975572],[22.8505039,56.7010866],[22.8492598,56.7032099],[22.8537888,56.7050643],[22.8544425,56.7043469],[22.8543233,56.7042579],[22.8552969,56.7035624],[22.8565904,56.7031791],[22.857577,56.70247],[22.8599938,56.7020918],[22.8616192,56.7004451],[22.8643986,56.7000938],[22.865526,56.7003582],[22.8697726,56.699516],[22.8709221,56.7068327],[22.8709473,56.7103432],[22.8744952,56.7117219],[22.8751292,56.7121012],[22.8757982,56.711342],[22.876949,56.7108113],[22.877837,56.7107914],[22.8804275,56.7095362],[22.8825995,56.708979],[22.8842636,56.7093149],[22.8845183,56.7097912],[22.8853266,56.7098862],[22.887338,56.7104927],[22.8880301,56.7102301],[22.8884799,56.7089464],[22.8895756,56.7083097],[22.8918497,56.708999],[22.8930847,56.7101166],[22.8950344,56.7113515],[22.8971357,56.71177],[22.9005971,56.7127478],[22.9053058,56.711749],[22.9074747,56.7116214],[22.9076428,56.7114074],[22.9107675,56.7119052],[22.9114128,56.7115076],[22.9139243,56.7112569],[22.9334864,56.7102897],[22.9550691,56.710852],[22.9566596,56.7110121],[22.9585929,56.7115714],[22.9633481,56.7124008],[22.9696011,56.7128602],[22.9856507,56.7121696],[22.9909474,56.7179468],[23.004098,56.7176766],[23.0053317,56.7157419],[23.0058077,56.715596],[23.0062441,56.7148778],[23.0066347,56.7147633],[23.0075258,56.714762],[23.0074935,56.7149095],[23.0078143,56.7151609],[23.0084706,56.7152656],[23.008546,56.7153933],[23.0083541,56.7156368],[23.0085565,56.7157004],[23.0094478,56.7153143],[23.0105,56.7152598],[23.0110417,56.7148107],[23.0114485,56.7147251],[23.0117106,56.7148555],[23.0117351,56.7150561],[23.0113708,56.7153767],[23.0122612,56.7158318],[23.0129005,56.7156422],[23.0131221,56.7161454],[23.013475,56.7161763],[23.0140898,56.7160866],[23.0140699,56.7157929],[23.0146485,56.7157488],[23.0156484,56.7151821],[23.018978,56.7145454],[23.0186679,56.7118949],[23.0251919,56.7059072],[23.0260752,56.7044458],[23.0295764,56.7000581],[23.0316188,56.6971844],[23.0317808,56.6952698],[23.0316687,56.6933882],[23.0461189,56.6938542],[23.0496013,56.6940432],[23.0495322,56.6942857],[23.0537759,56.694349],[23.0580694,56.6948951],[23.0639068,56.6960125],[23.0679486,56.6940845],[23.0686321,56.6940555],[23.0695062,56.6942924],[23.0734736,56.6931962],[23.0754128,56.6934767],[23.0779416,56.6928988],[23.078913,56.6922559],[23.0816959,56.6922931],[23.0817213,56.6925313],[23.0859129,56.691989],[23.0871684,56.6911638],[23.0888308,56.6896326],[23.0902389,56.6885967],[23.0905352,56.6885501],[23.0980165,56.6913158],[23.1007986,56.6938343],[23.1152768,56.6887297],[23.116516,56.6890008],[23.1163984,56.6908442],[23.1162605,56.6908404],[23.1151783,56.6929249],[23.1147345,56.6933134],[23.1134329,56.6954583],[23.1199177,56.6972029],[23.1209527,56.6978288],[23.1233327,56.6980185],[23.1306477,56.7000594],[23.1368656,56.6995077],[23.1506505,56.696929],[23.160683,56.6947281],[23.1639315,56.6938364],[23.1668544,56.6934774],[23.1763702,56.6912902],[23.1904229,56.6953314],[23.1920562,56.6968754],[23.1933795,56.698608],[23.1923625,56.6990519],[23.1912042,56.6999326],[23.1932123,56.7007041],[23.1839401,56.7081382],[23.1853248,56.7090812],[23.1865753,56.7102035],[23.1911857,56.7160361],[23.1912977,56.7160106],[23.1919185,56.7169705],[23.193688,56.7187714],[23.1952895,56.7200285],[23.1992667,56.7222426],[23.2048527,56.7234712],[23.2080691,56.7222219],[23.2157365,56.7197356],[23.2165629,56.7193565],[23.2176579,56.718134],[23.2190232,56.7182579],[23.2195134,56.7175059],[23.2204739,56.7173868],[23.2215022,56.717344],[23.2227437,56.7175993],[23.2243897,56.7196444],[23.2253744,56.7200953],[23.2255131,56.7209315],[23.2389809,56.7198961],[23.2440474,56.7202256],[23.2440806,56.7200943],[23.2448707,56.7200317],[23.2451079,56.7192029],[23.2599435,56.7150408],[23.2682117,56.7136543],[23.2753394,56.7072638],[23.2978758,56.7155656],[23.2996646,56.7185686],[23.30717,56.7250392],[23.314984,56.7290359],[23.3193193,56.7302608],[23.3204754,56.7303788],[23.323152,56.7301084],[23.3233752,56.7306538],[23.3237796,56.730832],[23.325513,56.730706],[23.3275088,56.7315565],[23.3310494,56.7350561],[23.3324349,56.7370292],[23.3325072,56.7388121],[23.3344282,56.7430249],[23.3349969,56.7441784],[23.3363124,56.7453307],[23.3368002,56.7464237],[23.3432741,56.7497254],[23.347866,56.7523421],[23.3449264,56.7526626],[23.3430911,56.7535908],[23.3418768,56.7538669],[23.3384435,56.7573571],[23.3358955,56.7593761],[23.3329303,56.761114],[23.3231752,56.7663176],[23.3132077,56.7711675],[23.3073768,56.7742592],[23.3118917,56.7771163],[23.3149998,56.7788708],[23.3189777,56.7806261],[23.3325966,56.7795454],[23.3330342,56.7818759],[23.3354229,56.7840508],[23.3398256,56.7868677],[23.3404228,56.7873891],[23.3515098,56.7939756],[23.3534456,56.7949656],[23.3739523,56.8072188],[23.382665,56.8088579],[23.3833568,56.807977],[23.383614,56.8034608],[23.3851332,56.8034922],[23.3876043,56.8021283],[23.3874634,56.7965851],[23.3886737,56.7932052],[23.3935375,56.7926316],[23.4610808,56.7992104],[23.4793992,56.8100418],[23.4830084,56.8118214],[23.4855918,56.8127451],[23.4893603,56.8138133],[23.4893363,56.8134943],[23.5068491,56.8183536],[23.5106553,56.8079155],[23.5259986,56.7676799],[23.5277481,56.7636729],[23.5290184,56.7633288],[23.5296903,56.7628129],[23.5303252,56.7627482],[23.529598,56.7601224],[23.5282209,56.7599714],[23.5198368,56.7485924],[23.4700881,56.742951],[23.4706815,56.7422384],[23.4686183,56.7417908],[23.4674836,56.7419031],[23.4647795,56.7415129],[23.4628979,56.7407843],[23.4590655,56.7389288],[23.4568511,56.7385875],[23.4555462,56.737986],[23.4522829,56.7370023],[23.448696,56.7349901],[23.4484115,56.7343392],[23.4477624,56.7341441],[23.4468714,56.7335015],[23.4468797,56.7333475],[23.4474808,56.7331555],[23.4466883,56.7325093],[23.4460397,56.7315899],[23.4442596,56.7307275],[23.4435765,56.7301458],[23.4427194,56.7286221],[23.4424449,56.7275904],[23.4410954,56.7261512],[23.4394715,56.7250916],[23.4369813,56.723876],[23.4332992,56.7227068],[23.4310134,56.7216588],[23.4278797,56.7191828],[23.4275223,56.7192165],[23.4276557,56.7186787],[23.426921,56.7170142],[23.4269934,56.7143897],[23.4266366,56.7136876],[23.4262077,56.7133622],[23.4260896,56.7129504],[23.4235614,56.7109399],[23.4211714,56.7096866],[23.4192009,56.7082594],[23.4215361,56.7062878],[23.4242329,56.7046547],[23.4243742,56.7044271],[23.425088,56.7043305],[23.4257937,56.7038911],[23.4269591,56.7028863],[23.4325975,56.7005543],[23.4339287,56.6996758],[23.4342947,56.6988919],[23.4367706,56.6979014],[23.4411633,56.6978459],[23.4432358,56.6983726],[23.4499386,56.6978899],[23.4565778,56.6972326],[23.4644741,56.6953979],[23.4687006,56.6948641],[23.4702755,56.6955675],[23.4716056,56.6958966],[23.4737621,56.6933727],[23.474389,56.6928426],[23.4772514,56.690918],[23.4784624,56.6903358],[23.4780522,56.6901367],[23.4798923,56.6892435],[23.4802934,56.6894475],[23.48868,56.685424],[23.4940874,56.6834835],[23.4939339,56.6833921],[23.4962072,56.6824418],[23.497692,56.6815077],[23.496212,56.6806942],[23.4945873,56.6810958],[23.4939735,56.6810333],[23.4932253,56.6806251],[23.4921769,56.6803524],[23.4917592,56.6798378],[23.4906986,56.6794686],[23.4904853,56.6790066],[23.4901492,56.678821],[23.4867664,56.6785205],[23.4837325,56.6780332],[23.4826679,56.6776228],[23.481707,56.6775555],[23.4773887,56.6776951],[23.4767403,56.6778754],[23.4758393,56.6786153],[23.4753064,56.6788],[23.4741288,56.6788959],[23.4719223,56.6787692],[23.4698126,56.6790164],[23.4691511,56.6794187],[23.4686749,56.6803045],[23.4664113,56.6801416],[23.4667709,56.6753461],[23.4671448,56.6748947],[23.4677176,56.6732972],[23.471053,56.6733869],[23.4711955,56.6738343],[23.47412,56.6735339],[23.4736189,56.6716771],[23.4754034,56.6697165],[23.4790322,56.66809],[23.4802925,56.6677191],[23.4806501,56.6674194],[23.4830946,56.6630406],[23.4831311,56.6627085],[23.4827089,56.6616845],[23.4830823,56.66034],[23.486946,56.6593874],[23.4865131,56.6590379],[23.4861221,56.6568805],[23.4835359,56.657082],[23.4834444,56.6568967],[23.4826953,56.6572929],[23.4818314,56.6573837],[23.4809736,56.6577441],[23.4799555,56.657556],[23.4777573,56.6578727],[23.4772421,56.6578049],[23.4716706,56.6570269],[23.4664745,56.654057],[23.4590616,56.6521663],[23.452378,56.6523888],[23.4520884,56.6498863],[23.4465255,56.6495511],[23.4448678,56.6472695],[23.4390433,56.6447355],[23.4380281,56.6445609],[23.4394053,56.6411241],[23.440679,56.6365375],[23.4411163,56.6355569],[23.4393117,56.6345519],[23.4384434,56.6300711],[23.4363173,56.6227548],[23.4349987,56.6224478],[23.4307946,56.62196],[23.4267259,56.6216441],[23.4268239,56.6204802],[23.4172561,56.6205076],[23.4048832,56.6193583],[23.4052223,56.6182878],[23.4052821,56.6173178],[23.4050275,56.6136331],[23.4086134,56.6074473],[23.4042093,56.6049091],[23.4027512,56.6036358],[23.4037669,56.6034963],[23.4038356,56.6036531],[23.4060098,56.6033347],[23.4059129,56.6031633],[23.4104243,56.6024969],[23.4106919,56.602593],[23.4130317,56.6022817],[23.4129898,56.6021894],[23.4132782,56.6022086],[23.413235,56.6021133],[23.425093,56.6005369],[23.4252453,56.6008939],[23.4264838,56.6008066],[23.4264654,56.6003608],[23.4283343,56.6001125],[23.4342829,56.5994556],[23.4360448,56.599301],[23.436138,56.5995178],[23.4406485,56.5990156],[23.4410242,56.5987333],[23.4409951,56.5984996],[23.4647938,56.5953147],[23.4693148,56.59524],[23.4753848,56.5962363],[23.4755431,56.595991],[23.4785282,56.5965148],[23.4787197,56.5963115],[23.4799276,56.5962013],[23.482518,56.5968214],[23.4848953,56.5971843],[23.4866201,56.5939036],[23.4892077,56.5856645],[23.4646805,56.5820652],[23.4487611,56.582986],[23.4442042,56.5814461],[23.443584,56.5816332],[23.4425853,56.5815615],[23.4407246,56.5811196],[23.4395681,56.5810466],[23.4377773,56.5811645],[23.4353621,56.5816722],[23.43498,56.5819653],[23.4340023,56.5823094],[23.4294762,56.5792225],[23.4303485,56.5766595],[23.4304527,56.5758161],[23.430294,56.5755899],[23.4302707,56.5748261],[23.4288562,56.5733949],[23.4290255,56.5715987],[23.4289456,56.5708896],[23.4294917,56.5708331],[23.4305677,56.5711034],[23.4315969,56.5709282],[23.4326388,56.5702239],[23.4329586,56.5688603],[23.4324748,56.5684264],[23.4313641,56.5678913],[23.4300847,56.5680122],[23.4295579,56.5678536],[23.4294906,56.567706],[23.4301485,56.567323],[23.4297747,56.566947],[23.4295128,56.5669399],[23.4288013,56.5673374],[23.4283885,56.5673044],[23.4283134,56.5665087],[23.4280242,56.5662696],[23.4280329,56.5660538],[23.4292557,56.5661811],[23.4297721,56.5659585],[23.4282122,56.5654971],[23.4281631,56.5652696],[23.4283592,56.5649803],[23.428183,56.5646987],[23.4295123,56.5643729],[23.4354279,56.5609151],[23.4415768,56.5602632],[23.4540967,56.5592413],[23.4679486,56.5532277],[23.4722003,56.5516156],[23.4738132,56.5506817],[23.4731854,56.549917],[23.4703541,56.5485473],[23.4679789,56.5481811],[23.4657202,56.5474676],[23.4662844,56.5457955],[23.467387,56.5443071],[23.465299,56.5430612],[23.4605263,56.5387867],[23.4589657,56.536954],[23.4598408,56.5361515],[23.4599288,56.5359012],[23.4585799,56.5344239],[23.4586365,56.5342806],[23.4614355,56.5332405],[23.4620864,56.5325797],[23.4617307,56.5322153],[23.4594295,56.5316523],[23.4590251,56.5282759],[23.4587791,56.5278578],[23.4574538,56.5206572],[23.4562586,56.5188318],[23.4541165,56.5197434],[23.4499809,56.5178279],[23.4489694,56.5182716],[23.4483537,56.5126083],[23.456446,56.5083359],[23.4572466,56.5081038],[23.4584442,56.5073121],[23.457046,56.506957],[23.4545981,56.5056562],[23.4521945,56.5035008],[23.4511682,56.5018329],[23.4508454,56.5015459],[23.4490563,56.5009367],[23.4471365,56.4998278],[23.4457081,56.4996856],[23.443314,56.5000621],[23.4424612,56.4999681],[23.4405916,56.4992444],[23.4397344,56.4977751],[23.4389371,56.4977715],[23.4374408,56.4982914],[23.436844,56.4982833],[23.4358906,56.4979061],[23.4341851,56.4982827],[23.4319561,56.4975178],[23.4319532,56.4968494],[23.4315739,56.4962295],[23.4309275,56.4961618],[23.4302345,56.496381],[23.4289655,56.4958659],[23.4279008,56.4950583],[23.4260032,56.4947238],[23.4232563,56.4945005],[23.421136,56.4939378],[23.4192038,56.4937989],[23.4187299,56.4934228],[23.4191418,56.4926448],[23.4147968,56.4922945],[23.4140877,56.4929348],[23.4128214,56.4933763],[23.4122579,56.492423],[23.4126861,56.4915514],[23.4144753,56.4900122],[23.4154139,56.4876139],[23.4159312,56.486756],[23.4175385,56.4849994],[23.4191741,56.4841952],[23.4258116,56.4826949],[23.4276835,56.4818664],[23.4335735,56.4828277],[23.4371383,56.4831869],[23.4413854,56.4814717],[23.4363245,56.4761823],[23.4344093,56.4770377],[23.432889,56.478007],[23.4293243,56.476691],[23.4279743,56.4758624],[23.4316485,56.4732169],[23.4299604,56.4721937],[23.4283594,56.4727781],[23.4227511,56.4695321],[23.4208497,56.4698115],[23.4195035,56.4677902],[23.4177139,56.4666433],[23.4184065,56.4660383],[23.4176787,56.4647854],[23.4227283,56.4622253],[23.4184929,56.4575841],[23.4200705,56.456302],[23.4223363,56.4557339],[23.4226193,56.4554217],[23.423015,56.455596],[23.4250656,56.4554316],[23.4313261,56.4555924],[23.4336373,56.4554828],[23.4381985,56.4547109],[23.4447257,56.453256],[23.4440207,56.4525061],[23.4410545,56.4480637],[23.4397648,56.4472027],[23.4359109,56.4459336],[23.4378204,56.440605],[23.4396117,56.4364063],[23.4427274,56.4281959],[23.4425754,56.4276927],[23.4414318,56.4279352],[23.4410226,56.4277784],[23.4410973,56.4275583],[23.4417332,56.4274143],[23.4421751,56.4269363],[23.4416968,56.4263674],[23.4413704,56.4263439],[23.441486,56.4268873],[23.4412301,56.4269521],[23.4398319,56.4265893],[23.4395916,56.4263352],[23.4396672,56.4261545],[23.4409863,56.425363],[23.4415045,56.4253613],[23.4437692,56.4238906],[23.4542385,56.4204435],[23.4618734,56.4158683],[23.4632095,56.4150109],[23.4636231,56.4136342],[23.4621821,56.4119664],[23.4642558,56.4114148],[23.4643133,56.4112149],[23.4656087,56.4101793],[23.4733452,56.4045547],[23.4672381,56.4000974],[23.4654284,56.398967],[23.4626958,56.3978549],[23.4600681,56.3982444],[23.4591708,56.3981528],[23.4571453,56.3967613],[23.4543469,56.3958658],[23.4482279,56.3918903],[23.4437589,56.3858522],[23.4424972,56.3836508],[23.4414853,56.3827047],[23.4399699,56.382363],[23.4382622,56.3823183],[23.4382747,56.3830842],[23.4348426,56.3835881],[23.4334642,56.3836142],[23.4279441,56.3830629],[23.4245941,56.381894],[23.4205686,56.3819558],[23.4188682,56.3827001],[23.4068039,56.3828187],[23.396586,56.3805654],[23.3951323,56.3805674],[23.3948694,56.3803681],[23.3943109,56.3791103],[23.3925447,56.3793599],[23.3924566,56.3772929],[23.387975,56.3789231],[23.3064522,56.3830535],[23.3062486,56.382784],[23.3071256,56.3820395],[23.3074337,56.3820583],[23.3080665,56.3824373],[23.3082054,56.3820227],[23.309054,56.3819295],[23.3089948,56.3812251],[23.3073549,56.3815208],[23.3065805,56.3810519],[23.3067816,56.3809494],[23.3072847,56.3811097],[23.3074079,56.3809951],[23.3072892,56.3806135],[23.3065473,56.3801439],[23.3064016,56.3796742],[23.3057933,56.3794588],[23.3042547,56.3784644],[23.3034111,56.3785053]]]}}]}