{"type":"FeatureCollection","features":[{"type":"Feature","properties":{"name":"Maldives","admin":"country","source":"© OpenStreetMap contributors, ODbL 1.0","osm_relation":536773},"geometry":{"type":"MultiPolygon","coordinates":[[[[72.3693104,6.0657949],[72.4584997,5.0858164],[72.4991801,4.6383215],[72.5354117,4.2395257],[72.51352,4.1247647],[72.511453,4.1115695],[72.5045242,4.0551871],[72.5030365,4.0333265],[72.5008971,3.8768278],[72.4971745,3.795037],[72.4969656,3.785799],[72.4970013,3.6272111],[72.4992208,3.5973941],[72.5346907,3.3724734],[72.589855,2.9832627],[72.6229526,2.7675324],[72.6236151,2.7633745],[72.6663303,2.5397982],[72.6859726,2.3962727],[72.7157869,1.8838253],[72.7474141,1.3400524],[72.7902979,0.6258529],[72.7933679,0.5497574],[72.7887873,0.5211601],[72.7862519,0.4871229],[72.7894755,0.4531448],[72.8039782,0.3730134],[72.8364815,-0.0647332],[72.8646316,-0.4438493],[72.8767774,-0.6074198],[72.8832361,-0.6452874],[72.8967362,-0.6812256],[72.925732,-0.7405476],[72.9323457,-0.7553749],[72.9558972,-0.7951507],[72.9664506,-0.8090394],[72.9981288,-0.8420907],[73.0175706,-0.8582031],[73.0608255,-0.8855332],[73.0686028,-0.8891451],[73.0978406,-0.9000256],[73.1284052,-0.9061919],[73.1595514,-0.9074935],[73.1745523,-0.9069396],[73.2139753,-0.9014888],[73.2515417,-0.8882751],[73.2857587,-0.8678232],[73.305206,-0.853379],[73.3207881,-0.8405346],[73.3527372,-0.8113674],[73.3796155,-0.7813418],[73.3869814,-0.7705041],[73.6120124,-0.4149251],[73.6289434,-0.3817121],[73.6394811,-0.3459197],[73.7065187,-0.0040821],[73.7605622,0.2353433],[73.7850443,0.3963339],[73.7880075,0.4310208],[73.7868392,1.3854208],[73.785939,2.1205797],[73.8284901,2.4489615],[73.8543457,2.6484604],[73.9351061,3.1909554],[73.9683897,3.4296491],[73.9700962,3.4670674],[73.9501522,3.7820824],[73.9225514,4.4674268],[73.9222935,4.4718213],[73.878984,5.0916131],[73.8586656,5.3821845],[73.8532985,5.4163243],[73.842174,5.4490377],[73.8256204,5.479357],[73.8209131,5.4852768],[73.7543142,5.7369545],[73.6531457,6.1190566],[73.6164987,6.2574019],[73.520156,6.6209261],[73.4756089,6.7918159],[73.4327107,6.949017],[73.4257325,6.9769491],[73.4235285,6.984616],[73.4120194,7.0216679],[73.4016597,7.0476835],[73.3865336,7.0737758],[73.367668,7.0973124],[73.3598894,7.1056482],[73.3304103,7.1316109],[73.2964377,7.1513504],[72.9871442,7.2924908],[72.946348,7.3060414],[72.9035997,7.3106246],[72.897208,7.3106238],[72.8465015,7.3041299],[72.7920391,7.2899509],[72.7634506,7.2801629],[72.7264979,7.2643195],[72.6994409,7.2501989],[72.6748375,7.2321516],[72.6709489,7.2288171],[72.6451407,7.2021762],[72.6246764,7.1712529],[72.6185699,7.1598627],[72.6027044,7.1209636],[72.5117389,6.8074267],[72.3625145,6.2926449],[72.355481,6.2557949],[72.3554187,6.218279],[72.3693104,6.0657949]]]]}},{"type":"Feature","properties":{"name":"Minicoy Island","admin":"island","source":"© OpenStreetMap contributors, ODbL 1.0","osm_relation":8856982},"geometry":{"type":"MultiPolygon","coordinates":[[[[73.02021,8.2709],[73.02029,8.27088],[73.02178,8.27016],[73.02269,8.26966],[73.02428,8.26899],[73.02548,8.26859],[73.02591,8.26841],[73.027,8.26812],[73.02851,8.26765],[73.02923,8.26746],[73.03229,8.26673],[73.03299,8.26663],[73.03333,8.26655],[73.03388,8.26648],[73.03507,8.26624],[73.03614,8.2661],[73.03709,8.26607],[73.03874,8.26586],[73.03971,8.26587],[73.04039,8.26579],[73.04133,8.26573],[73.04185,8.26567],[73.0431,8.26566],[73.04362,8.2657],[73.04395,8.2657],[73.04469,8.2658],[73.04506,8.26583],[73.04553,8.26593],[73.04706,8.26637],[73.0474,8.26649],[73.04782,8.26674],[73.04872,8.26735],[73.04918,8.26779],[73.04976,8.26843],[73.05018,8.26885],[73.05034,8.26909],[73.05036,8.26917],[73.05046,8.26934],[73.05052,8.26935],[73.0507,8.26946],[73.05089,8.26971],[73.0512,8.27022],[73.05157,8.27073],[73.05253,8.27216],[73.05335,8.27314],[73.05365,8.27354],[73.05504,8.27525],[73.05536,8.27557],[73.05563,8.27591],[73.05592,8.27622],[73.05623,8.2765],[73.0567,8.27701],[73.05833,8.27868],[73.05905,8.27931],[73.06056,8.2808],[73.06088,8.28107],[73.06089,8.28113],[73.06113,8.28133],[73.06136,8.28158],[73.06154,8.28172],[73.06191,8.28193],[73.06266,8.28258],[73.06335,8.2831],[73.06444,8.28402],[73.06495,8.28449],[73.06529,8.28485],[73.06604,8.28579],[73.06625,8.28612],[73.06648,8.28668],[73.06654,8.28721],[73.06658,8.28823],[73.06665,8.28852],[73.06666,8.28879],[73.06664,8.28891],[73.06646,8.28941],[73.06639,8.28976],[73.06631,8.29],[73.06619,8.29051],[73.06613,8.29095],[73.06612,8.29125],[73.066,8.29191],[73.06594,8.2925],[73.06595,8.29395],[73.06592,8.29432],[73.06597,8.29503],[73.06612,8.29639],[73.06624,8.29696],[73.06649,8.29908],[73.06648,8.30041],[73.06657,8.30089],[73.06658,8.30127],[73.06701,8.30331],[73.06731,8.30422],[73.06804,8.30627],[73.06831,8.30692],[73.06905,8.30888],[73.06964,8.30988],[73.06994,8.31045],[73.07073,8.31184],[73.07119,8.31277],[73.07159,8.31338],[73.07221,8.31452],[73.07242,8.31496],[73.07336,8.31665],[73.07449,8.31837],[73.07526,8.31992],[73.07555,8.32097],[73.07609,8.32197],[73.07635,8.32232],[73.07674,8.32291],[73.07706,8.32333],[73.0772566,8.3235555],[73.0771372,8.3236908],[73.0770519,8.323693],[73.0771302,8.3237657],[73.0772553,8.3238442],[73.0773997,8.3238581],[73.077479,8.3238198],[73.07771,8.32403],[73.07814,8.32441],[73.07843,8.32484],[73.07848,8.32505],[73.07842,8.32507],[73.07837,8.32503],[73.0780719,8.3249007],[73.0776606,8.3247882],[73.0775907,8.3246993],[73.07763,8.32446],[73.0775,8.32425],[73.07749,8.32408],[73.077331,8.3239191],[73.0770744,8.3238128],[73.0769628,8.3236123],[73.07685,8.32351],[73.07659,8.32325],[73.07652,8.32309],[73.07642,8.32299],[73.07611,8.32277],[73.07593,8.32271],[73.07587,8.32264],[73.07587,8.32251],[73.07554,8.32213],[73.07495,8.32115],[73.07488,8.32094],[73.07349,8.3186],[73.07231,8.31639],[73.07102,8.31368],[73.07086,8.31327],[73.07039,8.31233],[73.06964,8.31067],[73.06925,8.30979],[73.0684,8.30815],[73.06807,8.30728],[73.06767,8.30651],[73.0671,8.30577],[73.06698,8.30557],[73.06674,8.30506],[73.06652,8.30447],[73.06636,8.30375],[73.06626,8.30347],[73.06619,8.30311],[73.06608,8.30277],[73.06584,8.30163],[73.06581,8.3009],[73.06575,8.30066],[73.06569,8.29971],[73.06558,8.29935],[73.06549,8.29891],[73.06528,8.29844],[73.06517,8.29803],[73.06505,8.29769],[73.06457,8.29665],[73.06384,8.29544],[73.06351,8.295],[73.06286,8.29422],[73.06298,8.29402],[73.06306,8.29394],[73.06287,8.29364],[73.06267,8.29341],[73.06239,8.29305],[73.06159,8.29219],[73.0613,8.292],[73.0613,8.29197],[73.0615,8.29179],[73.06156,8.29168],[73.06154,8.29151],[73.06147,8.2914],[73.06127,8.29118],[73.06118,8.29114],[73.06114,8.29115],[73.06106,8.29123],[73.06102,8.29123],[73.06098,8.29103],[73.06082,8.29063],[73.06089,8.2905],[73.06088,8.29046],[73.06075,8.29036],[73.06061,8.29018],[73.06061,8.29007],[73.06032,8.28989],[73.06029,8.28982],[73.0603,8.28976],[73.06027,8.28962],[73.06008,8.28933],[73.05978,8.28902],[73.05964,8.28891],[73.05958,8.2889],[73.05959,8.28887],[73.0597,8.28879],[73.0597,8.2887],[73.05946,8.28847],[73.0593,8.28837],[73.05923,8.2883],[73.05922,8.28826],[73.05926,8.28816],[73.05925,8.2881],[73.05877,8.28765],[73.05863,8.28745],[73.0585,8.28738],[73.05844,8.28726],[73.05826,8.28715],[73.05827,8.28704],[73.05822,8.28696],[73.05804,8.2868],[73.05796,8.28676],[73.05789,8.28679],[73.05785,8.28678],[73.05789,8.28669],[73.0576,8.28599],[73.05762,8.28592],[73.05752,8.28571],[73.05749,8.28556],[73.05744,8.28545],[73.05719,8.2853],[73.05713,8.28523],[73.05711,8.28513],[73.05713,8.28508],[73.05724,8.28504],[73.05727,8.28498],[73.05727,8.2849],[73.057,8.28455],[73.05674,8.28431],[73.05653,8.28391],[73.05644,8.28385],[73.05639,8.28377],[73.05634,8.28348],[73.05625,8.28327],[73.05613,8.28307],[73.05565,8.28255],[73.05432,8.2817],[73.05398,8.28143],[73.0538184,8.2813158],[73.05323,8.2809],[73.05179,8.27976],[73.04999,8.27841],[73.04983,8.27817],[73.04929,8.27786],[73.04869,8.27741],[73.04776,8.27658],[73.04691,8.27599],[73.04617,8.27562],[73.04478,8.27484],[73.04424,8.27464],[73.04392,8.27459],[73.04148,8.27406],[73.04055,8.27394],[73.04027,8.27394],[73.03987,8.27389],[73.0394663,8.2739278],[73.0390263,8.2739657],[73.0383006,8.2740766],[73.0377161,8.2741209],[73.0369529,8.2741514],[73.0355501,8.2740977],[73.0344707,8.273937],[73.03428,8.27381],[73.03403,8.2737],[73.03341,8.27354],[73.03302,8.27336],[73.03265,8.27325],[73.03247,8.27324],[73.03173,8.27303],[73.03111,8.27281],[73.0307,8.27272],[73.03034,8.27267],[73.02925,8.27239],[73.02748,8.27208],[73.0273616,8.272083],[73.0271419,8.2721494],[73.0263008,8.2721871],[73.0260446,8.2722026],[73.0258047,8.2722135],[73.02528,8.27223],[73.02429,8.27228],[73.02378,8.27236],[73.02336,8.27237],[73.02299,8.27243],[73.02269,8.27257],[73.02254,8.27271],[73.02217,8.27287],[73.02212,8.2728],[73.02175,8.27295],[73.0208,8.27363],[73.02039,8.27407],[73.02027,8.27429],[73.02015,8.27459],[73.02013,8.27478],[73.01985,8.27519],[73.01951,8.27549],[73.01943,8.27578],[73.01947,8.27596],[73.01947,8.27611],[73.01957,8.27616],[73.01971,8.27616],[73.01982,8.27607],[73.01988,8.27591],[73.02007,8.27576],[73.02023,8.27559],[73.02052,8.27501],[73.02078,8.27483],[73.02091,8.27482],[73.02104,8.27476],[73.02113,8.27464],[73.0213,8.27429],[73.02156,8.27415],[73.02168,8.27396],[73.02213,8.27343],[73.0223,8.27327],[73.02249,8.2732],[73.0226746,8.27318],[73.0227986,8.2731058],[73.02286,8.27322],[73.02297,8.27327],[73.02313,8.27343],[73.02326,8.27361],[73.02332,8.2738],[73.02332,8.27407],[73.02318,8.27453],[73.023,8.27479],[73.02279,8.27504],[73.02237,8.27536],[73.02126,8.276],[73.02098,8.27619],[73.02043,8.27646],[73.0202,8.27664],[73.01996,8.27692],[73.0197233,8.2771364],[73.01961,8.27724],[73.01892,8.27756],[73.0186,8.27762],[73.01821,8.2776],[73.01814,8.27749],[73.01809,8.27725],[73.01807,8.27689],[73.01815,8.27637],[73.0187,8.27509],[73.01896,8.27433],[73.01913,8.27357],[73.01932,8.27249],[73.01917,8.27203],[73.01916,8.27187],[73.01924,8.27164],[73.01938,8.27143],[73.01985,8.27119],[73.02021,8.2709]]]]}}]}