{"type":"FeatureCollection","features":[{"type":"Feature","properties":{"name":"Ōtākou","admin":"rohe","source":"© OpenStreetMap contributors, ODbL 1.0","osm_relation":1640138},"geometry":{"type":"Polygon","coordinates":[[[168.11639,-44.88075],[168.11757,-44.88344],[168.12702,-44.88459],[168.12976,-44.90128],[168.13443,-44.90489],[168.13716,-44.91354],[168.13638,-44.91914],[168.13066,-44.9223],[168.13609,-44.92685],[168.12834,-44.93091],[168.13165,-44.93399],[168.13166,-44.93905],[168.1363,-44.94216],[168.14551,-44.94241],[168.14889,-44.94459],[168.1493,-44.94829],[168.15241,-44.94826],[168.16448,-44.95519],[168.17634,-44.96664],[168.17628,-44.97167],[168.17349,-44.97679],[168.17426,-44.98069],[168.18287,-44.98306],[168.20004,-44.99698],[168.20531,-44.99844],[168.20886,-45.00168],[168.21438,-45.00211],[168.22041,-45.00593],[168.22178,-45.01685],[168.2352,-45.02408],[168.24893,-45.0273],[168.27926,-45.02507],[168.28592,-45.02043],[168.28601,-45.01699],[168.2961,-45.01385],[168.30029,-45.01517],[168.3097,-45.02602],[168.30895,-45.02785],[168.30257,-45.03002],[168.29623,-45.03804],[168.29135,-45.04047],[168.29449,-45.04642],[168.29818,-45.04837],[168.2986,-45.05219],[168.29404,-45.0554],[168.29268,-45.06642],[168.29424,-45.07011],[168.2935,-45.07484],[168.28461,-45.08461],[168.28544,-45.0866],[168.28412,-45.08816],[168.28638,-45.09322],[168.28382,-45.10022],[168.28421,-45.10617],[168.27033,-45.11221],[168.26611,-45.11903],[168.24551,-45.12617],[168.23621,-45.13382],[168.22696,-45.1375],[168.22561,-45.13969],[168.21697,-45.14436],[168.22289,-45.14687],[168.22482,-45.14943],[168.2281,-45.14932],[168.23422,-45.15324],[168.23938,-45.15443],[168.2383,-45.16081],[168.23609,-45.16257],[168.23599,-45.16685],[168.24545,-45.17076],[168.2486,-45.17827],[168.25488,-45.18518],[168.25073,-45.19407],[168.25153,-45.19951],[168.25665,-45.20392],[168.26334,-45.20565],[168.26938,-45.21],[168.28597,-45.21331],[168.29069,-45.2183],[168.29705,-45.22149],[168.29963,-45.22116],[168.30077,-45.22478],[168.29973,-45.22784],[168.29486,-45.23559],[168.29205,-45.23745],[168.28825,-45.24488],[168.2983,-45.25093],[168.30705,-45.26041],[168.30777,-45.2667],[168.30458,-45.27231],[168.30273,-45.28002],[168.30379,-45.28864],[168.30032,-45.29393],[168.30274,-45.2956],[168.3233,-45.32754],[168.46079,-45.32514],[168.5394,-45.30933],[168.54119,-45.30626],[168.54945,-45.30022],[168.55278,-45.29946],[168.56406,-45.29147],[168.56685,-45.28606],[168.57594,-45.2847],[168.58401,-45.27852],[168.59368,-45.28075],[168.60764,-45.27782],[168.61741,-45.27184],[168.62012,-45.26629],[168.63305,-45.26176],[168.64931,-45.2457],[168.65874,-45.24653],[168.66835,-45.24293],[168.67411,-45.24307],[168.68341,-45.24773],[168.68384,-45.25154],[168.68017,-45.25656],[168.68047,-45.25966],[168.6901,-45.27263],[168.68732,-45.27578],[168.6874,-45.28206],[168.69395,-45.29202],[168.69166,-45.29712],[168.69785,-45.31186],[168.69092,-45.3365],[168.69222,-45.33967],[168.71969,-45.34913],[168.75164,-45.36757],[168.75615,-45.36315],[168.75934,-45.3623],[168.76985,-45.36284],[168.77465,-45.36521],[168.77282,-45.37101],[168.77507,-45.37732],[168.77253,-45.38322],[168.7739,-45.39179],[168.76867,-45.40314],[168.77388,-45.41481],[168.77388,-45.42052],[168.77777,-45.42437],[168.77969,-45.43362],[168.77874,-45.43665],[168.78246,-45.43704],[168.78963,-45.43389],[168.7962,-45.43341],[168.82522,-45.44606],[168.82565,-45.44106],[168.83048,-45.43761],[168.85399,-45.43207],[168.86006,-45.43831],[168.85882,-45.45201],[168.8869,-45.46282],[168.89286,-45.45698],[168.89957,-45.45565],[168.9068,-45.44949],[168.95957,-45.35912],[169.01279,-45.30347],[169.06769,-45.26904],[169.07291,-45.27108],[169.08491,-45.28082],[169.08833,-45.2858],[169.0902,-45.28609],[169.08813,-45.28698],[169.0882,-45.2908],[169.09282,-45.29815],[169.09929,-45.31995],[169.1057,-45.32189],[169.11402,-45.32871],[169.12158,-45.33181],[169.12947,-45.33759],[169.14822,-45.33877],[169.15472,-45.34927],[169.15323,-45.35354],[169.1614,-45.3633],[169.16455,-45.37072],[169.1683,-45.37352],[169.17074,-45.38048],[169.17475,-45.3823],[169.18086,-45.39044],[169.19649,-45.38838],[169.1991,-45.393],[169.20926,-45.40238],[169.21093,-45.41716],[169.19962,-45.43432],[169.18354,-45.43896],[169.15994,-45.43972],[169.14725,-45.4505],[169.14604,-45.45564],[169.14018,-45.46432],[169.14188,-45.47102],[169.13651,-45.48326],[169.12893,-45.52103],[169.13033,-45.52478],[169.12308,-45.52968],[169.11189,-45.54185],[169.09904,-45.58069],[169.09356,-45.58684],[169.08076,-45.59562],[169.07765,-45.60144],[169.07356,-45.60443],[169.06551,-45.62212],[169.06577,-45.62754],[169.06351,-45.62956],[169.05866,-45.64115],[169.04398,-45.65253],[169.03528,-45.65259],[169.02469,-45.65964],[169.02495,-45.66369],[169.02195,-45.66736],[169.0187,-45.67759],[169.02006,-45.68097],[169.01799,-45.68832],[169.01883,-45.68979],[169.0054,-45.69845],[169.00758,-45.71105],[169.00372,-45.71817],[169.00307,-45.7271],[169.00014,-45.72604],[168.99337,-45.72854],[168.99452,-45.73721],[168.99814,-45.73697],[169.00197,-45.73885],[169.00455,-45.74959],[169.00347,-45.79577],[169.01354,-45.80357],[169.02404,-45.80515],[169.02895,-45.80893],[169.0254,-45.82192],[169.01982,-45.82482],[169.01785,-45.8299],[169.01203,-45.83409],[169.00883,-45.84428],[169.00551,-45.84793],[169.00589,-45.85635],[169.00435,-45.85974],[169.0052,-45.86349],[169.05039,-45.86396],[169.04968,-45.85852],[169.05662,-45.8501],[169.08045,-45.85816],[169.07322,-45.86497],[169.07447,-45.87107],[169.08216,-45.87301],[169.09152,-45.88256],[169.09647,-45.88262],[169.09907,-45.88436],[169.09354,-45.89204],[169.09141,-45.89134],[169.0894,-45.89548],[169.08882,-45.90003],[169.08491,-45.90593],[169.08475,-45.91671],[169.0765,-45.91956],[169.07516,-45.92158],[169.07692,-45.92258],[169.07341,-45.92475],[169.08215,-45.92955],[169.08461,-45.93379],[169.09039,-45.9376],[169.09724,-45.93856],[169.09972,-45.94804],[169.0944,-45.9595],[169.08813,-45.96388],[169.08111,-45.96528],[169.07478,-45.97033],[169.07514,-45.97287],[169.07061,-45.97535],[169.07133,-45.97651],[169.06725,-45.98043],[169.06643,-45.98301],[169.06807,-45.98356],[169.06658,-45.9853],[169.07139,-45.9885],[169.07084,-45.99701],[169.07254,-45.99774],[169.07272,-46.00162],[169.08865,-46.00121],[169.10817,-45.99514],[169.11717,-46.00032],[169.12782,-46.00313],[169.07969,-46.00266],[169.08129,-46.00434],[169.07981,-46.00524],[169.07965,-46.00828],[169.08303,-46.01142],[169.08176,-46.01439],[169.08884,-46.01779],[169.08816,-46.02159],[169.0896,-46.02421],[169.09831,-46.02915],[169.10005,-46.0334],[169.10259,-46.03363],[169.10346,-46.03597],[169.10977,-46.03749],[169.11904,-46.03702],[169.12847,-46.0417],[169.13618,-46.04806],[169.15333,-46.04874],[169.15801,-46.06222],[169.15787,-46.06844],[169.15308,-46.07346],[169.13802,-46.07815],[169.13557,-46.08539],[169.14844,-46.08552],[169.14829,-46.09229],[169.15813,-46.09239],[169.16329,-46.09579],[169.15788,-46.10666],[169.16222,-46.11195],[169.16011,-46.11612],[169.16317,-46.11711],[169.15379,-46.12483],[169.15033,-46.12387],[169.13762,-46.12733],[169.13757,-46.13042],[169.13344,-46.13149],[169.13268,-46.13366],[169.13483,-46.13683],[169.12886,-46.13864],[169.13012,-46.14012],[169.12978,-46.14777],[169.13157,-46.14757],[169.13352,-46.15112],[169.14368,-46.14992],[169.15113,-46.15464],[169.15865,-46.15176],[169.16103,-46.15221],[169.16217,-46.15751],[169.16925,-46.16104],[169.15962,-46.17568],[169.16209,-46.1812],[169.17036,-46.18276],[169.16696,-46.19187],[169.16977,-46.19246],[169.17148,-46.1905],[169.17399,-46.19063],[169.17508,-46.18855],[169.18585,-46.18929],[169.18733,-46.1903],[169.18378,-46.19235],[169.18186,-46.19571],[169.18958,-46.19564],[169.19829,-46.20044],[169.19806,-46.21263],[169.18632,-46.22326],[169.18632,-46.23052],[169.1962,-46.23761],[169.19178,-46.24719],[169.1857,-46.2548],[169.1883,-46.25882],[169.18862,-46.26182],[169.18588,-46.26657],[169.18919,-46.26597],[169.18901,-46.27992],[169.17686,-46.28568],[169.18391,-46.29142],[169.18501,-46.29906],[169.18939,-46.30134],[169.18859,-46.30238],[169.19692,-46.30431],[169.18843,-46.31351],[169.17742,-46.32187],[169.19083,-46.3264],[169.17363,-46.33587],[169.16126,-46.34492],[169.16031,-46.34794],[169.15556,-46.3482],[169.14238,-46.35348],[169.14661,-46.35603],[169.14634,-46.35912],[169.1374,-46.36624],[169.13618,-46.37412],[169.13414,-46.37544],[169.14425,-46.38242],[169.16109,-46.3818],[169.17502,-46.38637],[169.17875,-46.38844],[169.17778,-46.39182],[169.18675,-46.39564],[169.196,-46.40441],[169.19402,-46.40841],[169.19946,-46.41637],[169.19931,-46.41994],[169.18815,-46.42745],[169.19085,-46.43413],[169.19681,-46.4388],[169.18585,-46.44315],[169.18319,-46.44882],[169.17995,-46.45148],[169.16797,-46.45435],[169.16333,-46.45772],[169.16414,-46.4618],[169.16131,-46.4659],[169.16227,-46.46849],[169.16587,-46.47244],[169.17483,-46.47551],[169.17847,-46.47831],[169.17855,-46.48082],[169.17368,-46.48415],[169.17343,-46.48705],[169.18149,-46.49127],[169.20248,-46.4949],[169.20543,-46.4993],[169.21477,-46.50226],[169.23309,-46.51176],[169.23671,-46.51243],[169.24561,-46.50983],[169.2503,-46.51331],[169.2501,-46.51654],[169.24557,-46.52197],[169.24479,-46.52956],[169.23622,-46.53613],[169.22556,-46.54984],[169.21599,-46.55421],[169.19369,-46.55509],[169.19052,-46.55692],[169.19607,-46.56061],[169.20094,-46.56071],[169.23034,-46.57297],[169.23446,-46.57305],[169.23791,-46.5752],[169.24508,-46.57524],[169.25111,-46.58097],[169.25417,-46.5806],[169.26489,-46.58585],[169.26424,-46.59385],[169.2665,-46.59359],[169.26724,-46.59588],[169.26158,-46.59855],[169.27411,-46.61134],[169.26531,-46.61549],[169.27946,-46.62268],[169.34202,-46.83925],[169.39538,-46.83709],[169.42681,-46.8329],[169.45741,-46.8267],[169.48683,-46.81823],[169.51471,-46.80759],[169.56064,-46.79546],[169.6029,-46.77817],[169.64577,-46.77419],[169.68221,-46.76713],[169.7218,-46.75516],[169.75835,-46.73928],[169.79852,-46.71447],[169.85361,-46.68976],[169.88236,-46.675],[169.90198,-46.6629],[169.92329,-46.64685],[169.9443,-46.63528],[169.97806,-46.62303],[170.00491,-46.61016],[170.02555,-46.5979],[170.04797,-46.5815],[170.07622,-46.55391],[170.09729,-46.52342],[170.11061,-46.49091],[170.11452,-46.47233],[170.11588,-46.45357],[170.13734,-46.43946],[170.1742,-46.41914],[170.20797,-46.39673],[170.22862,-46.38073],[170.25287,-46.36737],[170.28069,-46.35612],[170.3106,-46.34037],[170.34725,-46.31519],[170.37193,-46.30039],[170.39403,-46.28375],[170.42521,-46.25333],[170.44505,-46.22736],[170.46567,-46.18594],[170.47546,-46.16247],[170.48218,-46.14112],[170.50599,-46.13452],[170.53846,-46.13236],[170.57559,-46.12662],[170.626,-46.11262],[170.65791,-46.11318],[170.69497,-46.11071],[170.72615,-46.10595],[170.76128,-46.09738],[170.79906,-46.08381],[170.82944,-46.06886],[170.86385,-46.05922],[170.90058,-46.04453],[170.93379,-46.02622],[170.95702,-46.01057],[170.97478,-45.99627],[170.99893,-45.97114],[171.01922,-45.94021],[171.03069,-45.91104],[171.03402,-45.89609],[171.0359,-45.87722],[171.03396,-45.84042],[171.03735,-45.8224],[171.03839,-45.80423],[171.03431,-45.77166],[171.0257,-45.74041],[171.01542,-45.71679],[171.00327,-45.69587],[170.98785,-45.67604],[170.99923,-45.65637],[171.00757,-45.63597],[171.03111,-45.62109],[171.05215,-45.60447],[171.07041,-45.58631],[171.08568,-45.56684],[171.10257,-45.5357],[171.10869,-45.51768],[171.11241,-45.49934],[171.12679,-45.47953],[171.13949,-45.45517],[171.14575,-45.43716],[171.14962,-45.41882],[171.15222,-45.36735],[171.14892,-45.3383],[171.13967,-45.3099],[171.15714,-45.29187],[171.17385,-45.26927],[171.19966,-45.25035],[171.22173,-45.2292],[171.23736,-45.20957],[171.25151,-45.18528],[171.27567,-45.16436],[171.30827,-45.14108],[171.33237,-45.11746],[171.36483,-45.07924],[171.38232,-45.05175],[171.39501,-45.03525],[171.40726,-45.01444],[171.41813,-44.98951],[171.13278,-44.93782],[171.13048,-44.93848],[171.12544,-44.93711],[171.11927,-44.93186],[171.11477,-44.93117],[171.11787,-44.93121],[171.11575,-44.92946],[171.11068,-44.9306],[171.10201,-44.92923],[171.09851,-44.93098],[171.08739,-44.93045],[171.0828,-44.9319],[171.06317,-44.92575],[171.03094,-44.92309],[171.02368,-44.91971],[171.00013,-44.92124],[170.98759,-44.91425],[170.98259,-44.91488],[170.97309,-44.9098],[170.96454,-44.91197],[170.94087,-44.90686],[170.93177,-44.90667],[170.92498,-44.90279],[170.91314,-44.90293],[170.90729,-44.89673],[170.90193,-44.89739],[170.89818,-44.89561],[170.89947,-44.89484],[170.88276,-44.89105],[170.87225,-44.89325],[170.86378,-44.89078],[170.85563,-44.89471],[170.84114,-44.89143],[170.84113,-44.90348],[170.82777,-44.90138],[170.81966,-44.90241],[170.81082,-44.90042],[170.70906,-44.90084],[170.70412,-44.90185],[170.70044,-44.90493],[170.68065,-44.9049],[170.6833,-44.91115],[170.67247,-44.91805],[170.65894,-44.90918],[170.63872,-44.91694],[170.63295,-44.93257],[170.62812,-44.93317],[170.6275,-44.9346],[170.63687,-44.9513],[170.6247,-44.9587],[170.61888,-44.95988],[170.61461,-44.96667],[170.61252,-44.96768],[170.60516,-44.96502],[170.60411,-44.9621],[170.60088,-44.96163],[170.59778,-44.96189],[170.5964,-44.96547],[170.57943,-44.9655],[170.57996,-44.9682],[170.57503,-44.9747],[170.57622,-44.97628],[170.57515,-44.97786],[170.57323,-44.97856],[170.56643,-44.97566],[170.56369,-44.97825],[170.55056,-44.98252],[170.54781,-44.98496],[170.54244,-44.98505],[170.5318,-44.99286],[170.52389,-45.00548],[170.51287,-45.00893],[170.51393,-45.01389],[170.5095,-45.01539],[170.51169,-45.02068],[170.50645,-45.02598],[170.48916,-45.03463],[170.48101,-45.04732],[170.47604,-45.04811],[170.46475,-45.04525],[170.45354,-45.05349],[170.44719,-45.06596],[170.43581,-45.07194],[170.42522,-45.07274],[170.41422,-45.07762],[170.40745,-45.07768],[170.3978,-45.08093],[170.38554,-45.07787],[170.38621,-45.07333],[170.37921,-45.06698],[170.38048,-45.06085],[170.3683,-45.05481],[170.36331,-45.0435],[170.36292,-45.03677],[170.35577,-45.02917],[170.35329,-45.02401],[170.34944,-45.0217],[170.35185,-45.00781],[170.34734,-44.98963],[170.35409,-44.98272],[170.36983,-44.97232],[170.36888,-44.96021],[170.37338,-44.95239],[170.37214,-44.94803],[170.36659,-44.94439],[170.36564,-44.9401],[170.35698,-44.93903],[170.34906,-44.9431],[170.35061,-44.93172],[170.35405,-44.92812],[170.35248,-44.92318],[170.35282,-44.91506],[170.34998,-44.90767],[170.34013,-44.90391],[170.31935,-44.90305],[170.30468,-44.91053],[170.30168,-44.91951],[170.29072,-44.91414],[170.28178,-44.91661],[170.27235,-44.92165],[170.26518,-44.91995],[170.25958,-44.92157],[170.25199,-44.91883],[170.24687,-44.92228],[170.24207,-44.93072],[170.22521,-44.93474],[170.22037,-44.93345],[170.21047,-44.93456],[170.20016,-44.93903],[170.18954,-44.94002],[170.1793,-44.94297],[170.17567,-44.94184],[170.16449,-44.946],[170.15838,-44.94356],[170.15035,-44.94334],[170.14819,-44.94094],[170.13619,-44.94289],[170.13094,-44.94072],[170.1271,-44.94108],[170.12048,-44.94743],[170.11129,-44.94686],[170.10368,-44.94257],[170.0941,-44.94002],[170.09132,-44.93754],[170.09144,-44.93421],[170.08477,-44.92743],[170.06866,-44.92318],[170.07442,-44.91602],[170.08187,-44.91212],[170.06951,-44.89977],[170.06381,-44.88362],[170.05027,-44.87743],[170.04313,-44.87678],[170.03824,-44.87252],[170.03094,-44.87006],[170.02669,-44.85903],[170.0185,-44.85561],[170.01264,-44.84355],[170.00551,-44.83682],[169.99796,-44.82506],[169.9966,-44.82044],[169.99896,-44.80877],[169.99502,-44.79876],[169.99369,-44.78648],[169.98415,-44.77247],[169.98219,-44.76709],[169.98111,-44.75452],[169.97018,-44.74407],[169.96342,-44.70883],[169.94422,-44.65398],[169.89127,-44.64428],[169.84155,-44.6654],[169.83619,-44.6689],[169.81708,-44.66548],[169.82199,-44.66363],[169.80564,-44.66134],[169.75488,-44.63892],[169.75335,-44.63096],[169.75368,-44.61832],[169.75715,-44.61213],[169.75542,-44.60745],[169.74777,-44.6001],[169.74861,-44.59434],[169.74629,-44.58606],[169.73663,-44.57045],[169.73058,-44.56507],[169.7186,-44.57352],[169.71858,-44.5799],[169.71334,-44.59797],[169.7085,-44.60098],[169.69689,-44.60137],[169.68529,-44.60609],[169.68857,-44.6029],[169.68852,-44.60108],[169.68177,-44.59789],[169.65778,-44.59357],[169.641,-44.59601],[169.6445,-44.58479],[169.64275,-44.57613],[169.64079,-44.57472],[169.64336,-44.56926],[169.64069,-44.56478],[169.64525,-44.56105],[169.64552,-44.55507],[169.65208,-44.54858],[169.653,-44.54585],[169.6634,-44.53723],[169.65231,-44.53522],[169.64768,-44.5311],[169.64699,-44.52615],[169.65015,-44.52095],[169.64559,-44.51924],[169.64323,-44.51542],[169.63767,-44.51165],[169.63729,-44.50626],[169.63432,-44.50175],[169.63485,-44.49887],[169.64121,-44.49509],[169.64362,-44.4867],[169.64748,-44.48115],[169.64411,-44.47901],[169.64104,-44.47189],[169.64189,-44.46642],[169.63369,-44.46241],[169.61495,-44.46059],[169.60329,-44.46356],[169.60237,-44.46181],[169.60044,-44.4629],[169.59206,-44.45905],[169.57387,-44.46235],[169.56977,-44.45972],[169.56231,-44.46015],[169.55443,-44.45723],[169.55348,-44.4552],[169.5425,-44.4486],[169.54784,-44.44275],[169.5562,-44.43759],[169.55445,-44.43246],[169.54884,-44.42885],[169.54588,-44.42266],[169.55214,-44.4129],[169.56307,-44.40562],[169.56561,-44.40231],[169.56645,-44.3968],[169.55935,-44.38999],[169.55671,-44.38095],[169.56579,-44.37238],[169.57085,-44.35825],[169.56791,-44.35413],[169.57742,-44.3453],[169.57878,-44.34013],[169.57873,-44.33764],[169.57123,-44.33323],[169.5684,-44.31932],[169.573,-44.31206],[169.57233,-44.30561],[169.5748,-44.3001],[169.57111,-44.29624],[169.57478,-44.28417],[169.57305,-44.27924],[169.57942,-44.26434],[169.58061,-44.25235],[169.57678,-44.24951],[169.57332,-44.24329],[169.5735,-44.23979],[169.57046,-44.23673],[169.5485,-44.22758],[169.54711,-44.22074],[169.54346,-44.21636],[169.54452,-44.21165],[169.54332,-44.20747],[169.54887,-44.20474],[169.56077,-44.20544],[169.56189,-44.19376],[169.56587,-44.18832],[169.56639,-44.18514],[169.57109,-44.18204],[169.57107,-44.17723],[169.58129,-44.17263],[169.58603,-44.16657],[169.59633,-44.16239],[169.59845,-44.16012],[169.60389,-44.16029],[169.60582,-44.15852],[169.59889,-44.1503],[169.62045,-44.13996],[169.61832,-44.13575],[169.62086,-44.12787],[169.62497,-44.12248],[169.63513,-44.1218],[169.63868,-44.11992],[169.63631,-44.11409],[169.64046,-44.10571],[169.63916,-44.1018],[169.64843,-44.098],[169.65442,-44.09269],[169.66124,-44.0915],[169.66241,-44.08469],[169.65757,-44.07765],[169.66502,-44.06774],[169.67858,-44.07052],[169.68202,-44.06842],[169.6797,-44.06165],[169.68289,-44.05464],[169.68094,-44.04827],[169.68463,-44.04534],[169.68589,-44.04199],[169.69425,-44.04115],[169.69898,-44.04278],[169.71704,-44.03828],[169.71963,-44.03619],[169.71225,-44.02556],[169.71178,-44.02189],[169.70759,-44.01714],[169.70942,-44.01445],[169.70647,-44.0106],[169.70608,-44.00335],[169.71145,-43.99725],[169.7103,-43.99351],[169.7059,-43.99011],[169.7037,-43.98351],[169.69911,-43.97973],[169.6994,-43.97697],[169.70217,-43.97392],[169.70199,-43.96917],[169.69934,-43.96355],[169.69194,-43.9579],[169.67103,-43.95542],[169.65567,-43.95676],[169.63291,-43.96384],[169.62325,-43.95699],[169.59278,-43.95808],[169.5868,-43.96514],[169.58679,-43.97321],[169.58258,-43.98046],[169.58416,-43.98325],[169.58289,-43.98509],[169.59191,-43.99101],[169.59199,-44.01017],[169.59138,-44.01254],[169.58195,-44.0226],[169.58131,-44.03002],[169.57901,-44.03411],[169.57162,-44.03548],[169.56226,-44.03228],[169.55705,-44.03318],[169.55065,-44.03187],[169.54108,-44.03332],[169.52851,-44.0387],[169.51681,-44.05357],[169.5117,-44.05802],[169.5067,-44.05925],[169.48632,-44.05534],[169.46265,-44.05926],[169.45728,-44.06358],[169.45051,-44.06611],[169.45014,-44.07278],[169.44553,-44.07651],[169.44379,-44.08407],[169.43329,-44.08975],[169.4285,-44.09652],[169.42357,-44.09646],[169.40958,-44.10203],[169.40738,-44.10455],[169.4084,-44.10704],[169.39059,-44.11269],[169.38712,-44.11873],[169.37269,-44.1169],[169.35418,-44.1069],[169.33851,-44.10234],[169.33454,-44.09443],[169.32967,-44.08882],[169.33061,-44.0794],[169.32868,-44.0778],[169.3286,-44.07528],[169.32289,-44.07143],[169.321,-44.06409],[169.30898,-44.06065],[169.29081,-44.06273],[169.29022,-44.07389],[169.2846,-44.0801],[169.2795,-44.09378],[169.27518,-44.09858],[169.25744,-44.10811],[169.2421,-44.10611],[169.23279,-44.10856],[169.21936,-44.10943],[169.20624,-44.10693],[169.19881,-44.10952],[169.18807,-44.11054],[169.16901,-44.10462],[169.15975,-44.10486],[169.1514,-44.09459],[169.14773,-44.08608],[169.14803,-44.08267],[169.14592,-44.0799],[169.13895,-44.08073],[169.13012,-44.08695],[169.11923,-44.08745],[169.11078,-44.09322],[169.10453,-44.09542],[169.09578,-44.09728],[169.08869,-44.09532],[169.08145,-44.09698],[169.07522,-44.10283],[169.07359,-44.10961],[169.05808,-44.10934],[169.04596,-44.11613],[169.03805,-44.1182],[169.02031,-44.11458],[169.01343,-44.11477],[169.00983,-44.12392],[169.01592,-44.13082],[169.00882,-44.1361],[169.00078,-44.13959],[168.98114,-44.14149],[168.97508,-44.14403],[168.97667,-44.1508],[168.98579,-44.16335],[168.98739,-44.16893],[168.97434,-44.17301],[168.96526,-44.17365],[168.96135,-44.18236],[168.96333,-44.20038],[168.95921,-44.20581],[168.94456,-44.20347],[168.91901,-44.20946],[168.91094,-44.20979],[168.90483,-44.21823],[168.89335,-44.21747],[168.87723,-44.22284],[168.87375,-44.22587],[168.87219,-44.23034],[168.87333,-44.23386],[168.87095,-44.23886],[168.8561,-44.24245],[168.84935,-44.24614],[168.85177,-44.25369],[168.85158,-44.25863],[168.85727,-44.26971],[168.85468,-44.27415],[168.84625,-44.2785],[168.84274,-44.28334],[168.84425,-44.28966],[168.84005,-44.30245],[168.8414,-44.31188],[168.83764,-44.31676],[168.83316,-44.31925],[168.83189,-44.32276],[168.83608,-44.33992],[168.83205,-44.34809],[168.83233,-44.35085],[168.8178,-44.35613],[168.81061,-44.36214],[168.8062,-44.36387],[168.78749,-44.37706],[168.78379,-44.38322],[168.77809,-44.38785],[168.77031,-44.39101],[168.75702,-44.39001],[168.75341,-44.39225],[168.74132,-44.40542],[168.74117,-44.40934],[168.74461,-44.41814],[168.74255,-44.421],[168.72839,-44.41948],[168.7154,-44.41142],[168.69978,-44.40497],[168.69367,-44.39557],[168.68667,-44.39191],[168.68021,-44.39603],[168.66528,-44.40117],[168.65477,-44.41138],[168.64159,-44.41656],[168.63046,-44.4263],[168.6255,-44.43394],[168.60693,-44.43618],[168.59347,-44.44177],[168.59015,-44.45019],[168.58606,-44.45379],[168.57356,-44.45135],[168.55737,-44.45172],[168.54777,-44.45645],[168.52355,-44.46037],[168.50681,-44.46682],[168.50349,-44.46982],[168.50092,-44.47543],[168.48781,-44.47887],[168.46092,-44.49539],[168.45252,-44.49256],[168.44156,-44.49219],[168.41552,-44.4974],[168.39908,-44.49611],[168.3902,-44.49907],[168.37796,-44.49587],[168.36585,-44.49482],[168.35853,-44.49189],[168.34492,-44.49706],[168.31896,-44.49491],[168.30679,-44.49978],[168.297,-44.49741],[168.29079,-44.49763],[168.28975,-44.49637],[168.27715,-44.51393],[168.27478,-44.52036],[168.25777,-44.52599],[168.24963,-44.53036],[168.23487,-44.54262],[168.23713,-44.54956],[168.23798,-44.56109],[168.23651,-44.57672],[168.235,-44.57869],[168.22481,-44.58299],[168.22517,-44.58657],[168.22316,-44.58932],[168.22568,-44.59808],[168.21444,-44.60347],[168.20379,-44.62288],[168.20202,-44.63034],[168.19693,-44.63619],[168.19594,-44.63917],[168.19732,-44.64334],[168.18501,-44.64613],[168.18875,-44.64905],[168.19112,-44.65586],[168.18469,-44.66949],[168.19195,-44.6775],[168.19248,-44.68066],[168.18564,-44.68703],[168.1849,-44.69046],[168.17497,-44.69771],[168.17082,-44.71251],[168.17197,-44.71858],[168.16929,-44.72195],[168.17473,-44.72882],[168.17534,-44.73352],[168.18124,-44.73793],[168.18192,-44.74518],[168.19163,-44.74304],[168.19453,-44.74051],[168.19939,-44.74019],[168.20341,-44.74191],[168.20528,-44.74635],[168.20211,-44.75418],[168.19788,-44.7569],[168.19427,-44.7642],[168.191,-44.76679],[168.19279,-44.77159],[168.19141,-44.77441],[168.19257,-44.778],[168.19014,-44.78214],[168.18477,-44.78414],[168.18467,-44.78887],[168.18208,-44.79182],[168.18332,-44.79778],[168.17975,-44.80441],[168.17199,-44.81005],[168.16758,-44.82831],[168.12743,-44.82858],[168.1287,-44.84053],[168.12745,-44.84358],[168.12501,-44.84484],[168.12213,-44.85538],[168.12311,-44.8637],[168.11725,-44.87105],[168.11639,-44.88075]]]}}]}