{"type":"FeatureCollection","features":[{"type":"Feature","properties":{"name":"Rodrigues","admin":"island","source":"\u00a9 OpenStreetMap contributors, ODbL 1.0","osm_relation":9675871},"geometry":{"type":"Polygon","coordinates":[[[63.3680718,-19.7661785],[63.3689623,-19.7667768],[63.3699118,-19.7669888],[63.371041,-19.7678028],[63.3719851,-19.7679631],[63.3730151,-19.7684894],[63.3751434,-19.7690977],[63.375484,-19.7697578],[63.3764563,-19.7701806],[63.3772865,-19.7704746],[63.3787228,-19.7704999],[63.381696,-19.7713795],[63.3818275,-19.7712079],[63.3816598,-19.7707649],[63.3819079,-19.7705516],[63.3818436,-19.7703333],[63.3808874,-19.7696959],[63.3804394,-19.7697111],[63.3801618,-19.7695533],[63.3800854,-19.7686812],[63.3798306,-19.7683758],[63.3794591,-19.7682042],[63.3778404,-19.7681827],[63.3771229,-19.7678394],[63.3770491,-19.7671932],[63.3772328,-19.7663262],[63.3769016,-19.7660801],[63.3768845,-19.7657768],[63.3774382,-19.765142],[63.3781797,-19.7655058],[63.3789454,-19.7654175],[63.3789991,-19.7650818],[63.3792298,-19.7649391],[63.3792096,-19.7643131],[63.3798574,-19.763754],[63.3800532,-19.7637818],[63.3800626,-19.7640784],[63.380304,-19.7640317],[63.380823,-19.7631722],[63.3839263,-19.762526],[63.3854511,-19.7627519],[63.3860627,-19.7631179],[63.3867373,-19.7625235],[63.3870698,-19.7619467],[63.3877525,-19.7621978],[63.3878866,-19.7624982],[63.3882527,-19.7625348],[63.3884606,-19.7627317],[63.3898151,-19.7628642],[63.3900605,-19.7627267],[63.3899519,-19.7624263],[63.390153,-19.7623607],[63.3901879,-19.7620603],[63.390601,-19.7620451],[63.3906949,-19.7618445],[63.3916229,-19.7619707],[63.3924624,-19.7625475],[63.3931826,-19.7626825],[63.394973,-19.7636442],[63.3953847,-19.7634726],[63.3950615,-19.7626535],[63.3954558,-19.7623518],[63.3959185,-19.762372],[63.3972421,-19.7630422],[63.3983351,-19.761977],[63.3996239,-19.7617081],[63.399644,-19.7615756],[63.3993007,-19.7614065],[63.3970503,-19.7606808],[63.3964469,-19.7599424],[63.3961062,-19.7600623],[63.3959292,-19.7595247],[63.3960713,-19.7589605],[63.3968814,-19.758934],[63.3973132,-19.7587358],[63.3969243,-19.7582436],[63.3966547,-19.7581477],[63.39664,-19.7578119],[63.396876,-19.757692],[63.3978952,-19.7577791],[63.3969994,-19.7568615],[63.3966668,-19.7555779],[63.3969176,-19.7547739],[63.3976029,-19.7541794],[63.3972917,-19.7537856],[63.3973105,-19.7532126],[63.3969672,-19.7527923],[63.3962283,-19.7527973],[63.3958849,-19.7526193],[63.3955832,-19.7522975],[63.3955912,-19.7516904],[63.3957039,-19.7513761],[63.3963034,-19.7510138],[63.3967419,-19.7508712],[63.3978349,-19.7510517],[63.397847,-19.7508459],[63.3965877,-19.7507071],[63.3950669,-19.749821],[63.3937338,-19.7495976],[63.3933462,-19.749306],[63.3931786,-19.7487671],[63.3933583,-19.7485525],[63.3938169,-19.7485676],[63.3940825,-19.7483897],[63.3946069,-19.7485689],[63.3949341,-19.7484402],[63.3955711,-19.7477529],[63.396086,-19.7474449],[63.3958849,-19.747809],[63.3961496,-19.7475028],[63.3961464,-19.7478482],[63.3965944,-19.748266],[63.39699,-19.7480766],[63.3975103,-19.7481663],[63.397855,-19.7479794],[63.3987321,-19.7479971],[63.3998412,-19.7471199],[63.4016128,-19.7467627],[63.402105,-19.7471237],[63.4021962,-19.7474203],[63.4022123,-19.7468851],[63.4028023,-19.745816],[63.4035292,-19.7453641],[63.404189,-19.7454083],[63.4046826,-19.7449614],[63.4064072,-19.7455446],[63.4070899,-19.7455484],[63.4080461,-19.7451078],[63.4088883,-19.7443631],[63.4097801,-19.7443518],[63.4099142,-19.7444288],[63.4096581,-19.7448074],[63.4097345,-19.7449753],[63.4098324,-19.7447683],[63.4101114,-19.7448617],[63.4102763,-19.74443],[63.4115504,-19.7446585],[63.4121646,-19.7448756],[63.4122075,-19.7453237],[63.4134172,-19.7460634],[63.4135419,-19.7455913],[63.4140006,-19.7450864],[63.4143774,-19.7449639],[63.4167056,-19.7449374],[63.417128,-19.744252],[63.4180306,-19.7437698],[63.4185563,-19.743732],[63.4188554,-19.7433735],[63.4193087,-19.7432145],[63.4197915,-19.7434202],[63.4200302,-19.7438342],[63.4208992,-19.7441031],[63.4210011,-19.7445537],[63.4208697,-19.7449778],[63.421441,-19.7459573],[63.4221143,-19.7466516],[63.4224991,-19.7469015],[63.423686,-19.7470971],[63.4238215,-19.7469432],[63.4233011,-19.7462363],[63.4232019,-19.7451053],[63.4237745,-19.7447873],[63.4236941,-19.7450561],[63.4240374,-19.7451848],[63.425113,-19.744141],[63.4259981,-19.7439655],[63.4269449,-19.7441927],[63.4277429,-19.743891],[63.42829,-19.7439933],[63.4291376,-19.744459],[63.4295614,-19.7444729],[63.4304868,-19.7441498],[63.4304103,-19.7438771],[63.43059,-19.7432612],[63.4316133,-19.7430049],[63.4318212,-19.7428206],[63.4325768,-19.7429924],[63.4327733,-19.7432296],[63.4330925,-19.7432952],[63.4338221,-19.7428913],[63.435021,-19.7430453],[63.4354448,-19.7429191],[63.4364064,-19.7422135],[63.4371293,-19.7419989],[63.438402,-19.7420304],[63.4387359,-19.7421807],[63.4391785,-19.7420102],[63.4397028,-19.7427184],[63.4402983,-19.7428686],[63.4416354,-19.7422084],[63.4419237,-19.7416682],[63.4430435,-19.741364],[63.4448004,-19.7414195],[63.4453972,-19.7415937],[63.44553,-19.7417742],[63.4454025,-19.7423586],[63.4464499,-19.7444464],[63.4467731,-19.7446951],[63.4477361,-19.7448036],[63.4484696,-19.7444969],[63.4495144,-19.7448062],[63.4498858,-19.744637],[63.4520155,-19.7417666],[63.4527303,-19.7412705],[63.452965,-19.7413614],[63.4532091,-19.7408969],[63.454624,-19.7396649],[63.4549646,-19.7397432],[63.4556285,-19.7392433],[63.4560871,-19.7391789],[63.4578077,-19.7394503],[63.4607662,-19.7395816],[63.4615668,-19.7400524],[63.4634672,-19.7401724],[63.4650081,-19.7408199],[63.4659898,-19.7407164],[63.4668655,-19.7414712],[63.4679089,-19.741826],[63.4683864,-19.7417338],[63.4708057,-19.7396776],[63.4727933,-19.7372993],[63.4743101,-19.7364447],[63.4755988,-19.7350436],[63.4764249,-19.7347899],[63.4789905,-19.7332902],[63.4795592,-19.7322335],[63.4802538,-19.7321086],[63.4806172,-19.7316062],[63.4811537,-19.7312843],[63.482417,-19.7289767],[63.483058,-19.7283265],[63.4840693,-19.7278708],[63.4843965,-19.7279655],[63.4848377,-19.7286876],[63.4853876,-19.7281422],[63.4861574,-19.7276916],[63.4876259,-19.7262601],[63.4884681,-19.7258384],[63.4890783,-19.7258902],[63.4887806,-19.7264797],[63.4892164,-19.7265478],[63.4898749,-19.7254748],[63.4906916,-19.72486],[63.4913286,-19.7249989],[63.492144,-19.7243979],[63.4928012,-19.7230774],[63.493406,-19.722849],[63.4934637,-19.7226141],[63.4939076,-19.7223768],[63.4944601,-19.721204],[63.4950811,-19.7205501],[63.4952956,-19.7204933],[63.4962679,-19.7208114],[63.4965791,-19.7203784],[63.4973153,-19.7200211],[63.4978437,-19.7202294],[63.498643,-19.7199289],[63.4993994,-19.7187397],[63.4996247,-19.7186311],[63.5000136,-19.7187485],[63.5004737,-19.7183143],[63.5005501,-19.7179381],[63.5001008,-19.7178351],[63.5001095,-19.7176281],[63.500487,-19.7177789],[63.500872,-19.717654],[63.5008492,-19.7171238],[63.5014252,-19.7158682],[63.5010772,-19.7154812],[63.5014754,-19.7148424],[63.501336,-19.7146],[63.5014969,-19.714475],[63.5012904,-19.7143336],[63.5015183,-19.7141153],[63.5012595,-19.7137491],[63.5013628,-19.7136266],[63.5016216,-19.7137226],[63.5018496,-19.7133893],[63.5017584,-19.7123376],[63.5013006,-19.711887],[63.5014229,-19.7114358],[63.5018577,-19.7112898],[63.5019945,-19.7108656],[63.5018054,-19.7105095],[63.5019355,-19.7102002],[63.5017624,-19.7096472],[63.5013306,-19.7089061],[63.5013735,-19.7085437],[63.5011617,-19.7085336],[63.5012287,-19.7082041],[63.5008438,-19.707237],[63.5005836,-19.7069782],[63.500715,-19.7068241],[63.5002939,-19.7059593],[63.5002148,-19.7052484],[63.4999613,-19.705049],[63.4997548,-19.7043066],[63.4994544,-19.7042283],[63.4995905,-19.7040856],[63.4991741,-19.7041071],[63.4989569,-19.7044291],[63.498694,-19.7043141],[63.4983319,-19.7040326],[63.4979993,-19.7029821],[63.4977083,-19.7028382],[63.497373,-19.702967],[63.4973569,-19.703467],[63.4966301,-19.7032687],[63.4961271,-19.702712],[63.4959327,-19.7021021],[63.4961338,-19.700366],[63.4968366,-19.6982815],[63.4975299,-19.6979014],[63.4976046,-19.6953536],[63.4981989,-19.6916078],[63.4986704,-19.6902976],[63.4990925,-19.6898759],[63.5001585,-19.6903899],[63.5010475,-19.6905027],[63.5012661,-19.6903158],[63.5011789,-19.6902476],[63.5013954,-19.690227],[63.5014457,-19.6899998],[63.501112,-19.6893431],[63.5013051,-19.6889403],[63.5009725,-19.6884024],[63.5010383,-19.6878998],[63.5004059,-19.6870286],[63.5005541,-19.6868404],[63.4995449,-19.6862608],[63.4996562,-19.6860102],[63.4993961,-19.6856522],[63.4994712,-19.6853687],[63.4990412,-19.685177],[63.4982543,-19.683137],[63.4981271,-19.6830839],[63.4982808,-19.683787],[63.4979255,-19.6843781],[63.4980194,-19.6846622],[63.4979116,-19.6848945],[63.4973081,-19.6850258],[63.4963251,-19.6848819],[63.4949706,-19.6843238],[63.4942336,-19.6836973],[63.4938285,-19.6832126],[63.4936944,-19.6827327],[63.492761,-19.6815723],[63.4924163,-19.6812452],[63.4914413,-19.680826],[63.4911852,-19.6802893],[63.4902973,-19.6800974],[63.4897891,-19.6807149],[63.4894001,-19.6807704],[63.4881636,-19.6802779],[63.486793,-19.6794723],[63.4850255,-19.6792336],[63.4837742,-19.6784873],[63.4831654,-19.6783156],[63.482814,-19.6783674],[63.4821662,-19.6794483],[63.4815064,-19.6793662],[63.4799239,-19.6780492],[63.4799252,-19.6778231],[63.4801708,-19.6775616],[63.4792587,-19.6765931],[63.4793405,-19.67616],[63.4790267,-19.6762396],[63.478788,-19.6766866],[63.4778304,-19.6770932],[63.4766704,-19.6769632],[63.4757195,-19.6772246],[63.4751777,-19.6769303],[63.4745105,-19.6762042],[63.4730172,-19.6753089],[63.4707481,-19.6742822],[63.4692501,-19.6738769],[63.4675133,-19.6728022],[63.4656425,-19.6723716],[63.4641619,-19.671778],[63.462684,-19.6708928],[63.4620054,-19.670245],[63.4601748,-19.6700246],[63.4571352,-19.6677091],[63.4557512,-19.667819],[63.4546763,-19.6682212],[63.4536825,-19.6681676],[63.4536067,-19.6685104],[63.453883,-19.6694393],[63.4523535,-19.6698358],[63.4524346,-19.6707312],[63.452279,-19.6711612],[63.4514549,-19.6713051],[63.4508923,-19.671708],[63.4506067,-19.6723236],[63.4495606,-19.6736054],[63.4494641,-19.67406],[63.4489082,-19.6735397],[63.447158,-19.6729121],[63.4472613,-19.6718197],[63.4476757,-19.6708814],[63.4477897,-19.6701768],[63.4475376,-19.6687523],[63.4472311,-19.6684252],[63.4464446,-19.6687775],[63.4457418,-19.6694494],[63.4446046,-19.6699217],[63.4440212,-19.6697802],[63.4436484,-19.6694127],[63.4415053,-19.669092],[63.4404485,-19.6695138],[63.440026,-19.6699861],[63.4389813,-19.6703315],[63.4386018,-19.6707299],[63.4377938,-19.6711059],[63.4376761,-19.6710311],[63.4376308,-19.6713575],[63.4371521,-19.6720243],[63.4359129,-19.6728849],[63.4340454,-19.6738402],[63.4337403,-19.6742267],[63.43254,-19.674627],[63.4314886,-19.6752053],[63.4286293,-19.6759744],[63.4274331,-19.6769922],[63.4232052,-19.6788712],[63.421901,-19.6791415],[63.4211761,-19.6798044],[63.4213217,-19.6800544],[63.4211702,-19.6801789],[63.4197198,-19.6808796],[63.4194753,-19.6806086],[63.4186057,-19.6809558],[63.4181459,-19.6815963],[63.4181605,-19.682248],[63.4183954,-19.6826949],[63.418209,-19.6828956],[63.4181017,-19.6834752],[63.4184812,-19.6840763],[63.4183799,-19.6842373],[63.418048,-19.6842152],[63.4178361,-19.6838579],[63.4177047,-19.6825724],[63.4175102,-19.6824208],[63.4176564,-19.6822529],[63.4175129,-19.6817326],[63.4177208,-19.6816847],[63.4176631,-19.6814839],[63.4146939,-19.6815508],[63.4140193,-19.6817428],[63.4132831,-19.6822706],[63.4121445,-19.6832795],[63.4113519,-19.6843402],[63.411305,-19.6847108],[63.411594,-19.6855827],[63.4112339,-19.6871561],[63.4112687,-19.6878228],[63.4109133,-19.6878291],[63.4100363,-19.6882231],[63.4096152,-19.6886145],[63.4096527,-19.6889277],[63.4100684,-19.6893166],[63.4101999,-19.6896752],[63.410055,-19.6904202],[63.4093845,-19.6913419],[63.4092316,-19.693313],[63.409064,-19.6929708],[63.4091297,-19.6898734],[63.4073085,-19.6898715],[63.4074077,-19.6925617],[63.4073044,-19.6925743],[63.4072602,-19.6916273],[63.4066197,-19.6913013],[63.4054604,-19.6895072],[63.4055878,-19.6890804],[63.40665,-19.6880602],[63.4062463,-19.6865411],[63.4039919,-19.684618],[63.4027205,-19.6846483],[63.4020232,-19.6843187],[63.4015565,-19.6843162],[63.4013861,-19.6847014],[63.401024,-19.6849084],[63.4001161,-19.6849438],[63.3996387,-19.6851559],[63.3990486,-19.6857557],[63.3993879,-19.6864388],[63.399414,-19.6861851],[63.4001322,-19.6870059],[63.4003642,-19.6878228],[63.400214,-19.6886436],[63.3995461,-19.6891234],[63.3985497,-19.6891196],[63.3977437,-19.6884036],[63.3968572,-19.6885779],[63.3960244,-19.6880387],[63.3949167,-19.6889037],[63.3943869,-19.6903065],[63.3933542,-19.6913027],[63.3929922,-19.691251],[63.392449,-19.690857],[63.3922492,-19.6905502],[63.3922009,-19.6899643],[63.3913547,-19.6902813],[63.3907029,-19.6901222],[63.3901718,-19.6897674],[63.3897695,-19.6900641],[63.3890815,-19.690059],[63.3880569,-19.6906954],[63.3877873,-19.6912422],[63.3878477,-19.6925642],[63.388427,-19.693073],[63.3891593,-19.6933874],[63.3895402,-19.693818],[63.3913011,-19.696337],[63.3914124,-19.6971918],[63.3905929,-19.6979393],[63.3899881,-19.69814],[63.3898433,-19.6983812],[63.3883882,-19.6987751],[63.387715,-19.6986097],[63.3873958,-19.698029],[63.3867761,-19.6977638],[63.3861941,-19.6977524],[63.3849603,-19.6980996],[63.3844064,-19.6979153],[63.3841127,-19.6980277],[63.3841489,-19.6981842],[63.3839075,-19.6983926],[63.382962,-19.6986868],[63.3827367,-19.6992019],[63.382785,-19.699539],[63.3825312,-19.6994837],[63.3825155,-19.7000453],[63.3821574,-19.7004165],[63.3817363,-19.7005718],[63.381181,-19.7004706],[63.3812226,-19.7010769],[63.3814801,-19.7015478],[63.381165,-19.7021362],[63.3802785,-19.7024758],[63.3779785,-19.7022498],[63.3777532,-19.7025743],[63.3774313,-19.7025213],[63.3773676,-19.7027321],[63.3781596,-19.702871],[63.3786665,-19.7032751],[63.3789575,-19.7039291],[63.3791895,-19.7055742],[63.3793813,-19.7056146],[63.3794551,-19.705376],[63.3796844,-19.7059479],[63.379565,-19.7061057],[63.379396,-19.70578],[63.3790205,-19.7062661],[63.379038,-19.7064529],[63.379329,-19.7066663],[63.3786786,-19.7083203],[63.3786088,-19.7093543],[63.378481,-19.7094728],[63.378645,-19.71018],[63.378413,-19.7106257],[63.3776017,-19.7108491],[63.3774595,-19.7112961],[63.3777197,-19.7115082],[63.3776848,-19.7116483],[63.377324,-19.7117139],[63.3759762,-19.7114324],[63.3755001,-19.7115839],[63.3753446,-19.7112127],[63.374379,-19.7108782],[63.3740383,-19.7113453],[63.3738184,-19.7114034],[63.3737138,-19.7111155],[63.3734724,-19.7109968],[63.3734402,-19.7106395],[63.373628,-19.7102519],[63.3740517,-19.7100979],[63.3740987,-19.7097558],[63.373235,-19.7093252],[63.3727911,-19.708824],[63.3725269,-19.7090235],[63.3719891,-19.7088947],[63.371174,-19.7081778],[63.3704549,-19.7080337],[63.3695135,-19.7084276],[63.3690454,-19.7088379],[63.3687758,-19.7093442],[63.3687758,-19.7099313],[63.3683413,-19.7107873],[63.368277,-19.7112468],[63.3679752,-19.7114488],[63.3674844,-19.7124361],[63.3670954,-19.7127618],[63.3675259,-19.7130585],[63.3674508,-19.7132201],[63.36639,-19.712758],[63.36604,-19.7116508],[63.365411,-19.7105524],[63.3649658,-19.7103252],[63.3643207,-19.7104767],[63.3644494,-19.7109577],[63.3640833,-19.7118288],[63.364094,-19.7123692],[63.3647163,-19.7132933],[63.3646613,-19.7138615],[63.3644374,-19.7142478],[63.3637252,-19.7147427],[63.3634101,-19.7155242],[63.3633833,-19.7160203],[63.3628348,-19.7168283],[63.3621964,-19.7168637],[63.3621575,-19.7164433],[63.3617941,-19.7163195],[63.361723,-19.7166996],[63.362073,-19.7169407],[63.3609572,-19.7172058],[63.3601056,-19.7159749],[63.359832,-19.7158587],[63.3594981,-19.7150709],[63.3595249,-19.7148008],[63.3601928,-19.7138728],[63.3617619,-19.7141228],[63.3620287,-19.7139663],[63.3625612,-19.7128111],[63.3623104,-19.7121924],[63.361908,-19.7119917],[63.3616036,-19.7121457],[63.3610967,-19.7129512],[63.3603255,-19.7136115],[63.3585942,-19.7129588],[63.3584788,-19.7126545],[63.3578968,-19.7129247],[63.3577748,-19.7131482],[63.3571391,-19.712758],[63.3568145,-19.7127757],[63.3561802,-19.7136027],[63.356199,-19.7146],[63.3559817,-19.7150571],[63.3551851,-19.7155179],[63.3549879,-19.7154207],[63.3548176,-19.7145584],[63.352704,-19.7140976],[63.3509579,-19.7143602],[63.3507742,-19.7145495],[63.3500406,-19.7146657],[63.3496289,-19.7149371],[63.3495297,-19.7152149],[63.3496946,-19.7162829],[63.3494626,-19.7171919],[63.3488752,-19.717476],[63.3486056,-19.7177865],[63.3480853,-19.7179406],[63.3470848,-19.7172891],[63.3468434,-19.7165443],[63.3461769,-19.7158486],[63.3455023,-19.7155355],[63.3445233,-19.71434],[63.3444455,-19.7146228],[63.344066,-19.7148727],[63.3435604,-19.7160809],[63.3420677,-19.7169281],[63.3419015,-19.7177222],[63.3416359,-19.7181451],[63.3398911,-19.7172803],[63.3391656,-19.7175858],[63.3384266,-19.7184342],[63.3378312,-19.7186248],[63.3377836,-19.7190578],[63.3366738,-19.7191917],[63.3361159,-19.7196348],[63.3351262,-19.7199996],[63.335212,-19.7204251],[63.3346018,-19.7208846],[63.3345589,-19.7230434],[63.3340332,-19.7235181],[63.3341646,-19.7241379],[63.3344436,-19.7240382],[63.3345817,-19.7243235],[63.3343779,-19.7244573],[63.3345696,-19.7249193],[63.3341056,-19.7253069],[63.3340466,-19.7256301],[63.3356452,-19.7263673],[63.3358504,-19.72689],[63.3358182,-19.7280539],[63.3350672,-19.7291155],[63.3348486,-19.7292115],[63.33463,-19.7290146],[63.3344986,-19.7292595],[63.3350122,-19.7301242],[63.3349599,-19.7304575],[63.3354937,-19.7308803],[63.3357163,-19.73072],[63.3361454,-19.7296836],[63.3370493,-19.7295523],[63.3370681,-19.7290865],[63.3372733,-19.7289489],[63.338027,-19.7287318],[63.3384347,-19.7291572],[63.3381195,-19.7294539],[63.3383623,-19.7295852],[63.3387351,-19.7293617],[63.33831,-19.7303186],[63.3385876,-19.7313979],[63.338322,-19.7324154],[63.337681,-19.7325126],[63.3369072,-19.7329115],[63.3363198,-19.7327524],[63.3356774,-19.7327385],[63.3356251,-19.7328749],[63.3364053,-19.7332982],[63.3374275,-19.7333331],[63.3378433,-19.7335919],[63.3380444,-19.7343783],[63.3376032,-19.7345866],[63.3371311,-19.735137],[63.3372505,-19.7356078],[63.3380873,-19.7369535],[63.3389644,-19.7371908],[63.3392943,-19.7376945],[63.339057,-19.7384228],[63.3388263,-19.7386576],[63.3389564,-19.738775],[63.3389269,-19.7392004],[63.3386305,-19.7394074],[63.3379532,-19.7393632],[63.3373886,-19.7389075],[63.3360676,-19.7385023],[63.3349894,-19.7378611],[63.3341981,-19.7377336],[63.3329536,-19.7377134],[63.3318177,-19.7378901],[63.3311364,-19.738135],[63.3305986,-19.7385553],[63.3304685,-19.7390792],[63.3310868,-19.7413072],[63.3310881,-19.7424457],[63.3308883,-19.7433091],[63.3323622,-19.7435654],[63.3329415,-19.7438367],[63.3332124,-19.7441599],[63.3333881,-19.7447481],[63.333199,-19.7449841],[63.3332661,-19.7452013],[63.3337998,-19.7452618],[63.3339393,-19.7454512],[63.3335826,-19.7460608],[63.3337931,-19.7461454],[63.334115,-19.7459649],[63.3344194,-19.7461378],[63.3342504,-19.7463322],[63.3342035,-19.7470883],[63.3339742,-19.7474316],[63.3345786,-19.7486518],[63.3363761,-19.7489766],[63.3368549,-19.7494196],[63.3378178,-19.7487923],[63.3386868,-19.7487153],[63.3400534,-19.7496569],[63.3409426,-19.7494853],[63.3413315,-19.7497503],[63.3426592,-19.7498109],[63.3430669,-19.7502376],[63.3439118,-19.7496292],[63.3440727,-19.7496342],[63.3442685,-19.7499447],[63.3444133,-19.7497049],[63.3440727,-19.7494954],[63.3433579,-19.748478],[63.3428121,-19.7481044],[63.3419658,-19.7479914],[63.3418424,-19.7478217],[63.3416627,-19.7472953],[63.3418545,-19.746562],[63.342513,-19.7458437],[63.3432198,-19.7455698],[63.3436918,-19.7458071],[63.3440083,-19.7463398],[63.3446226,-19.7463638],[63.3454742,-19.745869],[63.34659,-19.7447153],[63.3466583,-19.7442546],[63.3464719,-19.7439504],[63.3465068,-19.7435792],[63.3470795,-19.7435944],[63.3477648,-19.7430718],[63.3496222,-19.7424722],[63.3505972,-19.7426578],[63.3506267,-19.7431917],[63.3509418,-19.7437686],[63.3508748,-19.7442659],[63.3510518,-19.7443619],[63.3515225,-19.7442419],[63.3519638,-19.7436525],[63.3533826,-19.743116],[63.3538561,-19.7421693],[63.3552517,-19.7412691],[63.355688,-19.7403415],[63.3555552,-19.7394756],[63.3558986,-19.73967],[63.3565007,-19.739492],[63.3573617,-19.7395336],[63.3584118,-19.7388848],[63.3584627,-19.7382095],[63.358165,-19.7376831],[63.358271,-19.7373044],[63.3589777,-19.7368967],[63.3595343,-19.7362302],[63.3594739,-19.7368007],[63.3596523,-19.7370317],[63.3603832,-19.7361948],[63.3609384,-19.7367578],[63.3614172,-19.7368929],[63.3612724,-19.7371845],[63.3614762,-19.7377614],[63.3618692,-19.7379999],[63.3611839,-19.739319],[63.3608218,-19.7395614],[63.3606219,-19.7401244],[63.3598495,-19.7406243],[63.3595289,-19.7412832],[63.3595571,-19.7415609],[63.3610135,-19.7438809],[63.3616827,-19.7443909],[63.3629139,-19.7448339],[63.3630922,-19.7453136],[63.362706,-19.7454259],[63.3626819,-19.7463259],[63.3616988,-19.7479353],[63.3608741,-19.7479693],[63.3605468,-19.747491],[63.3599138,-19.7473344],[63.3595705,-19.7463663],[63.3593747,-19.7449905],[63.3588879,-19.7452088],[63.3584292,-19.745662],[63.3580913,-19.7462742],[63.3579692,-19.7470517],[63.3576769,-19.7474595],[63.3564739,-19.7473395],[63.3544207,-19.7479391],[63.3537903,-19.7490145],[63.3540425,-19.749739],[63.3540706,-19.7507992],[63.3543134,-19.7519466],[63.354068,-19.7522218],[63.3539566,-19.7532706],[63.3537313,-19.7532504],[63.353671,-19.7538033],[63.3530259,-19.7546376],[63.3535704,-19.7553393],[63.3534014,-19.7557887],[63.3539459,-19.7559692],[63.3549142,-19.7580505],[63.3556652,-19.7587775],[63.3575696,-19.7613876],[63.3587404,-19.762237],[63.3587565,-19.7628743],[63.3593331,-19.7629311],[63.3596107,-19.7634524],[63.3601485,-19.7632328],[63.3602196,-19.7634436],[63.3599983,-19.7637086],[63.3600935,-19.7638272],[63.3616734,-19.7638853],[63.3625813,-19.7641352],[63.3640243,-19.7639269],[63.3645433,-19.7640809],[63.3648732,-19.7644141],[63.3647217,-19.7650919],[63.366496,-19.7657772],[63.3672805,-19.7658415],[63.3680718,-19.7661785]],[[63.4963199,-19.6865576],[63.4964537,-19.6866174],[63.4963891,-19.6867458],[63.4962552,-19.686686],[63.4963199,-19.6865576]]]}}]}