{"type":"FeatureCollection","features":[{"type":"Feature","properties":{"name":"Ahuas","admin":"municipio","source":"© OpenStreetMap contributors, ODbL 1.0","osm_relation":6050273},"geometry":{"type":"Polygon","coordinates":[[[-84.50616,15.43415],[-84.50597,15.43308],[-84.50557,15.43212],[-84.50491,15.43137],[-84.50415,15.43084],[-84.503,15.4304],[-84.5019,15.43019],[-84.50065,15.43035],[-84.49937,15.43081],[-84.49812,15.43108],[-84.49645,15.43123],[-84.49495,15.43116],[-84.49318,15.43087],[-84.49181,15.42985],[-84.49094,15.42852],[-84.48816,15.41952],[-84.48778,15.4155],[-84.48765,15.41447],[-84.48731,15.41376],[-84.48683,15.41295],[-84.48668,15.41214],[-84.48682,15.4114],[-84.48747,15.41086],[-84.48854,15.41056],[-84.4903,15.40999],[-84.49336,15.40822],[-84.43602,15.3463],[-84.43533,15.32188],[-84.43714,15.30558],[-84.42426,15.25325],[-84.40231,15.17982],[-84.39836,15.18018],[-84.39334,15.18043],[-84.38986,15.18043],[-84.38377,15.18387],[-84.38309,15.18206],[-84.38012,15.18291],[-84.37854,15.18316],[-84.37626,15.1828],[-84.37506,15.18316],[-84.3748,15.18591],[-84.37386,15.18842],[-84.36965,15.18958],[-84.36828,15.18852],[-84.36759,15.18871],[-84.36746,15.19029],[-84.36321,15.19095],[-84.35721,15.18968],[-84.35472,15.18852],[-84.3533,15.1915],[-84.35013,15.1965],[-84.34828,15.1968],[-84.34674,15.1963],[-84.34519,15.19683],[-84.34528,15.19857],[-84.34343,15.19974],[-84.34249,15.19904],[-84.34262,15.19523],[-84.34107,15.19651],[-84.34142,15.19829],[-84.34073,15.20259],[-84.34163,15.20428],[-84.34382,15.20358],[-84.34451,15.20442],[-84.34412,15.20726],[-84.34223,15.20889],[-84.34021,15.20996],[-84.33747,15.20929],[-84.33648,15.20935],[-84.33652,15.21179],[-84.33519,15.21192],[-84.33395,15.21047],[-84.33249,15.21045],[-84.33193,15.20917],[-84.33279,15.20831],[-84.33236,15.2074],[-84.3309,15.20677],[-84.3321,15.20533],[-84.3318,15.20449],[-84.32974,15.20364],[-84.32751,15.20364],[-84.32309,15.20475],[-84.32279,15.2062],[-84.32339,15.20823],[-84.3218,15.2083],[-84.3215,15.20917],[-84.31871,15.20906],[-84.31755,15.2095],[-84.31416,15.20972],[-84.31348,15.21161],[-84.31133,15.21196],[-84.30893,15.21397],[-84.3067,15.21647],[-84.30635,15.21795],[-84.30798,15.2178],[-84.30657,15.21916],[-84.30622,15.22326],[-84.30657,15.22471],[-84.30601,15.22851],[-84.30408,15.22703],[-84.30142,15.22855],[-84.29841,15.22855],[-84.29794,15.22997],[-84.29503,15.22956],[-84.29657,15.2284],[-84.29403,15.22847],[-84.2934,15.23105],[-84.29215,15.2317],[-84.28876,15.23096],[-84.28979,15.23502],[-84.28807,15.23519],[-84.28569,15.2354],[-84.28379,15.23775],[-84.28281,15.23727],[-84.27927,15.23551],[-84.27773,15.23799],[-84.27687,15.23617],[-84.26938,15.2382],[-84.2637,15.23974],[-84.26306,15.24335],[-84.2625,15.24653],[-84.26044,15.24636],[-84.25872,15.25034],[-84.25575,15.24859],[-84.25112,15.25555],[-84.24901,15.25684],[-84.24281,15.26065],[-84.24177,15.26129],[-84.24018,15.26226],[-84.24018,15.26667],[-84.24018,15.26773],[-84.24223,15.26809],[-84.24482,15.26855],[-84.24362,15.2717],[-84.24362,15.27816],[-84.24121,15.27766],[-84.24104,15.27882],[-84.24242,15.28015],[-84.24023,15.2831],[-84.23935,15.28428],[-84.23727,15.2871],[-84.23778,15.2929],[-84.2355,15.29347],[-84.23568,15.292],[-84.2353,15.29191],[-84.23482,15.2918],[-84.23452,15.29174],[-84.23399,15.29199],[-84.23312,15.29241],[-84.23407,15.29392],[-84.23388,15.2949],[-84.23057,15.29643],[-84.22639,15.30568],[-84.22542,15.30628],[-84.22566,15.30698],[-84.22551,15.30762],[-84.22528,15.30751],[-84.2242,15.30698],[-84.22315,15.30707],[-84.2231,15.3085],[-84.2231,15.30938],[-84.22164,15.30872],[-84.22102,15.30949],[-84.2196,15.30918],[-84.21883,15.30965],[-84.2188,15.30987],[-84.21877,15.31016],[-84.21874,15.31042],[-84.21916,15.31057],[-84.21951,15.31212],[-84.21985,15.31253],[-84.21968,15.31311],[-84.21957,15.31316],[-84.21878,15.3135],[-84.21844,15.31412],[-84.21921,15.31536],[-84.2193,15.31619],[-84.21844,15.31631],[-84.21861,15.31797],[-84.21754,15.31759],[-84.21693,15.31809],[-84.21661,15.31878],[-84.21569,15.3183],[-84.21421,15.31811],[-84.21375,15.31885],[-84.21385,15.31954],[-84.21415,15.32057],[-84.21209,15.3212],[-84.21219,15.32138],[-84.2134,15.32346],[-84.21449,15.32355],[-84.21481,15.32322],[-84.21535,15.32265],[-84.21557,15.32339],[-84.21464,15.32433],[-84.21387,15.32466],[-84.21398,15.32513],[-84.21552,15.32499],[-84.21557,15.32529],[-84.21441,15.32645],[-84.21329,15.32579],[-84.212,15.32611],[-84.21138,15.32649],[-84.21158,15.32703],[-84.2132,15.32757],[-84.21372,15.32871],[-84.2141,15.32899],[-84.21462,15.32935],[-84.21444,15.32946],[-84.21333,15.32978],[-84.21329,15.33014],[-84.21421,15.33063],[-84.21428,15.33067],[-84.21428,15.3309],[-84.21428,15.33138],[-84.21409,15.33139],[-84.21388,15.33141],[-84.21265,15.33129],[-84.21226,15.3315],[-84.21237,15.33352],[-84.21256,15.3344],[-84.21241,15.33445],[-84.21122,15.33465],[-84.21084,15.33502],[-84.21041,15.33541],[-84.21024,15.33556],[-84.21003,15.33575],[-84.21034,15.33591],[-84.21112,15.33586],[-84.21132,15.33638],[-84.21029,15.33674],[-84.21011,15.33709],[-84.21059,15.33717],[-84.21114,15.33726],[-84.21119,15.33779],[-84.20999,15.33796],[-84.21016,15.33841],[-84.21025,15.33844],[-84.21043,15.33849],[-84.21097,15.33866],[-84.2105,15.33924],[-84.20985,15.3394],[-84.20986,15.33978],[-84.21003,15.3399],[-84.21066,15.33997],[-84.21063,15.34032],[-84.21018,15.3408],[-84.20941,15.34081],[-84.20854,15.3406],[-84.20797,15.3409],[-84.20784,15.34218],[-84.20664,15.34098],[-84.20612,15.34197],[-84.20739,15.34291],[-84.2072,15.3433],[-84.20662,15.34374],[-84.20591,15.34395],[-84.20565,15.34403],[-84.20657,15.34471],[-84.20694,15.34549],[-84.2066,15.34603],[-84.20677,15.34777],[-84.2074,15.34759],[-84.20859,15.34725],[-84.20863,15.34749],[-84.2087,15.34785],[-84.2078,15.34839],[-84.20763,15.34917],[-84.20634,15.35044],[-84.20686,15.3506],[-84.20737,15.35075],[-84.20788,15.35091],[-84.20806,15.35097],[-84.20891,15.35125],[-84.20891,15.35215],[-84.20788,15.35331],[-84.20919,15.35483],[-84.20952,15.35601],[-84.2099,15.35588],[-84.2105,15.35451],[-84.21111,15.35448],[-84.21149,15.35505],[-84.21162,15.35716],[-84.21262,15.35803],[-84.21265,15.35836],[-84.21239,15.35861],[-84.2118,15.35892],[-84.21145,15.35956],[-84.21127,15.35964],[-84.21117,15.35947],[-84.21093,15.35849],[-84.21015,15.35751],[-84.2094,15.35747],[-84.20879,15.358],[-84.20863,15.35833],[-84.20895,15.35942],[-84.21138,15.36106],[-84.2109,15.36153],[-84.20925,15.36137],[-84.20908,15.36138],[-84.20848,15.36202],[-84.20887,15.36333],[-84.20836,15.36323],[-84.20754,15.36308],[-84.20668,15.36366],[-84.20696,15.36477],[-84.20704,15.36552],[-84.20685,15.36565],[-84.20612,15.36547],[-84.2054,15.36548],[-84.20518,15.36585],[-84.20533,15.36676],[-84.20527,15.36771],[-84.205,15.36777],[-84.20365,15.36659],[-84.20321,15.36684],[-84.20336,15.36737],[-84.20344,15.36762],[-84.20376,15.36871],[-84.20308,15.36883],[-84.202,15.36751],[-84.20177,15.36704],[-84.20135,15.36695],[-84.20119,15.36767],[-84.20196,15.3702],[-84.19955,15.37068],[-84.19909,15.37077],[-84.19681,15.37226],[-84.19479,15.37239],[-84.19429,15.37433],[-84.19287,15.37636],[-84.19139,15.37727],[-84.1912,15.37777],[-84.19091,15.37848],[-84.19033,15.37987],[-84.19051,15.38017],[-84.19072,15.38028],[-84.19205,15.38003],[-84.19322,15.38144],[-84.19368,15.38199],[-84.19379,15.38224],[-84.19372,15.38249],[-84.1936,15.38258],[-84.19262,15.38244],[-84.19192,15.38269],[-84.19154,15.38328],[-84.19159,15.38374],[-84.19269,15.38446],[-84.19332,15.38423],[-84.19379,15.38379],[-84.19452,15.38358],[-84.19477,15.38328],[-84.19444,15.38285],[-84.19438,15.38253],[-84.19468,15.38227],[-84.19501,15.38224],[-84.19533,15.38254],[-84.19552,15.38295],[-84.19568,15.38342],[-84.19565,15.38397],[-84.19499,15.3856],[-84.19357,15.38617],[-84.19345,15.38649],[-84.19344,15.38674],[-84.19364,15.38779],[-84.19369,15.38888],[-84.19345,15.38927],[-84.19299,15.38968],[-84.19288,15.3901],[-84.1931,15.3904],[-84.1947,15.3907],[-84.19485,15.391],[-84.19479,15.39126],[-84.19465,15.39152],[-84.19429,15.39202],[-84.19333,15.39265],[-84.19293,15.39328],[-84.19291,15.39434],[-84.19265,15.39532],[-84.19213,15.39567],[-84.19207,15.39595],[-84.19232,15.39634],[-84.19385,15.39643],[-84.19544,15.39712],[-84.19582,15.39703],[-84.19591,15.39668],[-84.19587,15.3959],[-84.19617,15.39569],[-84.19679,15.39627],[-84.19681,15.39686],[-84.19668,15.39734],[-84.19647,15.39789],[-84.19612,15.39835],[-84.19602,15.39872],[-84.19579,15.39929],[-84.1956,15.39962],[-84.19518,15.40011],[-84.19389,15.40115],[-84.19369,15.40117],[-84.19344,15.40089],[-84.19328,15.40044],[-84.19299,15.40014],[-84.19264,15.4001],[-84.19215,15.40018],[-84.19183,15.40043],[-84.19151,15.40105],[-84.19149,15.40218],[-84.19424,15.40206],[-84.19424,15.40388],[-84.19566,15.41974],[-84.1975,15.43298],[-84.19758,15.43932],[-84.19742,15.44021],[-84.1978,15.44093],[-84.19802,15.44301],[-84.19928,15.44422],[-84.19962,15.44497],[-84.19972,15.44916],[-84.19903,15.45024],[-84.19753,15.45198],[-84.19706,15.45401],[-84.19753,15.45539],[-84.19777,15.45739],[-84.19654,15.465],[-84.19903,15.47365],[-84.19533,15.53196],[-84.19001,15.54353],[-84.19315,15.59128],[-84.19933,15.6551],[-84.20722,15.6908],[-84.20067,15.73307],[-84.22131,15.74931],[-84.25113,15.77311],[-84.25392,15.77534],[-84.25511,15.7762],[-84.25598,15.7768],[-84.25656,15.77725],[-84.26038,15.78026],[-84.2614,15.78094],[-84.26209,15.78144],[-84.26845,15.78594],[-84.26959,15.78672],[-84.27236,15.78892],[-84.2733,15.78972],[-84.27454,15.79062],[-84.2757,15.79138],[-84.2767,15.79192],[-84.2771,15.79243],[-84.27869,15.79384],[-84.27966,15.7945],[-84.28051,15.79531],[-84.28538,15.79898],[-84.28633,15.80007],[-84.28664,15.80054],[-84.28691,15.80083],[-84.28706,15.80096],[-84.28721,15.80106],[-84.28768,15.80138],[-84.288,15.80158],[-84.28908,15.80263],[-84.2907,15.80427],[-84.29137,15.80495],[-84.29705,15.81117],[-84.29825,15.81072],[-84.29852,15.81021],[-84.29878,15.80953],[-84.29729,15.808],[-84.29709,15.80779],[-84.29617,15.80696],[-84.29496,15.80588],[-84.29388,15.80491],[-84.29242,15.80359],[-84.29096,15.80229],[-84.29038,15.80177],[-84.28875,15.79971],[-84.28816,15.79896],[-84.2871,15.79761],[-84.28704,15.79753],[-84.28661,15.797],[-84.28562,15.79574],[-84.28374,15.79492],[-84.28255,15.79405],[-84.28244,15.79231],[-84.2835,15.79087],[-84.28358,15.7908],[-84.28485,15.78963],[-84.28772,15.78777],[-84.29085,15.78533],[-84.29231,15.78329],[-84.29184,15.77992],[-84.28987,15.77645],[-84.28772,15.77542],[-84.28459,15.77447],[-84.28206,15.77201],[-84.28135,15.76817],[-84.28193,15.76543],[-84.28321,15.76353],[-84.28699,15.76006],[-84.29051,15.75725],[-84.29566,15.75512],[-84.29824,15.75444],[-84.30135,15.75403],[-84.30299,15.75372],[-84.30394,15.75308],[-84.30443,15.75191],[-84.30404,15.75036],[-84.30338,15.74891],[-84.30246,15.74733],[-84.30209,15.74624],[-84.30196,15.74501],[-84.30218,15.74358],[-84.30268,15.74203],[-84.30388,15.73948],[-84.30559,15.73681],[-84.30623,15.73524],[-84.30673,15.73239],[-84.30627,15.72788],[-84.30609,15.72407],[-84.30655,15.72238],[-84.30762,15.72139],[-84.30906,15.72073],[-84.31282,15.7198],[-84.31402,15.71984],[-84.315,15.7202],[-84.31747,15.72269],[-84.31945,15.72425],[-84.32055,15.72457],[-84.3217,15.72444],[-84.32234,15.72327],[-84.32197,15.71824],[-84.32116,15.71583],[-84.32112,15.71465],[-84.32198,15.71296],[-84.32503,15.70869],[-84.32599,15.70831],[-84.32755,15.7083],[-84.3297,15.70925],[-84.33344,15.71128],[-84.33539,15.71401],[-84.33663,15.71524],[-84.3379,15.7154],[-84.3395,15.71488],[-84.34029,15.7135],[-84.33997,15.71149],[-84.33877,15.70997],[-84.33778,15.70838],[-84.33688,15.70686],[-84.33662,15.70497],[-84.33703,15.70318],[-84.33836,15.70286],[-84.3415,15.70219],[-84.34378,15.70085],[-84.34398,15.69995],[-84.34476,15.69885],[-84.34631,15.69706],[-84.34807,15.69713],[-84.34931,15.69872],[-84.34919,15.70008],[-84.34864,15.70176],[-84.34832,15.70417],[-84.34873,15.70574],[-84.35055,15.7067],[-84.35279,15.70619],[-84.35419,15.70496],[-84.35496,15.70289],[-84.35463,15.70088],[-84.35186,15.69837],[-84.35094,15.69497],[-84.34946,15.69376],[-84.348,15.69321],[-84.34404,15.6931],[-84.34402,15.69216],[-84.34553,15.69087],[-84.3469,15.68908],[-84.34756,15.68628],[-84.34781,15.6831],[-84.34943,15.68147],[-84.35087,15.68065],[-84.35119,15.6815],[-84.35173,15.68237],[-84.35054,15.68548],[-84.34896,15.68777],[-84.34988,15.68974],[-84.3518,15.69063],[-84.35356,15.6903],[-84.35439,15.68942],[-84.35533,15.68833],[-84.3562,15.68496],[-84.35855,15.68122],[-84.35964,15.68005],[-84.36498,15.67856],[-84.36707,15.6787],[-84.37035,15.68027],[-84.37165,15.68141],[-84.37225,15.68248],[-84.37254,15.68404],[-84.37273,15.68444],[-84.37331,15.68493],[-84.37427,15.68518],[-84.37528,15.68516],[-84.37633,15.68479],[-84.3776,15.68385],[-84.38036,15.68157],[-84.38176,15.68045],[-84.38272,15.67944],[-84.38343,15.67822],[-84.38383,15.67714],[-84.38426,15.67556],[-84.38448,15.67449],[-84.3847,15.67302],[-84.3846,15.67188],[-84.38434,15.67073],[-84.38385,15.66965],[-84.38316,15.66876],[-84.38232,15.66801],[-84.38134,15.66723],[-84.38025,15.6666],[-84.37892,15.66631],[-84.37777,15.66627],[-84.37644,15.66649],[-84.37556,15.66697],[-84.37101,15.66991],[-84.36919,15.67127],[-84.36711,15.67432],[-84.36545,15.67483],[-84.36389,15.67485],[-84.36116,15.67395],[-84.35868,15.67083],[-84.35655,15.66886],[-84.35577,15.66685],[-84.35613,15.6647],[-84.35751,15.66322],[-84.3596,15.66266],[-84.36178,15.66319],[-84.36493,15.66532],[-84.36732,15.66647],[-84.36995,15.6668],[-84.37246,15.66575],[-84.37466,15.66401],[-84.37653,15.65927],[-84.37863,15.6567],[-84.38066,15.65505],[-84.38346,15.65361],[-84.38855,15.65249],[-84.39475,15.65084],[-84.39747,15.64743],[-84.39844,15.64544],[-84.3985,15.64371],[-84.39717,15.64194],[-84.39488,15.64093],[-84.39144,15.64095],[-84.38975,15.64162],[-84.38744,15.64228],[-84.38491,15.64239],[-84.38006,15.64115],[-84.37587,15.63814],[-84.36958,15.63468],[-84.36882,15.63334],[-84.36891,15.63202],[-84.37332,15.63156],[-84.37972,15.63046],[-84.38775,15.62979],[-84.39022,15.62857],[-84.39059,15.62644],[-84.38932,15.62493],[-84.38538,15.62439],[-84.38144,15.62341],[-84.37992,15.62137],[-84.37885,15.619],[-84.37957,15.61722],[-84.38147,15.61554],[-84.38224,15.61467],[-84.38287,15.61356],[-84.38336,15.61202],[-84.38364,15.61047],[-84.38339,15.60928],[-84.38295,15.60818],[-84.38146,15.60634],[-84.37963,15.60542],[-84.37759,15.60516],[-84.37598,15.60536],[-84.3749,15.60589],[-84.36926,15.60863],[-84.36629,15.60778],[-84.36547,15.60671],[-84.36577,15.60489],[-84.36817,15.60285],[-84.36886,15.60266],[-84.37643,15.59996],[-84.37881,15.59881],[-84.38111,15.59697],[-84.38126,15.59656],[-84.38118,15.59602],[-84.38106,15.59556],[-84.38083,15.59517],[-84.37751,15.59392],[-84.36606,15.59192],[-84.36549,15.59079],[-84.36599,15.58993],[-84.3743,15.59084],[-84.37697,15.59116],[-84.37837,15.59072],[-84.37903,15.59001],[-84.38002,15.58923],[-84.38072,15.58769],[-84.38098,15.58619],[-84.38054,15.58478],[-84.37896,15.58345],[-84.37686,15.58304],[-84.37385,15.58247],[-84.37081,15.58195],[-84.36971,15.58038],[-84.36876,15.57906],[-84.36824,15.57738],[-84.36805,15.57456],[-84.36823,15.57279],[-84.36881,15.57067],[-84.36941,15.56893],[-84.3717,15.565],[-84.37271,15.56285],[-84.37381,15.56152],[-84.37466,15.56068],[-84.3756,15.56002],[-84.37746,15.55893],[-84.37831,15.55834],[-84.37884,15.55777],[-84.37887,15.55706],[-84.37841,15.5563],[-84.37772,15.55575],[-84.37628,15.55522],[-84.37497,15.55448],[-84.37402,15.55341],[-84.37253,15.55124],[-84.37192,15.55079],[-84.37095,15.55059],[-84.36992,15.55065],[-84.36878,15.55111],[-84.36761,15.55203],[-84.36652,15.55342],[-84.36528,15.55477],[-84.36341,15.55617],[-84.3622,15.5569],[-84.36139,15.55719],[-84.36052,15.55732],[-84.35947,15.55718],[-84.35855,15.55688],[-84.35688,15.55577],[-84.35532,15.55441],[-84.35484,15.55368],[-84.35439,15.55235],[-84.35418,15.55092],[-84.35394,15.54952],[-84.35314,15.54725],[-84.35262,15.54524],[-84.3524,15.54384],[-84.35239,15.54244],[-84.35256,15.54107],[-84.35265,15.53974],[-84.35242,15.53854],[-84.35217,15.53753],[-84.35208,15.5371],[-84.35197,15.53654],[-84.35228,15.53577],[-84.35336,15.53518],[-84.35783,15.53557],[-84.36122,15.53481],[-84.36229,15.53338],[-84.36151,15.53187],[-84.35705,15.53023],[-84.35406,15.52892],[-84.35349,15.52867],[-84.35325,15.52843],[-84.35189,15.52708],[-84.35156,15.52597],[-84.35161,15.52581],[-84.35191,15.52485],[-84.35372,15.52376],[-84.35649,15.5232],[-84.36107,15.52346],[-84.3618,15.5235],[-84.36401,15.52361],[-84.36567,15.52325],[-84.36684,15.52229],[-84.36741,15.52068],[-84.36728,15.51907],[-84.36583,15.51725],[-84.36203,15.51452],[-84.35919,15.50848],[-84.35934,15.50676],[-84.35962,15.50367],[-84.36113,15.50035],[-84.36235,15.49901],[-84.36338,15.49803],[-84.36482,15.49774],[-84.36576,15.49793],[-84.36616,15.49801],[-84.3664,15.49806],[-84.36743,15.49881],[-84.36789,15.49992],[-84.36764,15.50108],[-84.36685,15.50262],[-84.36682,15.50467],[-84.36752,15.50617],[-84.3706,15.50843],[-84.37146,15.50919],[-84.37247,15.51079],[-84.37343,15.51214],[-84.3735,15.51223],[-84.3742,15.51264],[-84.37599,15.51367],[-84.37609,15.51372],[-84.37911,15.51394],[-84.38058,15.51322],[-84.38099,15.5113],[-84.38094,15.50959],[-84.37957,15.50521],[-84.37996,15.50293],[-84.38135,15.50062],[-84.38303,15.49924],[-84.38505,15.49794],[-84.38674,15.49777],[-84.38816,15.49843],[-84.39124,15.50245],[-84.39361,15.50303],[-84.39569,15.50232],[-84.39644,15.50021],[-84.39588,15.4987],[-84.3945,15.49812],[-84.39018,15.49732],[-84.38763,15.4951],[-84.38707,15.49346],[-84.38718,15.49163],[-84.38836,15.49032],[-84.38982,15.49019],[-84.39204,15.49057],[-84.395,15.4902],[-84.39674,15.48894],[-84.3974,15.48681],[-84.39596,15.4819],[-84.39637,15.47942],[-84.39868,15.47689],[-84.40069,15.4749],[-84.40259,15.47465],[-84.40447,15.47506],[-84.41057,15.48096],[-84.41765,15.48349],[-84.42566,15.4833],[-84.42814,15.48239],[-84.43375,15.47926],[-84.43598,15.47982],[-84.43859,15.4819],[-84.44012,15.48261],[-84.44224,15.48269],[-84.4442,15.48227],[-84.4455,15.48105],[-84.44635,15.47936],[-84.44638,15.47774],[-84.44459,15.47474],[-84.44296,15.46969],[-84.44442,15.46465],[-84.44638,15.46304],[-84.44932,15.46349],[-84.45063,15.46372],[-84.45223,15.46307],[-84.45288,15.4612],[-84.45264,15.45937],[-84.45163,15.45869],[-84.44707,15.45646],[-84.44641,15.4553],[-84.44617,15.45426],[-84.4473,15.45275],[-84.45211,15.45058],[-84.45489,15.44727],[-84.4629,15.43926],[-84.46311,15.43918],[-84.46343,15.43917],[-84.46397,15.43919],[-84.46439,15.43932],[-84.46477,15.4395],[-84.46512,15.43989],[-84.46541,15.44027],[-84.46567,15.44066],[-84.46588,15.44112],[-84.46618,15.44164],[-84.46631,15.44227],[-84.46626,15.44304],[-84.46616,15.44354],[-84.46578,15.44434],[-84.46531,15.44486],[-84.46481,15.44521],[-84.46289,15.44678],[-84.46251,15.44719],[-84.46219,15.44762],[-84.46175,15.44827],[-84.46155,15.44916],[-84.46156,15.44979],[-84.46157,15.45039],[-84.46182,15.45108],[-84.46205,15.4516],[-84.46307,15.45255],[-84.46394,15.45301],[-84.46498,15.45337],[-84.46632,15.45351],[-84.46679,15.4535],[-84.46743,15.45321],[-84.46836,15.4527],[-84.46936,15.45213],[-84.47066,15.45161],[-84.4716,15.45145],[-84.47245,15.45142],[-84.47315,15.45154],[-84.4738,15.45173],[-84.47445,15.45197],[-84.47557,15.45252],[-84.47771,15.45367],[-84.48229,15.45546],[-84.48375,15.45499],[-84.48479,15.45349],[-84.48499,15.45145],[-84.48579,15.45025],[-84.48681,15.44969],[-84.49008,15.44943],[-84.4918,15.44866],[-84.49197,15.4471],[-84.49171,15.44645],[-84.48966,15.44496],[-84.4879,15.44358],[-84.48694,15.44233],[-84.48639,15.44107],[-84.48633,15.43979],[-84.48669,15.43899],[-84.48686,15.43867],[-84.48813,15.43775],[-84.48932,15.4376],[-84.49063,15.43782],[-84.49452,15.44032],[-84.49598,15.44081],[-84.49849,15.44008],[-84.5004,15.43921],[-84.50265,15.43833],[-84.50427,15.43791],[-84.50528,15.43693],[-84.50602,15.43573],[-84.50616,15.43415]]]}}]}