{"type":"FeatureCollection","features":[{"type":"Feature","properties":{"name":"Balabac","admin":"municipality","source":"© OpenStreetMap contributors, ODbL 1.0","osm_relation":7547354},"geometry":{"type":"Polygon","coordinates":[[[116.79303,7.93893],[116.79304,7.93267],[116.79305,7.93256],[116.7933,7.927],[116.79379,7.92145],[116.7945,7.91593],[116.79545,7.91044],[116.79662,7.90499],[116.79802,7.8996],[116.79964,7.89427],[116.80149,7.889],[116.80169,7.8885],[116.80182,7.8878],[116.80304,7.8825],[116.80448,7.87725],[116.80613,7.87207],[116.80798,7.86696],[116.81005,7.86192],[116.81231,7.85698],[116.81237,7.85685],[116.81467,7.85232],[116.81714,7.84787],[116.81977,7.84352],[116.82257,7.83927],[116.82552,7.83512],[116.82864,7.83109],[116.82878,7.83091],[116.83174,7.82735],[116.83482,7.82389],[116.83802,7.82054],[116.83826,7.8203],[116.84196,7.81668],[116.8458,7.81321],[116.84978,7.80989],[116.85388,7.80672],[116.85396,7.80666],[116.85655,7.80481],[116.85898,7.8005],[116.8612,7.79691],[116.86127,7.79662],[116.86139,7.79618],[116.86182,7.79458],[116.8621,7.79354],[116.86229,7.79232],[116.86325,7.78736],[116.86334,7.78698],[116.86384,7.7842],[116.86502,7.77886],[116.86642,7.77358],[116.86803,7.76835],[116.86985,7.76319],[116.8699,7.76306],[116.87186,7.75816],[116.874,7.75334],[116.87634,7.74861],[116.87886,7.74398],[116.88156,7.73944],[116.88443,7.73501],[116.88748,7.7307],[116.8907,7.72651],[116.89407,7.72244],[116.89415,7.72235],[116.89784,7.71826],[116.90169,7.71432],[116.9057,7.71054],[116.90986,7.70693],[116.91416,7.70348],[116.9186,7.70021],[116.92317,7.69713],[116.92787,7.69423],[116.93268,7.69152],[116.93759,7.689],[116.94261,7.68669],[116.94772,7.68458],[116.94788,7.68452],[116.95183,7.68306],[116.95498,7.68156],[116.96003,7.6794],[116.96516,7.67744],[116.97037,7.67569],[116.97565,7.67415],[116.98099,7.67282],[116.98637,7.6717],[116.9918,7.67081],[116.99386,7.67055],[116.99394,7.67053],[116.99432,7.67047],[116.99993,7.66969],[117.00557,7.66913],[117.01123,7.66881],[117.0169,7.66872],[117.02256,7.66886],[117.02262,7.66886],[117.02787,7.66921],[117.0331,7.66975],[117.03831,7.6705],[117.04348,7.67144],[117.04371,7.67149],[117.04756,7.67214],[117.05291,7.67328],[117.05821,7.67462],[117.06346,7.67617],[117.06361,7.67622],[117.0686,7.67792],[117.07352,7.6798],[117.07836,7.68187],[117.08312,7.68413],[117.08779,7.68657],[117.09235,7.68918],[117.09682,7.69197],[117.10008,7.69419],[117.10046,7.69443],[117.105,7.69754],[117.10509,7.69761],[117.10954,7.70094],[117.11384,7.70444],[117.118,7.70812],[117.122,7.71196],[117.12584,7.71596],[117.12724,7.71754],[117.13021,7.71524],[117.13467,7.71208],[117.13925,7.7091],[117.14395,7.70631],[117.14405,7.70625],[117.14519,7.70561],[117.14528,7.70556],[117.15025,7.70293],[117.15533,7.70051],[117.16051,7.69829],[117.16577,7.69629],[117.17111,7.69451],[117.17652,7.69295],[117.182,7.69161],[117.18752,7.6905],[117.18764,7.69048],[117.19273,7.68966],[117.19785,7.68903],[117.20299,7.6886],[117.20814,7.68835],[117.21329,7.68831],[117.21375,7.68832],[117.21761,7.688],[117.22383,7.68776],[117.23005,7.6878],[117.23018,7.68781],[117.23042,7.68782],[117.23567,7.68808],[117.2409,7.68854],[117.2461,7.6892],[117.25128,7.69006],[117.25505,7.69084],[117.25157,7.68983],[117.24629,7.68806],[117.24109,7.68609],[117.24102,7.68606],[117.23599,7.68392],[117.23106,7.68157],[117.22623,7.67904],[117.2215,7.67631],[117.21689,7.6734],[117.2124,7.6703],[117.21215,7.67013],[117.20776,7.66683],[117.20351,7.66337],[117.1994,7.65973],[117.19545,7.65594],[117.19165,7.65198],[117.18802,7.64788],[117.18455,7.64364],[117.18127,7.63926],[117.17816,7.63475],[117.17524,7.63013],[117.17252,7.62539],[117.17243,7.62523],[117.16997,7.62053],[117.1677,7.61574],[117.16562,7.61086],[117.16374,7.60591],[117.16205,7.60088],[117.16056,7.5958],[117.15928,7.59066],[117.1582,7.58547],[117.15733,7.58025],[117.15666,7.57499],[117.1565,7.57309],[117.41588,7.41796],[117.41701,7.41921],[117.42035,7.4232],[117.42109,7.42412],[117.42429,7.42825],[117.42732,7.4325],[117.43018,7.43686],[117.43288,7.44133],[117.433,7.44156],[117.43603,7.4471],[117.43879,7.45278],[117.43892,7.45306],[117.44092,7.45766],[117.44102,7.4579],[117.44298,7.46295],[117.44325,7.46367],[117.445,7.46878],[117.44655,7.47395],[117.44789,7.47918],[117.44902,7.48446],[117.44993,7.48978],[117.45063,7.49514],[117.4507,7.49582],[117.45124,7.50213],[117.45149,7.50846],[117.45149,7.50884],[117.45146,7.51416],[117.45122,7.51948],[117.45077,7.52478],[117.45011,7.53006],[117.44924,7.53531],[117.44816,7.54052],[117.44688,7.54568],[117.44538,7.5508],[117.44369,7.55584],[117.4434,7.55667],[117.44316,7.55737],[117.44142,7.56202],[117.4395,7.56661],[117.43742,7.57112],[117.43585,7.57421],[117.43555,7.57679],[117.43474,7.58205],[117.43372,7.58728],[117.43249,7.59246],[117.43105,7.59759],[117.42941,7.60266],[117.42758,7.60766],[117.42554,7.61258],[117.42331,7.61742],[117.42089,7.62217],[117.41828,7.62683],[117.41549,7.63137],[117.41252,7.63581],[117.40937,7.64012],[117.40606,7.64431],[117.40258,7.64836],[117.39894,7.65228],[117.39515,7.65605],[117.39121,7.65967],[117.38713,7.66313],[117.38292,7.66643],[117.37858,7.66956],[117.37412,7.67252],[117.36954,7.67531],[117.36486,7.67791],[117.36007,7.68033],[117.35519,7.68255],[117.35023,7.68459],[117.34519,7.68643],[117.34008,7.68807],[117.33491,7.68951],[117.33485,7.68953],[117.3343,7.68966],[117.33367,7.68986],[117.33339,7.68993],[117.33226,7.69027],[117.32686,7.69175],[117.32141,7.69301],[117.31591,7.69404],[117.31567,7.69408],[117.31445,7.69428],[117.31403,7.69435],[117.30707,7.69527],[117.30692,7.69528],[117.30133,7.69576],[117.29571,7.69601],[117.2901,7.69602],[117.28449,7.69581],[117.27889,7.69537],[117.27881,7.69536],[117.27328,7.6947],[117.26778,7.69381],[117.26357,7.69296],[117.26656,7.69382],[117.27154,7.69545],[117.27646,7.69728],[117.2813,7.69929],[117.28606,7.70149],[117.29072,7.70387],[117.2953,7.70642],[117.29977,7.70915],[117.2999,7.70923],[117.30448,7.71227],[117.30893,7.7155],[117.31325,7.71891],[117.31742,7.72248],[117.32145,7.72622],[117.32532,7.73012],[117.32902,7.73417],[117.33256,7.73837],[117.33592,7.7427],[117.33911,7.74717],[117.34211,7.75176],[117.34491,7.75646],[117.34496,7.75654],[117.34758,7.76137],[117.35,7.7663],[117.35222,7.77133],[117.35423,7.77644],[117.35602,7.78163],[117.35761,7.78689],[117.35897,7.7922],[117.36012,7.79757],[117.36104,7.80298],[117.36175,7.80842],[117.36223,7.81389],[117.36248,7.81937],[117.36248,7.81944],[117.36252,7.82464],[117.36235,7.82984],[117.36198,7.83502],[117.3614,7.84019],[117.36063,7.84533],[117.35966,7.85044],[117.35849,7.85551],[117.35712,7.86052],[117.35556,7.86549],[117.35381,7.87039],[117.35229,7.87415],[117.35312,7.87667],[117.35453,7.88163],[117.35575,7.88664],[117.35579,7.8868],[117.35694,7.89255],[117.35784,7.89835],[117.35848,7.90417],[117.35853,7.90472],[117.3589,7.91018],[117.35905,7.91564],[117.35897,7.92111],[117.35867,7.92658],[117.35814,7.93202],[117.35739,7.93744],[117.35643,7.94283],[117.35524,7.94817],[117.35522,7.94824],[117.35385,7.95342],[117.35227,7.95853],[117.35049,7.96358],[117.3485,7.96856],[117.34632,7.97346],[117.34395,7.97826],[117.34296,7.98007],[117.34316,7.98078],[117.34323,7.98101],[117.34455,7.98624],[117.34566,7.99152],[117.34655,7.99684],[117.34723,8.00219],[117.3477,8.00756],[117.34771,8.00782],[117.34796,8.01325],[117.34797,8.01352],[117.34799,8.01919],[117.34777,8.02486],[117.34731,8.03052],[117.34661,8.03615],[117.34568,8.04174],[117.34559,8.04221],[117.34435,8.04802],[117.34379,8.05018],[117.34746,8.05158],[117.35232,8.05364],[117.35709,8.05589],[117.36178,8.05832],[117.36636,8.06093],[117.37001,8.0632],[117.37182,8.0638],[117.37677,8.06553],[117.38165,8.06746],[117.38644,8.06957],[117.38701,8.06983],[117.3874,8.06999],[117.39203,8.07204],[117.39659,8.07426],[117.40106,8.07665],[117.40544,8.0792],[117.40971,8.08191],[117.41241,8.08369],[117.41699,8.08685],[117.42144,8.09019],[117.42575,8.09371],[117.42991,8.09741],[117.43391,8.10126],[117.43774,8.10528],[117.44141,8.10945],[117.4449,8.11376],[117.44822,8.11821],[117.4486,8.11878],[117.45151,8.12223],[117.45469,8.1263],[117.4577,8.13048],[117.46055,8.13477],[117.46323,8.13917],[117.46575,8.14367],[117.46676,8.14555],[117.46908,8.15012],[117.47123,8.15477],[117.47321,8.1595],[117.475,8.1643],[117.4766,8.16916],[117.47802,8.17408],[117.47924,8.17904],[117.48028,8.18405],[117.48089,8.18733],[117.48175,8.19245],[117.4824,8.1976],[117.48286,8.20277],[117.48306,8.20694],[117.48478,8.20652],[117.49009,8.20542],[117.49544,8.20454],[117.50081,8.20387],[117.50622,8.2034],[117.51163,8.20316],[117.51705,8.20312],[117.52247,8.2033],[117.52787,8.20369],[117.53326,8.20429],[117.53862,8.20511],[117.54394,8.20614],[117.54921,8.20737],[117.55444,8.20881],[117.55609,8.2093],[117.56126,8.21095],[117.56637,8.2128],[117.5714,8.21486],[117.57634,8.21711],[117.58119,8.21955],[117.58593,8.22219],[117.59057,8.22501],[117.5908,8.22516],[117.59614,8.22873],[117.59698,8.22932],[117.60088,8.23217],[117.60467,8.23515],[117.6049,8.23534],[117.60713,8.2372],[117.60734,8.23737],[117.61161,8.24117],[117.61572,8.24515],[117.61966,8.24929],[117.6214,8.25129],[117.62362,8.25372],[117.62705,8.25778],[117.63032,8.26198],[117.63341,8.26629],[117.63634,8.27073],[117.63908,8.27527],[117.63917,8.27543],[117.64173,8.28008],[117.64411,8.28482],[117.6463,8.28965],[117.64829,8.29456],[117.65009,8.29955],[117.65169,8.3046],[117.65308,8.30971],[117.65428,8.31488],[117.65526,8.32008],[117.65604,8.32532],[117.65662,8.33058],[117.65698,8.33586],[117.65713,8.34115],[117.6571,8.34411],[117.65708,8.34645],[117.65681,8.35174],[117.65633,8.35701],[117.65565,8.36226],[117.65475,8.36748],[117.65366,8.37266],[117.65235,8.3778],[117.65232,8.37792],[117.65078,8.38311],[117.64902,8.38824],[117.64895,8.38844],[117.64712,8.39318],[117.64511,8.39786],[117.64292,8.40246],[117.64056,8.40697],[117.63802,8.41139],[117.63533,8.41571],[117.63246,8.41993],[117.62944,8.42404],[117.62627,8.42803],[117.62571,8.42869],[117.51493,8.4182],[117.46395,8.38202],[117.41432,8.34331],[117.37111,8.40059],[117.36729,8.39953],[117.3563,8.39579],[117.34892,8.39121],[117.33999,8.38849],[117.33004,8.38237],[117.32386,8.37779],[117.32025,8.37201],[117.31562,8.36675],[117.31132,8.36318],[117.30703,8.3586],[117.30223,8.35639],[117.29605,8.35452],[117.28935,8.35588],[117.28197,8.35792],[117.27682,8.35962],[117.27064,8.36115],[117.26463,8.36199],[117.25862,8.36149],[117.25021,8.35962],[117.24931,8.3593],[117.24335,8.35724],[117.23545,8.35163],[117.2279,8.34705],[117.22446,8.34229],[117.22103,8.3355],[117.21528,8.32791],[117.20879,8.32232],[117.20003,8.31596],[117.18498,8.31954],[117.17373,8.3203],[117.16184,8.32041],[117.14967,8.32987],[117.1353,8.34095],[117.08677,8.37628],[117.04731,8.40193],[117.04695,8.40161],[117.04311,8.39774],[117.03942,8.39372],[117.03631,8.39005],[117.03553,8.38939],[117.035,8.38895],[117.03105,8.38541],[117.03026,8.38466],[117.02543,8.37992],[117.02292,8.37733],[117.01942,8.37356],[117.01606,8.36967],[117.01286,8.36566],[117.00987,8.36162],[117.00578,8.35905],[117.00563,8.35895],[117.00345,8.35748],[117.00332,8.35739],[116.99742,8.3531],[116.99731,8.35302],[116.99232,8.34899],[116.98752,8.34473],[116.98741,8.34462],[116.98342,8.34075],[116.98293,8.34025],[116.97912,8.33624],[116.97548,8.33208],[116.97541,8.33199],[116.97252,8.32842],[116.96976,8.32476],[116.96968,8.32466],[116.96662,8.32028],[116.96373,8.31578],[116.96103,8.31117],[116.95851,8.30646],[116.95843,8.30632],[116.95757,8.3045],[116.95654,8.30409],[116.95174,8.30196],[116.94702,8.29965],[116.9424,8.29715],[116.93788,8.29448],[116.93346,8.29164],[116.92916,8.28864],[116.92498,8.28547],[116.92093,8.28215],[116.91701,8.27867],[116.91323,8.27504],[116.90959,8.27128],[116.90611,8.26737],[116.90277,8.26334],[116.8996,8.25918],[116.89659,8.25491],[116.89375,8.25052],[116.89109,8.24603],[116.89075,8.24543],[116.88817,8.24066],[116.88579,8.2358],[116.8836,8.23084],[116.88162,8.22581],[116.87985,8.22069],[116.87828,8.21551],[116.87692,8.21028],[116.87578,8.20499],[116.87485,8.19967],[116.87414,8.19431],[116.87364,8.18892],[116.87336,8.18352],[116.87331,8.17812],[116.87347,8.17271],[116.87384,8.16747],[116.87351,8.16699],[116.87053,8.16221],[116.86972,8.16084],[116.86972,8.16084],[116.86916,8.15994],[116.86651,8.15522],[116.86405,8.1504],[116.86178,8.14548],[116.85972,8.14047],[116.85963,8.14025],[116.85821,8.13643],[116.85818,8.13635],[116.85786,8.13555],[116.85678,8.13417],[116.85351,8.12961],[116.85044,8.12491],[116.84756,8.12009],[116.8474,8.1198],[116.8447,8.11482],[116.84455,8.11452],[116.84406,8.1137],[116.84392,8.11347],[116.84151,8.10908],[116.83926,8.1046],[116.83719,8.10004],[116.83675,8.09903],[116.83586,8.09728],[116.83368,8.09253],[116.83168,8.08771],[116.82988,8.08281],[116.82982,8.08264],[116.82954,8.08184],[116.82868,8.07984],[116.82675,8.07485],[116.82503,8.0698],[116.82351,8.06468],[116.8222,8.0595],[116.82109,8.05428],[116.82019,8.04902],[116.82012,8.04852],[116.81938,8.04277],[116.8189,8.037],[116.81876,8.03363],[116.81857,8.03298],[116.81732,8.02772],[116.81627,8.02242],[116.81544,8.01707],[116.81483,8.0117],[116.81469,8.00977],[116.81458,8.00962],[116.81172,8.00498],[116.80905,8.00024],[116.80901,8.00017],[116.80657,7.99538],[116.80431,7.9905],[116.80226,7.98554],[116.80041,7.98049],[116.79876,7.97538],[116.79732,7.97021],[116.79608,7.96499],[116.79506,7.95972],[116.79425,7.95441],[116.79419,7.95393],[116.7937,7.94978],[116.79335,7.94561],[116.79332,7.94519],[116.79303,7.93893]]]}}]}