{"type": "FeatureCollection", "features": [{"type": "Feature", "properties": {"name": "Mporokoso District"}, "geometry": {"type": "Polygon", "coordinates": [[[29.321001, -9.4194699], [29.3262789, -9.4291093], [29.3228166, -9.4348947], [29.3225135, -9.4406024], [29.3235846, -9.4440462], [29.32767, -9.4483369], [29.3294063, -9.4568151], [29.3392993, -9.4617543], [29.3404148, -9.4671591], [29.3450352, -9.4677403], [29.3426685, -9.4711921], [29.3472666, -9.4790712], [29.3464134, -9.4819323], [29.3415122, -9.4869072], [29.3527596, -9.4938227], [29.3522533, -9.4966855], [29.3541336, -9.4992227], [29.3520742, -9.5014088], [29.3519761, -9.5089253], [29.3464524, -9.5103845], [29.3452638, -9.5162357], [29.3513659, -9.5188836], [29.3514695, -9.5268775], [29.3555941, -9.5320717], [29.3574406, -9.5326389], [29.3654337, -9.5273988], [29.3716562, -9.5267062], [29.3745659, -9.5333845], [29.3779925, -9.5349132], [29.3806306, -9.5341627], [29.3838099, -9.5362829], [29.3866575, -9.5412103], [29.3857048, -9.5481802], [29.3930888, -9.5510277], [29.3985207, -9.5485142], [29.39928, -9.5412764], [29.404327, -9.5377083], [29.4140361, -9.5346717], [29.4273211, -9.5395185], [29.4399283, -9.5377573], [29.4441146, -9.5429133], [29.4439221, -9.5494208], [29.4458154, -9.5507448], [29.4516849, -9.5512976], [29.4544202, -9.5500786], [29.4683036, -9.5521013], [29.4708423, -9.5544379], [29.4708423, -9.5579442], [29.4657132, -9.5614695], [29.4643029, -9.5649071], [29.4680895, -9.5801364], [29.4619166, -9.5902862], [29.4615716, -9.595047], [29.463137, -9.5984768], [29.4726543, -9.5984739], [29.4791692, -9.5930601], [29.4849597, -9.5927232], [29.4980194, -9.5983991], [29.504645, -9.6120104], [29.5068109, -9.6132517], [29.520151, -9.6044469], [29.5254394, -9.6050581], [29.5273785, -9.614407], [29.525615, -9.6171071], [29.5256764, -9.6305693], [29.5315152, -9.635406], [29.5313413, -9.6467272], [29.5324857, -9.6477686], [29.5402404, -9.6486229], [29.5431188, -9.6419128], [29.5496076, -9.6420429], [29.5604782, -9.6449064], [29.5754646, -9.6577596], [29.5779423, -9.6580155], [29.5778717, -9.6564547], [29.5790687, -9.6573139], [29.5796981, -9.6559126], [29.5808258, -9.656858], [29.5808731, -9.6551815], [29.5819481, -9.6558126], [29.5842235, -9.6536747], [29.585573, -9.6552156], [29.5882503, -9.6537565], [29.5883758, -9.6563385], [29.5926368, -9.65606], [29.5912659, -9.658273], [29.5949121, -9.6588273], [29.5963017, -9.656159], [29.5982019, -9.6563219], [29.5989733, -9.6524632], [29.599723, -9.6538664], [29.6007344, -9.6520092], [29.6071478, -9.6525913], [29.6095616, -9.6508507], [29.6122902, -9.6537607], [29.6110885, -9.6548112], [29.6124887, -9.6554751], [29.6120037, -9.6578508], [29.6178633, -9.6604912], [29.6192375, -9.6592997], [29.6208987, -9.6605011], [29.6208788, -9.6636068], [29.6232213, -9.6645044], [29.6242543, -9.6635833], [29.6230952, -9.6617366], [29.6254762, -9.6595361], [29.6312667, -9.6623624], [29.6323831, -9.6647963], [29.636441, -9.6627941], [29.6413526, -9.6627375], [29.6419024, -9.666454], [29.6440018, -9.6676394], [29.6444873, -9.6656874], [29.6482031, -9.6670641], [29.6495437, -9.6640057], [29.6517457, -9.6630135], [29.6531802, -9.6647225], [29.6547133, -9.6627129], [29.6546836, -9.6643068], [29.6661935, -9.6687386], [29.667852, -9.6717079], [29.6704455, -9.6707628], [29.6735361, -9.6749528], [29.6811611, -9.6782312], [29.681061, -9.6805999], [29.6823565, -9.6790875], [29.6872094, -9.6817814], [29.687894, -9.6800866], [29.6889942, -9.6818777], [29.6915555, -9.6802615], [29.6928794, -9.6826771], [29.6947235, -9.6806315], [29.6952602, -9.6818291], [29.6999945, -9.682046], [29.699547, -9.6831894], [29.7053582, -9.6879512], [29.7075074, -9.6861374], [29.7085627, -9.6901449], [29.7102017, -9.6904523], [29.7113495, -9.6881343], [29.7140751, -9.6885296], [29.7158932, -9.6861398], [29.7196141, -9.6889432], [29.7217265, -9.6844994], [29.7229903, -9.6860119], [29.7266837, -9.685874], [29.7276084, -9.6876966], [29.7299016, -9.687988], [29.7266228, -9.6912256], [29.7276032, -9.6971178], [29.7295924, -9.6994792], [29.7327069, -9.6995873], [29.7371322, -9.7077897], [29.739725, -9.7040948], [29.7432115, -9.7053788], [29.7436812, -9.7075384], [29.7499295, -9.7052407], [29.7493161, -9.7067658], [29.7518368, -9.7081835], [29.7528073, -9.7051244], [29.7535245, -9.7063693], [29.7546958, -9.7044133], [29.7652813, -9.7036392], [29.7669257, -9.7028485], [29.7666808, -9.7008782], [29.7698954, -9.7009712], [29.7733111, -9.7038341], [29.7759056, -9.7029861], [29.7792155, -9.706714], [29.7811591, -9.706536], [29.7825119, -9.7040583], [29.7863574, -9.7070743], [29.7876823, -9.7038765], [29.7920582, -9.7038607], [29.795346, -9.7008527], [29.7970669, -9.7017243], [29.7991523, -9.6988554], [29.8084665, -9.7029211], [29.8207939, -9.6968713], [29.8306702, -9.6996809], [29.8376084, -9.6892814], [29.8548484, -9.6843837], [29.8696463, -9.6736363], [29.8715568, -9.6744199], [29.8736477, -9.6801186], [29.8770399, -9.6819374], [29.8886409, -9.6826074], [29.9033424, -9.6789592], [29.8788385, -9.6418911], [29.8746489, -9.6415514], [29.8633712, -9.6475525], [29.8405413, -9.6410856], [29.827871, -9.6269031], [29.8234345, -9.618526], [29.8156053, -9.6173385], [29.8063812, -9.6073485], [29.804049, -9.6066114], [29.8025996, -9.608587], [29.8027707, -9.6046933], [29.8089081, -9.6004954], [29.8105394, -9.5973416], [29.8113959, -9.5849758], [29.8085538, -9.5802914], [29.8089506, -9.5767218], [29.8143736, -9.5752116], [29.8152486, -9.5733171], [29.8173389, -9.5823231], [29.819101, -9.5830479], [29.825787, -9.5808171], [29.8282532, -9.585254], [29.8307268, -9.5865295], [29.8349222, -9.5828852], [29.8298524, -9.5747712], [29.833314, -9.569902], [29.8393378, -9.5746491], [29.8430938, -9.5725331], [29.8447508, -9.5691024], [29.8539055, -9.5728692], [29.8583998, -9.5718396], [29.8596313, -9.573636], [29.8641318, -9.5708555], [29.8653101, -9.5780985], [29.8667794, -9.5787415], [29.868817, -9.5763097], [29.8721233, -9.5758229], [29.8716995, -9.5739342], [29.8734165, -9.5724364], [29.8778084, -9.5726707], [29.8799487, -9.5757217], [29.8788979, -9.5695159], [29.882356, -9.5674107], [29.8927208, -9.5728505], [29.8925939, -9.5768871], [29.8909314, -9.5789935], [29.8961353, -9.583856], [29.906621, -9.5852391], [29.9073352, -9.5822342], [29.9094376, -9.5842085], [29.90788, -9.5882351], [29.9096764, -9.5896507], [29.9214013, -9.5883665], [29.9209036, -9.5841092], [29.9236974, -9.5827691], [29.9325376, -9.5922128], [29.9428354, -9.5970474], [29.939578, -9.6014035], [29.9410042, -9.6105637], [29.943864, -9.6136005], [29.9388254, -9.616504], [29.9405925, -9.6197276], [29.9448462, -9.6193835], [29.9478521, -9.6170259], [29.9535738, -9.6183446], [29.9539706, -9.6249662], [29.9614375, -9.6248909], [29.9688969, -9.6215167], [29.9751431, -9.6242793], [29.9766269, -9.6224997], [29.975487, -9.6171526], [29.9820919, -9.6150319], [29.98673, -9.6195595], [29.9888269, -9.6192046], [29.9913398, -9.6148924], [29.996969, -9.6182706], [30.0037296, -9.6159896], [30.0083254, -9.6178007], [30.010479, -9.6173735], [30.0122354, -9.6136289], [30.020986, -9.6127623], [30.0215365, -9.6112843], [30.025193, -9.6119785], [30.0293235, -9.6093091], [30.0349648, -9.610299], [30.0371301, -9.6080469], [30.0420406, -9.6069176], [30.0414676, -9.6011975], [30.0465798, -9.5995802], [30.0475339, -9.5940878], [30.052129, -9.592264], [30.0520317, -9.5899963], [30.0542038, -9.588914], [30.0565951, -9.5898334], [30.0602131, -9.5873982], [30.061912, -9.5905093], [30.065368, -9.5885268], [30.0672828, -9.5897774], [30.0663247, -9.5923715], [30.0673783, -9.5934003], [30.0709976, -9.5787197], [30.0750271, -9.5734028], [30.0748751, -9.5703168], [30.0792649, -9.5697026], [30.0764649, -9.5658136], [30.0803763, -9.5650748], [30.080611, -9.5586384], [30.0844716, -9.5556771], [30.0835628, -9.5507221], [30.0874678, -9.5504277], [30.0890031, -9.547263], [30.0911707, -9.5497093], [30.0969589, -9.5496366], [30.0963464, -9.5444716], [30.0976714, -9.5412907], [30.1020961, -9.5433762], [30.1037234, -9.5425752], [30.1106538, -9.5468219], [30.1115293, -9.5433816], [30.1146141, -9.5431619], [30.1141361, -9.5392027], [30.1192001, -9.5426624], [30.1230252, -9.5403712], [30.1256285, -9.5414243], [30.1277776, -9.5376988], [30.1345275, -9.5373011], [30.143992, -9.5321742], [30.1453373, -9.5293089], [30.1537706, -9.527127], [30.1630649, -9.5318764], [30.165447, -9.5352031], [30.1682809, -9.5349134], [30.1716586, -9.5388631], [30.1742988, -9.5377063], [30.1769389, -9.539148], [30.1903627, -9.5338058], [30.1936003, -9.5361682], [30.1952227, -9.534988], [30.1951036, -9.5292052], [30.1994629, -9.526984], [30.2001695, -9.5222589], [30.2041183, -9.5229526], [30.2077124, -9.5195071], [30.2104569, -9.5209574], [30.2101257, -9.5168035], [30.2216277, -9.5112341], [30.2329877, -9.499708], [30.2351569, -9.5024206], [30.2343701, -9.5044458], [30.2393176, -9.5064864], [30.2424813, -9.5123157], [30.248391, -9.5121675], [30.2496777, -9.5155617], [30.2548337, -9.5183774], [30.2605158, -9.5152144], [30.2679715, -9.5148125], [30.2698957, -9.512771], [30.2711278, -9.5143365], [30.2720341, -9.513329], [30.2758282, -9.5143274], [30.279334, -9.5123472], [30.2796502, -9.5083218], [30.2882356, -9.5048644], [30.2891137, -9.5065267], [30.2926291, -9.5052423], [30.2950288, -9.508876], [30.2999888, -9.5067174], [30.3000656, -9.5082465], [30.3028381, -9.5092043], [30.3069087, -9.5073954], [30.3070229, -9.5051092], [30.3095175, -9.5049417], [30.310908, -9.5029286], [30.3137002, -9.5035343], [30.3217304, -9.498262], [30.3285741, -9.5006008], [30.3318517, -9.5080113], [30.3400063, -9.5050394], [30.3435132, -9.508893], [30.3470124, -9.5061696], [30.3499137, -9.5082895], [30.3534412, -9.5067443], [30.3575553, -9.5108999], [30.3612076, -9.5100833], [30.3628672, -9.5121194], [30.3692045, -9.5117014], [30.3700748, -9.5162226], [30.3737079, -9.5137425], [30.3761279, -9.5152891], [30.3796817, -9.5130674], [30.3813733, -9.5045342], [30.3836362, -9.5050111], [30.3838054, -9.5071882], [30.3860275, -9.5081438], [30.390134, -9.5063853], [30.3913932, -9.5014047], [30.4102373, -9.4977389], [30.4168478, -9.5014818], [30.417394, -9.5033611], [30.4259632, -9.500761], [30.4277573, -9.4988942], [30.4361697, -9.5001641], [30.4393291, -9.4991165], [30.4398035, -9.4974097], [30.4446848, -9.4974461], [30.4456363, -9.4995745], [30.4496238, -9.4994748], [30.456703, -9.5059553], [30.4582003, -9.5042305], [30.4620468, -9.5043024], [30.4619718, -9.5077632], [30.4643136, -9.5116153], [30.4668434, -9.5090011], [30.4700454, -9.5100408], [30.4709581, -9.5074879], [30.4727117, -9.5079541], [30.4735672, -9.5043944], [30.4793204, -9.5053725], [30.4813319, -9.5078967], [30.4891841, -9.5050672], [30.4901565, -9.5074262], [30.4941139, -9.5058141], [30.4965356, -9.5067743], [30.5018429, -9.5034761], [30.5049724, -9.5041157], [30.506658, -9.5028234], [30.5098401, -9.5032753], [30.5109687, -9.5053373], [30.5130324, -9.5038237], [30.5150745, -9.5054574], [30.5195212, -9.5054216], [30.5200539, -9.5011379], [30.5225174, -9.4986664], [30.5214798, -9.4953158], [30.5237855, -9.4917797], [30.5244751, -9.4856878], [30.5261697, -9.484378], [30.5254015, -9.4807651], [30.5267504, -9.4788613], [30.5235185, -9.4744596], [30.5251897, -9.4674884], [30.5212691, -9.4622636], [30.5188736, -9.455129], [30.50965, -9.4460279], [30.5044675, -9.4362237], [30.5022286, -9.4254035], [30.4963032, -9.41945], [30.4920029, -9.4082689], [30.4864491, -9.3887806], [30.4844445, -9.3715929], [30.4865709, -9.3689608], [30.483691, -9.345005], [30.4812201, -9.3533079], [30.4799444, -9.3538182], [30.4782488, -9.3517815], [30.4744954, -9.3582831], [30.4688095, -9.3492257], [30.4628137, -9.3489158], [30.4575652, -9.3451252], [30.4570549, -9.3421547], [30.4470682, -9.3368151], [30.4409449, -9.3373982], [30.4063922, -9.3569344], [30.3851065, -9.3582465], [30.376359, -9.3614539], [30.355365, -9.3799695], [30.3378699, -9.3885712], [30.3316009, -9.3983393], [30.307691, -9.4048999], [30.2952986, -9.4050457], [30.2861137, -9.4025673], [30.2361071, -9.371222], [30.2171539, -9.35431], [30.1970346, -9.3394392], [30.1702089, -9.3050322], [30.1317198, -9.2437996], [30.1202025, -9.2341775], [30.1055504, -9.2310066], [30.1029626, -9.2290019], [30.1038373, -9.2241543], [30.1115643, -9.2171563], [30.1075186, -9.1994061], [30.1059148, -9.1976202], [30.0990626, -9.1990781], [30.0952356, -9.207935], [30.0914814, -9.2024678], [30.0883105, -9.2038164], [30.0809844, -9.1975837], [30.0788704, -9.2035612], [30.0743873, -9.203707], [30.0694304, -9.2074976], [30.0641819, -9.20655], [30.0585689, -9.2081172], [30.0216103, -9.2225322], [30.0072501, -9.2262866], [30.0067578, -9.2312432], [29.9947299, -9.2380043], [29.9865109, -9.2621694], [29.981554, -9.2650852], [29.9774718, -9.2607114], [29.9769251, -9.2461687], [29.9646606, -9.2458592], [29.964715, -9.2388245], [29.9541451, -9.2362184], [29.9461997, -9.2382506], [29.9416069, -9.2353436], [29.9278299, -9.232264], [29.925315, -9.2348883], [29.9164395, -9.2301862], [29.9098063, -9.2318084], [29.9053414, -9.2280361], [29.9051589, -9.2254298], [29.8993272, -9.2233887], [29.8870807, -9.2213476], [29.8710438, -9.2218581], [29.8713719, -9.2275076], [29.8685654, -9.2321365], [29.866014, -9.2423055], [29.8623692, -9.2448568], [29.8528927, -9.2340682], [29.8372201, -9.2263048], [29.8322632, -9.2277627], [29.8279258, -9.2225871], [29.8250464, -9.2215665], [29.8218755, -9.2218946], [29.8179026, -9.2255394], [29.8152055, -9.222259], [29.8118523, -9.2222226], [29.8072598, -9.2248833], [29.8026309, -9.2310066], [29.7982207, -9.230387], [29.7951955, -9.2346514], [29.7914411, -9.2242634], [29.7730713, -9.2236803], [29.7686977, -9.2216393], [29.762866, -9.2241178], [29.7583465, -9.2280542], [29.7546263, -9.2355176], [29.6487, -9.3241167], [29.6430557, -9.3217601], [29.6395668, -9.3235801], [29.6396324, -9.3187472], [29.6355984, -9.3181183], [29.6329303, -9.320842], [29.6301947, -9.3188418], [29.6286708, -9.3217839], [29.6247444, -9.3188277], [29.6220402, -9.3213785], [29.6208381, -9.3254801], [29.6182699, -9.3266504], [29.612521, -9.3239873], [29.6121898, -9.3223979], [29.6103699, -9.3234626], [29.6102798, -9.3205338], [29.6075891, -9.3210754], [29.6074458, -9.3247888], [29.603035, -9.3242092], [29.5999867, -9.3264884], [29.5989418, -9.3242473], [29.5940908, -9.3221976], [29.5924786, -9.3249461], [29.5885953, -9.3249963], [29.584524, -9.3209056], [29.5826431, -9.3211296], [29.584309, -9.3192138], [29.582925, -9.3165846], [29.5736903, -9.3147445], [29.5707184, -9.3167466], [29.5686999, -9.312515], [29.5664575, -9.3133216], [29.5652066, -9.3089449], [29.5595513, -9.3062319], [29.5597668, -9.3025238], [29.5556115, -9.301301], [29.5557145, -9.3048094], [29.5532625, -9.3069357], [29.5526695, -9.3034152], [29.5505178, -9.3058514], [29.5491088, -9.3024663], [29.5461933, -9.3042434], [29.5445823, -9.3028783], [29.5436138, -9.3049403], [29.5418575, -9.3016565], [29.5382289, -9.3013774], [29.5357301, -9.3030536], [29.5356692, -9.3060692], [29.5332794, -9.3047996], [29.5302783, -9.3070227], [29.5308457, -9.3092543], [29.5288072, -9.3120952], [29.5203107, -9.3151367], [29.5183179, -9.3195584], [29.5169099, -9.3179427], [29.5157237, -9.3197486], [29.5136052, -9.318371], [29.5132835, -9.3201482], [29.5116311, -9.3199599], [29.5112212, -9.3169942], [29.50785, -9.3162116], [29.5043173, -9.3170165], [29.5042076, -9.3188234], [29.5020375, -9.3185183], [29.5019723, -9.3204763], [29.4927807, -9.3186446], [29.4919016, -9.320172], [29.4890758, -9.3191163], [29.4884873, -9.3210041], [29.4849241, -9.319319], [29.4846831, -9.3213954], [29.4828839, -9.3216652], [29.4765193, -9.3185823], [29.4728625, -9.3204884], [29.470581, -9.3192962], [29.4660469, -9.3224049], [29.4617129, -9.3225127], [29.4619299, -9.3249091], [29.4590034, -9.3228259], [29.4577738, -9.3249316], [29.4545282, -9.3260395], [29.4521965, -9.3245593], [29.4496257, -9.3268355], [29.4495404, -9.323835], [29.4479982, -9.3245859], [29.4459294, -9.3213214], [29.4425721, -9.3211077], [29.4409115, -9.319041], [29.438487, -9.3188206], [29.4281468, -9.3241806], [29.4277716, -9.3227362], [29.4236244, -9.3214092], [29.4215575, -9.3230771], [29.4201791, -9.321494], [29.4188575, -9.322808], [29.4179865, -9.3212464], [29.4154237, -9.3219458], [29.4104102, -9.3159797], [29.4051529, -9.3148576], [29.4078594, -9.3119953], [29.4044266, -9.3090759], [29.400766, -9.3102906], [29.3996357, -9.3127446], [29.397339, -9.3090865], [29.3936516, -9.3106808], [29.3916474, -9.3097148], [29.3926375, -9.3055407], [29.3898401, -9.3033593], [29.3853329, -9.3034115], [29.3871296, -9.3009559], [29.3852327, -9.2992288], [29.3850523, -9.2958098], [29.3801773, -9.2974437], [29.3813853, -9.2939632], [29.3802505, -9.2931383], [29.3734352, -9.2919454], [29.3714288, -9.2960974], [29.3691801, -9.2952114], [29.3689424, -9.2926669], [29.3636282, -9.2930291], [29.3621091, -9.2897464], [29.3577541, -9.2925518], [29.3563281, -9.2899066], [29.3515144, -9.2894636], [29.3515089, -9.293847], [29.3473739, -9.2937333], [29.3439382, -9.2965653], [29.3437823, -9.3074423], [29.3455844, -9.3130479], [29.3540941, -9.3187588], [29.3541005, -9.3208176], [29.3499284, -9.3259373], [29.3476096, -9.3371554], [29.3603167, -9.352417], [29.3573547, -9.3604293], [29.3586195, -9.3713151], [29.3537997, -9.3754089], [29.3490368, -9.3875866], [29.3458114, -9.3885639], [29.3380367, -9.3872491], [29.3320224, -9.3833537], [29.3257433, -9.3868337], [29.3235773, -9.3950786], [29.3251619, -9.3987531], [29.3289216, -9.3993526], [29.3305656, -9.4014859], [29.3296567, -9.4122607], [29.3273724, -9.4168871], [29.324275, -9.416561], [29.321001, -9.4194699]]]}}]}