{"type":"FeatureCollection","features":[{"type":"Feature","properties":{"name":"Kabupaten Natuna","admin":"district","source":"\u00a9 OpenStreetMap contributors, ODbL 1.0","osm_relation":10660357},"geometry":{"type":"MultiPolygon","coordinates":[[[[107.5526,3.3006],[107.554,3.2981],[107.5549,3.2981],[107.5543,3.3021],[107.5526,3.3006]]],[[[107.6869,4.4248],[107.6869,4.4245],[107.6871,4.4246],[107.6869,4.4248]]],[[[107.7232,4.5179],[107.7239,4.5136],[107.7306,4.5108],[107.7323,4.5133],[107.732,4.5204],[107.7299,4.5218],[107.7286,4.5201],[107.725,4.5208],[107.7232,4.5179]]],[[[107.7472,3.0031],[107.7496,3.0047],[107.7523,3.0014],[107.7535,2.9788],[107.7572,2.9719],[107.7615,2.9748],[107.7749,2.9761],[107.7833,2.9787],[107.789,2.9775],[107.8004,2.9812],[107.8134,2.98],[107.8077,2.9909],[107.8047,3.0088],[107.797,3.0169],[107.7854,3.0197],[107.7698,3.017],[107.7567,3.0114],[107.7527,3.0077],[107.749,3.0071],[107.7472,3.0031]]],[[[107.8375,3.3949],[107.8375,3.3947],[107.8377,3.3948],[107.8375,3.3949]]],[[[107.8385,3.398],[107.8389,3.3979],[107.8387,3.3985],[107.8389,3.3986],[107.8388,3.3988],[107.8385,3.398]]],[[[107.8393,3.3989],[107.8392,3.3984],[107.8395,3.3987],[107.8393,3.3989]]],[[[107.8403,4.1168],[107.8411,4.1135],[107.8431,4.1138],[107.8443,4.1119],[107.8451,4.1179],[107.8489,4.1189],[107.8523,4.1154],[107.8631,4.1261],[107.863,4.1318],[107.8606,4.1378],[107.8637,4.1466],[107.8676,4.1492],[107.8693,4.1561],[107.8682,4.1577],[107.8665,4.157],[107.8602,4.1598],[107.859,4.1585],[107.8583,4.1549],[107.8539,4.1508],[107.8535,4.1413],[107.8463,4.1395],[107.8446,4.1271],[107.8427,4.1257],[107.846,4.1251],[107.8462,4.1219],[107.8445,4.1198],[107.8417,4.1214],[107.8403,4.1168]]],[[[107.8944,3.894],[107.8967,3.8905],[107.8984,3.8908],[107.903,3.8877],[107.9035,3.884],[107.9105,3.8814],[107.9135,3.8823],[107.9146,3.8857],[107.92,3.8897],[107.9197,3.8967],[107.9214,3.9006],[107.9129,3.9077],[107.9091,3.9095],[107.9035,3.9094],[107.9017,3.9121],[107.8961,3.9132],[107.8947,3.9127],[107.8959,3.9018],[107.8944,3.894]]],[[[107.8965,4.0373],[107.898,4.0332],[107.9012,4.0323],[107.9017,4.0277],[107.9033,4.0295],[107.9029,4.0318],[107.8993,4.0371],[107.8965,4.0373]]],[[[107.9111,4.036],[107.915,4.0331],[107.917,4.0369],[107.9141,4.0388],[107.912,4.0383],[107.9111,4.036]]],[[[107.922,4.6958],[107.9223,4.6953],[107.9223,4.6958],[107.922,4.6958]]],[[[107.9258,3.8766],[107.9265,3.8753],[107.9284,3.8733],[107.9282,3.8746],[107.9258,3.8766]]],[[[107.9274,4.6842],[107.9289,4.6808],[107.9446,4.6751],[107.9487,4.6761],[107.9651,4.6692],[107.9695,4.677],[107.9707,4.6842],[107.9745,4.6895],[107.9766,4.6963],[107.9801,4.6977],[107.9862,4.7097],[107.9924,4.7238],[107.9957,4.7359],[108.0068,4.7574],[108.0084,4.7707],[108.0073,4.7752],[107.9987,4.7749],[107.9941,4.772],[107.9921,4.7695],[107.9902,4.7556],[107.9776,4.7433],[107.975,4.7432],[107.9743,4.7349],[107.9717,4.7317],[107.9714,4.7271],[107.9682,4.7237],[107.967,4.7184],[107.9582,4.7081],[107.9502,4.7017],[107.9278,4.694],[107.9274,4.6842]]],[[[107.9293,4.7018],[107.9294,4.7018],[107.9295,4.702],[107.9293,4.7018]]],[[[107.9294,4.7029],[107.9294,4.7026],[107.9296,4.7027],[107.9294,4.7029]]],[[[107.9314,4.7044],[107.9299,4.7027],[107.9317,4.7039],[107.9314,4.7044]]],[[[107.9446,3.9432],[107.9471,3.9407],[107.951,3.9417],[107.9589,3.9372],[107.957,3.9401],[107.951,3.9427],[107.9484,3.9458],[107.9455,3.9453],[107.9446,3.9432]]],[[[107.9497,4.0149],[107.9509,4.0136],[107.9508,4.0146],[107.9497,4.0149]]],[[[107.9509,4.0123],[107.9566,4.0095],[107.959,4.01],[107.9555,4.013],[107.9509,4.0123]]],[[[107.9604,3.9349],[107.9609,3.9296],[107.962,3.9292],[107.9628,3.9315],[107.9604,3.9349]]],[[[107.9628,4.005],[107.9625,4.0004],[107.9667,3.9987],[107.9734,3.9988],[107.9769,4.0013],[107.9825,3.9997],[107.9873,3.9924],[107.9876,3.9847],[107.994,3.9828],[107.9943,3.9767],[107.9903,3.9652],[107.9935,3.9619],[107.992,3.9584],[107.988,3.955],[107.99,3.9517],[107.9899,3.9426],[107.9994,3.9282],[108.0111,3.9203],[108.0092,3.9185],[108.0133,3.9132],[108.0193,3.9103],[108.0262,3.9101],[108.0309,3.899],[108.0309,3.894],[108.0279,3.8925],[108.0231,3.8932],[108.0234,3.8899],[108.0182,3.8861],[108.0195,3.8785],[108.0214,3.8769],[108.0261,3.8777],[108.0296,3.873],[108.0326,3.8718],[108.0333,3.8688],[108.0472,3.8632],[108.0528,3.8496],[108.0582,3.8451],[108.0627,3.8352],[108.0729,3.8334],[108.0758,3.8356],[108.0861,3.834],[108.09,3.8305],[108.0924,3.8225],[108.0945,3.8211],[108.1015,3.8215],[108.1086,3.8267],[108.1176,3.827],[108.1265,3.8229],[108.1324,3.8169],[108.136,3.8175],[108.147,3.815],[108.1521,3.8073],[108.1586,3.8045],[108.1629,3.8042],[108.1691,3.8088],[108.1727,3.8057],[108.1783,3.8037],[108.1826,3.8034],[108.1861,3.8062],[108.19,3.806],[108.193,3.8028],[108.193,3.8002],[108.1957,3.8022],[108.2069,3.8023],[108.2168,3.7923],[108.2234,3.7895],[108.2238,3.7844],[108.227,3.7786],[108.2398,3.7743],[108.2501,3.7662],[108.253,3.7621],[108.2517,3.7577],[108.256,3.747],[108.2605,3.7397],[108.2663,3.738],[108.2712,3.7258],[108.2753,3.7206],[108.2752,3.717],[108.2722,3.7126],[108.2708,3.7127],[108.2666,3.7168],[108.2634,3.727],[108.2598,3.7315],[108.2523,3.7322],[108.2483,3.7351],[108.2232,3.759],[108.2198,3.7595],[108.2169,3.7672],[108.2073,3.774],[108.2041,3.7783],[108.199,3.7798],[108.1989,3.7818],[108.1981,3.7803],[108.1882,3.7833],[108.1841,3.7793],[108.1844,3.7773],[108.1807,3.7777],[108.176,3.7756],[108.1733,3.7721],[108.1744,3.769],[108.162,3.7653],[108.1554,3.7655],[108.1511,3.7624],[108.1502,3.7608],[108.1524,3.7599],[108.1523,3.7559],[108.1492,3.7536],[108.1502,3.7447],[108.1481,3.7439],[108.1437,3.7476],[108.1423,3.7522],[108.1354,3.7507],[108.1347,3.7462],[108.1308,3.7462],[108.1266,3.7487],[108.1256,3.7469],[108.1178,3.7433],[108.1158,3.7382],[108.1174,3.7322],[108.1207,3.7277],[108.12,3.7248],[108.1131,3.7223],[108.1101,3.7093],[108.1022,3.6959],[108.0935,3.6916],[108.0917,3.6839],[108.0896,3.6815],[108.091,3.6791],[108.0942,3.6776],[108.0985,3.6788],[108.1113,3.6742],[108.1156,3.6715],[108.1188,3.6661],[108.119,3.6683],[108.1212,3.6694],[108.1269,3.6646],[108.1276,3.6658],[108.125,3.67],[108.118,3.6772],[108.1214,3.6775],[108.1257,3.6754],[108.1276,3.6737],[108.1267,3.6691],[108.1316,3.6623],[108.1342,3.6638],[108.1386,3.6615],[108.1397,3.6632],[108.144,3.6586],[108.1415,3.6569],[108.1447,3.6572],[108.1451,3.6596],[108.1497,3.6545],[108.1475,3.6526],[108.1495,3.6413],[108.153,3.6326],[108.1567,3.6303],[108.1664,3.6416],[108.1757,3.6426],[108.1769,3.6443],[108.1845,3.6412],[108.19,3.6442],[108.1883,3.648],[108.1891,3.6505],[108.1955,3.657],[108.2025,3.6598],[108.2061,3.6599],[108.2098,3.6557],[108.2103,3.661],[108.2156,3.6594],[108.2236,3.6639],[108.2425,3.665],[108.2621,3.6614],[108.2762,3.6653],[108.2929,3.6575],[108.2979,3.6592],[108.3011,3.6661],[108.3059,3.6711],[108.3041,3.677],[108.306,3.6819],[108.3064,3.6984],[108.3045,3.7049],[108.3044,3.7172],[108.3115,3.7341],[108.3181,3.7422],[108.327,3.7467],[108.3291,3.7499],[108.3301,3.7569],[108.3352,3.7641],[108.3437,3.7677],[108.3528,3.7645],[108.3576,3.7745],[108.3658,3.7832],[108.3692,3.7857],[108.3777,3.7874],[108.3828,3.793],[108.3869,3.7936],[108.3861,3.8007],[108.3898,3.802],[108.3908,3.8039],[108.3893,3.8057],[108.3906,3.8063],[108.3918,3.8172],[108.3968,3.8271],[108.394,3.8379],[108.3955,3.8467],[108.4012,3.8535],[108.4095,3.8588],[108.4007,3.8569],[108.3992,3.8606],[108.4011,3.8676],[108.4041,3.8701],[108.4078,3.8778],[108.4081,3.8858],[108.4065,3.8865],[108.399,3.8828],[108.397,3.8802],[108.397,3.8766],[108.389,3.8676],[108.3873,3.8688],[108.3822,3.8589],[108.3772,3.8547],[108.3804,3.865],[108.3794,3.8664],[108.383,3.8701],[108.3779,3.8718],[108.3784,3.8789],[108.3738,3.8828],[108.3666,3.893],[108.3622,3.8933],[108.3585,3.8903],[108.3566,3.8915],[108.3545,3.8973],[108.3558,3.8994],[108.3639,3.9],[108.3706,3.9043],[108.3727,3.9014],[108.3811,3.8967],[108.3876,3.8946],[108.3902,3.8958],[108.3917,3.8928],[108.3925,3.8931],[108.39,3.8961],[108.3903,3.9019],[108.3926,3.9057],[108.3945,3.915],[108.3827,3.9273],[108.382,3.9307],[108.3912,3.9447],[108.3933,3.9449],[108.3964,3.9559],[108.4023,3.9576],[108.402,3.9632],[108.4032,3.9643],[108.4019,3.9668],[108.4001,3.9666],[108.3999,3.9685],[108.3963,3.9691],[108.3948,3.9677],[108.3845,3.9756],[108.38,3.9796],[108.376,3.9869],[108.3738,3.9866],[108.3467,3.9988],[108.3442,4.0052],[108.3468,4.013],[108.3457,4.0159],[108.3318,4.0254],[108.3051,4.0497],[108.2955,4.0552],[108.2929,4.0618],[108.2995,4.0822],[108.2989,4.0868],[108.2964,4.0876],[108.2906,4.0835],[108.287,4.083],[108.2792,4.085],[108.2651,4.092],[108.2527,4.103],[108.2533,4.1078],[108.2482,4.1125],[108.2466,4.1177],[108.2338,4.1287],[108.2293,4.1438],[108.2292,4.1479],[108.2319,4.1496],[108.2291,4.1664],[108.2311,4.1705],[108.2286,4.1733],[108.2292,4.1783],[108.2248,4.1854],[108.2294,4.2002],[108.2318,4.2001],[108.2352,4.208],[108.2423,4.2134],[108.2418,4.2187],[108.2374,4.2203],[108.2328,4.2179],[108.2282,4.2178],[108.2264,4.2231],[108.2194,4.2304],[108.2078,4.2267],[108.2036,4.2198],[108.2008,4.2121],[108.2007,4.2056],[108.1964,4.1962],[108.1931,4.1923],[108.1879,4.1898],[108.1856,4.184],[108.174,4.1712],[108.1751,4.1687],[108.1742,4.1643],[108.1578,4.1499],[108.1492,4.1444],[108.1469,4.1382],[108.1344,4.1347],[108.1255,4.1237],[108.1233,4.1233],[108.1161,4.1159],[108.1117,4.1161],[108.1107,4.1128],[108.1046,4.1072],[108.103,4.1076],[108.0994,4.1047],[108.0944,4.1073],[108.0899,4.1039],[108.075,4.0677],[108.0703,4.0677],[108.064,4.0638],[108.0595,4.0566],[108.0562,4.0551],[108.033,4.0576],[108.0318,4.0549],[108.0264,4.0537],[108.0237,4.0503],[108.0214,4.0454],[108.0213,4.0375],[108.0172,4.0339],[108.0143,4.0278],[107.9934,4.0176],[107.9741,4.0147],[107.9672,4.0064],[107.9628,4.005]]],[[[107.9691,4.6615],[107.9691,4.6611],[107.9693,4.6611],[107.9691,4.6615]]],[[[107.972,4.6282],[107.9717,4.6279],[107.972,4.6274],[107.972,4.6282]]],[[[107.9751,3.9632],[107.9775,3.9596],[107.9828,3.9593],[107.9817,3.9622],[107.9751,3.9632]]],[[[107.9792,3.9582],[107.9793,3.9578],[107.9796,3.9582],[107.9792,3.9582]]],[[[107.9917,3.9315],[107.9921,3.9302],[107.9939,3.9318],[107.9917,3.9315]]],[[[107.992,3.8019],[107.9921,3.8014],[107.9924,3.8018],[107.992,3.8019]]],[[[107.9926,4.102],[107.9937,4.1023],[107.9952,4.105],[107.9936,4.1041],[107.9926,4.102]]],[[[107.9932,3.8108],[107.995,3.8096],[107.9978,3.8123],[107.9984,3.8108],[108.0004,3.8126],[108.0042,3.8125],[108.0057,3.8103],[108.0035,3.8076],[108.0095,3.808],[108.015,3.8044],[108.0159,3.8025],[108.0128,3.7965],[108.0148,3.7976],[108.0201,3.7949],[108.0208,3.7912],[108.0175,3.7868],[108.0135,3.7854],[108.0118,3.781],[108.0131,3.7787],[108.0257,3.7763],[108.0253,3.7742],[108.026,3.7779],[108.028,3.7793],[108.0305,3.7786],[108.032,3.7838],[108.0298,3.7878],[108.0277,3.7878],[108.0287,3.791],[108.0265,3.7908],[108.0258,3.7934],[108.0285,3.7922],[108.0299,3.7932],[108.0312,3.8016],[108.0282,3.8071],[108.0224,3.8122],[108.0166,3.8157],[108.0124,3.8136],[108.0021,3.8172],[107.9932,3.8108]]],[[[107.9944,3.7954],[107.9946,3.7951],[107.9946,3.7954],[107.9944,3.7954]]],[[[108.0001,3.8056],[108.0,3.8053],[108.0004,3.8055],[108.0001,3.8056]]],[[[108.0007,3.8113],[108.0008,3.8104],[108.0022,3.8113],[108.0007,3.8113]]],[[[108.0011,3.8652],[108.0026,3.8633],[108.0054,3.8638],[108.0011,3.8652]]],[[[108.0066,4.7863],[108.0075,4.7815],[108.0095,4.7802],[108.0156,4.7871],[108.0192,4.7888],[108.0219,4.7956],[108.0181,4.7936],[108.0111,4.7942],[108.0066,4.7863]]],[[[108.0149,4.0753],[108.0204,4.0755],[108.0259,4.0795],[108.0154,4.0769],[108.0149,4.0753]]],[[[108.0298,3.7631],[108.0336,3.7632],[108.0407,3.7676],[108.0396,3.774],[108.0371,3.7767],[108.0383,3.781],[108.0367,3.7834],[108.0324,3.782],[108.0309,3.7791],[108.0314,3.7754],[108.0344,3.7754],[108.0354,3.7729],[108.0342,3.7676],[108.0298,3.7631]]],[[[108.0329,3.5744],[108.0386,3.5613],[108.0427,3.5573],[108.0452,3.5573],[108.0487,3.5615],[108.0468,3.5742],[108.0504,3.5849],[108.0489,3.5887],[108.0453,3.588],[108.0439,3.5893],[108.0438,3.5914],[108.0458,3.5932],[108.0417,3.5917],[108.0411,3.5826],[108.0341,3.5774],[108.0329,3.5744]]],[[[108.037,3.6976],[108.0372,3.6966],[108.0377,3.6969],[108.037,3.6976]]],[[[108.0377,3.6953],[108.0376,3.6952],[108.0378,3.6952],[108.0377,3.6953]]],[[[108.0381,3.6025],[108.043,3.5994],[108.0419,3.6068],[108.0448,3.6109],[108.0446,3.6137],[108.0388,3.6066],[108.0381,3.6025]]],[[[108.0426,3.6176],[108.0433,3.6168],[108.0451,3.6159],[108.0444,3.618],[108.0426,3.6176]]],[[[108.045,3.6647],[108.0498,3.6581],[108.0546,3.6441],[108.0542,3.6412],[108.0496,3.6355],[108.051,3.6312],[108.0545,3.6295],[108.0536,3.635],[108.0556,3.6379],[108.0756,3.6333],[108.0828,3.6346],[108.0862,3.6428],[108.0857,3.6492],[108.0744,3.6651],[108.0704,3.6668],[108.0632,3.6659],[108.054,3.6694],[108.0491,3.6684],[108.045,3.6647]]],[[[108.0539,3.5918],[108.0554,3.5903],[108.0565,3.5934],[108.0547,3.5931],[108.0539,3.5918]]],[[[108.0579,3.7445],[108.0614,3.7444],[108.064,3.7516],[108.0621,3.7516],[108.0618,3.7475],[108.0579,3.7445]]],[[[108.0662,3.5891],[108.07,3.5837],[108.0788,3.5831],[108.0802,3.5845],[108.0788,3.5883],[108.0813,3.5896],[108.0807,3.5917],[108.0834,3.5972],[108.0878,3.598],[108.0911,3.5966],[108.0954,3.5915],[108.099,3.5921],[108.1036,3.5861],[108.1058,3.587],[108.1068,3.5925],[108.1026,3.6012],[108.11,3.6062],[108.1211,3.607],[108.1229,3.6169],[108.1256,3.6212],[108.1245,3.624],[108.1137,3.6338],[108.1049,3.637],[108.0955,3.6364],[108.0899,3.623],[108.0894,3.613],[108.0872,3.6122],[108.0819,3.6148],[108.078,3.6143],[108.0743,3.6056],[108.0704,3.6021],[108.07,3.5956],[108.0662,3.5891]]],[[[108.0729,3.689],[108.078,3.6882],[108.0792,3.6845],[108.0777,3.6813],[108.0821,3.6828],[108.0821,3.6845],[108.0851,3.6822],[108.0843,3.6872],[108.0905,3.6908],[108.0905,3.6923],[108.0856,3.6939],[108.0742,3.6911],[108.0729,3.689]]],[[[108.0757,3.5816],[108.0756,3.5813],[108.0758,3.5813],[108.0757,3.5816]]],[[[108.0801,3.5774],[108.0819,3.5737],[108.0889,3.5773],[108.0964,3.5731],[108.0959,3.5753],[108.0908,3.5777],[108.0898,3.5813],[108.0869,3.5833],[108.0824,3.5825],[108.0801,3.5774]]],[[[108.0869,3.5839],[108.0873,3.5833],[108.0871,3.584],[108.0869,3.5839]]],[[[108.1074,3.5863],[108.1073,3.5856],[108.1078,3.5856],[108.1074,3.5863]]],[[[108.111,3.7676],[108.1132,3.7656],[108.1175,3.7673],[108.1164,3.7703],[108.1132,3.7726],[108.111,3.7676]]],[[[108.1135,4.1524],[108.1161,4.1525],[108.1177,4.1548],[108.1161,4.1546],[108.1135,4.1524]]],[[[108.1143,3.7526],[108.1208,3.7551],[108.1237,3.7542],[108.126,3.7567],[108.1207,3.7573],[108.1189,3.759],[108.1197,3.761],[108.1155,3.7627],[108.1149,3.758],[108.1165,3.756],[108.1143,3.7526]]],[[[108.1272,3.6255],[108.1282,3.6251],[108.1284,3.6233],[108.1292,3.6258],[108.1272,3.6255]]],[[[108.1335,3.6249],[108.1334,3.6245],[108.1337,3.6245],[108.1335,3.6249]]],[[[108.1343,3.6252],[108.1339,3.6214],[108.1386,3.6221],[108.1387,3.627],[108.1343,3.6252]]],[[[108.1415,3.6232],[108.1417,3.6232],[108.1417,3.6233],[108.1415,3.6232]]],[[[108.1708,3.7906],[108.1713,3.7902],[108.171,3.7917],[108.1708,3.7906]]],[[[108.1821,3.6414],[108.1822,3.6413],[108.1822,3.6414],[108.1821,3.6414]]],[[[108.1861,4.2351],[108.19,4.2345],[108.1909,4.2401],[108.199,4.2469],[108.2019,4.2517],[108.2031,4.2582],[108.2096,4.2649],[108.2108,4.2686],[108.2085,4.2686],[108.2043,4.2649],[108.2022,4.2655],[108.2019,4.2643],[108.2008,4.2637],[108.1982,4.2636],[108.2005,4.2563],[108.1861,4.2351]]],[[[108.1939,3.6449],[108.194,3.6448],[108.194,3.6449],[108.1939,3.6449]]],[[[108.1974,4.2621],[108.1973,4.2612],[108.1975,4.2613],[108.1974,4.2621]]],[[[108.1978,3.6491],[108.1977,3.6489],[108.1977,3.6489],[108.1978,3.6491]]],[[[108.2018,4.2657],[108.2016,4.2647],[108.2017,4.2646],[108.2018,4.2657]]],[[[108.2156,3.6572],[108.2156,3.6568],[108.2157,3.6572],[108.2156,3.6572]]],[[[108.2185,3.7867],[108.2186,3.7863],[108.2191,3.7865],[108.2185,3.7867]]],[[[108.2194,4.2417],[108.2201,4.2357],[108.2217,4.2394],[108.2207,4.242],[108.2194,4.2417]]],[[[108.22,3.6568],[108.2201,3.6559],[108.2206,3.6556],[108.22,3.6568]]],[[[108.2334,4.1963],[108.2325,4.1944],[108.2338,4.1958],[108.2334,4.1963]]],[[[108.2976,4.0645],[108.2985,4.064],[108.2987,4.0643],[108.2976,4.0645]]],[[[108.2996,4.0645],[108.2995,4.0641],[108.2998,4.0644],[108.2996,4.0645]]],[[[108.3679,3.8987],[108.369,3.8976],[108.3697,3.8987],[108.3689,3.8994],[108.3679,3.8987]]],[[[108.3698,3.8984],[108.3699,3.8973],[108.3701,3.8984],[108.3698,3.8984]]],[[[108.3726,3.8942],[108.3729,3.8903],[108.3748,3.8906],[108.3744,3.8929],[108.3765,3.8944],[108.3726,3.8942]]],[[[108.3773,3.886],[108.3784,3.8801],[108.3805,3.8791],[108.3831,3.8863],[108.3798,3.8873],[108.3773,3.886]]],[[[108.3833,3.8746],[108.3834,3.8731],[108.3841,3.8734],[108.3833,3.8746]]],[[[108.3855,3.738],[108.3856,3.7377],[108.3856,3.738],[108.3855,3.738]]],[[[108.3916,3.7953],[108.3916,3.7946],[108.3918,3.7946],[108.3916,3.7953]]],[[[108.3966,3.7698],[108.3974,3.7684],[108.3983,3.7702],[108.3966,3.7698]]],[[[108.4024,3.9731],[108.4026,3.973],[108.4025,3.9733],[108.4024,3.9731]]],[[[108.4047,3.955],[108.4047,3.9548],[108.4048,3.9549],[108.4047,3.955]]],[[[108.4099,3.7969],[108.4107,3.795],[108.412,3.794],[108.4125,3.7981],[108.4099,3.7969]]],[[[108.41,3.8602],[108.4142,3.8599],[108.4165,3.8636],[108.4129,3.8605],[108.41,3.8602]]],[[[108.4149,4.0057],[108.416,4.0034],[108.4197,4.0039],[108.4184,4.0049],[108.4201,4.0065],[108.4173,4.0136],[108.4149,4.0057]]],[[[108.5638,2.6544],[108.5675,2.6546],[108.5827,2.6852],[108.5838,2.6983],[108.5824,2.7005],[108.5711,2.6863],[108.5684,2.685],[108.57,2.6813],[108.5667,2.6719],[108.5668,2.663],[108.5638,2.6544]]],[[[108.6051,2.7107],[108.6054,2.7104],[108.6054,2.7107],[108.6051,2.7107]]],[[[108.641,1.9031],[108.6433,1.9007],[108.6491,1.9008],[108.6449,1.9039],[108.641,1.9031]]],[[[108.6525,1.9047],[108.6515,1.9029],[108.6533,1.9034],[108.6525,1.9047]]],[[[108.7195,2.9016],[108.7216,2.8979],[108.7252,2.9003],[108.7289,2.9102],[108.7273,2.9153],[108.7228,2.9112],[108.7195,2.9016]]],[[[108.7468,2.9154],[108.7505,2.9163],[108.7502,2.9199],[108.7495,2.9194],[108.7468,2.9154]]],[[[108.775,2.8877],[108.7758,2.8778],[108.7836,2.8727],[108.7879,2.8635],[108.7953,2.8579],[108.8082,2.8527],[108.8141,2.8457],[108.8194,2.8434],[108.8254,2.8436],[108.8466,2.851],[108.8635,2.8785],[108.8767,2.8813],[108.8849,2.8795],[108.8799,2.8864],[108.8767,2.8875],[108.8814,2.9045],[108.889,2.9117],[108.8885,2.9129],[108.887,2.9122],[108.8873,2.9141],[108.8815,2.9118],[108.8765,2.918],[108.8824,2.9278],[108.8861,2.9379],[108.8781,2.9404],[108.8752,2.9385],[108.8721,2.9373],[108.8702,2.9371],[108.8785,2.9423],[108.8782,2.9477],[108.8766,2.9487],[108.8763,2.9497],[108.8785,2.9479],[108.8786,2.9442],[108.8807,2.9432],[108.8854,2.9446],[108.8869,2.9484],[108.8858,2.9598],[108.8885,2.9707],[108.8884,2.9893],[108.8904,2.9979],[108.8889,3.003],[108.8773,3.0091],[108.8731,3.0079],[108.8639,3.0118],[108.8606,3.0084],[108.8517,3.0067],[108.8422,3.0025],[108.8418,3.0001],[108.838,2.9966],[108.8392,2.992],[108.8354,2.9857],[108.8357,2.9781],[108.8374,2.9757],[108.8357,2.9701],[108.8358,2.9499],[108.8342,2.9492],[108.8339,2.9446],[108.8312,2.943],[108.8278,2.9354],[108.8234,2.9338],[108.8216,2.9304],[108.8087,2.9187],[108.8007,2.9151],[108.7925,2.9061],[108.7866,2.8959],[108.7806,2.8955],[108.7764,2.8934],[108.775,2.8877]]],[[[108.7824,2.9608],[108.7845,2.9588],[108.789,2.9574],[108.7882,2.9592],[108.7824,2.9608]]],[[[108.8124,2.7522],[108.8132,2.7515],[108.8136,2.7527],[108.8124,2.7522]]],[[[108.8346,3.0446],[108.8377,3.0407],[108.843,3.0409],[108.843,3.0389],[108.8471,3.034],[108.8476,3.0304],[108.8507,3.0289],[108.8504,3.0257],[108.8523,3.0236],[108.8508,3.0157],[108.8433,3.0117],[108.8475,3.011],[108.855,3.0135],[108.86,3.0132],[108.8625,3.0152],[108.8615,3.0137],[108.8626,3.0126],[108.8671,3.0168],[108.8704,3.0214],[108.8692,3.0264],[108.8645,3.0311],[108.8634,3.0345],[108.8672,3.0376],[108.8686,3.0428],[108.864,3.0425],[108.8616,3.0481],[108.8583,3.0461],[108.8517,3.0535],[108.8501,3.0517],[108.8453,3.0519],[108.8415,3.0547],[108.8394,3.0506],[108.8406,3.05],[108.8403,3.0469],[108.8346,3.0446]]],[[[108.843,2.7431],[108.8498,2.7436],[108.8531,2.7481],[108.85,2.7459],[108.843,2.7431]]],[[[108.8534,2.7484],[108.8578,2.7504],[108.8582,2.7508],[108.8552,2.7501],[108.8534,2.7484]]],[[[108.8558,3.0527],[108.8563,3.0516],[108.8565,3.0529],[108.8558,3.0527]]],[[[108.857,3.0519],[108.8572,3.052],[108.8572,3.0524],[108.857,3.0519]]],[[[108.8659,2.7593],[108.872,2.7606],[108.8772,2.7665],[108.8733,2.7668],[108.8659,2.7593]]],[[[108.8672,3.0469],[108.8697,3.0481],[108.8711,3.051],[108.8686,3.0514],[108.8672,3.0469]]],[[[108.8761,2.7032],[108.877,2.6999],[108.8798,2.6984],[108.8849,2.7003],[108.8809,2.706],[108.8772,2.7054],[108.8761,2.7032]]],[[[108.8789,3.058],[108.8788,3.0579],[108.8789,3.0579],[108.8789,3.058]]],[[[108.8852,2.73],[108.8865,2.727],[108.8918,2.7263],[108.899,2.7328],[108.9031,2.7331],[108.9047,2.7351],[108.9095,2.7338],[108.9118,2.7347],[108.9144,2.7375],[108.9135,2.742],[108.9154,2.7464],[108.9253,2.7508],[108.9292,2.7551],[108.9287,2.7618],[108.9237,2.7624],[108.9261,2.7636],[108.925,2.7663],[108.9224,2.7649],[108.9219,2.7677],[108.9196,2.7673],[108.921,2.7611],[108.9189,2.7622],[108.917,2.7569],[108.9073,2.7506],[108.9038,2.7424],[108.8852,2.73]]],[[[108.8959,2.2909],[108.8959,2.2904],[108.8963,2.2908],[108.8959,2.2909]]],[[[108.8966,2.2962],[108.8965,2.2912],[108.8993,2.2928],[108.8982,2.2958],[108.8966,2.2962]]],[[[108.9051,2.8628],[108.9076,2.8618],[108.9094,2.8633],[108.9078,2.8636],[108.9051,2.8628]]],[[[108.9067,2.8093],[108.906,2.8075],[108.9077,2.8089],[108.9067,2.8093]]],[[[108.9064,2.7324],[108.9074,2.732],[108.907,2.7328],[108.9064,2.7324]]],[[[108.9222,2.7458],[108.9221,2.7458],[108.9222,2.7458],[108.9222,2.7458]]],[[[108.9226,2.7461],[108.9226,2.746],[108.9226,2.7461],[108.9226,2.7461]]],[[[108.926,2.7653],[108.926,2.7649],[108.9262,2.7652],[108.926,2.7653]]],[[[108.9257,2.7692],[108.9258,2.769],[108.9258,2.7693],[108.9257,2.7692]]],[[[108.9295,2.7559],[108.9296,2.7557],[108.9297,2.7558],[108.9295,2.7559]]],[[[108.9372,2.4831],[108.9371,2.4829],[108.9372,2.483],[108.9372,2.4831]]],[[[108.938,2.4818],[108.9434,2.4792],[108.9464,2.4806],[108.9516,2.4793],[108.9552,2.4807],[108.9542,2.4853],[108.9563,2.4915],[108.9555,2.4942],[108.9583,2.4985],[108.9485,2.5007],[108.9397,2.4964],[108.9391,2.4941],[108.9461,2.4863],[108.9443,2.4824],[108.938,2.4818]]],[[[108.941,2.4839],[108.9415,2.4827],[108.9418,2.4826],[108.9418,2.4833],[108.941,2.4839]]],[[[108.9428,2.7727],[108.9473,2.7692],[108.9503,2.7637],[108.9515,2.764],[108.9474,2.7704],[108.9428,2.7727]]],[[[108.9587,2.4936],[108.9589,2.4934],[108.9591,2.4938],[108.9587,2.4936]]],[[[108.9607,2.4976],[108.9643,2.4981],[108.9622,2.5016],[108.9611,2.501],[108.9607,2.4976]]],[[[108.9642,2.4681],[108.9641,2.4679],[108.9642,2.4679],[108.9642,2.4681]]],[[[108.9747,2.5432],[108.9768,2.5384],[108.9756,2.5319],[108.9768,2.5305],[108.9786,2.5312],[108.9802,2.5286],[108.9795,2.5209],[108.9874,2.5221],[108.9923,2.526],[108.9996,2.5261],[109.0048,2.5332],[109.0103,2.5291],[109.0076,2.5266],[109.0077,2.5232],[109.0092,2.5233],[109.0118,2.5283],[109.0119,2.5261],[109.0148,2.5244],[109.0156,2.5258],[109.0166,2.5237],[109.0213,2.523],[109.0208,2.5209],[109.0228,2.5192],[109.019,2.5179],[109.0198,2.5171],[109.024,2.5161],[109.0266,2.5178],[109.0335,2.5154],[109.0299,2.5127],[109.0286,2.5141],[109.0261,2.5116],[109.0233,2.5116],[109.0235,2.5095],[109.0217,2.5099],[109.0218,2.5123],[109.0197,2.5115],[109.0162,2.5073],[109.0172,2.5057],[109.0112,2.5055],[109.0072,2.4999],[109.0095,2.4953],[109.0064,2.4899],[109.0096,2.4888],[109.014,2.4833],[109.0174,2.4828],[109.0181,2.4811],[109.029,2.482],[109.0415,2.4874],[109.0456,2.4933],[109.0499,2.495],[109.0526,2.4934],[109.0538,2.4951],[109.0517,2.4966],[109.0524,2.4978],[109.0486,2.5002],[109.0514,2.5035],[109.0532,2.5025],[109.0543,2.5036],[109.0576,2.5003],[109.0615,2.4997],[109.0636,2.4968],[109.0695,2.4977],[109.0719,2.4957],[109.073,2.4981],[109.0745,2.4957],[109.0808,2.4939],[109.0821,2.489],[109.0884,2.4925],[109.0901,2.4976],[109.093,2.5002],[109.0969,2.4982],[109.101,2.5012],[109.1123,2.5038],[109.1183,2.508],[109.1165,2.5217],[109.121,2.5284],[109.1191,2.5311],[109.1174,2.5312],[109.1175,2.5291],[109.115,2.5272],[109.1012,2.5285],[109.0861,2.5246],[109.084,2.5255],[109.0844,2.5232],[109.0811,2.5213],[109.0621,2.5237],[109.048,2.5279],[109.0295,2.5361],[109.0221,2.543],[109.0203,2.5529],[109.0125,2.5569],[109.0093,2.5564],[109.0078,2.5598],[108.9974,2.5585],[108.9939,2.5604],[108.9881,2.5544],[108.9758,2.556],[108.9767,2.5504],[108.9747,2.5432]]],[[[108.9787,2.5168],[108.9787,2.5165],[108.9792,2.5169],[108.9787,2.5168]]],[[[108.9813,2.4646],[108.9816,2.4625],[108.9824,2.4618],[108.9826,2.4625],[108.9813,2.4646]]],[[[108.9828,2.505],[108.9847,2.5009],[108.9868,2.5014],[108.9858,2.5066],[108.9828,2.505]]],[[[108.9838,2.5012],[108.9839,2.5],[108.9849,2.5005],[108.9838,2.5012]]],[[[108.984,2.5067],[108.984,2.5065],[108.9842,2.5067],[108.984,2.5067]]],[[[108.9849,2.4831],[108.9855,2.4811],[108.9874,2.4812],[108.9849,2.4831]]],[[[108.9849,2.4996],[108.9869,2.4984],[108.9887,2.5017],[108.9857,2.501],[108.9849,2.4996]]],[[[108.9864,2.4961],[108.9887,2.4934],[108.9869,2.4908],[108.9887,2.4909],[108.9898,2.489],[108.9935,2.4894],[108.9972,2.4934],[108.9929,2.4952],[108.9924,2.4984],[108.9941,2.499],[108.9929,2.5001],[108.991,2.4988],[108.988,2.4997],[108.9864,2.4961]]],[[[108.987,2.506],[108.987,2.5054],[108.9873,2.5055],[108.987,2.506]]],[[[108.9869,2.4794],[108.9887,2.4785],[108.989,2.4788],[108.9885,2.4796],[108.9869,2.4794]]],[[[108.9882,2.4896],[108.9887,2.4886],[108.9885,2.4898],[108.9882,2.4896]]],[[[108.9888,2.4693],[108.9929,2.4698],[108.9945,2.4717],[108.9937,2.474],[108.9903,2.4736],[108.9888,2.4693]]],[[[108.9903,2.4771],[108.9904,2.476],[108.9911,2.4766],[108.9903,2.4771]]],[[[108.996,2.4769],[108.996,2.4759],[108.9968,2.4757],[108.996,2.4769]]],[[[108.9979,2.494],[108.9979,2.4937],[108.998,2.4938],[108.9979,2.494]]],[[[109.0479,2.4907],[109.0497,2.4907],[109.0499,2.4935],[109.0488,2.4928],[109.0479,2.4907]]],[[[109.1222,2.5596],[109.1236,2.5583],[109.1252,2.561],[109.1233,2.5614],[109.1222,2.5596]]],[[[109.1222,2.4624],[109.1227,2.4591],[109.1262,2.4565],[109.1308,2.4594],[109.1222,2.4624]]],[[[109.1356,2.6241],[109.1357,2.6209],[109.1366,2.6207],[109.1356,2.6241]]],[[[109.1361,2.5371],[109.1383,2.5351],[109.1437,2.5397],[109.1455,2.5454],[109.1445,2.5477],[109.1395,2.5436],[109.1398,2.5419],[109.1361,2.5371]]],[[[109.1371,2.619],[109.1369,2.6169],[109.138,2.6191],[109.1371,2.619]]],[[[109.1402,2.6276],[109.1408,2.623],[109.143,2.6236],[109.1441,2.6273],[109.142,2.6291],[109.1402,2.6276]]],[[[109.1565,2.5981],[109.1559,2.5862],[109.1572,2.5833],[109.1593,2.5828],[109.1629,2.5866],[109.164,2.5928],[109.1583,2.5986],[109.1565,2.5981]]],[[[109.1658,2.6447],[109.1654,2.6425],[109.1676,2.6454],[109.1658,2.6447]]]]}}]}