{"type": "FeatureCollection", "features": [{"type": "Feature", "properties": {"name": "Rouen", "admin": "arrondîment", "source": "\u00a9 OpenStreetMap contributors, ODbL 1.0", "osm_relation": 3018659}, "geometry": {"type": "Polygon", "coordinates": [[[0.6000692, 49.5594203], [0.6001584, 49.5566998], [0.6017147, 49.5569009], [0.6019814, 49.5592521], [0.605681, 49.5597627], [0.612332, 49.5578135], [0.614689, 49.5557717], [0.6167862, 49.5573569], [0.6184241, 49.5566805], [0.6184324, 49.555008], [0.6158884, 49.5537018], [0.6171743, 49.5508127], [0.6149347, 49.5498169], [0.6186799, 49.5493329], [0.6192536, 49.5483344], [0.614028, 49.548368], [0.616353, 49.5476571], [0.6124569, 49.5435386], [0.6131087, 49.5412913], [0.6181944, 49.5359973], [0.6175953, 49.5355398], [0.625759, 49.5314621], [0.626782, 49.5271056], [0.6293883, 49.5270086], [0.630602, 49.5247228], [0.6289036, 49.5229244], [0.6301127, 49.5228473], [0.6342359, 49.5172966], [0.6337837, 49.5153102], [0.6275897, 49.5167996], [0.628345, 49.5132704], [0.6270058, 49.5131809], [0.6273663, 49.5117676], [0.6310751, 49.5114043], [0.6307646, 49.5094237], [0.6319537, 49.5093526], [0.6321004, 49.5079297], [0.6294512, 49.5072003], [0.6301722, 49.5071808], [0.6309559, 49.5036441], [0.6285905, 49.5017535], [0.6288539, 49.4991149], [0.6356479, 49.4993856], [0.6408664, 49.5013082], [0.6501713, 49.5016262], [0.6516897, 49.5025999], [0.6544248, 49.501301], [0.654613, 49.5002209], [0.6530259, 49.499489], [0.652933, 49.4980832], [0.6545517, 49.4970108], [0.659067, 49.4966761], [0.6584656, 49.4957027], [0.6602859, 49.4949153], [0.6607649, 49.4941675], [0.6585651, 49.4919109], [0.6673303, 49.4856851], [0.6658908, 49.4667245], [0.6641578, 49.4597844], [0.6586969, 49.4536961], [0.6430656, 49.4443899], [0.6453998, 49.4415454], [0.6489261, 49.43995], [0.6491722, 49.4379285], [0.648252, 49.4397658], [0.6424891, 49.4399764], [0.6362855, 49.4368877], [0.633581, 49.4338146], [0.6342868, 49.4328938], [0.6328744, 49.4296516], [0.6301191, 49.4272042], [0.6294271, 49.4242912], [0.6299739, 49.4222235], [0.6319682, 49.4225367], [0.6409878, 49.4278046], [0.6454651, 49.4262039], [0.6409399, 49.4238218], [0.6418935, 49.4225887], [0.6435787, 49.4234383], [0.6451283, 49.4218119], [0.6393338, 49.4184917], [0.6436712, 49.4166253], [0.64467, 49.4149916], [0.6523519, 49.4219483], [0.6598854, 49.4155328], [0.6569516, 49.4124142], [0.649439, 49.4090522], [0.6549416, 49.4054023], [0.6570599, 49.4060727], [0.6616585, 49.4021807], [0.6645432, 49.4016731], [0.6789021, 49.4053038], [0.6901026, 49.4064004], [0.695253, 49.4053513], [0.6979385, 49.4027088], [0.7048687, 49.4023875], [0.7098582, 49.4079526], [0.7068255, 49.4095856], [0.7078159, 49.4107662], [0.714268, 49.4098188], [0.7170605, 49.4115058], [0.7252334, 49.4109158], [0.7388351, 49.4083738], [0.7432725, 49.4097617], [0.7422714, 49.4129299], [0.748178, 49.4145431], [0.7485921, 49.4137014], [0.7532377, 49.4146918], [0.7545317, 49.4135446], [0.7569348, 49.4139973], [0.7595371, 49.4148007], [0.7634566, 49.4194873], [0.7667746, 49.4198818], [0.775799, 49.4176396], [0.7750723, 49.4162155], [0.7778896, 49.4144501], [0.7777893, 49.4134232], [0.7798315, 49.4117704], [0.7833885, 49.4107519], [0.7870658, 49.4118179], [0.789053, 49.4141477], [0.7981897, 49.4175599], [0.800604, 49.4128921], [0.8049685, 49.4115664], [0.8018178, 49.4239019], [0.8009008, 49.4238653], [0.8006803, 49.4263351], [0.7998018, 49.4260815], [0.799331, 49.4270415], [0.8029907, 49.4274013], [0.8071822, 49.4121061], [0.8098772, 49.4060751], [0.8144578, 49.4011061], [0.8220468, 49.3966041], [0.8338711, 49.3933809], [0.8440805, 49.392339], [0.8513369, 49.3927612], [0.8605546, 49.3954141], [0.8619924, 49.3922335], [0.8782297, 49.3960302], [0.87897, 49.3948901], [0.874465, 49.3926306], [0.8735385, 49.3906625], [0.8753629, 49.3904832], [0.8793667, 49.3877697], [0.8853405, 49.3874838], [0.8848737, 49.386628], [0.8805613, 49.38724], [0.8853862, 49.3831826], [0.88525, 49.3816617], [0.883801, 49.3764969], [0.8800504, 49.3764223], [0.8787953, 49.3725279], [0.8830268, 49.3745345], [0.8931567, 49.3724618], [0.8930418, 49.3735207], [0.8913087, 49.3745287], [0.8955768, 49.3797109], [0.9055198, 49.3806125], [0.9079136, 49.3831983], [0.913005, 49.3841871], [0.9143223, 49.3853659], [0.9176609, 49.3854074], [0.9171984, 49.3711373], [0.9195248, 49.365132], [0.9241671, 49.358792], [0.921545, 49.3575], [0.9211126, 49.3562945], [0.9227259, 49.3557267], [0.9225403, 49.3545921], [0.9243094, 49.3530456], [0.9229766, 49.3522406], [0.9208915, 49.3531844], [0.9234155, 49.3510603], [0.9233813, 49.3498925], [0.9270004, 49.3488181], [0.9320528, 49.3450691], [0.9294543, 49.3422369], [0.9269148, 49.340806], [0.9245374, 49.3408295], [0.9204278, 49.338097], [0.9147741, 49.3396442], [0.9081304, 49.3397539], [0.902109, 49.3419046], [0.9013252, 49.3435801], [0.8986392, 49.3448685], [0.8962124, 49.3437987], [0.895194, 49.3452813], [0.8900589, 49.3450874], [0.8822801, 49.3477301], [0.8798009, 49.3470892], [0.8810088, 49.3449072], [0.8710428, 49.3418531], [0.8689831, 49.3430011], [0.8660009, 49.3426208], [0.8648367, 49.3433091], [0.8650872, 49.3454613], [0.8602869, 49.3467219], [0.8564811, 49.3429497], [0.8593809, 49.3397557], [0.8537745, 49.3375862], [0.8504907, 49.3375076], [0.8480563, 49.3360435], [0.851988, 49.3335334], [0.8526797, 49.3314928], [0.8485791, 49.3317868], [0.847717, 49.330521], [0.841686, 49.3294386], [0.8444614, 49.3247424], [0.8511087, 49.3242707], [0.852335, 49.3265751], [0.8547566, 49.3266849], [0.8602065, 49.3250022], [0.8621572, 49.3261627], [0.8621505, 49.3288645], [0.863148, 49.3270053], [0.8620778, 49.3241687], [0.8645529, 49.3224598], [0.8696751, 49.3236038], [0.87906, 49.319751], [0.8872839, 49.3209714], [0.8856288, 49.3195126], [0.8878959, 49.3186224], [0.8917416, 49.3139859], [0.8992856, 49.3188206], [0.8965854, 49.3161948], [0.8986763, 49.3168595], [0.8998992, 49.3156197], [0.8927186, 49.3111211], [0.8927296, 49.3056726], [0.8958987, 49.3041557], [0.8962332, 49.303058], [0.8922332, 49.3025375], [0.9006975, 49.2968922], [0.9014385, 49.2976734], [0.9100716, 49.2984422], [0.9070932, 49.307381], [0.9224357, 49.3124088], [0.9288917, 49.3136168], [0.9377932, 49.3228081], [0.9399529, 49.3228646], [0.9406738, 49.3166223], [0.9416874, 49.3149803], [0.9412651, 49.3133715], [0.9432299, 49.3117805], [0.9439793, 49.3092382], [0.9471341, 49.3073395], [0.9469146, 49.3055517], [0.9502184, 49.304988], [0.9491934, 49.3030149], [0.95011, 49.3026615], [0.9494323, 49.3012248], [0.9499834, 49.296674], [0.9525635, 49.2939907], [0.963452, 49.2945129], [0.9626269, 49.2923906], [0.9573316, 49.2885098], [0.9627918, 49.2889031], [0.9705764, 49.2851426], [0.9654692, 49.2863521], [0.9599691, 49.2843909], [0.9589147, 49.2867198], [0.9561689, 49.2852134], [0.9579886, 49.2819681], [0.9563594, 49.2801445], [0.9529393, 49.2792971], [0.9492815, 49.2798097], [0.9566008, 49.2749322], [0.9562845, 49.2711974], [0.9569566, 49.2707698], [0.9623172, 49.2768766], [0.9650881, 49.2777946], [0.9658624, 49.2768585], [0.9678052, 49.2769138], [0.9705881, 49.2805158], [0.9730803, 49.28097], [0.9733621, 49.2798599], [0.9754492, 49.2787712], [0.9742517, 49.2772245], [0.9743112, 49.2732214], [0.9772286, 49.2718069], [0.9793678, 49.2719461], [0.9804043, 49.2689338], [0.9859407, 49.2702569], [0.9871037, 49.2686878], [0.9887374, 49.2684701], [0.9872489, 49.2679741], [0.9851286, 49.2607232], [0.9891246, 49.2639596], [0.9977162, 49.2615966], [1.0066684, 49.2651165], [1.0085974, 49.2627521], [1.0011798, 49.2601338], [0.9954612, 49.2602014], [0.9920321, 49.2582144], [0.9940346, 49.257254], [0.9930229, 49.2560761], [0.9927913, 49.2533405], [1.0052769, 49.2506708], [1.0070875, 49.251129], [1.0076174, 49.2526383], [1.0134016, 49.2523041], [1.0143849, 49.2529986], [1.0038276, 49.2564113], [1.0155536, 49.2535313], [1.0191754, 49.2565243], [1.0157158, 49.2586896], [1.0214885, 49.2568852], [1.0276312, 49.2587862], [1.0274955, 49.2597048], [1.0368144, 49.2609846], [1.0383891, 49.2596815], [1.0387761, 49.2576909], [1.0458038, 49.2604857], [1.0492611, 49.2635226], [1.0516689, 49.2625015], [1.0511743, 49.2584562], [1.0532928, 49.2627019], [1.0536314, 49.2614663], [1.0566411, 49.2597775], [1.0630269, 49.2589006], [1.0641939, 49.2611553], [1.0630964, 49.2615988], [1.0649555, 49.2629408], [1.0592086, 49.2649367], [1.0573066, 49.2673943], [1.0559396, 49.2665057], [1.0538775, 49.2679535], [1.0519287, 49.2728369], [1.057387, 49.2758022], [1.0687487, 49.2766395], [1.0654512, 49.2804116], [1.0645642, 49.2840354], [1.0624823, 49.2835225], [1.0601089, 49.2870364], [1.0587607, 49.2867649], [1.0549058, 49.2913413], [1.0529679, 49.2904273], [1.0517381, 49.2920813], [1.0501035, 49.2917536], [1.0493264, 49.2933029], [1.0522731, 49.2941104], [1.0476731, 49.2976356], [1.0670253, 49.3035096], [1.0716036, 49.3066336], [1.0822843, 49.3090081], [1.0950615, 49.3099311], [1.1344695, 49.3099495], [1.1345008, 49.3248683], [1.137132, 49.3258049], [1.1390764, 49.3292722], [1.1455822, 49.3294427], [1.1442911, 49.3305951], [1.1456168, 49.3354225], [1.1545398, 49.3350772], [1.1567354, 49.3377822], [1.1593741, 49.338788], [1.1593451, 49.3400021], [1.1609232, 49.3401269], [1.1605382, 49.3417271], [1.1635356, 49.342827], [1.1646683, 49.3430198], [1.1653232, 49.3417305], [1.166955, 49.3413483], [1.1672499, 49.3382791], [1.1661595, 49.3368905], [1.1687215, 49.3358743], [1.172412, 49.3387392], [1.172219, 49.3416191], [1.1801593, 49.3425056], [1.1799471, 49.3438629], [1.1818019, 49.3440265], [1.1830661, 49.3439395], [1.1833192, 49.3423784], [1.1864919, 49.3426773], [1.1876759, 49.3418112], [1.1842118, 49.3410533], [1.1849493, 49.3377894], [1.1945676, 49.3377646], [1.2005378, 49.3392186], [1.2031751, 49.3364016], [1.2043852, 49.3372231], [1.2015863, 49.3395691], [1.1982522, 49.3468705], [1.2001312, 49.3502868], [1.1989753, 49.3508244], [1.1981406, 49.3532097], [1.2000906, 49.355532], [1.1993806, 49.3534523], [1.1999986, 49.35137], [1.2097494, 49.3525394], [1.2092616, 49.3501653], [1.2176701, 49.3496636], [1.2177853, 49.3490049], [1.272084, 49.3462634], [1.2721106, 49.3570593], [1.2817283, 49.3568445], [1.2827046, 49.362955], [1.286314, 49.3626897], [1.2848702, 49.3636832], [1.2866726, 49.3664464], [1.2858012, 49.3738731], [1.2898268, 49.3755499], [1.2888377, 49.378339], [1.2853026, 49.3827327], [1.2878971, 49.38504], [1.2878705, 49.3860211], [1.2850895, 49.3881062], [1.2916062, 49.388359], [1.2931562, 49.3949935], [1.3003764, 49.3939625], [1.3078823, 49.3953041], [1.3077059, 49.4017961], [1.3101419, 49.4022076], [1.3101516, 49.4034653], [1.3109616, 49.4034901], [1.310344, 49.4068214], [1.3122922, 49.4067867], [1.3103322, 49.4105955], [1.3134009, 49.4146286], [1.3156763, 49.4077533], [1.3157812, 49.411547], [1.3120544, 49.4232547], [1.313059, 49.4232215], [1.3106747, 49.426463], [1.308447, 49.4270021], [1.309362, 49.4286943], [1.314327, 49.428942], [1.312585, 49.429498], [1.317534, 49.4292], [1.326962, 49.431428], [1.328304, 49.430569], [1.331167, 49.430845], [1.332097, 49.429346], [1.336724, 49.427745], [1.339284, 49.429797], [1.335146, 49.430738], [1.336008, 49.431992], [1.335144, 49.43216], [1.335965, 49.437967], [1.337425, 49.43909], [1.3414628, 49.4385977], [1.3475869, 49.4346836], [1.3502087, 49.4359385], [1.3512998, 49.4377528], [1.3491299, 49.4382898], [1.3469257, 49.440529], [1.3408899, 49.4422802], [1.3433636, 49.4454666], [1.3426773, 49.4462735], [1.3452371, 49.4479864], [1.3494989, 49.4475488], [1.3500123, 49.4486015], [1.3544326, 49.448951], [1.357531, 49.4479141], [1.3613519, 49.4482218], [1.3699352, 49.4517521], [1.3709189, 49.4509933], [1.3718762, 49.4514398], [1.3712451, 49.4527205], [1.3759936, 49.453318], [1.3745714, 49.4546663], [1.3791896, 49.4578176], [1.3830008, 49.4580957], [1.3862696, 49.4634362], [1.3914176, 49.4616531], [1.3965006, 49.4625813], [1.4042841, 49.4683315], [1.4056693, 49.4683404], [1.4053286, 49.4700463], [1.4097253, 49.4713724], [1.4069667, 49.4711668], [1.4062853, 49.4723061], [1.4026733, 49.4717377], [1.3934287, 49.4764744], [1.3925211, 49.4787251], [1.3910421, 49.478077], [1.3872925, 49.479158], [1.3879876, 49.4799626], [1.3873247, 49.4803209], [1.3847767, 49.4806358], [1.3832508, 49.4852687], [1.3823018, 49.4854746], [1.3827694, 49.487936], [1.3796488, 49.4915596], [1.378527, 49.4946057], [1.3757866, 49.4941327], [1.3731341, 49.4959755], [1.3759775, 49.4996196], [1.3752963, 49.4995759], [1.3763548, 49.502498], [1.3815519, 49.5043932], [1.3813196, 49.5016796], [1.3841875, 49.4989212], [1.3888982, 49.4999627], [1.3894067, 49.5039134], [1.3902383, 49.5028578], [1.3907433, 49.5041943], [1.3921309, 49.5039873], [1.3934377, 49.5055066], [1.3970358, 49.5049367], [1.3981497, 49.5033731], [1.3978943, 49.5020954], [1.399529, 49.5017656], [1.3999049, 49.5036003], [1.4011464, 49.5035523], [1.4001738, 49.5051974], [1.4013793, 49.5064771], [1.3987671, 49.506999], [1.4028519, 49.5117157], [1.4088326, 49.5155543], [1.4087555, 49.5173628], [1.4165385, 49.522582], [1.4128511, 49.5258203], [1.4124658, 49.5327256], [1.4414186, 49.5380113], [1.4344264, 49.551838], [1.4334712, 49.5558693], [1.4348592, 49.5574584], [1.4323702, 49.5584653], [1.4392129, 49.5597137], [1.4375845, 49.5660359], [1.439616, 49.569625], [1.4433948, 49.5706791], [1.4421413, 49.5717918], [1.4447464, 49.5730469], [1.4409448, 49.573876], [1.4409723, 49.5758185], [1.4450822, 49.5742948], [1.4451026, 49.5751226], [1.4470371, 49.5747019], [1.4476148, 49.5754366], [1.4452857, 49.5763207], [1.4438991, 49.5795385], [1.4400419, 49.5818661], [1.4408289, 49.5825743], [1.4427037, 49.5815561], [1.4416505, 49.5824756], [1.4444878, 49.5834259], [1.4478064, 49.5820672], [1.4502686, 49.5854633], [1.4521223, 49.5855709], [1.4432387, 49.589081], [1.4381874, 49.5935069], [1.4358697, 49.5992437], [1.4317519, 49.6020858], [1.4268609, 49.6019013], [1.4205163, 49.6052466], [1.4207436, 49.6065777], [1.4174402, 49.6110268], [1.4173479, 49.6133928], [1.4264607, 49.6173063], [1.4333341, 49.6175802], [1.4337682, 49.618384], [1.4325695, 49.6206711], [1.4283243, 49.6203514], [1.4276202, 49.6234053], [1.4245503, 49.6238583], [1.4213327, 49.6228636], [1.4176572, 49.6233476], [1.4150893, 49.6197614], [1.4092531, 49.625299], [1.4051496, 49.6309559], [1.3964801, 49.6333431], [1.3918233, 49.6331175], [1.393184, 49.628194], [1.400156, 49.621515], [1.399152, 49.619641], [1.386341, 49.6130217], [1.373383, 49.613984], [1.3688, 49.61003], [1.356659, 49.607953], [1.3517838, 49.6048515], [1.350859, 49.60324], [1.3472629, 49.6059267], [1.3445672, 49.603747], [1.340175, 49.604726], [1.336377, 49.604], [1.3337553, 49.6020123], [1.3315272, 49.6044343], [1.3235886, 49.6058671], [1.3217711, 49.5972472], [1.3196419, 49.5954378], [1.308659, 49.5948657], [1.3005227, 49.5929488], [1.2955474, 49.5944587], [1.2907863, 49.5933754], [1.2909972, 49.5927283], [1.2860924, 49.5921949], [1.2845837, 49.589969], [1.2824669, 49.5905805], [1.2828069, 49.5911156], [1.2769031, 49.5914438], [1.2742327, 49.5978877], [1.2687112, 49.6009144], [1.2706912, 49.6019783], [1.2679917, 49.6075121], [1.2636211, 49.6084729], [1.2600988, 49.6057177], [1.2527711, 49.6063147], [1.2516219, 49.6054867], [1.2472662, 49.606946], [1.2457742, 49.6055036], [1.2496257, 49.6042104], [1.2455512, 49.6037101], [1.2436677, 49.6018126], [1.2400233, 49.6033063], [1.2370359, 49.5980673], [1.2411202, 49.5962229], [1.2396564, 49.5940394], [1.2276724, 49.5999844], [1.2347503, 49.6069422], [1.2292819, 49.6074519], [1.2346116, 49.6153265], [1.2313851, 49.6162586], [1.2322548, 49.6179331], [1.2197942, 49.6197102], [1.2209264, 49.6209223], [1.2221236, 49.6261619], [1.2235231, 49.626788], [1.225189, 49.6258133], [1.2331063, 49.6286045], [1.2308738, 49.6303911], [1.2329596, 49.6315573], [1.2360496, 49.6291434], [1.2434294, 49.6330139], [1.2376733, 49.6358803], [1.2403082, 49.6363857], [1.2486179, 49.6450221], [1.2477529, 49.6488339], [1.2420186, 49.6510849], [1.2371507, 49.6555768], [1.2380487, 49.6591937], [1.2352109, 49.6608779], [1.236235, 49.662322], [1.2341273, 49.6652599], [1.2353504, 49.6666834], [1.2326001, 49.6678596], [1.23367, 49.669699], [1.2312519, 49.6707973], [1.232232, 49.6725816], [1.229689, 49.6744731], [1.2313678, 49.6770647], [1.2304174, 49.6791525], [1.2287611, 49.6800132], [1.2215898, 49.6765036], [1.216776, 49.6794988], [1.2168301, 49.6782464], [1.2108042, 49.672564], [1.2061743, 49.6784861], [1.2040827, 49.6758312], [1.198388, 49.6777194], [1.1960385, 49.6743697], [1.1908069, 49.6773099], [1.1847501, 49.6721372], [1.1829038, 49.6678446], [1.194087, 49.6653066], [1.191583, 49.6634522], [1.1933087, 49.6612152], [1.194974, 49.6610291], [1.1933788, 49.6594362], [1.1817869, 49.6586719], [1.1708376, 49.6473805], [1.1765094, 49.6447329], [1.1734254, 49.6373585], [1.1674923, 49.6372266], [1.1679845, 49.6364507], [1.1663395, 49.6364131], [1.1658961, 49.6355543], [1.167067, 49.6346775], [1.1658432, 49.6343851], [1.1622403, 49.6263665], [1.1627933, 49.6230195], [1.1649377, 49.6192469], [1.1617917, 49.6181633], [1.1588932, 49.6214725], [1.156221, 49.6195826], [1.1502116, 49.6220628], [1.1510295, 49.6251864], [1.1442798, 49.6254774], [1.1452969, 49.6270578], [1.143038, 49.6281592], [1.1409753, 49.6278282], [1.1400775, 49.6300907], [1.1362586, 49.6294632], [1.1353094, 49.6310092], [1.1263561, 49.6312192], [1.1274987, 49.6322882], [1.1219645, 49.6344227], [1.118908, 49.634281], [1.1080429, 49.6368429], [1.1091036, 49.6403288], [1.0928482, 49.6409243], [1.0845874, 49.6440744], [1.08082, 49.6466941], [1.0732556, 49.6442002], [1.0722424, 49.6415252], [1.0707858, 49.6435367], [1.0698958, 49.642458], [1.069398, 49.643137], [1.0673022, 49.6425542], [1.067391, 49.6412603], [1.066339, 49.6421995], [1.0606923, 49.6409909], [1.0610067, 49.6392745], [1.0574754, 49.6380994], [1.0604021, 49.6366183], [1.0622452, 49.6378936], [1.0666593, 49.6359111], [1.0636928, 49.63394], [1.0639384, 49.6317753], [1.0653388, 49.6301101], [1.0744151, 49.6284972], [1.0749002, 49.6262751], [1.0690778, 49.6239417], [1.0679369, 49.6223865], [1.0563864, 49.6286798], [1.0584579, 49.6309483], [1.0569484, 49.6357842], [1.0475782, 49.6343027], [1.047111, 49.6327725], [1.0463025, 49.6327321], [1.0469824, 49.6324858], [1.0483505, 49.6187935], [1.0446395, 49.6173829], [1.0396272, 49.6173932], [1.0391646, 49.618419], [1.0360068, 49.6178764], [1.0340565, 49.6194501], [1.0266487, 49.6213883], [1.0245997, 49.6243106], [1.0170565, 49.6256014], [1.0178101, 49.6260151], [1.014335, 49.6274627], [1.0095141, 49.6272533], [1.0095874, 49.6256645], [1.0089502, 49.6271364], [1.0058751, 49.6267582], [1.005998, 49.6274081], [1.0029409, 49.6279961], [1.0043583, 49.6306948], [1.0023694, 49.630999], [1.0045026, 49.6334858], [1.003342, 49.633633], [1.004454, 49.6343319], [1.0031163, 49.6348151], [1.0041406, 49.6356318], [0.9994167, 49.6410456], [0.985666, 49.645828], [0.988988, 49.648446], [0.988055, 49.648886], [0.9960593, 49.6554511], [0.9996591, 49.6600634], [0.9908945, 49.6656946], [0.987803, 49.666312], [0.9880668, 49.6671313], [0.979957, 49.671146], [0.977131, 49.671052], [0.976846, 49.673285], [0.971959, 49.674731], [0.969842, 49.674083], [0.967991, 49.676084], [0.966662, 49.675119], [0.9626956, 49.678278], [0.963414, 49.679424], [0.959828, 49.682233], [0.960271, 49.68303], [0.957219, 49.682859], [0.9537055, 49.686537], [0.952238, 49.686478], [0.952434, 49.685564], [0.947677, 49.682269], [0.9406666, 49.678834], [0.9398364, 49.6795053], [0.9365, 49.682439], [0.932441, 49.690462], [0.928414, 49.69465], [0.929414, 49.700839], [0.926868, 49.703616], [0.92429, 49.704089], [0.925656, 49.704795], [0.923647, 49.705957], [0.9288074, 49.7106345], [0.926454, 49.710925], [0.931259, 49.715987], [0.931008, 49.717172], [0.927009, 49.7214], [0.918438, 49.727925], [0.921173, 49.730345], [0.916847, 49.731852], [0.9146608, 49.7308567], [0.912716, 49.7317101], [0.9137192, 49.7332475], [0.9105852, 49.7337483], [0.9111833, 49.7368871], [0.9066031, 49.745277], [0.9106722, 49.746396], [0.909761, 49.748718], [0.907724, 49.748167], [0.9066907, 49.7553939], [0.9034992, 49.75478], [0.9031734, 49.7554999], [0.8940795, 49.7573003], [0.8934111, 49.7558573], [0.8877918, 49.757402], [0.8869435, 49.756549], [0.8812351, 49.7573009], [0.880995, 49.7640144], [0.883953, 49.7704295], [0.880029, 49.7710966], [0.882608, 49.7773228], [0.8829792, 49.7814108], [0.8734175, 49.7778839], [0.8729666, 49.7790258], [0.8704347, 49.776503], [0.8710945, 49.7760584], [0.8644536, 49.7696518], [0.8598079, 49.7700297], [0.8584849, 49.7710569], [0.8592597, 49.7714969], [0.8586278, 49.7720326], [0.8560002, 49.7723889], [0.854069, 49.777904], [0.8553726, 49.783646], [0.8548443, 49.7851834], [0.8427069, 49.7815445], [0.8410332, 49.7841035], [0.8387696, 49.7834644], [0.8387404, 49.784669], [0.8242454, 49.7823543], [0.8241882, 49.7834793], [0.8181538, 49.7829244], [0.8147803, 49.7713839], [0.8022112, 49.771547], [0.7957752, 49.7707545], [0.7957109, 49.7692496], [0.7844964, 49.7687748], [0.7835017, 49.76665], [0.7738179, 49.766405], [0.7739539, 49.7644436], [0.7716264, 49.7643839], [0.7718937, 49.7620755], [0.7656291, 49.7569724], [0.7611627, 49.750395], [0.7578774, 49.7491632], [0.7527098, 49.7500807], [0.7517392, 49.7486691], [0.7562005, 49.7460517], [0.7562014, 49.7438347], [0.7542801, 49.7408475], [0.7527739, 49.740477], [0.7534776, 49.7392591], [0.7458221, 49.7400225], [0.7477185, 49.7393886], [0.7472191, 49.7385872], [0.7444803, 49.7393508], [0.7436581, 49.7383046], [0.7421763, 49.7395424], [0.7408089, 49.738949], [0.7398506, 49.7395744], [0.7360926, 49.7363251], [0.7337294, 49.7377281], [0.7302457, 49.7381112], [0.7291048, 49.7331564], [0.7283134, 49.7332023], [0.7276972, 49.7316966], [0.723126, 49.7323395], [0.7211987, 49.7317796], [0.7205964, 49.7305814], [0.7164906, 49.7305909], [0.715923, 49.7281317], [0.7147999, 49.7282521], [0.7139453, 49.7257645], [0.7106312, 49.722372], [0.7084309, 49.7220782], [0.7072933, 49.723894], [0.6990759, 49.7254921], [0.6898796, 49.7184705], [0.687308, 49.7204835], [0.6855721, 49.719933], [0.6835098, 49.7179299], [0.6836109, 49.7148358], [0.6828032, 49.7146741], [0.6853274, 49.7115681], [0.6893721, 49.709854], [0.6897394, 49.7081655], [0.6879722, 49.7073525], [0.689213, 49.7055778], [0.6789958, 49.7045716], [0.6770992, 49.7025321], [0.674817, 49.7023802], [0.6740176, 49.6998162], [0.671196, 49.698234], [0.6732745, 49.6966536], [0.67701, 49.6965711], [0.6791136, 49.6943159], [0.6782612, 49.6938957], [0.6792116, 49.693075], [0.6788884, 49.6902306], [0.6815699, 49.688248], [0.6784605, 49.6858262], [0.6870519, 49.6838438], [0.6844673, 49.6794222], [0.684487, 49.6784262], [0.686335, 49.6770554], [0.6832552, 49.6753489], [0.6844675, 49.672773], [0.6831507, 49.6703532], [0.6833928, 49.6689709], [0.6861124, 49.6669536], [0.6863706, 49.6650915], [0.6894382, 49.6636586], [0.6888476, 49.6615672], [0.6917114, 49.6598055], [0.6915494, 49.658816], [0.6833672, 49.6519882], [0.6777513, 49.650871], [0.6721123, 49.6461665], [0.6678175, 49.643844], [0.6651113, 49.6436893], [0.6664792, 49.6424028], [0.6575525, 49.6384135], [0.6586838, 49.6373469], [0.6535629, 49.6350428], [0.6592778, 49.6341316], [0.6585702, 49.6339808], [0.6591126, 49.6334693], [0.6460156, 49.6300785], [0.6453547, 49.6285808], [0.6427302, 49.6273714], [0.6442976, 49.626359], [0.6421593, 49.6248721], [0.6494723, 49.6213662], [0.645519, 49.6197793], [0.6504881, 49.615892], [0.6523346, 49.6165801], [0.6529992, 49.6157549], [0.6512535, 49.615093], [0.6550716, 49.6112448], [0.6422346, 49.6073175], [0.6429544, 49.6067774], [0.6417694, 49.6064089], [0.6488464, 49.6019744], [0.6478418, 49.6014566], [0.6475001, 49.5995056], [0.6408621, 49.5935268], [0.6361977, 49.5918691], [0.6369375, 49.5907503], [0.6334768, 49.5894843], [0.6306835, 49.5929557], [0.6282465, 49.5916477], [0.6269007, 49.592131], [0.62627, 49.590954], [0.6243351, 49.5909867], [0.625037, 49.5902997], [0.6238279, 49.5897977], [0.6246881, 49.5885858], [0.6277857, 49.5864386], [0.6286487, 49.5843059], [0.6281831, 49.5828664], [0.6152858, 49.580996], [0.6116582, 49.5775581], [0.6066909, 49.5706088], [0.6080965, 49.5700045], [0.607583, 49.5690312], [0.6052508, 49.569458], [0.6028786, 49.5672674], [0.6009146, 49.5675597], [0.6000692, 49.5594203]]]}},{"type":"Feature","properties":{"name":"Caen","admin":"arrond\u00eement","source":"\u00a9 OpenStreetMap contributors, ODbL 1.0","osm_relation":1656907},"geometry":{"type":"MultiPolygon","coordinates":[[[[-0.2282142,49.280482],[-0.2456867,49.2793478],[-0.2469369,49.2924099],[-0.2945175,49.2966284],[-0.3956001,49.3332389],[-0.4668229,49.3378492],[-0.461677,49.329366],[-0.4734591,49.3215268],[-0.4673196,49.3054145],[-0.4804063,49.2993538],[-0.4826433,49.2824873],[-0.4412637,49.3031982],[-0.4250942,49.304304],[-0.4113237,49.2908529],[-0.4500772,49.2663318],[-0.4928604,49.2737],[-0.4991405,49.2605082],[-0.5187612,49.2552642],[-0.4935664,49.2521327],[-0.4966912,49.2436386],[-0.5806412,49.2385992],[-0.5573057,49.2254545],[-0.5866018,49.2200331],[-0.5532456,49.1972763],[-0.5567302,49.1613254],[-0.5470493,49.1477802],[-0.5543576,49.1413419],[-0.5228722,49.1224408],[-0.5585712,49.0936841],[-0.5458147,49.0865829],[-0.5488839,49.0762984],[-0.5205346,49.0603689],[-0.5478458,49.0445579],[-0.5455399,49.0300634],[-0.5647163,49.0048199],[-0.5553097,48.9939976],[-0.5844748,48.9636772],[-0.5635947,48.9235433],[-0.5187811,48.919658],[-0.5193642,48.9032611],[-0.5407466,48.8918894],[-0.521041,48.8913667],[-0.5039436,48.8757292],[-0.4362844,48.868855],[-0.4322354,48.874892],[-0.426483,48.8654925],[-0.409641,48.8718546],[-0.386246,48.8453092],[-0.3586823,48.846838],[-0.3734493,48.8349134],[-0.3455588,48.8218813],[-0.3265731,48.8400929],[-0.3356361,48.8447008],[-0.330209,48.8563605],[-0.3059187,48.8586428],[-0.2989449,48.8492438],[-0.2617694,48.8536629],[-0.2133855,48.8401397],[-0.2049551,48.8467313],[-0.1698616,48.8246589],[-0.127284,48.8157896],[-0.1463365,48.8346664],[-0.1233596,48.8396796],[-0.125538,48.8472119],[-0.1152184,48.8392126],[-0.0670388,48.8396486],[-0.0266322,48.8765629],[-0.0066658,48.8722295],[-0.0095163,48.8844909],[0.0561373,48.9016498],[0.0377332,48.9104454],[0.0146721,48.9067998],[0.0120753,48.9263105],[-0.0129515,48.9254991],[-0.012841,48.9406758],[-0.0278992,48.9404941],[-0.0255319,48.9547862],[-0.0114399,48.9559258],[-0.0105318,48.9711944],[-0.0602493,49.0031801],[-0.0464359,49.0088027],[-0.0672203,49.0159985],[-0.0670458,49.0411354],[-0.1225297,49.0388099],[-0.1238499,49.0485742],[-0.1561689,49.0551887],[-0.1374718,49.0755067],[-0.1005341,49.0678096],[-0.1007921,49.0864098],[-0.0883274,49.0885503],[-0.0937736,49.0987272],[-0.1265595,49.1014154],[-0.1189694,49.1207612],[-0.0962042,49.1245217],[-0.0743554,49.1598761],[-0.0673936,49.1577192],[-0.0976566,49.1636836],[-0.1157343,49.1792344],[-0.1628632,49.1815915],[-0.1614413,49.1930293],[-0.1706256,49.1986678],[-0.1598526,49.216058],[-0.2051073,49.2077267],[-0.2036886,49.1984803],[-0.2216991,49.187142],[-0.2468425,49.1869968],[-0.2958045,49.2118815],[-0.2655463,49.2534715],[-0.2417899,49.2728701],[-0.2294127,49.2698051],[-0.2282142,49.280482]]],[[[-0.4289555,48.863545],[-0.4331748,48.8658505],[-0.4289555,48.863545]]]]}}]}