{"type":"FeatureCollection","features":[{"type":"Feature","properties":{"name":"\u00c5lesund","admin":"kommune","source":"\u00a9 OpenStreetMap contributors, ODbL 1.0","osm_relation":16873323},"geometry":{"type":"MultiPolygon","coordinates":[[[[6.4626481,62.5250799],[6.5005433,62.5308291],[6.5163962,62.5332306],[6.5195042,62.527365],[6.5195553,62.5273307],[6.5227458,62.5244619],[6.5228048,62.5244648],[6.5232135,62.52448],[6.5236121,62.524502],[6.5243906,62.5242345],[6.5251079,62.5242993],[6.52567,62.5243663],[6.5268031,62.5246754],[6.5276126,62.524895],[6.5287058,62.5249395],[6.5291983,62.5249533],[6.5297916,62.5249235],[6.53063,62.5248664],[6.5315013,62.5251948],[6.5321193,62.5252735],[6.532433,62.5251877],[6.5330109,62.5250197],[6.5336105,62.5248384],[6.5342766,62.5246599],[6.5344161,62.5246248],[6.5348469,62.5246469],[6.5354224,62.5246819],[6.5354202,62.5246808],[6.5359276,62.5245191],[6.5360829,62.5244578],[6.5361732,62.5244313],[6.5375287,62.5242764],[6.5389557,62.5241209],[6.5399358,62.5240377],[6.5406624,62.5240045],[6.54128,62.5239711],[6.541604,62.5239529],[6.5425891,62.5241079],[6.5435915,62.5242506],[6.5445264,62.5243026],[6.5450982,62.5241425],[6.5457763,62.5239688],[6.5465208,62.5239733],[6.5469768,62.5240368],[6.5476877,62.5241391],[6.5482193,62.5242192],[6.5489814,62.5243391],[6.5497976,62.5244527],[6.5502628,62.5244797],[6.5510084,62.5245197],[6.5513288,62.5245807],[6.5522065,62.5247614],[6.55282,62.5248908],[6.5533735,62.5249221],[6.5541788,62.5251849],[6.5546254,62.5252414],[6.5552732,62.5252588],[6.5561343,62.5253077],[6.5568011,62.5253479],[6.5577768,62.5253102],[6.557961,62.5253444],[6.5583606,62.5254431],[6.5593856,62.5254104],[6.5607271,62.5254683],[6.561616,62.5253851],[6.561906,62.5253536],[6.5623219,62.5253163],[6.5624573,62.525306],[6.5625934,62.5252958],[6.5630466,62.5252614],[6.5632865,62.5252501],[6.5633487,62.5252445],[6.5633983,62.525242],[6.5636759,62.5252237],[6.5650142,62.5257436],[6.5654346,62.525788],[6.5667466,62.5257626],[6.5673089,62.5258005],[6.5678922,62.5256315],[6.5686557,62.5254102],[6.568966,62.5255092],[6.569987,62.5258343],[6.5707879,62.5260894],[6.5721603,62.5263033],[6.5728251,62.5258912],[6.573357,62.5255007],[6.5736775,62.5255298],[6.5738553,62.5255459],[6.5752801,62.5258017],[6.5758259,62.5259812],[6.5762149,62.5260496],[6.5763497,62.5260733],[6.5769595,62.5261667],[6.5788942,62.5264629],[6.5796069,62.5264018],[6.5802785,62.5264034],[6.5805449,62.526404],[6.5817313,62.5265126],[6.5824483,62.5265123],[6.5834531,62.5265123],[6.5853787,62.5270126],[6.5858207,62.5271019],[6.5865028,62.5272034],[6.5862997,62.5273856],[6.5867034,62.5275653],[6.5875149,62.5276859],[6.5881742,62.5276817],[6.5888782,62.5277113],[6.5892222,62.5277847],[6.5896717,62.5279465],[6.5901038,62.5281021],[6.5906714,62.5282092],[6.590817,62.5284031],[6.5909543,62.5285343],[6.5919404,62.5287916],[6.5919799,62.5288059],[6.5935126,62.5293657],[6.5938319,62.5294512],[6.5942563,62.5297717],[6.5946849,62.5300953],[6.5953664,62.5302061],[6.5966739,62.5304186],[6.5976389,62.5304928],[6.5981989,62.5305225],[6.5986931,62.5305104],[6.5991148,62.5305002],[6.6000558,62.5304818],[6.600855,62.530469],[6.6014025,62.5304619],[6.6022454,62.5304489],[6.6030666,62.5304385],[6.6034607,62.5304353],[6.6038113,62.5304323],[6.6048714,62.5304196],[6.6056087,62.5304113],[6.606296,62.5304132],[6.6069775,62.5304078],[6.6070644,62.5304078],[6.6075663,62.5304082],[6.6080973,62.530407],[6.6087677,62.530421],[6.6095163,62.5304358],[6.6105211,62.5304847],[6.6117403,62.5303916],[6.6124676,62.5303359],[6.6133724,62.5302706],[6.6152052,62.530102],[6.6164052,62.5310528],[6.6164367,62.531078],[6.6164885,62.531119],[6.6166458,62.5311164],[6.6168198,62.531122],[6.6170374,62.5311347],[6.6171964,62.5311543],[6.6173274,62.5311827],[6.6174899,62.531211],[6.6177345,62.5312515],[6.6179673,62.5313074],[6.6267919,62.5339606],[6.6283301,62.5337315],[6.6310526,62.5332387],[6.6345152,62.5328265],[6.6388147,62.5323192],[6.642199,62.5320706],[6.6444454,62.5320137],[6.6446848,62.5333301],[6.644657,62.5337974],[6.644597,62.5348215],[6.6445961,62.5349317],[6.6444746,62.53715],[6.6443447,62.5395202],[6.6443348,62.5395268],[6.6442523,62.5403375],[6.6442043,62.5409711],[6.6442091,62.5411522],[6.6441887,62.5414338],[6.6441307,62.5422339],[6.6439147,62.5430555],[6.645193,62.543073],[6.6498003,62.5431359],[6.6515061,62.5431591],[6.6535886,62.5437217],[6.655503,62.5442389],[6.6556931,62.5442903],[6.6572668,62.5447135],[6.6575577,62.5447918],[6.6585774,62.5450659],[6.6590536,62.5451812],[6.6622132,62.545946],[6.6640732,62.5463959],[6.6659331,62.5468461],[6.6686926,62.5475138],[6.6691337,62.5476633],[6.6719959,62.5486336],[6.6744153,62.5494537],[6.6755817,62.5498491],[6.6776863,62.5506277],[6.6813912,62.5519981],[6.6823047,62.5523361],[6.684159,62.553086],[6.6858674,62.553777],[6.686975,62.5542246],[6.6880827,62.5546722],[6.6896321,62.5552908],[6.6946197,62.5549974],[6.6969461,62.5548605],[6.7006392,62.5546649],[6.7057087,62.5543602],[6.7103009,62.5540863],[6.7122912,62.5539578],[6.7150695,62.553803],[6.7160204,62.5538663],[6.7186433,62.5540723],[6.7190777,62.5541047],[6.7214821,62.5542841],[6.7231095,62.55438],[6.7247051,62.554474],[6.7266943,62.5545668],[6.7281312,62.5546338],[6.7302881,62.5547245],[6.7281557,62.5567039],[6.7299977,62.5569851],[6.731519,62.5571986],[6.7332637,62.5574661],[6.7351919,62.5577592],[6.7372746,62.5580701],[6.7395763,62.5583922],[6.7407601,62.5585631],[6.7409477,62.558597],[6.7414914,62.5587948],[6.745561,62.5602008],[6.7481828,62.5611421],[6.7563299,62.5617781],[6.7688153,62.5630844],[6.7703057,62.5632439],[6.7731817,62.5625097],[6.778255,62.5630582],[6.782548,62.5635661],[6.7858164,62.5638979],[6.7858299,62.5638994],[6.7932581,62.5647144],[6.793263,62.5647149],[6.79945,62.5654238],[6.804065,62.5659422],[6.8185645,62.5654487],[6.8206201,62.5645939],[6.8271636,62.5618732],[6.8404002,62.560754],[6.8404611,62.5606707],[6.8393082,62.5602632],[6.8386794,62.5601177],[6.8383074,62.5600356],[6.8375434,62.5598429],[6.8367901,62.5596719],[6.8361341,62.5595253],[6.8356613,62.5594421],[6.8348793,62.5593756],[6.8347221,62.5593622],[6.8337817,62.5593093],[6.8327799,62.5592673],[6.8303128,62.559267],[6.8431398,62.5515864],[6.8464733,62.5501427],[6.84829,62.5493559],[6.8498611,62.5486775],[6.8511298,62.5481352],[6.8517928,62.5478514],[6.8523011,62.5476332],[6.8527728,62.5474299],[6.8528995,62.5473753],[6.853495,62.5471187],[6.8535578,62.5470916],[6.8591891,62.5437957],[6.8639812,62.5405972],[6.864072,62.5405846],[6.8645723,62.5405159],[6.8651902,62.5404321],[6.871257,62.539598],[6.8712963,62.5395942],[6.8713584,62.5396003],[6.877203,62.5404937],[6.8772362,62.5404988],[6.8779622,62.5406074],[6.902952,62.5444103],[6.9104968,62.5425186],[6.9114224,62.5422294],[6.9126282,62.5415962],[6.9173682,62.5391069],[6.9173947,62.5390933],[6.9235279,62.5359768],[6.9265583,62.5343829],[6.9279628,62.5347231],[6.9302231,62.5352706],[6.9322054,62.5357501],[6.9343006,62.5352714],[6.942931,62.5333619],[6.9479441,62.5322932],[6.9480006,62.5322819],[6.9483283,62.5322157],[6.9501967,62.5317961],[6.950663,62.5316688],[6.9540377,62.5307453],[6.9582207,62.5295942],[6.9618745,62.5285801],[6.9619237,62.5285664],[6.963521,62.5281251],[6.9691842,62.529628],[6.9717514,62.5304645],[6.9784056,62.5320084],[6.9800891,62.5322015],[6.9852979,62.5319265],[6.9871118,62.5320537],[6.9885382,62.5321538],[6.9890214,62.5295067],[6.9893269,62.527832],[6.9893409,62.5277562],[6.9897002,62.5258188],[6.9897669,62.5254591],[6.9897764,62.525406],[6.9898372,62.5250661],[6.9899806,62.5242461],[6.9901714,62.5232334],[6.9907013,62.5203378],[6.9911369,62.5179572],[6.9910454,62.5179526],[6.990994,62.5179461],[6.9908936,62.517925],[6.9908204,62.5178961],[6.9907446,62.5178627],[6.9906938,62.5178325],[6.9906327,62.5178013],[6.9905892,62.5177687],[6.9905532,62.5177462],[6.990498,62.5177229],[6.9904602,62.5177108],[6.9903888,62.5176888],[6.9902766,62.517648],[6.9901595,62.5176195],[6.9900323,62.517596],[6.9899475,62.5175809],[6.9898876,62.5175668],[6.9897878,62.5175451],[6.9896432,62.5175193],[6.9895143,62.517506],[6.9893969,62.5174948],[6.989276,62.5174879],[6.9891571,62.5174791],[6.9890053,62.5174791],[6.9888622,62.5174965],[6.9887199,62.5175291],[6.9885742,62.5175609],[6.9884323,62.5175678],[6.9883357,62.5175704],[6.9882017,62.5175683],[6.9880441,62.5175369],[6.987962,62.5174862],[6.9878844,62.5174343],[6.9877917,62.5173702],[6.9876826,62.5173122],[6.9875504,62.5172817],[6.9874234,62.5172592],[6.9873089,62.5172399],[6.9872314,62.5172225],[6.9871939,62.5172139],[6.9870944,62.5172002],[6.9870571,62.5171915],[6.9870194,62.5171794],[6.9869548,62.5171732],[6.9868265,62.5171712],[6.9866711,62.5171752],[6.9864488,62.5171743],[6.9863283,62.5171779],[6.9861781,62.5171853],[6.9860326,62.5171858],[6.9858375,62.5171994],[6.9856616,62.5172137],[6.9854733,62.5172318],[6.9852915,62.5172584],[6.9851155,62.5172727],[6.9849957,62.517276],[6.9848966,62.5172681],[6.9848224,62.5172631],[6.98474,62.5172493],[6.9846435,62.517227],[6.9845718,62.5172125],[6.984478,62.5171931],[6.9843965,62.5171657],[6.9843293,62.5171318],[6.9842516,62.5170942],[6.9841733,62.5170297],[6.9841143,62.5169838],[6.9840511,62.5169559],[6.9839957,62.5169338],[6.9839181,62.5169095],[6.9837983,62.5168824],[6.9837136,62.5168663],[6.9836934,62.5168607],[6.9836706,62.516849],[6.9836484,62.5168399],[6.9836183,62.51683],[6.9835778,62.5168174],[6.9834249,62.5167888],[6.9832931,62.5167787],[6.9831948,62.5167671],[6.9830978,62.5167489],[6.9830311,62.5167436],[6.9829614,62.5167389],[6.9828837,62.5167288],[6.9827646,62.5167013],[6.9826526,62.516682],[6.9825221,62.5166365],[6.9824291,62.5166092],[6.9823131,62.5165637],[6.9822443,62.5165321],[6.9821768,62.5165079],[6.9821253,62.5164887],[6.9820758,62.5164726],[6.9819814,62.5164454],[6.9818935,62.5164179],[6.9817538,62.5163876],[6.981627,62.5163684],[6.9814994,62.5163453],[6.9813791,62.5163418],[6.9812548,62.5163413],[6.9811748,62.5163444],[6.9810864,62.5163477],[6.9809885,62.5163596],[6.9809217,62.5163792],[6.9808704,62.516404],[6.9808352,62.5164239],[6.9807159,62.5164561],[6.9805735,62.5164736],[6.9804641,62.5164872],[6.9804119,62.5164919],[6.9803627,62.5164967],[6.9803124,62.5165023],[6.9802216,62.5165065],[6.9801075,62.5165059],[6.9800086,62.5165018],[6.9799166,62.5164889],[6.9798565,62.5164793],[6.9798433,62.5164772],[6.9797691,62.5164723],[6.979717,62.5164684],[6.9796847,62.5164701],[6.9795867,62.5164629],[6.9795342,62.5164532],[6.9794961,62.5164389],[6.9794128,62.5164101],[6.9793502,62.5163869],[6.9792627,62.5163651],[6.9791546,62.5163265],[6.979094,62.516302],[6.9790485,62.516282],[6.9789696,62.5162328],[6.9789196,62.5161729],[6.9789001,62.516141],[6.9788726,62.5160925],[6.97885,62.5160626],[6.9790717,62.515968],[6.9814693,62.5149449],[6.9836403,62.5140182],[6.9838326,62.5139363],[6.9841648,62.5138792],[6.9844671,62.5137874],[6.9846717,62.5136837],[6.9847251,62.513645],[6.9847755,62.5136125],[6.9848233,62.5135926],[6.9848982,62.5135725],[6.9849951,62.513569],[6.9850893,62.5135824],[6.9851835,62.5135915],[6.9852895,62.513588],[6.9854101,62.5135747],[6.9855304,62.5135501],[6.9856143,62.5135216],[6.9856977,62.5134875],[6.9857663,62.5134492],[6.9858136,62.5134112],[6.985843,62.5133841],[6.9859041,62.5133531],[6.9859759,62.5133153],[6.986122,62.5132803],[6.9862433,62.5132398],[6.9863216,62.5131997],[6.9863785,62.5131726],[6.9865163,62.5131503],[6.9866127,62.5130985],[6.9867275,62.513044],[6.9868171,62.5129753],[6.9868892,62.5129239],[6.9869056,62.512882],[6.9869482,62.5128394],[6.9871014,62.5128143],[6.987264,62.5128074],[6.9873631,62.5127848],[6.9875316,62.5126874],[6.9878455,62.5125322],[6.9879782,62.5124692],[6.9881726,62.5124167],[6.9884223,62.5123612],[6.9886412,62.5123088],[6.9887233,62.51228],[6.9889165,62.51227],[6.9890849,62.5122688],[6.9892776,62.5122417],[6.9893259,62.5121866],[6.9894113,62.5121225],[6.9895958,62.5120346],[6.9897437,62.5119701],[6.989916,62.5118939],[6.9900634,62.511818],[6.9901986,62.511745],[6.9903454,62.5116516],[6.9904638,62.511645],[6.9906753,62.5116206],[6.9908051,62.5115764],[6.9909294,62.5115554],[6.9911657,62.5115278],[6.9913646,62.5115034],[6.9916434,62.5114322],[6.9918165,62.511382],[6.9921744,62.5112795],[6.9923727,62.5111966],[6.9925705,62.5111347],[6.9926929,62.5111195],[6.9929406,62.5111042],[6.9931199,62.51107],[6.9932624,62.5109992],[6.9933541,62.5109055],[6.9934646,62.5108173],[6.9935176,62.5106947],[6.9935206,62.510584],[6.9935406,62.5104236],[6.993599,62.5102806],[6.9936511,62.5101288],[6.9937149,62.5099624],[6.9938098,62.5097607],[6.9938624,62.5096352],[6.9938959,62.5094951],[6.9938878,62.5094456],[6.993898,62.5093421],[6.9938951,62.5092514],[6.9938477,62.5091638],[6.9938005,62.5090702],[6.9938104,62.5089794],[6.993828,62.5089444],[6.9939432,62.5088126],[6.9940835,62.5085453],[6.9945218,62.5080936],[6.9947267,62.5076477],[6.9954019,62.5071366],[6.9957396,62.5070248],[6.9966077,62.5068216],[6.9968024,62.5068155],[6.9973924,62.5067073],[6.997736,62.5065057],[6.9977241,62.5063976],[6.9976389,62.5062169],[6.9975823,62.5059018],[6.997386,62.5057494],[6.9972046,62.5057444],[6.9970447,62.5057243],[6.9969753,62.5056906],[6.99809,62.4983225],[7.0070939,62.4929568],[7.0087136,62.4900233],[7.0105199,62.4878796],[7.0154574,62.4815655],[7.0143944,62.4746713],[7.020307,62.4716977],[7.022095,62.4707924],[7.0279666,62.4678195],[7.027974,62.4678157],[7.0280155,62.4677948],[7.0280338,62.4677854],[7.0283175,62.4676417],[7.0288308,62.4673491],[7.0303027,62.4663718],[7.0316354,62.4654768],[7.0316388,62.4654553],[7.0317872,62.4653441],[7.031981,62.4652363],[7.0320327,62.4652116],[7.0321026,62.4650822],[7.0323201,62.4649772],[7.0324067,62.4649191],[7.0324389,62.4648614],[7.0324187,62.4648166],[7.0324421,62.4647766],[7.0325488,62.4647284],[7.0327304,62.4646985],[7.0328628,62.4646293],[7.0329426,62.4645957],[7.0331163,62.4645972],[7.0332754,62.4645976],[7.0334351,62.4646196],[7.0334793,62.4646111],[7.0335089,62.4645974],[7.0335371,62.4645093],[7.0335031,62.4644187],[7.0337334,62.4643453],[7.0340502,62.4642673],[7.0342421,62.4641845],[7.0344264,62.4641498],[7.0345577,62.4641286],[7.0348143,62.4640104],[7.0349384,62.4639644],[7.0351419,62.4639369],[7.0353001,62.4638863],[7.0354686,62.4638517],[7.0355873,62.4638519],[7.0357897,62.4638553],[7.0359635,62.4638624],[7.036112,62.4638613],[7.0362247,62.4638283],[7.0363501,62.4637411],[7.0364329,62.4637172],[7.0366323,62.4637319],[7.0368533,62.46372],[7.0370802,62.4637082],[7.0371556,62.4636774],[7.0372008,62.4636206],[7.0373353,62.4635624],[7.0374704,62.4635158],[7.037636,62.46352],[7.0378768,62.4634953],[7.0380124,62.4634649],[7.0380682,62.4634189],[7.038078,62.4633306],[7.038152,62.4632479],[7.0382579,62.4631597],[7.0383364,62.4631223],[7.0383963,62.4631059],[7.0384868,62.4630768],[7.0385767,62.4630578],[7.0386956,62.463059],[7.0387867,62.4630575],[7.0388517,62.4630469],[7.0388813,62.4630312],[7.0389545,62.4629863],[7.0390044,62.4628694],[7.0389979,62.4627456],[7.0389746,62.4626747],[7.0390134,62.4625802],[7.0390698,62.4625173],[7.039216,62.4624003],[7.0393163,62.4623556],[7.0394495,62.462318],[7.0395085,62.4622908],[7.0395465,62.4622574],[7.0395493,62.4621989],[7.0396513,62.4621471],[7.0397495,62.4620963],[7.0398104,62.4620931],[7.0398586,62.4620855],[7.0399717,62.4620441],[7.0400617,62.4620035],[7.0401142,62.4619441],[7.040104,62.4618521],[7.0400705,62.4617791],[7.0400657,62.4617373],[7.0400655,62.4616987],[7.0401458,62.4616514],[7.0402762,62.4615999],[7.0403679,62.4615356],[7.0404334,62.4614498],[7.0405131,62.4613822],[7.0405632,62.4613085],[7.0405892,62.4612288],[7.0406526,62.4611479],[7.0406793,62.4610919],[7.0407226,62.4610443],[7.0407732,62.461001],[7.040827,62.4609719],[7.0409013,62.4609363],[7.0410089,62.4609173],[7.0410915,62.4608768],[7.0411789,62.4608306],[7.0413001,62.4607683],[7.04137,62.4607155],[7.0414341,62.460685],[7.0415423,62.4606309],[7.0417612,62.4605443],[7.0419503,62.4604554],[7.0421405,62.4603773],[7.0423053,62.4603199],[7.0423606,62.4602693],[7.0423744,62.4602591],[7.0424184,62.4602267],[7.0425343,62.4601485],[7.0426682,62.4600188],[7.0428047,62.4599182],[7.042882,62.4598443],[7.0429776,62.4597558],[7.0431004,62.4596662],[7.0432721,62.4595985],[7.0434349,62.4595147],[7.0435266,62.4594402],[7.0436506,62.4593767],[7.0437934,62.4593006],[7.0439028,62.4592333],[7.0439902,62.4591864],[7.0441007,62.4591106],[7.0441796,62.4590613],[7.0442377,62.4590389],[7.0442351,62.459018],[7.0442157,62.4589679],[7.0441962,62.4589154],[7.0442202,62.4588869],[7.0442554,62.4588712],[7.0443391,62.4588463],[7.0444247,62.4588151],[7.0444809,62.4587879],[7.0445024,62.4587212],[7.0445334,62.458676],[7.0445503,62.4586193],[7.0445316,62.4585697],[7.0445186,62.4584822],[7.0445505,62.4584206],[7.0446225,62.4583511],[7.0447081,62.4583213],[7.0447441,62.458255],[7.0448534,62.4582233],[7.0449954,62.4581468],[7.0450966,62.4580791],[7.0451104,62.4580699],[7.0451682,62.4580427],[7.0452489,62.4580126],[7.0452667,62.4579948],[7.0452611,62.4579752],[7.0452615,62.4579407],[7.0452814,62.4579195],[7.0453072,62.4579062],[7.0453749,62.457882],[7.0454351,62.4578689],[7.0455011,62.4578335],[7.0455633,62.4577891],[7.0456208,62.457759],[7.0456553,62.4577242],[7.0456994,62.4576897],[7.0458609,62.457594],[7.0460031,62.4575518],[7.0461192,62.4574793],[7.0461637,62.4574339],[7.0462373,62.4574072],[7.0463332,62.4573949],[7.0464219,62.4573753],[7.0464725,62.457361],[7.0465553,62.4573259],[7.0465958,62.4572788],[7.0466422,62.4572495],[7.046714,62.4572283],[7.0467708,62.4572041],[7.0468221,62.4571754],[7.0468435,62.4571538],[7.0468639,62.4571328],[7.0469049,62.457062],[7.0469783,62.4570017],[7.0470178,62.4569241],[7.047064,62.4568554],[7.0470888,62.456829],[7.0471025,62.4567858],[7.0470797,62.4567152],[7.0471081,62.4566527],[7.0472356,62.4565476],[7.0472803,62.4565094],[7.0472935,62.4564939],[7.0473123,62.4564724],[7.0473403,62.4564279],[7.0473494,62.4563829],[7.0473311,62.4563292],[7.0473207,62.4562928],[7.0473206,62.4562803],[7.0535038,62.4570423],[7.0613184,62.4564143],[7.067754,62.455889],[7.0717734,62.4555051],[7.07675,62.4549684],[7.0801551,62.454477],[7.0898715,62.4530461],[7.0933686,62.4492744],[7.0985986,62.4477766],[7.1026534,62.4468885],[7.1061506,62.4475119],[7.1162158,62.4497454],[7.1172907,62.4489228],[7.1202546,62.4462663],[7.1204593,62.4424784],[7.1192524,62.4418141],[7.1147057,62.4393443],[7.114617,62.43887],[7.1147349,62.4384255],[7.1154992,62.4377469],[7.1192927,62.4349663],[7.1188957,62.4327145],[7.118023,62.4297593],[7.1117681,62.4280136],[7.1076864,62.427032],[7.1070197,62.4253605],[7.1062822,62.4233689],[7.1050075,62.4217167],[7.1021847,62.420175],[7.0975496,62.4200371],[7.0903162,62.4197867],[7.0884453,62.4192828],[7.0844622,62.4178639],[7.0758027,62.4152206],[7.0733831,62.4145134],[7.0669563,62.4135048],[7.0624018,62.4132635],[7.0618729,62.4134226],[7.0605923,62.4138458],[7.0577309,62.4161095],[7.0549523,62.4181345],[7.0528031,62.4199158],[7.049716,62.4225095],[7.0488119,62.4231256],[7.0416514,62.425829],[7.0382205,62.4271241],[7.0379215,62.4272577],[7.0378049,62.4273141],[7.0369755,62.4276807],[7.0156588,62.4371495],[7.0094723,62.4359007],[7.0085039,62.4356277],[7.0065965,62.4355019],[7.0062005,62.4354758],[7.0024646,62.4352294],[6.9997256,62.4375498],[6.9950581,62.4370924],[6.9948095,62.4370681],[6.9923231,62.4368244],[6.9903326,62.436787],[6.9876248,62.4367361],[6.9849277,62.4366854],[6.9821468,62.436633],[6.9814723,62.4367954],[6.9810517,62.4368967],[6.9801187,62.4371213],[6.9800441,62.4371391],[6.9787581,62.4374425],[6.9779852,62.4376249],[6.9770326,62.4373881],[6.9738648,62.4366005],[6.9717437,62.4360731],[6.9681032,62.4359],[6.9627577,62.4356455],[6.9605038,62.435618],[6.9579491,62.4355858],[6.9529065,62.4355223],[6.9490863,62.435474],[6.9478897,62.4360166],[6.945522,62.4371143],[6.9455039,62.4371227],[6.9380304,62.4384798],[6.9351984,62.4388797],[6.9301711,62.4408355],[6.9270087,62.4400643],[6.9259669,62.4399903],[6.9220923,62.439563],[6.9212812,62.4394736],[6.9208036,62.4397751],[6.9178996,62.4401667],[6.9175994,62.4401971],[6.9175353,62.4401362],[6.916655,62.4392973],[6.9147498,62.4374806],[6.9145512,62.4372915],[6.9141352,62.4368947],[6.9134637,62.4362541],[6.9134455,62.4362372],[6.8895265,62.4343712],[6.8722537,62.4404936],[6.8545362,62.4467676],[6.8054574,62.4469386],[6.7744577,62.447038],[6.7497655,62.4590391],[6.7390379,62.4642486],[6.6917006,62.4618562],[6.6738435,62.4575559],[6.5955818,62.4386603],[6.5712831,62.4327799],[6.5215396,62.4176177],[6.5196861,62.4170521],[6.4384116,62.4139641],[6.4258732,62.4106912],[6.3894659,62.4011777],[6.3634003,62.3943575],[6.36499,62.414667],[6.3759559,62.4251313],[6.3673654,62.4314629],[6.3661015,62.4323943],[6.3574515,62.4321046],[6.3394926,62.4315015],[6.3362116,62.431391],[6.3286289,62.4311355],[6.3215914,62.4300095],[6.3157024,62.4317971],[6.2976497,62.4321997],[6.2955725,62.4322459],[6.2954684,62.4326984],[6.2949177,62.4351002],[6.3003668,62.4385452],[6.2854773,62.441519],[6.2689643,62.4448146],[6.2617894,62.4470103],[6.2582728,62.4480862],[6.2279958,62.4573426],[6.2194966,62.4576549],[6.2066385,62.4581262],[6.1917026,62.4586722],[6.1833023,62.4589786],[6.1724862,62.4555873],[6.1572983,62.4508226],[6.1549957,62.4501001],[6.1488365,62.4481668],[6.1323712,62.4472023],[6.1025964,62.4454531],[6.055166,62.4531682],[6.0583572,62.4584657],[6.0632005,62.4665027],[6.0683869,62.4751054],[6.0880204,62.4789072],[6.1335492,62.4877093],[6.1347064,62.4879328],[6.1372485,62.4891472],[6.1527177,62.4965331],[6.1673293,62.5035048],[6.1738091,62.5050736],[6.1910165,62.5092366],[6.2220484,62.5162735],[6.2387067,62.5200467],[6.2651979,62.5218646],[6.2720225,62.5223319],[6.2885756,62.522581],[6.3694613,62.5237696],[6.4626481,62.5250799]]],[[[6.1979472,62.7867774],[6.3292354,62.7403901],[6.3822337,62.7289201],[6.4501761,62.7141732],[6.516114,62.6998166],[6.5307213,62.7092193],[6.5597293,62.7278699],[6.5765232,62.7386545],[6.6099918,62.7955964],[6.6557307,62.8383304],[6.707237,62.8708265],[6.7072558,62.8898522],[6.7045767,62.8914358],[6.6806288,62.9055806],[6.6007272,62.9316341],[6.5789435,62.9449624],[6.5133357,62.985008],[6.3380721,63.0913315],[6.135333,63.0220892],[5.9961797,62.9742094],[5.9937742,62.9733731],[5.9784284,62.967742],[5.9636608,62.961801],[5.9495012,62.9555622],[5.8878228,62.9270821],[5.892601,62.9249402],[6.0453545,62.856075],[6.0947315,62.8337073],[6.1372766,62.8143918],[6.1722119,62.7985007],[6.1979472,62.7867774]]]]}}]}