{"type":"FeatureCollection","features":[{"type":"Feature","properties":{"name":"Wieluń","admin":"powiat","source":"© OpenStreetMap contributors, ODbL 1.0","osm_relation":2717092},"geometry":{"type":"Polygon","coordinates":[[[18.34749,51.1866],[18.34753,51.18653],[18.3477,51.18612],[18.34811,51.18522],[18.34823,51.18496],[18.3483,51.18482],[18.34846,51.18451],[18.34868,51.1841],[18.34914,51.18322],[18.34931,51.1829],[18.34967,51.18207],[18.34967,51.18201],[18.34956,51.18143],[18.34968,51.18082],[18.34967,51.18069],[18.34968,51.1803],[18.34974,51.17997],[18.34969,51.17989],[18.34979,51.17929],[18.3498,51.17911],[18.34999,51.17794],[18.34992,51.17788],[18.35014,51.17724],[18.35012,51.17715],[18.35022,51.17682],[18.35023,51.17671],[18.35025,51.17665],[18.35026,51.1766],[18.35031,51.17636],[18.35033,51.17622],[18.35038,51.17585],[18.35041,51.17573],[18.35054,51.17502],[18.35052,51.17279],[18.3503,51.17003],[18.35029,51.16962],[18.35034,51.16931],[18.3503,51.16924],[18.35018,51.16916],[18.35015,51.16912],[18.34999,51.16903],[18.34996,51.169],[18.34953,51.16884],[18.34942,51.16878],[18.34922,51.16868],[18.34914,51.16858],[18.34905,51.1685],[18.34901,51.16829],[18.34897,51.16817],[18.349,51.16812],[18.34905,51.16799],[18.34921,51.1676],[18.34927,51.16747],[18.34934,51.1673],[18.3495,51.16694],[18.34955,51.1668],[18.34973,51.16632],[18.34987,51.16603],[18.34987,51.16598],[18.34996,51.16589],[18.35008,51.16577],[18.3502,51.16566],[18.35033,51.16554],[18.35062,51.16532],[18.35069,51.16525],[18.35071,51.16521],[18.35082,51.16505],[18.35087,51.16492],[18.35088,51.16489],[18.35093,51.16475],[18.35099,51.16461],[18.35111,51.16433],[18.35123,51.16403],[18.35136,51.16375],[18.35142,51.16367],[18.35151,51.16361],[18.35161,51.16351],[18.35176,51.16342],[18.35185,51.16327],[18.35195,51.16315],[18.35186,51.16294],[18.35181,51.16291],[18.35188,51.1628],[18.35232,51.16264],[18.35244,51.16252],[18.35254,51.1624],[18.35262,51.16231],[18.35271,51.1622],[18.35282,51.16207],[18.35288,51.16199],[18.35296,51.1619],[18.35305,51.16177],[18.35313,51.16164],[18.35324,51.16151],[18.35332,51.16138],[18.35342,51.16124],[18.35352,51.16111],[18.35361,51.16096],[18.35375,51.16079],[18.35414,51.16032],[18.35408,51.16005],[18.35402,51.15993],[18.35397,51.15974],[18.35396,51.15956],[18.35396,51.15918],[18.35397,51.15897],[18.35385,51.15853],[18.35381,51.15831],[18.35381,51.15827],[18.35358,51.15766],[18.35355,51.15742],[18.35353,51.15739],[18.35355,51.1572],[18.35357,51.15712],[18.35359,51.15709],[18.35361,51.15706],[18.35372,51.15678],[18.35379,51.15658],[18.35383,51.1565],[18.3539,51.15633],[18.35399,51.15618],[18.354,51.15605],[18.35406,51.15582],[18.35406,51.15564],[18.35403,51.15555],[18.35398,51.15537],[18.35391,51.15519],[18.35386,51.15513],[18.35354,51.15465],[18.35343,51.15449],[18.35323,51.15399],[18.35311,51.1535],[18.35311,51.15346],[18.35285,51.15243],[18.35282,51.15228],[18.35281,51.15211],[18.35274,51.15186],[18.35269,51.15177],[18.35265,51.15164],[18.35263,51.15146],[18.35268,51.15111],[18.35272,51.15095],[18.35282,51.15054],[18.35276,51.1504],[18.35273,51.15011],[18.35268,51.14982],[18.35275,51.14943],[18.3528,51.1492],[18.35278,51.14892],[18.35273,51.14875],[18.35252,51.14823],[18.35245,51.14797],[18.35239,51.14769],[18.35239,51.14768],[18.35234,51.14735],[18.35231,51.14696],[18.3523,51.14658],[18.35222,51.14612],[18.35221,51.14597],[18.35226,51.14573],[18.35232,51.14564],[18.35242,51.14537],[18.35248,51.14512],[18.35255,51.14472],[18.35257,51.14452],[18.35261,51.14438],[18.35271,51.14425],[18.35294,51.14407],[18.35283,51.14397],[18.35278,51.14387],[18.35274,51.14336],[18.35266,51.14312],[18.35252,51.14293],[18.35342,51.14217],[18.35314,51.14207],[18.35283,51.14195],[18.35274,51.14193],[18.35236,51.14091],[18.35197,51.13993],[18.35151,51.1391],[18.35149,51.13907],[18.35085,51.13822],[18.35049,51.13773],[18.35031,51.13752],[18.34983,51.13719],[18.34973,51.13717],[18.34982,51.13714],[18.35144,51.13662],[18.353,51.13616],[18.35305,51.13616],[18.35317,51.13617],[18.35338,51.1362],[18.35357,51.13621],[18.35389,51.13638],[18.35399,51.13643],[18.35479,51.13684],[18.35547,51.13718],[18.35559,51.13707],[18.35602,51.13652],[18.35624,51.13663],[18.35624,51.13654],[18.35632,51.13653],[18.35683,51.13653],[18.35707,51.13632],[18.35736,51.13604],[18.35746,51.13609],[18.35753,51.13611],[18.35766,51.13616],[18.35765,51.13622],[18.35769,51.13623],[18.35794,51.1362],[18.35809,51.13619],[18.35816,51.13618],[18.35822,51.13622],[18.35828,51.13621],[18.35834,51.13625],[18.35836,51.13637],[18.35839,51.13638],[18.35849,51.13639],[18.35854,51.13638],[18.35863,51.13635],[18.3587,51.13635],[18.35874,51.13639],[18.35877,51.13646],[18.35878,51.13649],[18.35889,51.13657],[18.35898,51.13664],[18.35912,51.13676],[18.35925,51.13691],[18.35925,51.1371],[18.35927,51.13717],[18.35931,51.13722],[18.35942,51.13729],[18.35953,51.13733],[18.36027,51.1374],[18.36052,51.13748],[18.36064,51.13749],[18.36084,51.13741],[18.36094,51.13741],[18.36117,51.13742],[18.36138,51.13739],[18.36144,51.13741],[18.36271,51.13682],[18.36284,51.13642],[18.36288,51.13633],[18.36294,51.13629],[18.36298,51.13627],[18.36305,51.13626],[18.36318,51.13627],[18.36325,51.13631],[18.36333,51.13649],[18.36337,51.13656],[18.3634,51.13658],[18.36357,51.1367],[18.36358,51.13673],[18.36358,51.13677],[18.36349,51.13689],[18.36347,51.13693],[18.3635,51.13698],[18.36352,51.13701],[18.36367,51.13707],[18.36368,51.13711],[18.36366,51.13715],[18.36364,51.13718],[18.3636,51.13722],[18.36345,51.13734],[18.36332,51.13746],[18.36329,51.13754],[18.36329,51.13761],[18.36327,51.13768],[18.36387,51.13763],[18.36408,51.1377],[18.365,51.13812],[18.36516,51.13814],[18.36614,51.13831],[18.36652,51.13838],[18.36657,51.13841],[18.36663,51.13857],[18.3667,51.13871],[18.36675,51.13875],[18.3669,51.13881],[18.36702,51.13881],[18.36716,51.13879],[18.36729,51.13873],[18.36736,51.13868],[18.36754,51.13853],[18.36767,51.1385],[18.36778,51.13846],[18.3678,51.13842],[18.36794,51.13833],[18.36795,51.13829],[18.3679,51.13822],[18.36777,51.13808],[18.36765,51.13798],[18.36761,51.13792],[18.36749,51.13768],[18.36744,51.13762],[18.3673,51.13748],[18.36729,51.13744],[18.36739,51.13727],[18.36749,51.13715],[18.36762,51.13703],[18.36781,51.1369],[18.36799,51.13678],[18.36805,51.13674],[18.36813,51.13671],[18.36828,51.13665],[18.36846,51.13662],[18.36853,51.13662],[18.36868,51.13664],[18.36878,51.13668],[18.36893,51.1368],[18.36919,51.1369],[18.36938,51.13696],[18.36957,51.13701],[18.36964,51.13702],[18.36973,51.13702],[18.36974,51.13698],[18.36973,51.13694],[18.36973,51.13687],[18.36966,51.13672],[18.36969,51.13667],[18.36968,51.13655],[18.36972,51.1365],[18.3698,51.1365],[18.36992,51.1365],[18.36999,51.13649],[18.37009,51.13646],[18.37018,51.13643],[18.37023,51.13638],[18.37024,51.13634],[18.37022,51.13631],[18.3702,51.1363],[18.37013,51.13627],[18.37009,51.13625],[18.37006,51.1362],[18.37003,51.13617],[18.36995,51.13616],[18.36992,51.13613],[18.36992,51.1361],[18.36994,51.13604],[18.36994,51.13593],[18.36997,51.13585],[18.37004,51.13573],[18.3701,51.13564],[18.37014,51.13558],[18.37017,51.13551],[18.3702,51.13538],[18.37025,51.13526],[18.37033,51.13518],[18.37057,51.13509],[18.37075,51.13503],[18.37093,51.13506],[18.37101,51.1353],[18.371,51.13534],[18.37107,51.13539],[18.37121,51.13542],[18.37151,51.13537],[18.37174,51.13532],[18.37194,51.13527],[18.37194,51.13523],[18.37189,51.1352],[18.37189,51.1352],[18.37188,51.13514],[18.37188,51.13507],[18.37192,51.13505],[18.3723,51.13504],[18.37222,51.13485],[18.37214,51.13481],[18.37197,51.13483],[18.37177,51.13465],[18.37176,51.13453],[18.37193,51.13446],[18.37217,51.13441],[18.37253,51.13436],[18.37277,51.13426],[18.37325,51.13407],[18.37349,51.13389],[18.37353,51.13388],[18.37379,51.13389],[18.37402,51.13389],[18.37404,51.13402],[18.37411,51.13411],[18.37418,51.13414],[18.37436,51.13415],[18.37451,51.13431],[18.3751,51.13429],[18.37514,51.13417],[18.37509,51.13407],[18.37524,51.13405],[18.37514,51.13397],[18.37502,51.13396],[18.37493,51.13394],[18.37511,51.13224],[18.37515,51.13151],[18.37526,51.13138],[18.37555,51.13122],[18.37556,51.13111],[18.37571,51.13107],[18.37611,51.1309],[18.37641,51.13058],[18.37688,51.13054],[18.37754,51.13065],[18.37815,51.13061],[18.37839,51.13055],[18.37855,51.1305],[18.37914,51.13008],[18.37934,51.12984],[18.37957,51.13012],[18.37963,51.13003],[18.37973,51.12987],[18.37981,51.1298],[18.38043,51.12957],[18.38059,51.12953],[18.38066,51.12949],[18.38071,51.12945],[18.38079,51.12932],[18.38079,51.12928],[18.38081,51.12899],[18.381,51.12888],[18.38112,51.12866],[18.38128,51.12852],[18.3813,51.12844],[18.38145,51.12832],[18.38163,51.12824],[18.38169,51.1282],[18.38175,51.12824],[18.38185,51.12835],[18.38183,51.1286],[18.38171,51.12877],[18.38174,51.12881],[18.3818,51.12883],[18.38242,51.12882],[18.38303,51.12882],[18.38319,51.12885],[18.38431,51.12952],[18.38469,51.12976],[18.38476,51.12978],[18.3855,51.12999],[18.38569,51.12991],[18.38593,51.12985],[18.38613,51.12983],[18.38624,51.1298],[18.38648,51.12973],[18.38678,51.12967],[18.38708,51.12962],[18.38734,51.12981],[18.38736,51.12982],[18.38745,51.12987],[18.38758,51.12991],[18.38767,51.12994],[18.38774,51.12998],[18.38781,51.12994],[18.38842,51.12972],[18.389,51.12949],[18.38926,51.12937],[18.38936,51.12931],[18.38942,51.1292],[18.38954,51.12907],[18.38967,51.12891],[18.39012,51.12829],[18.39078,51.12742],[18.39088,51.12731],[18.39099,51.12724],[18.39194,51.12676],[18.39237,51.12656],[18.39241,51.12654],[18.39271,51.12642],[18.39297,51.12637],[18.39418,51.12624],[18.39457,51.1262],[18.39545,51.12601],[18.39559,51.126],[18.39579,51.12599],[18.39613,51.12599],[18.39702,51.12606],[18.39939,51.12593],[18.39974,51.12589],[18.39989,51.12586],[18.4001,51.12581],[18.40059,51.1256],[18.4007,51.12553],[18.40231,51.12445],[18.40254,51.12448],[18.40363,51.12461],[18.40495,51.12478],[18.40525,51.12482],[18.40538,51.12483],[18.40632,51.12413],[18.41878,51.12586],[18.42097,51.11987],[18.42134,51.11861],[18.42184,51.11704],[18.42492,51.11716],[18.42897,51.11757],[18.42974,51.11575],[18.4298,51.11573],[18.42986,51.11571],[18.42992,51.11576],[18.42995,51.11577],[18.43005,51.11578],[18.43013,51.11576],[18.43023,51.11576],[18.4303,51.11577],[18.43033,51.11584],[18.43034,51.11589],[18.4304,51.11588],[18.4306,51.11582],[18.43046,51.11573],[18.43043,51.1157],[18.43068,51.11561],[18.43084,51.11572],[18.43104,51.11561],[18.43108,51.1156],[18.43115,51.1156],[18.43124,51.11562],[18.43132,51.11556],[18.43138,51.1155],[18.43147,51.11562],[18.43158,51.11559],[18.43177,51.11562],[18.43192,51.11558],[18.43184,51.11547],[18.43196,51.11546],[18.43201,51.11548],[18.43222,51.11543],[18.43237,51.11545],[18.43249,51.11544],[18.43255,51.11545],[18.43256,51.11543],[18.43254,51.1154],[18.43256,51.11537],[18.43261,51.11531],[18.43269,51.11531],[18.43282,51.11536],[18.4329,51.1154],[18.43295,51.11536],[18.43301,51.11535],[18.43307,51.11529],[18.43317,51.11523],[18.43334,51.11523],[18.43344,51.11512],[18.43343,51.11501],[18.43363,51.11503],[18.43391,51.11494],[18.43399,51.11495],[18.43406,51.11492],[18.43422,51.11503],[18.43428,51.11501],[18.43428,51.11491],[18.4344,51.11487],[18.43458,51.11491],[18.43473,51.11484],[18.43491,51.11485],[18.43511,51.11486],[18.43544,51.1147],[18.43554,51.11452],[18.43585,51.11437],[18.43591,51.11435],[18.43595,51.11431],[18.4361,51.1143],[18.43642,51.11438],[18.43662,51.11433],[18.43663,51.11429],[18.43669,51.11426],[18.43685,51.11425],[18.43683,51.1142],[18.43682,51.11414],[18.43694,51.1141],[18.43704,51.11409],[18.43727,51.11411],[18.43736,51.11411],[18.4375,51.11413],[18.43757,51.11416],[18.43758,51.11423],[18.43763,51.11426],[18.43771,51.11422],[18.43846,51.11422],[18.43869,51.11428],[18.4388,51.11431],[18.43885,51.11424],[18.43893,51.11417],[18.44031,51.11442],[18.44189,51.1147],[18.4423,51.11476],[18.44242,51.11478],[18.4426,51.11481],[18.44286,51.11488],[18.44301,51.11491],[18.44416,51.11478],[18.44457,51.11474],[18.44494,51.1147],[18.44539,51.11466],[18.44564,51.11467],[18.44599,51.11469],[18.44616,51.1147],[18.44786,51.11482],[18.44846,51.11485],[18.44877,51.11484],[18.44928,51.11481],[18.44967,51.1148],[18.45006,51.11479],[18.45028,51.1148],[18.45032,51.1148],[18.45058,51.11479],[18.45082,51.11479],[18.4509,51.11479],[18.45181,51.11477],[18.45203,51.11476],[18.45245,51.11476],[18.4526,51.11476],[18.45264,51.11476],[18.45275,51.11478],[18.45279,51.11479],[18.45296,51.11482],[18.45326,51.11489],[18.45337,51.11491],[18.45356,51.11496],[18.4537,51.11498],[18.45383,51.11501],[18.45419,51.11509],[18.45427,51.11514],[18.45433,51.11516],[18.4544,51.11519],[18.45451,51.11523],[18.45466,51.11529],[18.45495,51.11539],[18.45505,51.11544],[18.45511,51.11546],[18.45518,51.11551],[18.45529,51.11557],[18.4554,51.11562],[18.45559,51.11573],[18.45564,51.11576],[18.45587,51.11588],[18.456,51.11596],[18.45611,51.11602],[18.4562,51.11609],[18.45636,51.11617],[18.45642,51.1162],[18.45649,51.11623],[18.45655,51.11631],[18.4566,51.11639],[18.4567,51.11648],[18.45684,51.11663],[18.45716,51.11677],[18.45742,51.11689],[18.45763,51.11698],[18.45771,51.11703],[18.45796,51.11718],[18.4581,51.11726],[18.45817,51.11729],[18.45905,51.11785],[18.46,51.11843],[18.46023,51.11851],[18.461,51.11874],[18.46146,51.11892],[18.46158,51.11903],[18.46179,51.11918],[18.46189,51.11926],[18.46208,51.11942],[18.46254,51.1198],[18.46295,51.11995],[18.46343,51.12005],[18.46377,51.12012],[18.46451,51.12021],[18.46453,51.12015],[18.46457,51.12008],[18.4646,51.12004],[18.46462,51.12001],[18.46464,51.11999],[18.46466,51.11995],[18.46468,51.11991],[18.4647,51.11989],[18.46472,51.11986],[18.46475,51.11982],[18.46488,51.11962],[18.4649,51.11957],[18.46492,51.11951],[18.46494,51.11948],[18.46495,51.11944],[18.46496,51.1194],[18.46497,51.11936],[18.46499,51.11932],[18.46503,51.1192],[18.46507,51.11909],[18.46509,51.11901],[18.46515,51.11886],[18.46518,51.11879],[18.46519,51.11875],[18.46521,51.11871],[18.46524,51.11865],[18.46526,51.11862],[18.4653,51.11853],[18.46532,51.11847],[18.46534,51.11843],[18.46535,51.1184],[18.46536,51.11838],[18.46539,51.11833],[18.46544,51.11822],[18.46552,51.11807],[18.46558,51.11795],[18.4656,51.11789],[18.46563,51.11782],[18.46567,51.11774],[18.46568,51.1177],[18.4658,51.11745],[18.46586,51.11729],[18.46603,51.11693],[18.46605,51.11686],[18.46607,51.11682],[18.4661,51.11678],[18.46626,51.11639],[18.46633,51.11627],[18.46638,51.11615],[18.46652,51.11583],[18.4666,51.11563],[18.46668,51.11543],[18.46672,51.11536],[18.46677,51.11525],[18.46708,51.11451],[18.4672,51.11424],[18.46735,51.11392],[18.46763,51.11334],[18.46774,51.11312],[18.4678,51.11297],[18.46791,51.11265],[18.46802,51.11238],[18.46813,51.11205],[18.46795,51.11185],[18.46733,51.11146],[18.4671,51.1113],[18.46736,51.1108],[18.46756,51.11041],[18.46779,51.10997],[18.46833,51.10847],[18.46847,51.10796],[18.46868,51.10725],[18.46874,51.10707],[18.46881,51.10685],[18.46897,51.10644],[18.46907,51.10626],[18.46918,51.10601],[18.46957,51.10482],[18.46967,51.10454],[18.46972,51.10443],[18.46975,51.10437],[18.47146,51.10366],[18.47181,51.10349],[18.47222,51.10329],[18.47234,51.10323],[18.47263,51.10311],[18.47306,51.10291],[18.47365,51.10266],[18.47382,51.10259],[18.47407,51.10248],[18.47444,51.10232],[18.47474,51.10219],[18.47487,51.10213],[18.47573,51.10175],[18.47608,51.10161],[18.47639,51.10148],[18.47655,51.10142],[18.47672,51.10134],[18.47694,51.10127],[18.47707,51.10121],[18.47782,51.10092],[18.47815,51.10079],[18.47851,51.10068],[18.47885,51.10053],[18.47962,51.10023],[18.48011,51.10008],[18.48008,51.10003],[18.4802,51.1],[18.48076,51.09986],[18.48124,51.09975],[18.4814,51.09971],[18.47983,51.09585],[18.47892,51.09372],[18.47833,51.09234],[18.47832,51.09232],[18.48363,51.09154],[18.48619,51.09117],[18.4863,51.09116],[18.4867,51.0911],[18.4894,51.0907],[18.48942,51.09072],[18.48986,51.0913],[18.49213,51.09202],[18.49428,51.09349],[18.49505,51.09435],[18.49548,51.09506],[18.49595,51.09496],[18.49624,51.09501],[18.49649,51.09517],[18.49611,51.09526],[18.49627,51.09567],[18.49652,51.09562],[18.49655,51.09588],[18.49678,51.09611],[18.49673,51.09618],[18.49657,51.09643],[18.4963,51.09687],[18.49632,51.09708],[18.49644,51.09778],[18.49757,51.09861],[18.49762,51.09866],[18.49792,51.09889],[18.49799,51.09893],[18.49874,51.09958],[18.49984,51.0999],[18.50004,51.09985],[18.50134,51.10021],[18.50145,51.10019],[18.50153,51.10018],[18.50172,51.10014],[18.50191,51.10019],[18.50227,51.1],[18.50255,51.09996],[18.5028,51.09996],[18.50363,51.10014],[18.50379,51.10028],[18.50384,51.10033],[18.50391,51.10037],[18.50403,51.10041],[18.50441,51.10048],[18.50426,51.10064],[18.50453,51.10075],[18.5046,51.1009],[18.50481,51.10089],[18.50511,51.101],[18.50544,51.1012],[18.5055,51.10131],[18.50568,51.10173],[18.50577,51.10179],[18.50583,51.10179],[18.50589,51.10179],[18.50597,51.10177],[18.50611,51.10167],[18.5064,51.10168],[18.50674,51.10175],[18.50681,51.10191],[18.50693,51.10194],[18.50702,51.10202],[18.50727,51.10194],[18.50732,51.10206],[18.5073,51.10213],[18.5074,51.10217],[18.50742,51.10199],[18.50772,51.10209],[18.50829,51.1022],[18.50827,51.10233],[18.50819,51.1024],[18.50829,51.10251],[18.50842,51.10254],[18.50845,51.1024],[18.50855,51.10234],[18.50926,51.10259],[18.50932,51.1026],[18.50936,51.10262],[18.5095,51.10273],[18.50952,51.10282],[18.50971,51.10291],[18.50991,51.10287],[18.51001,51.10298],[18.50999,51.10305],[18.50999,51.10312],[18.51006,51.10309],[18.51014,51.10305],[18.51022,51.10299],[18.5103,51.103],[18.51023,51.10311],[18.51034,51.10316],[18.51053,51.10301],[18.51065,51.10302],[18.5106,51.10317],[18.51071,51.10326],[18.51081,51.10324],[18.51087,51.10319],[18.51095,51.10321],[18.51094,51.10327],[18.51107,51.10328],[18.5112,51.10322],[18.51144,51.1033],[18.51157,51.10321],[18.51179,51.10328],[18.51192,51.10324],[18.51204,51.10319],[18.51203,51.10315],[18.51198,51.10311],[18.51193,51.10304],[18.51198,51.10298],[18.51219,51.10302],[18.51228,51.10311],[18.51244,51.10317],[18.51255,51.10323],[18.51268,51.10323],[18.51285,51.10314],[18.51297,51.10318],[18.51297,51.10333],[18.51294,51.10342],[18.51303,51.10345],[18.51306,51.10352],[18.51302,51.10358],[18.51288,51.10374],[18.51297,51.1038],[18.51328,51.10382],[18.5134,51.1037],[18.51362,51.10378],[18.51381,51.10376],[18.51408,51.10378],[18.51415,51.10369],[18.51426,51.10376],[18.5143,51.10384],[18.51437,51.10392],[18.51435,51.10399],[18.51445,51.10411],[18.51449,51.10416],[18.51445,51.10438],[18.51451,51.10438],[18.51451,51.10447],[18.51451,51.10453],[18.51465,51.10455],[18.51486,51.10431],[18.51516,51.10428],[18.51528,51.10425],[18.51539,51.10424],[18.51548,51.10425],[18.51558,51.10431],[18.5157,51.10438],[18.51582,51.10448],[18.51591,51.1046],[18.51587,51.10467],[18.51627,51.10503],[18.51668,51.1054],[18.51666,51.10546],[18.51664,51.10552],[18.51671,51.10576],[18.51682,51.10583],[18.51726,51.10619],[18.51745,51.10637],[18.51759,51.10649],[18.51766,51.10657],[18.51782,51.10655],[18.51789,51.10652],[18.51802,51.10648],[18.5182,51.10667],[18.51826,51.10673],[18.51834,51.10671],[18.51832,51.10689],[18.51833,51.10702],[18.51842,51.10713],[18.51842,51.10721],[18.51843,51.10741],[18.5185,51.10754],[18.51866,51.10754],[18.51876,51.10763],[18.51873,51.10772],[18.51886,51.10779],[18.5189,51.10784],[18.51903,51.10789],[18.51914,51.10785],[18.51924,51.1079],[18.51937,51.10797],[18.51953,51.10798],[18.51966,51.10804],[18.51971,51.10813],[18.51979,51.10821],[18.51981,51.10825],[18.51969,51.10839],[18.51979,51.10851],[18.51982,51.10857],[18.51975,51.10864],[18.51974,51.10871],[18.51977,51.10877],[18.51973,51.10884],[18.51966,51.10889],[18.51958,51.10893],[18.51954,51.10898],[18.51835,51.10985],[18.51827,51.10991],[18.51815,51.11005],[18.51796,51.11018],[18.51764,51.11045],[18.51745,51.11057],[18.51698,51.11086],[18.51671,51.11107],[18.51666,51.11111],[18.51664,51.11121],[18.51663,51.11126],[18.51666,51.11136],[18.51683,51.11145],[18.51686,51.11156],[18.51689,51.11162],[18.5171,51.11174],[18.51714,51.11177],[18.5172,51.11185],[18.51716,51.11191],[18.51719,51.11194],[18.51713,51.11201],[18.51708,51.11209],[18.51714,51.11224],[18.51716,51.11232],[18.51718,51.11238],[18.51721,51.11242],[18.51749,51.11248],[18.51773,51.11253],[18.51763,51.11264],[18.51766,51.1128],[18.51772,51.11284],[18.51776,51.11287],[18.51776,51.11292],[18.51768,51.11294],[18.51774,51.11301],[18.51791,51.11323],[18.51781,51.11338],[18.51775,51.1135],[18.51778,51.11357],[18.51782,51.1136],[18.5179,51.11363],[18.51794,51.11378],[18.51798,51.11401],[18.51797,51.11407],[18.51799,51.11412],[18.51801,51.11433],[18.518,51.11441],[18.51819,51.11459],[18.51837,51.11471],[18.51847,51.11476],[18.51873,51.11513],[18.51875,51.11515],[18.519,51.11545],[18.51937,51.11552],[18.51991,51.11597],[18.52017,51.11623],[18.51933,51.11695],[18.51876,51.11739],[18.51878,51.11742],[18.5185,51.11762],[18.51811,51.11795],[18.51774,51.11831],[18.51758,51.11866],[18.51745,51.11888],[18.51711,51.11961],[18.51705,51.11971],[18.51649,51.12079],[18.51638,51.12124],[18.51644,51.12207],[18.51644,51.12208],[18.51639,51.12231],[18.51625,51.12296],[18.51607,51.12341],[18.51596,51.12422],[18.51604,51.127],[18.51603,51.12731],[18.51601,51.12742],[18.51596,51.12779],[18.51554,51.13027],[18.51552,51.13053],[18.51553,51.13082],[18.5155,51.13219],[18.51548,51.13272],[18.51551,51.13349],[18.51561,51.13403],[18.51595,51.13404],[18.51603,51.13416],[18.51617,51.13437],[18.51626,51.13452],[18.51631,51.13461],[18.51635,51.13466],[18.5166,51.13502],[18.51692,51.13541],[18.51703,51.13564],[18.5171,51.13584],[18.51718,51.13614],[18.51718,51.13617],[18.51719,51.13621],[18.51723,51.13637],[18.51724,51.13649],[18.51732,51.13659],[18.51736,51.13667],[18.51743,51.13678],[18.51775,51.13718],[18.51781,51.13724],[18.51788,51.13732],[18.51811,51.1376],[18.51834,51.13778],[18.5184,51.13793],[18.51845,51.13795],[18.51849,51.13799],[18.51878,51.13818],[18.51895,51.13831],[18.51902,51.13839],[18.51919,51.13858],[18.51933,51.13874],[18.51945,51.13887],[18.51953,51.13891],[18.51961,51.13897],[18.51986,51.13914],[18.5199,51.13916],[18.52007,51.13922],[18.52023,51.13931],[18.52083,51.14026],[18.52088,51.1403],[18.52095,51.14032],[18.52143,51.14038],[18.52172,51.1404],[18.522,51.14044],[18.5227,51.14053],[18.5233,51.1405],[18.52366,51.14047],[18.5241,51.14039],[18.52433,51.14032],[18.52447,51.14031],[18.52711,51.13964],[18.52917,51.13882],[18.52957,51.13883],[18.53004,51.13879],[18.53059,51.13868],[18.53119,51.13849],[18.53139,51.13845],[18.53333,51.13798],[18.53402,51.13793],[18.53447,51.13789],[18.53501,51.13785],[18.53549,51.13785],[18.53565,51.13785],[18.5367,51.13784],[18.5369,51.13786],[18.537,51.13787],[18.53723,51.1379],[18.53846,51.13815],[18.53888,51.13824],[18.53958,51.13839],[18.53964,51.13845],[18.53979,51.13867],[18.54039,51.1392],[18.54061,51.13937],[18.54068,51.13944],[18.54119,51.13981],[18.54113,51.13996],[18.54108,51.14004],[18.54188,51.14036],[18.54275,51.1406],[18.54309,51.14083],[18.54302,51.14109],[18.54337,51.14104],[18.54375,51.14103],[18.54504,51.1412],[18.54557,51.14124],[18.54625,51.14124],[18.54648,51.14122],[18.54675,51.14121],[18.54702,51.14119],[18.54731,51.14116],[18.54751,51.14114],[18.54761,51.14113],[18.54782,51.14111],[18.54807,51.14107],[18.54816,51.14104],[18.54842,51.14097],[18.5485,51.14095],[18.5486,51.14092],[18.54868,51.14089],[18.54877,51.14086],[18.54892,51.14082],[18.54901,51.14079],[18.54916,51.14075],[18.54935,51.14069],[18.54951,51.14063],[18.54959,51.14056],[18.54965,51.14052],[18.55018,51.14027],[18.55033,51.1402],[18.55073,51.14005],[18.55089,51.13998],[18.55096,51.13995],[18.55138,51.13977],[18.55146,51.13975],[18.55163,51.13969],[18.55183,51.1396],[18.55188,51.13957],[18.55196,51.13955],[18.55204,51.13952],[18.55211,51.13948],[18.5523,51.1394],[18.55237,51.13938],[18.55247,51.13934],[18.55261,51.13929],[18.55264,51.13927],[18.55271,51.13925],[18.55288,51.1392],[18.55295,51.13918],[18.55304,51.13913],[18.55311,51.1391],[18.55319,51.13907],[18.55327,51.13903],[18.55339,51.13898],[18.55354,51.13891],[18.55365,51.13883],[18.55372,51.13878],[18.55375,51.13874],[18.55381,51.13864],[18.55387,51.13856],[18.5539,51.13851],[18.55394,51.13847],[18.55401,51.13838],[18.55414,51.13824],[18.55419,51.13816],[18.55427,51.13807],[18.55434,51.13797],[18.55441,51.13788],[18.55448,51.13777],[18.55455,51.13769],[18.55464,51.13757],[18.55473,51.13738],[18.55481,51.13725],[18.55487,51.13712],[18.55494,51.13701],[18.55497,51.13694],[18.55513,51.13666],[18.5552,51.13654],[18.55527,51.1364],[18.55534,51.13631],[18.55539,51.13622],[18.55544,51.13613],[18.55564,51.13589],[18.55576,51.13576],[18.55596,51.13556],[18.55607,51.13544],[18.55613,51.13539],[18.55618,51.13532],[18.55625,51.13523],[18.55636,51.13512],[18.55639,51.13508],[18.55645,51.13503],[18.55652,51.13496],[18.55687,51.13466],[18.5569,51.13463],[18.55702,51.13452],[18.55717,51.13432],[18.55729,51.13418],[18.55736,51.13402],[18.55741,51.13392],[18.557,51.13295],[18.55766,51.13256],[18.55831,51.13218],[18.55855,51.13206],[18.55936,51.13159],[18.55987,51.1313],[18.56026,51.13067],[18.56042,51.13038],[18.56061,51.13007],[18.56074,51.1298],[18.56108,51.1294],[18.56159,51.12874],[18.56182,51.12842],[18.56228,51.12784],[18.56254,51.12753],[18.56293,51.127],[18.56334,51.12645],[18.56337,51.12642],[18.56339,51.12625],[18.56343,51.12535],[18.56344,51.12486],[18.56344,51.12466],[18.5642,51.124],[18.56437,51.12386],[18.5645,51.12375],[18.56469,51.12339],[18.56492,51.12304],[18.56505,51.12286],[18.56517,51.12266],[18.56533,51.12244],[18.56549,51.12219],[18.56568,51.12194],[18.56592,51.12159],[18.56604,51.12142],[18.5661,51.12133],[18.5664,51.1209],[18.56654,51.12088],[18.56658,51.12088],[18.56672,51.1204],[18.56765,51.11905],[18.56762,51.11898],[18.56751,51.11879],[18.56734,51.11845],[18.56718,51.11816],[18.56709,51.118],[18.56702,51.11786],[18.56696,51.11775],[18.56686,51.11754],[18.56679,51.11742],[18.56673,51.11733],[18.56664,51.11714],[18.56633,51.11653],[18.56615,51.11619],[18.56606,51.11601],[18.56595,51.1158],[18.56584,51.11557],[18.56574,51.11536],[18.56571,51.1153],[18.56546,51.11482],[18.5653,51.11453],[18.56515,51.11424],[18.56498,51.11391],[18.56485,51.11368],[18.56474,51.11347],[18.56464,51.11325],[18.56451,51.11302],[18.56437,51.11272],[18.5641,51.11224],[18.56356,51.11217],[18.56233,51.11195],[18.56195,51.11188],[18.56134,51.11115],[18.56161,51.11033],[18.56166,51.11018],[18.5621,51.10846],[18.5621,51.1082],[18.56227,51.10773],[18.56219,51.10764],[18.56231,51.10705],[18.56227,51.10665],[18.5623,51.10654],[18.56248,51.10638],[18.56277,51.10615],[18.56285,51.10611],[18.56289,51.10608],[18.56351,51.10574],[18.56367,51.10566],[18.56378,51.1056],[18.56378,51.1056],[18.56405,51.1053],[18.56507,51.1046],[18.56536,51.10437],[18.5655,51.10428],[18.56659,51.10343],[18.56701,51.10318],[18.56744,51.10276],[18.56793,51.10241],[18.56849,51.1017],[18.56885,51.10114],[18.5692,51.10072],[18.56976,51.09964],[18.57059,51.09889],[18.57095,51.0986],[18.57138,51.09851],[18.57181,51.09813],[18.57279,51.09759],[18.57348,51.097],[18.57475,51.09616],[18.57558,51.09548],[18.5767,51.09486],[18.57739,51.0946],[18.57763,51.09463],[18.57836,51.09409],[18.57863,51.09382],[18.57884,51.0935],[18.57967,51.09212],[18.58066,51.09052],[18.58078,51.09026],[18.58075,51.08984],[18.5805,51.08946],[18.58037,51.08927],[18.58033,51.08922],[18.58025,51.08902],[18.57997,51.08824],[18.58004,51.08823],[18.57882,51.08625],[18.57871,51.0861],[18.57869,51.08606],[18.57828,51.0854],[18.5782,51.08528],[18.57787,51.08496],[18.57786,51.08496],[18.57782,51.08493],[18.57775,51.0848],[18.57768,51.08472],[18.57761,51.08461],[18.57758,51.08456],[18.57748,51.08451],[18.57735,51.08435],[18.57743,51.08388],[18.57751,51.08387],[18.57751,51.08382],[18.57726,51.0825],[18.57757,51.08223],[18.5776,51.08192],[18.57771,51.08203],[18.57804,51.08209],[18.57821,51.08211],[18.57838,51.08214],[18.57849,51.08216],[18.5786,51.08218],[18.57882,51.08219],[18.57903,51.08221],[18.57925,51.08224],[18.57949,51.08226],[18.57963,51.08227],[18.57984,51.08228],[18.58001,51.08229],[18.58014,51.08231],[18.58042,51.08233],[18.58052,51.08233],[18.58074,51.08235],[18.5827,51.08193],[18.58274,51.08192],[18.583,51.08186],[18.58304,51.08185],[18.58331,51.08179],[18.58369,51.08171],[18.584,51.08164],[18.58415,51.08161],[18.58459,51.0816],[18.5847,51.08159],[18.58474,51.0816],[18.58503,51.08158],[18.58508,51.08158],[18.58576,51.08156],[18.58608,51.08155],[18.58648,51.08154],[18.58675,51.08153],[18.58836,51.08129],[18.58978,51.08102],[18.58991,51.08102],[18.59035,51.081],[18.59112,51.08097],[18.59142,51.08095],[18.59179,51.08094],[18.59236,51.08092],[18.59271,51.08106],[18.59282,51.0811],[18.59302,51.08117],[18.59323,51.08126],[18.59378,51.08147],[18.59386,51.0815],[18.59476,51.08184],[18.595,51.08192],[18.59507,51.08193],[18.59771,51.08206],[18.59929,51.08221],[18.59978,51.08227],[18.60018,51.08221],[18.60062,51.08212],[18.60079,51.0821],[18.60106,51.08205],[18.60114,51.08204],[18.6013,51.08201],[18.60171,51.08193],[18.6023,51.08184],[18.6024,51.08181],[18.60249,51.0818],[18.60303,51.0817],[18.60312,51.08171],[18.60322,51.0817],[18.60336,51.0817],[18.6036,51.08175],[18.60377,51.08178],[18.60389,51.0818],[18.60475,51.08202],[18.60482,51.08201],[18.60508,51.08199],[18.6053,51.08198],[18.60554,51.08195],[18.60674,51.08186],[18.60677,51.08185],[18.60812,51.08174],[18.60828,51.08171],[18.60848,51.08153],[18.60874,51.08131],[18.60886,51.08121],[18.60897,51.08113],[18.6091,51.08101],[18.60929,51.08085],[18.60969,51.08052],[18.60988,51.08035],[18.61016,51.08027],[18.61049,51.08017],[18.61072,51.0801],[18.61186,51.07979],[18.6121,51.07972],[18.61221,51.0797],[18.61378,51.07965],[18.61498,51.07961],[18.61539,51.07957],[18.61582,51.0795],[18.61608,51.07946],[18.61635,51.07943],[18.61646,51.07941],[18.61663,51.07936],[18.61684,51.07904],[18.61699,51.0789],[18.61712,51.07881],[18.61715,51.0787],[18.61721,51.07865],[18.61721,51.07858],[18.61737,51.07861],[18.61755,51.07865],[18.61763,51.07862],[18.61777,51.07858],[18.61792,51.07857],[18.61798,51.0785],[18.61802,51.07842],[18.6181,51.07838],[18.61819,51.07831],[18.61819,51.07826],[18.61829,51.07821],[18.61837,51.07819],[18.61844,51.07819],[18.61859,51.07812],[18.61863,51.07811],[18.61888,51.07814],[18.61894,51.0781],[18.61909,51.07804],[18.61924,51.07802],[18.61932,51.07801],[18.61946,51.07793],[18.61954,51.07791],[18.61967,51.07788],[18.61976,51.07786],[18.61985,51.0778],[18.61992,51.07775],[18.61998,51.07766],[18.62013,51.07768],[18.62029,51.07768],[18.62053,51.07766],[18.6206,51.07763],[18.62071,51.07757],[18.62076,51.07755],[18.62098,51.07752],[18.62125,51.07747],[18.62141,51.07745],[18.6215,51.07745],[18.62159,51.07743],[18.6217,51.0774],[18.62201,51.07737],[18.62212,51.07734],[18.62215,51.07734],[18.62223,51.07743],[18.62233,51.07739],[18.62238,51.07736],[18.62239,51.07732],[18.6224,51.07727],[18.62242,51.07725],[18.62248,51.07724],[18.62249,51.07725],[18.62252,51.07728],[18.62257,51.07729],[18.62263,51.07729],[18.62266,51.0773],[18.62272,51.07734],[18.62279,51.07735],[18.62281,51.07734],[18.62282,51.07729],[18.62299,51.07727],[18.62305,51.07726],[18.62308,51.07724],[18.62318,51.07725],[18.62323,51.07724],[18.62331,51.07722],[18.62341,51.07724],[18.62346,51.07724],[18.62352,51.07723],[18.62359,51.07719],[18.62356,51.07712],[18.62356,51.077],[18.62353,51.07694],[18.62356,51.07689],[18.62353,51.07688],[18.62347,51.07682],[18.62353,51.07679],[18.62356,51.07676],[18.62353,51.07672],[18.62348,51.07673],[18.62343,51.07671],[18.62338,51.07675],[18.62321,51.0767],[18.62322,51.07663],[18.6233,51.0766],[18.6233,51.07657],[18.62321,51.07656],[18.62319,51.07654],[18.62323,51.07649],[18.62322,51.07643],[18.62324,51.07638],[18.62324,51.07631],[18.62319,51.07622],[18.62303,51.07617],[18.62305,51.07614],[18.62306,51.0761],[18.62311,51.07609],[18.62314,51.07612],[18.62318,51.07609],[18.62319,51.07602],[18.62307,51.07603],[18.62316,51.07596],[18.62315,51.07588],[18.62324,51.07582],[18.62328,51.07574],[18.62318,51.07574],[18.62319,51.07561],[18.62312,51.07563],[18.62308,51.07561],[18.62316,51.07556],[18.62316,51.07552],[18.62323,51.07552],[18.62328,51.07549],[18.62324,51.07545],[18.62323,51.07543],[18.62328,51.07541],[18.6233,51.07537],[18.62325,51.07536],[18.62324,51.07533],[18.62331,51.07531],[18.62333,51.07527],[18.62325,51.07524],[18.62329,51.07521],[18.62324,51.07517],[18.62333,51.07514],[18.62341,51.07507],[18.62338,51.07503],[18.62344,51.07498],[18.62344,51.07491],[18.62335,51.07493],[18.62335,51.0749],[18.62345,51.07484],[18.62347,51.07481],[18.62346,51.07477],[18.62362,51.07472],[18.62363,51.07467],[18.62358,51.07463],[18.62369,51.07451],[18.62388,51.07451],[18.62389,51.07446],[18.62388,51.07434],[18.62404,51.0743],[18.62403,51.07427],[18.62406,51.07419],[18.624,51.0742],[18.62398,51.07416],[18.62402,51.07409],[18.62413,51.07403],[18.62417,51.07394],[18.6242,51.07391],[18.62431,51.07389],[18.6243,51.07375],[18.62443,51.07367],[18.62455,51.07366],[18.62463,51.07358],[18.62458,51.07353],[18.62462,51.0735],[18.62456,51.07348],[18.6246,51.07342],[18.6246,51.07327],[18.62458,51.07324],[18.62463,51.07319],[18.62459,51.07316],[18.62461,51.07312],[18.62463,51.07308],[18.6247,51.07302],[18.62472,51.07298],[18.62476,51.07296],[18.62478,51.07292],[18.62485,51.07291],[18.62494,51.07285],[18.62498,51.0728],[18.62506,51.07277],[18.62509,51.07273],[18.62521,51.07272],[18.6253,51.07267],[18.6253,51.07267],[18.62552,51.07267],[18.62551,51.07254],[18.62559,51.07226],[18.62559,51.07226],[18.62561,51.07216],[18.62566,51.0721],[18.62553,51.07201],[18.62536,51.07196],[18.62523,51.07184],[18.62502,51.07174],[18.62531,51.07165],[18.62605,51.07145],[18.62668,51.07071],[18.62714,51.07041],[18.62717,51.07039],[18.62762,51.07007],[18.62795,51.06982],[18.62854,51.06938],[18.62948,51.0688],[18.62979,51.06856],[18.62992,51.06846],[18.62993,51.06846],[18.63066,51.06781],[18.63066,51.06781],[18.63129,51.06736],[18.6313,51.06736],[18.63198,51.06694],[18.63198,51.06694],[18.63239,51.06672],[18.63249,51.06666],[18.6328,51.0665],[18.63311,51.06636],[18.63398,51.066],[18.634,51.06599],[18.63481,51.06569],[18.63513,51.06556],[18.63594,51.06496],[18.6363,51.06443],[18.63746,51.06339],[18.63835,51.06322],[18.63837,51.06322],[18.63891,51.0631],[18.63995,51.06293],[18.63997,51.06293],[18.64002,51.06292],[18.64006,51.06291],[18.64098,51.0628],[18.6435,51.06218],[18.6441,51.06201],[18.64469,51.06185],[18.64519,51.06174],[18.64632,51.06139],[18.64653,51.06134],[18.64663,51.0613],[18.64712,51.06123],[18.64836,51.06107],[18.65028,51.06019],[18.6505,51.0601],[18.6508,51.05997],[18.6517,51.05934],[18.65179,51.0593],[18.65305,51.05844],[18.65393,51.05794],[18.65435,51.05769],[18.65549,51.05729],[18.65584,51.05715],[18.65697,51.05662],[18.6579,51.05619],[18.65882,51.05558],[18.65948,51.05498],[18.65982,51.05487],[18.66053,51.05469],[18.66068,51.05465],[18.66081,51.05463],[18.66105,51.05461],[18.66177,51.05458],[18.66191,51.05455],[18.66473,51.05448],[18.66583,51.05471],[18.66606,51.05477],[18.66672,51.055],[18.66684,51.05505],[18.66702,51.05513],[18.66731,51.05528],[18.66846,51.05587],[18.66881,51.05645],[18.66985,51.05653],[18.67022,51.05657],[18.67054,51.0566],[18.67086,51.05663],[18.67234,51.05681],[18.67278,51.05688],[18.67295,51.0569],[18.67403,51.05698],[18.67521,51.05705],[18.67611,51.05756],[18.67697,51.05793],[18.67779,51.05814],[18.67834,51.05812],[18.67886,51.05819],[18.68,51.0586],[18.68023,51.05877],[18.6814,51.0592],[18.68246,51.05954],[18.68397,51.05971],[18.68479,51.05977],[18.6862,51.05996],[18.68751,51.0604],[18.68818,51.06073],[18.68938,51.06086],[18.6908,51.06118],[18.69225,51.06109],[18.6948,51.06104],[18.69707,51.06141],[18.69797,51.06183],[18.6998,51.06209],[18.70218,51.06267],[18.70236,51.0635],[18.70293,51.06436],[18.70496,51.0649],[18.70664,51.06512],[18.70921,51.06555],[18.71009,51.06564],[18.71138,51.06564],[18.71464,51.06577],[18.71525,51.06581],[18.71569,51.06588],[18.71704,51.06571],[18.71879,51.06528],[18.71972,51.06493],[18.72042,51.0646],[18.72118,51.0649],[18.72248,51.06495],[18.72389,51.06493],[18.72488,51.06495],[18.72693,51.06533],[18.72719,51.06525],[18.72723,51.06525],[18.72724,51.06529],[18.72813,51.06541],[18.72981,51.06583],[18.73036,51.066],[18.73041,51.06602],[18.73184,51.06647],[18.73272,51.06639],[18.73291,51.06637],[18.73315,51.06635],[18.73471,51.06579],[18.73562,51.06551],[18.73717,51.06519],[18.73906,51.06423],[18.73936,51.06401],[18.73942,51.06345],[18.74128,51.06353],[18.74333,51.06344],[18.74601,51.06274],[18.74941,51.06232],[18.75289,51.06251],[18.75612,51.06291],[18.75726,51.06305],[18.76035,51.06327],[18.76041,51.06328],[18.76229,51.06349],[18.7623,51.06349],[18.76492,51.06406],[18.765,51.06408],[18.76746,51.06465],[18.76784,51.06475],[18.76734,51.06536],[18.76704,51.06576],[18.76649,51.06652],[18.76644,51.06658],[18.76618,51.0666],[18.76597,51.06662],[18.7657,51.06664],[18.76543,51.06674],[18.76509,51.06685],[18.76464,51.06699],[18.76432,51.0671],[18.76387,51.06718],[18.76335,51.06728],[18.76293,51.06735],[18.76269,51.06739],[18.76236,51.06745],[18.76192,51.06748],[18.76108,51.06754],[18.76105,51.0676],[18.76036,51.0692],[18.76036,51.0692],[18.76012,51.0698],[18.76067,51.07001],[18.76066,51.07003],[18.76066,51.07005],[18.76111,51.07027],[18.76121,51.07029],[18.76199,51.07046],[18.76219,51.0705],[18.76292,51.07064],[18.76333,51.07073],[18.76372,51.07082],[18.7632,51.07188],[18.76267,51.07282],[18.76369,51.07297],[18.76473,51.07312],[18.7641,51.07363],[18.76394,51.07377],[18.76387,51.07383],[18.76285,51.07491],[18.7639,51.07543],[18.76472,51.07443],[18.7649,51.07421],[18.76511,51.0743],[18.76496,51.07446],[18.76493,51.07449],[18.76535,51.07466],[18.76527,51.07473],[18.76685,51.07527],[18.76681,51.07533],[18.76567,51.07677],[18.76642,51.07715],[18.76708,51.07741],[18.76774,51.07766],[18.76799,51.0778],[18.76824,51.07791],[18.76854,51.07803],[18.76888,51.07814],[18.76935,51.07825],[18.76955,51.07823],[18.76963,51.07823],[18.76979,51.07824],[18.77023,51.07827],[18.77017,51.0791],[18.77013,51.07932],[18.77008,51.07954],[18.77005,51.07969],[18.77032,51.07969],[18.76999,51.08054],[18.76967,51.08053],[18.76944,51.08175],[18.76927,51.0823],[18.76902,51.08275],[18.76699,51.08249],[18.76657,51.08245],[18.76635,51.08321],[18.76623,51.08364],[18.76598,51.08423],[18.76581,51.08494],[18.76566,51.08642],[18.76565,51.08654],[18.7656,51.08669],[18.76559,51.08674],[18.76543,51.08787],[18.76561,51.08795],[18.76578,51.08802],[18.76587,51.08806],[18.76597,51.0881],[18.76636,51.08836],[18.7669,51.08855],[18.76799,51.08903],[18.7681,51.08908],[18.76818,51.08901],[18.76894,51.08808],[18.76926,51.08751],[18.76928,51.08746],[18.76905,51.08739],[18.76869,51.08719],[18.7686,51.08705],[18.7685,51.0869],[18.76862,51.08662],[18.76876,51.08627],[18.76888,51.08599],[18.76902,51.08567],[18.76946,51.08547],[18.76953,51.08537],[18.77065,51.08364],[18.77095,51.08368],[18.77123,51.08291],[18.77145,51.08234],[18.77455,51.08266],[18.77591,51.08276],[18.77608,51.08278],[18.77627,51.08279],[18.77866,51.08297],[18.77875,51.08298],[18.77894,51.08299],[18.77902,51.083],[18.77913,51.08322],[18.77934,51.08366],[18.77938,51.08366],[18.78036,51.08243],[18.78221,51.08276],[18.7821,51.08305],[18.78194,51.08346],[18.78174,51.08397],[18.7816,51.08429],[18.78157,51.08438],[18.78154,51.08445],[18.78137,51.08489],[18.78305,51.08501],[18.78553,51.08539],[18.78515,51.08553],[18.7851,51.08565],[18.78489,51.08561],[18.78441,51.08555],[18.78424,51.08592],[18.78412,51.08615],[18.78415,51.08679],[18.78436,51.08767],[18.78446,51.08766],[18.7848,51.08872],[18.78484,51.08925],[18.78479,51.08977],[18.78477,51.09021],[18.78476,51.09037],[18.78468,51.09076],[18.78423,51.09176],[18.78415,51.09197],[18.78408,51.09216],[18.78377,51.09258],[18.78356,51.09283],[18.78295,51.09331],[18.78299,51.09335],[18.78292,51.09339],[18.7823,51.09387],[18.78201,51.09412],[18.78174,51.09436],[18.78043,51.09555],[18.78037,51.09559],[18.77992,51.096],[18.77949,51.09639],[18.77945,51.09643],[18.77899,51.09629],[18.77612,51.09625],[18.77401,51.09604],[18.77386,51.09601],[18.77365,51.09597],[18.77349,51.09594],[18.77261,51.09577],[18.77187,51.09563],[18.77109,51.09549],[18.77086,51.09545],[18.77077,51.09431],[18.77074,51.09407],[18.77145,51.09282],[18.77121,51.09262],[18.771,51.09244],[18.77085,51.09231],[18.77078,51.09221],[18.77068,51.09206],[18.77059,51.09194],[18.77,51.09288],[18.76701,51.09229],[18.76694,51.09226],[18.76665,51.09376],[18.76502,51.09373],[18.76312,51.09363],[18.76124,51.09346],[18.76105,51.09345],[18.76083,51.09373],[18.76082,51.09374],[18.7606,51.09413],[18.76029,51.09469],[18.76029,51.0947],[18.76024,51.09478],[18.76015,51.09495],[18.76015,51.09495],[18.76006,51.09514],[18.75997,51.09532],[18.7598,51.09566],[18.7585,51.09554],[18.75842,51.09578],[18.75813,51.09577],[18.75807,51.09595],[18.75797,51.09626],[18.75783,51.09674],[18.7578,51.09683],[18.75775,51.09699],[18.75773,51.09706],[18.75717,51.09694],[18.75697,51.09747],[18.75678,51.09885],[18.75667,51.0995],[18.75571,51.09952],[18.75518,51.09953],[18.7547,51.0995],[18.75459,51.0995],[18.75444,51.09949],[18.75408,51.09931],[18.75391,51.0992],[18.75334,51.09885],[18.75281,51.09853],[18.75226,51.09842],[18.7517,51.09849],[18.75121,51.09843],[18.75094,51.09839],[18.75071,51.09834],[18.75058,51.0983],[18.74849,51.09818],[18.74715,51.09822],[18.74671,51.0983],[18.74628,51.09858],[18.74609,51.09878],[18.74602,51.09891],[18.74618,51.09931],[18.74647,51.09947],[18.74659,51.09954],[18.74614,51.09964],[18.7457,51.09975],[18.74491,51.09995],[18.74425,51.10013],[18.74399,51.10018],[18.74353,51.10028],[18.74307,51.10047],[18.74276,51.1006],[18.7426,51.10071],[18.7421,51.10106],[18.74243,51.10141],[18.74254,51.10151],[18.74245,51.10182],[18.74219,51.10156],[18.73999,51.1039],[18.73996,51.10393],[18.74063,51.10396],[18.7414,51.10407],[18.74152,51.10385],[18.74153,51.10384],[18.74501,51.1042],[18.74751,51.1044],[18.74763,51.10448],[18.74782,51.1046],[18.74794,51.10469],[18.74933,51.10511],[18.74969,51.10499],[18.75056,51.10457],[18.75143,51.10353],[18.75188,51.10297],[18.75221,51.10232],[18.75252,51.10197],[18.75295,51.10185],[18.75362,51.10178],[18.75409,51.10162],[18.75492,51.10143],[18.75528,51.1015],[18.75537,51.10158],[18.75574,51.10193],[18.75613,51.10221],[18.75731,51.10177],[18.75741,51.10176],[18.75858,51.10162],[18.75977,51.10146],[18.76051,51.10146],[18.76053,51.10397],[18.76078,51.10524],[18.76095,51.1067],[18.76147,51.10674],[18.76118,51.10743],[18.75968,51.10804],[18.75879,51.10905],[18.75872,51.10913],[18.7578,51.11025],[18.757,51.11148],[18.75636,51.11254],[18.75678,51.11339],[18.75716,51.11396],[18.7573,51.11436],[18.7577,51.11543],[18.7579,51.11646],[18.75793,51.1167],[18.75787,51.11691],[18.75777,51.11717],[18.75752,51.11757],[18.75584,51.11727],[18.7553,51.11828],[18.7552,51.11856],[18.75222,51.11893],[18.75232,51.11899],[18.75407,51.12],[18.75758,51.12122],[18.75842,51.12155],[18.75916,51.12183],[18.75956,51.12198],[18.76008,51.12217],[18.76042,51.12228],[18.76086,51.12244],[18.76106,51.12252],[18.7614,51.12264],[18.76484,51.12384],[18.76514,51.1252],[18.76524,51.1263],[18.76525,51.12709],[18.76542,51.12863],[18.76555,51.13027],[18.76662,51.13034],[18.76817,51.13052],[18.76849,51.1298],[18.76887,51.12983],[18.76932,51.12987],[18.77016,51.12994],[18.77167,51.13026],[18.77376,51.13035],[18.77326,51.13165],[18.77051,51.13148],[18.7705,51.13193],[18.76957,51.13191],[18.76781,51.13177],[18.76679,51.13171],[18.76566,51.13173],[18.76647,51.13185],[18.77439,51.13296],[18.77592,51.13532],[18.77679,51.13527],[18.77722,51.13524],[18.78195,51.13496],[18.78273,51.13491],[18.78368,51.13486],[18.78517,51.13477],[18.78707,51.13468],[18.78862,51.13453],[18.7909,51.13451],[18.79164,51.13625],[18.79152,51.13629],[18.7911,51.13657],[18.79085,51.13674],[18.79033,51.13706],[18.78991,51.13726],[18.78671,51.1381],[18.78579,51.13833],[18.78561,51.13837],[18.78364,51.13886],[18.77852,51.1402],[18.77317,51.1416],[18.77372,51.14359],[18.77677,51.1552],[18.77927,51.16479],[18.77943,51.16541],[18.7874,51.16275],[18.78977,51.16195],[18.78807,51.16456],[18.78905,51.16574],[18.79112,51.16808],[18.79264,51.16983],[18.79285,51.16983],[18.7929,51.16981],[18.79373,51.16982],[18.79655,51.16927],[18.79747,51.16905],[18.79904,51.16867],[18.80035,51.16826],[18.80393,51.16741],[18.80585,51.16672],[18.80651,51.16661],[18.8092,51.1659],[18.81286,51.16504],[18.81441,51.16461],[18.81518,51.16446],[18.8167,51.16436],[18.81754,51.16421],[18.81845,51.1642],[18.81934,51.16427],[18.82028,51.16441],[18.82125,51.16459],[18.82334,51.16486],[18.82362,51.16484],[18.82407,51.16487],[18.82463,51.16497],[18.82609,51.16515],[18.82656,51.16525],[18.82684,51.16536],[18.82723,51.16552],[18.828,51.16565],[18.82885,51.16592],[18.82964,51.16625],[18.8313,51.16658],[18.83252,51.16649],[18.83294,51.16652],[18.83387,51.1667],[18.83372,51.1684],[18.8323,51.16832],[18.83205,51.16935],[18.83363,51.16948],[18.83369,51.17049],[18.82885,51.17047],[18.8293,51.17018],[18.82956,51.16984],[18.82968,51.16951],[18.82672,51.16953],[18.82682,51.17047],[18.82142,51.17045],[18.82017,51.17724],[18.82015,51.17732],[18.82074,51.17804],[18.82044,51.17814],[18.82137,51.17911],[18.82178,51.17906],[18.82167,51.17937],[18.82182,51.17962],[18.82089,51.18011],[18.8201,51.18017],[18.82009,51.18033],[18.81947,51.18036],[18.81942,51.18015],[18.8189,51.18017],[18.81853,51.17986],[18.81767,51.17991],[18.81689,51.18036],[18.8169,51.18051],[18.81538,51.18061],[18.81541,51.18146],[18.81434,51.18147],[18.81354,51.18156],[18.81279,51.18159],[18.81269,51.18121],[18.81114,51.1814],[18.8115,51.18306],[18.8133,51.18341],[18.81328,51.18439],[18.81374,51.18436],[18.81462,51.18424],[18.81484,51.18425],[18.81487,51.1843],[18.81516,51.18514],[18.81546,51.1851],[18.81556,51.18499],[18.81604,51.18509],[18.81603,51.1853],[18.81757,51.18527],[18.81762,51.18543],[18.81718,51.18558],[18.81679,51.18605],[18.81645,51.18609],[18.81622,51.18632],[18.81632,51.18651],[18.81634,51.18657],[18.81649,51.18687],[18.81713,51.18759],[18.81729,51.18769],[18.81713,51.18788],[18.81739,51.18807],[18.81755,51.18813],[18.81755,51.18864],[18.81733,51.18924],[18.81759,51.18921],[18.81757,51.18928],[18.81663,51.18945],[18.81611,51.18971],[18.81648,51.19063],[18.81818,51.19157],[18.81903,51.19035],[18.82008,51.19137],[18.82057,51.19127],[18.82069,51.19164],[18.8205,51.19178],[18.82259,51.1938],[18.82709,51.19815],[18.82721,51.19823],[18.82724,51.19825],[18.82832,51.2003],[18.82901,51.20335],[18.82823,51.20311],[18.82783,51.20275],[18.82745,51.20246],[18.82711,51.20256],[18.82648,51.20274],[18.82458,51.20007],[18.82437,51.20023],[18.82231,51.20076],[18.82171,51.20094],[18.81636,51.20292],[18.81298,51.20352],[18.81192,51.20403],[18.80972,51.20451],[18.80969,51.20452],[18.8089,51.20442],[18.8082,51.20471],[18.80766,51.20507],[18.80721,51.20563],[18.80594,51.2065],[18.80546,51.20689],[18.8047,51.20719],[18.80394,51.20763],[18.80232,51.20784],[18.80139,51.20801],[18.80053,51.20793],[18.79895,51.20791],[18.79791,51.20781],[18.79764,51.2078],[18.79723,51.20779],[18.79607,51.20809],[18.79562,51.20861],[18.79531,51.20863],[18.79473,51.20952],[18.79447,51.21029],[18.79463,51.211],[18.7943,51.21187],[18.7938,51.21277],[18.7931,51.21316],[18.79233,51.21343],[18.79186,51.21356],[18.79143,51.21337],[18.79051,51.21411],[18.78991,51.21432],[18.78928,51.21444],[18.78803,51.21447],[18.78763,51.21454],[18.78758,51.21463],[18.78771,51.21492],[18.78787,51.21508],[18.7881,51.21522],[18.78828,51.21546],[18.78837,51.2155],[18.78864,51.21575],[18.78875,51.21598],[18.78881,51.21616],[18.78884,51.21621],[18.78904,51.21655],[18.78911,51.21665],[18.78912,51.21666],[18.78935,51.21686],[18.78959,51.21701],[18.78974,51.21718],[18.78988,51.21753],[18.79018,51.21805],[18.79047,51.21862],[18.79071,51.21916],[18.79076,51.21926],[18.79075,51.21938],[18.79075,51.21987],[18.79066,51.22011],[18.79049,51.22072],[18.79039,51.22111],[18.79051,51.22148],[18.7904,51.22173],[18.79037,51.22183],[18.79026,51.22216],[18.79023,51.2226],[18.79025,51.22313],[18.79035,51.22339],[18.79058,51.22369],[18.79061,51.22378],[18.79112,51.22432],[18.79137,51.22456],[18.7917,51.22506],[18.79182,51.22521],[18.79237,51.22575],[18.79257,51.22587],[18.79395,51.22683],[18.79408,51.22688],[18.7942,51.22693],[18.79432,51.22704],[18.79448,51.22714],[18.79464,51.22727],[18.79479,51.22745],[18.7949,51.22762],[18.795,51.22766],[18.79501,51.22774],[18.79494,51.22804],[18.79496,51.22819],[18.79508,51.22835],[18.79513,51.22842],[18.79528,51.22855],[18.79547,51.22877],[18.79563,51.22903],[18.79573,51.22922],[18.79573,51.2293],[18.79577,51.22933],[18.79587,51.22947],[18.79593,51.22955],[18.79611,51.22974],[18.7963,51.22996],[18.7965,51.23015],[18.79655,51.23017],[18.79683,51.2303],[18.79703,51.23037],[18.79739,51.2305],[18.79749,51.23054],[18.79775,51.2307],[18.79847,51.23107],[18.79862,51.23112],[18.79934,51.23141],[18.79962,51.23144],[18.79989,51.2315],[18.80005,51.2317],[18.80011,51.23182],[18.80032,51.23198],[18.80048,51.23224],[18.80062,51.23249],[18.8007,51.2326],[18.80078,51.23279],[18.80081,51.23302],[18.80078,51.23331],[18.80069,51.23366],[18.80052,51.23394],[18.79978,51.23498],[18.79957,51.23532],[18.79947,51.2355],[18.79931,51.23569],[18.79917,51.23581],[18.79891,51.23599],[18.79875,51.23608],[18.79871,51.23622],[18.79861,51.23643],[18.79854,51.23656],[18.79821,51.23688],[18.79781,51.23715],[18.79767,51.23736],[18.79741,51.23752],[18.7973,51.23763],[18.79689,51.23788],[18.79655,51.23802],[18.7962,51.2383],[18.79597,51.23846],[18.7952,51.23917],[18.79498,51.2394],[18.79482,51.23954],[18.79448,51.23983],[18.79438,51.23992],[18.79374,51.24051],[18.79363,51.24055],[18.79351,51.24069],[18.79343,51.24108],[18.79348,51.24147],[18.79346,51.24192],[18.79388,51.24237],[18.79426,51.24267],[18.79471,51.24292],[18.79608,51.24366],[18.79612,51.24382],[18.7962,51.24393],[18.79647,51.24445],[18.79642,51.24467],[18.79625,51.24489],[18.79611,51.24509],[18.79585,51.24541],[18.79562,51.24558],[18.79554,51.24583],[18.79533,51.24619],[18.79532,51.24639],[18.79531,51.24668],[18.79539,51.24703],[18.79526,51.24741],[18.79517,51.2475],[18.79509,51.24779],[18.79512,51.2479],[18.79552,51.24841],[18.79576,51.24868],[18.79619,51.24896],[18.79648,51.24908],[18.79665,51.24921],[18.79708,51.24949],[18.79761,51.24995],[18.79775,51.24998],[18.79794,51.25045],[18.79826,51.25095],[18.79821,51.25133],[18.79799,51.25162],[18.79798,51.25164],[18.79751,51.25203],[18.79725,51.25231],[18.79685,51.25262],[18.79671,51.25276],[18.79633,51.25296],[18.79592,51.25304],[18.79564,51.253],[18.79515,51.25307],[18.79501,51.25302],[18.79486,51.253],[18.794,51.25338],[18.79296,51.25384],[18.79288,51.25388],[18.79192,51.25423],[18.79134,51.25438],[18.79063,51.2545],[18.79224,51.25509],[18.79425,51.25582],[18.79427,51.25583],[18.79585,51.25611],[18.79724,51.25626],[18.79851,51.25624],[18.79893,51.25652],[18.79993,51.25723],[18.80056,51.25769],[18.80068,51.2578],[18.80074,51.25779],[18.80124,51.25773],[18.80121,51.25711],[18.80285,51.25715],[18.80295,51.25697],[18.80298,51.25675],[18.80292,51.25558],[18.80277,51.25421],[18.80851,51.25363],[18.81475,51.25292],[18.8152,51.26024],[18.81592,51.25998],[18.81593,51.25998],[18.81767,51.25981],[18.81771,51.26002],[18.83064,51.25868],[18.83085,51.25972],[18.83005,51.26018],[18.82911,51.26037],[18.82813,51.26025],[18.82783,51.26026],[18.82812,51.2609],[18.82822,51.26124],[18.82837,51.26265],[18.82855,51.2636],[18.82877,51.26414],[18.82883,51.26432],[18.83512,51.26364],[18.83544,51.26793],[18.84568,51.26676],[18.84598,51.27035],[18.84603,51.27034],[18.85182,51.2697],[18.85377,51.26937],[18.85545,51.26907],[18.86134,51.26805],[18.86294,51.27054],[18.86083,51.27246],[18.85844,51.27338],[18.85821,51.27346],[18.85837,51.27472],[18.85842,51.27502],[18.85862,51.27554],[18.85882,51.27566],[18.85921,51.27589],[18.85982,51.27625],[18.8622,51.27751],[18.86332,51.27804],[18.86409,51.27838],[18.86513,51.27926],[18.86552,51.27959],[18.8663,51.28061],[18.86521,51.28076],[18.8618,51.28196],[18.86027,51.28257],[18.85904,51.28309],[18.85855,51.28736],[18.85848,51.28799],[18.85605,51.2879],[18.85579,51.29053],[18.85581,51.29055],[18.85582,51.29056],[18.85667,51.29093],[18.85684,51.291],[18.86019,51.29245],[18.86152,51.29303],[18.86398,51.29418],[18.86402,51.29421],[18.86565,51.29492],[18.87192,51.29764],[18.88534,51.30345],[18.88772,51.30451],[18.8885,51.30484],[18.88851,51.30485],[18.88819,51.30548],[18.88782,51.30614],[18.88714,51.30739],[18.88521,51.31078],[18.88512,51.31097],[18.88224,51.31618],[18.87629,51.3182],[18.87092,51.32003],[18.86324,51.32269],[18.86324,51.32269],[18.86128,51.32338],[18.86563,51.33031],[18.86822,51.33446],[18.86959,51.33507],[18.86974,51.33513],[18.87024,51.33524],[18.87079,51.33531],[18.87106,51.33533],[18.87148,51.33534],[18.87215,51.33542],[18.87265,51.33548],[18.87395,51.33555],[18.87413,51.33553],[18.87473,51.33538],[18.87489,51.33536],[18.87514,51.33537],[18.87572,51.33545],[18.87643,51.33548],[18.87712,51.33548],[18.87753,51.33548],[18.8756,51.34013],[18.87622,51.34025],[18.87642,51.34032],[18.87596,51.34054],[18.88485,51.34499],[18.88502,51.34506],[18.88553,51.34531],[18.88509,51.34548],[18.88456,51.34548],[18.88275,51.34628],[18.88216,51.34648],[18.88171,51.34659],[18.88069,51.34665],[18.88025,51.34697],[18.87803,51.34913],[18.87695,51.35159],[18.87805,51.3522],[18.88152,51.3532],[18.88417,51.35397],[18.88464,51.3535],[18.88634,51.35141],[18.89356,51.35329],[18.89368,51.35333],[18.89364,51.35339],[18.89294,51.35436],[18.89237,51.35513],[18.891,51.35691],[18.89575,51.3584],[18.89588,51.35835],[18.899,51.35924],[18.89955,51.35749],[18.8996,51.35695],[18.90303,51.35612],[18.90429,51.35675],[18.90585,51.3579],[18.90642,51.35808],[18.91221,51.35654],[18.91247,51.3569],[18.91316,51.3579],[18.9091,51.35938],[18.90668,51.35994],[18.90488,51.36035],[18.90345,51.36068],[18.90133,51.36111],[18.89824,51.36173],[18.898,51.36255],[18.89747,51.36437],[18.89732,51.3644],[18.8957,51.36971],[18.89531,51.37092],[18.89511,51.37217],[18.89425,51.37735],[18.89338,51.38264],[18.89321,51.3837],[18.8912,51.38412],[18.89102,51.38413],[18.88909,51.38382],[18.88769,51.38384],[18.88506,51.38399],[18.88322,51.38409],[18.88117,51.38414],[18.88057,51.3841],[18.87926,51.38391],[18.87902,51.38388],[18.87824,51.38393],[18.87747,51.38397],[18.87724,51.38397],[18.87655,51.38392],[18.87625,51.38389],[18.87532,51.3838],[18.87511,51.38379],[18.87457,51.3838],[18.87422,51.38381],[18.8734,51.38452],[18.87322,51.38475],[18.87311,51.38495],[18.87289,51.38517],[18.87259,51.3857],[18.8724,51.386],[18.87197,51.38645],[18.87194,51.38684],[18.87192,51.38692],[18.87188,51.387],[18.87143,51.38737],[18.87098,51.38793],[18.87091,51.38822],[18.87085,51.38829],[18.87069,51.38854],[18.87046,51.38884],[18.87017,51.38917],[18.87001,51.38942],[18.86993,51.3897],[18.86973,51.3909],[18.86972,51.39117],[18.86952,51.39144],[18.86863,51.3922],[18.86791,51.3928],[18.86775,51.3929],[18.86736,51.39302],[18.86714,51.39309],[18.86653,51.39341],[18.86641,51.39363],[18.8663,51.39394],[18.86626,51.39397],[18.86604,51.39407],[18.86536,51.3944],[18.86487,51.39468],[18.86431,51.39501],[18.86396,51.39525],[18.8637,51.39547],[18.86313,51.39587],[18.86302,51.39595],[18.86297,51.39599],[18.86256,51.39636],[18.86212,51.39688],[18.86197,51.397],[18.86145,51.39732],[18.86146,51.39738],[18.86127,51.39748],[18.86071,51.39781],[18.86032,51.39813],[18.85996,51.39851],[18.85842,51.40028],[18.8579,51.40081],[18.85776,51.40096],[18.85717,51.40173],[18.85682,51.40235],[18.85636,51.40335],[18.85621,51.40368],[18.85599,51.40384],[18.856,51.40316],[18.85599,51.40313],[18.85593,51.40296],[18.85417,51.40029],[18.85402,51.40008],[18.85387,51.39994],[18.85373,51.39981],[18.85321,51.39945],[18.85297,51.39929],[18.85283,51.39922],[18.85277,51.3992],[18.85254,51.39912],[18.85226,51.39903],[18.85178,51.3989],[18.85161,51.39884],[18.85149,51.39879],[18.85129,51.39867],[18.85096,51.39853],[18.85066,51.39841],[18.8505,51.39834],[18.85047,51.39832],[18.85008,51.39814],[18.84991,51.39806],[18.84938,51.39779],[18.84926,51.39772],[18.84921,51.39768],[18.84912,51.39762],[18.84903,51.39755],[18.84892,51.39747],[18.84891,51.39743],[18.84822,51.39744],[18.84717,51.39754],[18.84468,51.39747],[18.84089,51.39747],[18.83975,51.39762],[18.83976,51.39765],[18.83748,51.39801],[18.83633,51.39779],[18.83627,51.39777],[18.83541,51.39747],[18.83488,51.39724],[18.83418,51.39694],[18.8341,51.3969],[18.8318,51.39611],[18.83009,51.39571],[18.82942,51.39657],[18.82939,51.39784],[18.82877,51.39845],[18.82873,51.39845],[18.82862,51.39926],[18.82808,51.40004],[18.82716,51.40085],[18.82485,51.40289],[18.8235,51.40354],[18.8237,51.40379],[18.82265,51.40419],[18.82208,51.40458],[18.82205,51.40465],[18.82175,51.40476],[18.82081,51.40479],[18.81879,51.40484],[18.81493,51.40495],[18.81334,51.40498],[18.81341,51.40554],[18.81251,51.40635],[18.8125,51.4067],[18.80748,51.40665],[18.80732,51.40705],[18.80629,51.40752],[18.80511,51.4075],[18.80433,51.40756],[18.80401,51.40789],[18.80337,51.40822],[18.80315,51.40841],[18.80312,51.40858],[18.80308,51.40867],[18.80295,51.40879],[18.80301,51.40888],[18.80321,51.40935],[18.80323,51.40953],[18.80328,51.40964],[18.80332,51.40971],[18.80333,51.40978],[18.80332,51.40989],[18.80335,51.40999],[18.80331,51.41018],[18.80323,51.41037],[18.80304,51.41054],[18.80302,51.41054],[18.80263,51.41063],[18.80142,51.41079],[18.80139,51.41081],[18.80049,51.41076],[18.79939,51.4107],[18.79912,51.40927],[18.7984,51.40884],[18.79816,51.40873],[18.79783,51.40799],[18.79377,51.40862],[18.79141,51.40897],[18.78924,51.4093],[18.78549,51.40986],[18.78381,51.4101],[18.78275,51.4102],[18.78244,51.40961],[18.78226,51.40927],[18.78199,51.40861],[18.78128,51.40768],[18.781,51.40713],[18.78085,51.40683],[18.78082,51.4065],[18.78078,51.40595],[18.78076,51.40529],[18.78074,51.40435],[18.78074,51.40305],[18.78074,51.40253],[18.78074,51.40232],[18.78074,51.40171],[18.7807,51.39645],[18.78173,51.39571],[18.78269,51.39551],[18.78279,51.3955],[18.78451,51.39554],[18.78616,51.39558],[18.78624,51.39548],[18.78637,51.39528],[18.7868,51.3945],[18.7871,51.39412],[18.78714,51.39399],[18.78713,51.39385],[18.78761,51.39377],[18.78787,51.39378],[18.78834,51.39384],[18.78855,51.39391],[18.78861,51.39423],[18.7898,51.39432],[18.78993,51.39423],[18.79021,51.39403],[18.79017,51.39371],[18.7899,51.39328],[18.78942,51.39303],[18.78932,51.39309],[18.78854,51.39266],[18.78842,51.39176],[18.7885,51.39149],[18.78874,51.39114],[18.78882,51.39064],[18.78872,51.39045],[18.78843,51.39035],[18.78802,51.39023],[18.78734,51.38996],[18.78692,51.38928],[18.78671,51.38917],[18.786,51.38897],[18.7858,51.38886],[18.78587,51.38864],[18.78568,51.38844],[18.78553,51.38824],[18.78552,51.38757],[18.78559,51.38755],[18.78515,51.38705],[18.78496,51.38686],[18.78426,51.38649],[18.78279,51.38574],[18.78214,51.38533],[18.78185,51.38514],[18.7811,51.38485],[18.78051,51.38463],[18.77996,51.38442],[18.77677,51.38319],[18.77634,51.38301],[18.77554,51.38271],[18.77447,51.38229],[18.77287,51.38167],[18.77226,51.38143],[18.77134,51.38107],[18.76823,51.37987],[18.76845,51.37906],[18.76865,51.37814],[18.76884,51.37738],[18.76904,51.37655],[18.76913,51.37615],[18.76948,51.37475],[18.76981,51.37333],[18.76985,51.3732],[18.76959,51.37253],[18.76937,51.37195],[18.76886,51.37065],[18.76856,51.36982],[18.76827,51.36908],[18.76787,51.36802],[18.76751,51.36709],[18.76717,51.36621],[18.76679,51.36523],[18.76394,51.36487],[18.76116,51.36452],[18.75866,51.36421],[18.75574,51.36384],[18.75423,51.36365],[18.75329,51.36344],[18.75265,51.36331],[18.75106,51.36281],[18.7504,51.36279],[18.74993,51.3628],[18.74871,51.36284],[18.74862,51.36284],[18.74756,51.36284],[18.74588,51.36281],[18.74534,51.36277],[18.74528,51.36272],[18.74336,51.36255],[18.74254,51.36253],[18.74182,51.36254],[18.74122,51.36256],[18.74044,51.36258],[18.73981,51.36257],[18.739,51.36255],[18.73837,51.36252],[18.73767,51.36243],[18.73726,51.36236],[18.73677,51.36224],[18.73548,51.36185],[18.7351,51.36175],[18.73428,51.36158],[18.73345,51.36144],[18.73217,51.36137],[18.731,51.36126],[18.73032,51.36118],[18.72964,51.36112],[18.72956,51.36108],[18.7293,51.3609],[18.72917,51.36078],[18.72902,51.36061],[18.72841,51.35977],[18.72844,51.35962],[18.72772,51.35914],[18.72715,51.35875],[18.72641,51.35817],[18.72533,51.3573],[18.7252,51.35725],[18.72506,51.35723],[18.72441,51.35736],[18.72164,51.35751],[18.70577,51.35671],[18.70516,51.35683],[18.70473,51.35699],[18.70398,51.3573],[18.70358,51.35754],[18.70343,51.35757],[18.70216,51.35837],[18.70167,51.35868],[18.70016,51.35935],[18.69845,51.3588],[18.69768,51.35856],[18.69751,51.35848],[18.69703,51.35832],[18.69651,51.35808],[18.69612,51.35782],[18.69486,51.35712],[18.69434,51.35654],[18.69402,51.35608],[18.69288,51.35554],[18.69225,51.35529],[18.69118,51.35466],[18.69057,51.35441],[18.68973,51.35413],[18.68541,51.35201],[18.68499,51.35169],[18.68529,51.35282],[18.6853,51.35337],[18.68504,51.35373],[18.68391,51.3541],[18.68394,51.35431],[18.68437,51.35462],[18.68444,51.35479],[18.68429,51.35483],[18.68424,51.355],[18.68432,51.35526],[18.68414,51.35554],[18.68427,51.35583],[18.68436,51.35616],[18.68421,51.35619],[18.68378,51.35628],[18.68311,51.35627],[18.68287,51.35645],[18.68261,51.35654],[18.68254,51.35671],[18.68234,51.35686],[18.68264,51.35717],[18.68263,51.35759],[18.68247,51.35781],[18.68148,51.35791],[18.68133,51.35799],[18.68092,51.35801],[18.68074,51.35796],[18.68063,51.35812],[18.68056,51.35828],[18.68058,51.35836],[18.68058,51.35837],[18.6805,51.35849],[18.68055,51.35856],[18.6803,51.35866],[18.6803,51.35873],[18.68016,51.35886],[18.67995,51.35892],[18.67994,51.35901],[18.68005,51.35914],[18.68002,51.35939],[18.67996,51.35949],[18.67969,51.35955],[18.67942,51.35951],[18.67878,51.35955],[18.67853,51.35948],[18.67818,51.35946],[18.67755,51.35971],[18.67751,51.3598],[18.67671,51.35988],[18.67643,51.35985],[18.67611,51.35985],[18.67585,51.35981],[18.67566,51.35983],[18.67552,51.35988],[18.67542,51.36034],[18.67537,51.36043],[18.67525,51.3605],[18.67515,51.36051],[18.67483,51.36039],[18.6744,51.36039],[18.67423,51.36047],[18.67394,51.36042],[18.67374,51.36044],[18.67364,51.36054],[18.67393,51.36091],[18.67391,51.36101],[18.67381,51.36105],[18.67349,51.36106],[18.67299,51.36094],[18.67287,51.36084],[18.67278,51.36081],[18.67268,51.36082],[18.67259,51.3611],[18.67286,51.36131],[18.67291,51.3614],[18.67275,51.3614],[18.67251,51.36132],[18.67234,51.3613],[18.672,51.36154],[18.67206,51.36177],[18.67195,51.36179],[18.67173,51.36171],[18.67169,51.36167],[18.6716,51.36163],[18.67165,51.36131],[18.67164,51.36125],[18.67155,51.36121],[18.67141,51.3612],[18.67098,51.3614],[18.67064,51.36138],[18.67065,51.36131],[18.6711,51.3611],[18.67109,51.36101],[18.67091,51.36093],[18.67047,51.36091],[18.67038,51.36061],[18.67007,51.36041],[18.67015,51.36036],[18.67003,51.35997],[18.66992,51.35992],[18.66982,51.35991],[18.66965,51.35973],[18.66971,51.35963],[18.66942,51.35958],[18.66925,51.35973],[18.66906,51.35976],[18.66904,51.35969],[18.66867,51.35973],[18.66853,51.35983],[18.66833,51.35979],[18.66815,51.35969],[18.66796,51.35971],[18.6678,51.35995],[18.66766,51.36006],[18.66739,51.35981],[18.66767,51.35939],[18.66782,51.3593],[18.6679,51.35921],[18.66775,51.35913],[18.66639,51.35889],[18.66458,51.35932],[18.66441,51.3593],[18.66412,51.35932],[18.66402,51.35932],[18.66246,51.35878],[18.66147,51.35866],[18.66088,51.3589],[18.66079,51.35878],[18.66082,51.35862],[18.66028,51.35856],[18.66009,51.35875],[18.66023,51.35889],[18.66014,51.35893],[18.65993,51.35887],[18.65951,51.35894],[18.65957,51.35943],[18.65951,51.35949],[18.65942,51.35945],[18.65925,51.35921],[18.65903,51.3591],[18.65877,51.35904],[18.65841,51.35937],[18.65819,51.35931],[18.65791,51.35929],[18.65767,51.3592],[18.65712,51.35929],[18.6572,51.35953],[18.65708,51.35957],[18.65708,51.35967],[18.65701,51.35969],[18.65694,51.3596],[18.65682,51.35972],[18.65677,51.35977],[18.65621,51.36017],[18.65604,51.36026],[18.6559,51.3603],[18.65512,51.36042],[18.65501,51.36044],[18.65406,51.36057],[18.6532,51.36068],[18.65293,51.3607],[18.65259,51.36076],[18.65231,51.36082],[18.65185,51.36101],[18.65108,51.36145],[18.65043,51.36184],[18.65011,51.36199],[18.64979,51.36204],[18.6495,51.36204],[18.64925,51.36202],[18.64859,51.3619],[18.6483,51.36188],[18.64788,51.36192],[18.64744,51.36206],[18.6471,51.36219],[18.64638,51.36247],[18.64599,51.36262],[18.64529,51.36293],[18.64478,51.36309],[18.64456,51.36312],[18.64433,51.36315],[18.64375,51.36312],[18.6435,51.36313],[18.6429,51.36322],[18.64126,51.36348],[18.64079,51.36355],[18.6404,51.36365],[18.64013,51.3638],[18.64006,51.36384],[18.63954,51.36415],[18.63935,51.36422],[18.63912,51.36431],[18.63865,51.36435],[18.63788,51.36434],[18.63755,51.36435],[18.63749,51.36436],[18.63739,51.36438],[18.63712,51.36446],[18.63595,51.36494],[18.63572,51.365],[18.63548,51.36503],[18.63504,51.36503],[18.63484,51.365],[18.63403,51.3648],[18.63361,51.36475],[18.63351,51.36476],[18.63309,51.36492],[18.63255,51.36514],[18.63202,51.36521],[18.6316,51.36518],[18.6313,51.36513],[18.631,51.36513],[18.63077,51.36516],[18.63047,51.36523],[18.63004,51.3653],[18.62959,51.36527],[18.62907,51.36511],[18.62861,51.36509],[18.6283,51.36513],[18.62794,51.36521],[18.6277,51.36522],[18.62734,51.36518],[18.62605,51.36494],[18.62562,51.36491],[18.62535,51.36493],[18.62506,51.36501],[18.62475,51.36514],[18.62444,51.36537],[18.62414,51.36576],[18.62402,51.36585],[18.6238,51.36597],[18.62357,51.36605],[18.62336,51.36608],[18.62308,51.3661],[18.62283,51.36608],[18.6226,51.366],[18.62239,51.36596],[18.62211,51.36601],[18.62191,51.36608],[18.62171,51.36624],[18.6205,51.36751],[18.62036,51.36762],[18.62019,51.36767],[18.62024,51.36793],[18.62025,51.36803],[18.6203,51.36817],[18.6203,51.36838],[18.62017,51.36906],[18.62017,51.36909],[18.6201,51.36943],[18.62007,51.37066],[18.62006,51.37072],[18.62022,51.37071],[18.62034,51.37071],[18.62019,51.37234],[18.61993,51.37374],[18.61962,51.3746],[18.61908,51.37599],[18.61845,51.37613],[18.6181,51.37727],[18.61776,51.37845],[18.61749,51.37928],[18.61725,51.37926],[18.61679,51.38079],[18.61558,51.38083],[18.615,51.38085],[18.61434,51.38138],[18.6142,51.38132],[18.61368,51.38045],[18.61328,51.38024],[18.61297,51.38009],[18.6124,51.37985],[18.61234,51.3798],[18.60776,51.3781],[18.60379,51.37805],[18.60354,51.37803],[18.60327,51.37809],[18.60322,51.37825],[18.60069,51.37817],[18.5995,51.37813],[18.59888,51.3781],[18.59648,51.3778],[18.59627,51.37702],[18.59617,51.37662],[18.59601,51.37591],[18.59543,51.37579],[18.59497,51.37545],[18.59282,51.37432],[18.59275,51.37427],[18.59181,51.37501],[18.59158,51.37513],[18.59053,51.37554],[18.59019,51.37573],[18.58774,51.37737],[18.58774,51.37735],[18.58775,51.37732],[18.58778,51.37722],[18.58778,51.3772],[18.58791,51.37677],[18.58798,51.3765],[18.58805,51.37627],[18.58811,51.37604],[18.58815,51.37592],[18.58818,51.37579],[18.5882,51.37575],[18.58812,51.37579],[18.58621,51.37665],[18.58499,51.37708],[18.58393,51.37732],[18.58288,51.37754],[18.58234,51.37772],[18.5821,51.37785],[18.58202,51.3779],[18.58213,51.37829],[18.58214,51.37833],[18.58102,51.37854],[18.58019,51.37887],[18.57997,51.37897],[18.57814,51.38042],[18.57353,51.38237],[18.57327,51.38244],[18.57001,51.38293],[18.56988,51.38295],[18.56912,51.38308],[18.56698,51.38338],[18.56619,51.38345],[18.56573,51.3835],[18.56423,51.38364],[18.56377,51.38364],[18.56232,51.38364],[18.56115,51.38363],[18.56257,51.37749],[18.54112,51.37381],[18.54031,51.37368],[18.53764,51.37321],[18.53748,51.37319],[18.5375,51.37318],[18.53759,51.37312],[18.53778,51.3728],[18.53811,51.37255],[18.53827,51.37225],[18.53871,51.3719],[18.53929,51.37143],[18.53941,51.37118],[18.54056,51.36869],[18.54213,51.3649],[18.54164,51.36416],[18.54101,51.36347],[18.53683,51.36385],[18.53723,51.36327],[18.53723,51.36322],[18.53724,51.36316],[18.5377,51.36223],[18.53829,51.36103],[18.53847,51.36067],[18.54108,51.35536],[18.54115,51.35524],[18.54161,51.3544],[18.54218,51.35311],[18.543,51.3512],[18.54333,51.35042],[18.54473,51.34759],[18.54473,51.34758],[18.54489,51.34722],[18.54781,51.34042],[18.52591,51.33666],[18.52592,51.33663],[18.51227,51.33429],[18.5098,51.33387],[18.50969,51.33385],[18.5099,51.33361],[18.5106,51.33307],[18.51128,51.33258],[18.51146,51.33247],[18.51161,51.33225],[18.51165,51.33183],[18.51164,51.33137],[18.51145,51.3311],[18.51102,51.33115],[18.50879,51.3314],[18.5054,51.33187],[18.49959,51.33256],[18.49912,51.33266],[18.49727,51.3333],[18.49554,51.33391],[18.49241,51.33495],[18.49257,51.33314],[18.48952,51.333],[18.49007,51.32854],[18.49166,51.32841],[18.49295,51.32821],[18.495,51.32819],[18.49644,51.32807],[18.49723,51.32799],[18.49816,51.3278],[18.49796,51.3272],[18.49961,51.32699],[18.49993,51.3269],[18.49994,51.32684],[18.49864,51.32555],[18.50012,51.32551],[18.50186,51.32547],[18.50096,51.32479],[18.50084,51.32455],[18.50081,51.32437],[18.50101,51.32189],[18.50109,51.32026],[18.50208,51.31839],[18.50291,51.31678],[18.5032,51.31583],[18.5036,51.3145],[18.50386,51.31043],[18.50382,51.31031],[18.50375,51.31022],[18.50361,51.31015],[18.50286,51.30997],[18.50267,51.30984],[18.50257,51.30965],[18.50277,51.30747],[18.50276,51.30737],[18.50264,51.30725],[18.50236,51.30718],[18.50191,51.30704],[18.50189,51.30703],[18.50182,51.30703],[18.50181,51.30703],[18.49915,51.30636],[18.49778,51.30558],[18.49744,51.3052],[18.49731,51.305],[18.49733,51.3048],[18.49769,51.30401],[18.49777,51.30392],[18.49947,51.30257],[18.50075,51.30214],[18.50173,51.3013],[18.50173,51.3013],[18.50217,51.30094],[18.50222,51.3009],[18.50226,51.30087],[18.50246,51.30068],[18.50264,51.30043],[18.50268,51.30016],[18.50266,51.29978],[18.50249,51.29968],[18.50214,51.29954],[18.50192,51.29948],[18.50108,51.29934],[18.50084,51.29924],[18.50013,51.29882],[18.49975,51.29866],[18.49935,51.29851],[18.49934,51.2982],[18.49924,51.29817],[18.49601,51.29751],[18.495,51.29725],[18.49483,51.29726],[18.49283,51.29751],[18.49237,51.29752],[18.49224,51.2975],[18.49182,51.2974],[18.49117,51.29719],[18.49087,51.29709],[18.48956,51.29681],[18.48877,51.29664],[18.48893,51.29716],[18.48919,51.29875],[18.48953,51.29873],[18.48966,51.29873],[18.48995,51.29873],[18.48975,51.29902],[18.48884,51.30024],[18.48841,51.30079],[18.48829,51.30086],[18.48808,51.30116],[18.48684,51.30279],[18.48639,51.30336],[18.48532,51.30338],[18.48335,51.30339],[18.4832,51.30249],[18.48305,51.30164],[18.48294,51.30103],[18.48274,51.30103],[18.48256,51.3],[18.47908,51.30003],[18.4792,51.30093],[18.4794,51.3021],[18.47963,51.30343],[18.47547,51.3035],[18.47585,51.30526],[18.47605,51.30628],[18.47637,51.30762],[18.47664,51.30884],[18.477,51.3104],[18.47729,51.31176],[18.47741,51.31224],[18.47004,51.31265],[18.4668,51.31284],[18.46769,51.31692],[18.46769,51.31694],[18.46228,51.31714],[18.46204,51.31865],[18.46185,51.31961],[18.46165,51.32065],[18.46157,51.32117],[18.4614,51.32117],[18.46138,51.32252],[18.46089,51.32253],[18.4608,51.32303],[18.46064,51.32393],[18.46043,51.32503],[18.46038,51.32538],[18.46009,51.32513],[18.45965,51.32477],[18.45957,51.32464],[18.45953,51.32451],[18.45915,51.32026],[18.45676,51.32032],[18.45693,51.32239],[18.45689,51.32241],[18.45423,51.32143],[18.45287,51.32094],[18.45243,51.32078],[18.45214,51.32106],[18.45167,51.32158],[18.45138,51.32195],[18.45114,51.32222],[18.45031,51.32316],[18.45259,51.32394],[18.45359,51.32429],[18.45265,51.32457],[18.45248,51.32471],[18.45219,51.32533],[18.44979,51.32449],[18.44923,51.32429],[18.44868,51.32485],[18.44861,51.32486],[18.44697,51.32424],[18.44384,51.32306],[18.44366,51.323],[18.44281,51.32318],[18.44066,51.32177],[18.44012,51.3214],[18.43981,51.32117],[18.43946,51.32081],[18.43487,51.32129],[18.43272,51.32154],[18.43176,51.32134],[18.42928,51.32014],[18.42813,51.31965],[18.42727,51.31929],[18.42675,51.31905],[18.42626,51.31888],[18.42585,51.31872],[18.42542,51.31853],[18.42314,51.31759],[18.42234,51.31724],[18.4207,51.31648],[18.41793,51.3152],[18.41789,51.31518],[18.4054,51.31623],[18.40538,51.31607],[18.40525,51.31534],[18.40512,51.3146],[18.40499,51.31396],[18.40475,51.31257],[18.40463,51.31188],[18.4045,51.3111],[18.4044,51.31093],[18.40434,51.31076],[18.4043,51.3106],[18.40426,51.31039],[18.40424,51.31025],[18.40419,51.30995],[18.40413,51.30957],[18.40403,51.30899],[18.4039,51.30824],[18.40382,51.30786],[18.40375,51.30757],[18.4037,51.30733],[18.40364,51.30701],[18.40361,51.30685],[18.40357,51.30662],[18.40353,51.30622],[18.40344,51.30538],[18.40334,51.30453],[18.4032,51.30368],[18.40308,51.30271],[18.40299,51.30203],[18.40291,51.29984],[18.40265,51.29657],[18.40301,51.29621],[18.40305,51.29496],[18.40301,51.29404],[18.40302,51.29365],[18.403,51.29346],[18.40304,51.29205],[18.40312,51.29043],[18.4031,51.28982],[18.40302,51.28918],[18.40309,51.28837],[18.40313,51.28777],[18.40313,51.28691],[18.40306,51.28642],[18.40295,51.28565],[18.40287,51.28525],[18.40286,51.28379],[18.40276,51.28273],[18.40271,51.28251],[18.40255,51.28214],[18.40248,51.28181],[18.40231,51.28118],[18.40214,51.28068],[18.40206,51.28028],[18.40204,51.2801],[18.40201,51.2799],[18.40197,51.27975],[18.40197,51.27972],[18.40197,51.27966],[18.40196,51.27959],[18.40178,51.27891],[18.40152,51.27805],[18.40157,51.27732],[18.40011,51.27734],[18.39629,51.27729],[18.39624,51.27697],[18.39613,51.27618],[18.39589,51.27449],[18.39586,51.2744],[18.39585,51.27434],[18.39515,51.27443],[18.39446,51.27452],[18.39313,51.27466],[18.39169,51.2748],[18.39063,51.27492],[18.38958,51.27508],[18.38799,51.27527],[18.38745,51.27481],[18.3867,51.27419],[18.38555,51.2733],[18.38433,51.27238],[18.38176,51.27047],[18.3803,51.26936],[18.37862,51.26811],[18.37822,51.26781],[18.37741,51.26739],[18.37687,51.26715],[18.37604,51.2668],[18.37515,51.26635],[18.37375,51.26556],[18.37374,51.26556],[18.3734,51.26539],[18.37248,51.26503],[18.37244,51.26501],[18.3724,51.265],[18.37101,51.26453],[18.37013,51.26424],[18.36985,51.26414],[18.36975,51.26358],[18.36975,51.26358],[18.36956,51.26285],[18.36935,51.26196],[18.36932,51.26186],[18.36918,51.26099],[18.36918,51.26096],[18.36917,51.26093],[18.36901,51.26018],[18.36861,51.25848],[18.36861,51.25848],[18.36861,51.25842],[18.36847,51.25827],[18.36829,51.25723],[18.36809,51.25637],[18.36793,51.2557],[18.36789,51.25558],[18.36789,51.25558],[18.36787,51.2554],[18.36787,51.25539],[18.36785,51.2548],[18.36787,51.25398],[18.36789,51.25321],[18.36785,51.25016],[18.36785,51.24996],[18.36765,51.24798],[18.36756,51.24726],[18.36747,51.24701],[18.3671,51.24585],[18.36669,51.24509],[18.36654,51.24488],[18.36627,51.2445],[18.36592,51.24388],[18.36547,51.24356],[18.36426,51.24367],[18.36357,51.24317],[18.36356,51.24316],[18.36423,51.24287],[18.36493,51.24256],[18.36497,51.24246],[18.36521,51.24246],[18.36513,51.24231],[18.365,51.24192],[18.365,51.24178],[18.36503,51.24158],[18.36511,51.23884],[18.36513,51.23847],[18.36409,51.23785],[18.36359,51.23756],[18.36358,51.23752],[18.36358,51.23739],[18.36357,51.23672],[18.36359,51.23497],[18.36359,51.23455],[18.36354,51.23444],[18.36342,51.2342],[18.3634,51.23417],[18.36315,51.23349],[18.36305,51.23322],[18.36291,51.23281],[18.3628,51.23252],[18.36259,51.23196],[18.36231,51.23125],[18.36222,51.231],[18.36224,51.23018],[18.36225,51.22902],[18.36224,51.22888],[18.36223,51.22853],[18.36225,51.22781],[18.36227,51.22749],[18.36227,51.22719],[18.36225,51.22683],[18.36225,51.22657],[18.36235,51.2253],[18.36282,51.22498],[18.36311,51.22481],[18.3631,51.22468],[18.36291,51.22466],[18.36302,51.22442],[18.36426,51.22119],[18.36492,51.21948],[18.36592,51.21694],[18.36593,51.21691],[18.36562,51.21683],[18.36516,51.21669],[18.36504,51.21663],[18.36492,51.21654],[18.36485,51.21642],[18.3645,51.21565],[18.3641,51.21495],[18.36382,51.21455],[18.36356,51.21423],[18.36315,51.21381],[18.36285,51.21344],[18.36272,51.21322],[18.36244,51.21276],[18.36244,51.21247],[18.36245,51.2123],[18.36243,51.21214],[18.3624,51.21205],[18.36231,51.21192],[18.36173,51.21113],[18.36143,51.2107],[18.36113,51.21025],[18.36093,51.20996],[18.36049,51.20904],[18.36013,51.20838],[18.35817,51.20472],[18.35773,51.20386],[18.35733,51.20306],[18.35685,51.20202],[18.3564,51.2011],[18.35618,51.20078],[18.35609,51.20078],[18.35587,51.20033],[18.35562,51.19963],[18.35555,51.1994],[18.3553,51.19887],[18.3548,51.19901],[18.35457,51.19885],[18.35435,51.19874],[18.35414,51.19867],[18.35393,51.1986],[18.35325,51.19839],[18.35306,51.19835],[18.35216,51.19822],[18.35197,51.1982],[18.35199,51.19778],[18.35193,51.19749],[18.35181,51.19728],[18.35164,51.19694],[18.35153,51.19664],[18.35145,51.19643],[18.35137,51.19625],[18.35123,51.19601],[18.35101,51.19567],[18.35077,51.19537],[18.35037,51.19496],[18.35013,51.19463],[18.34995,51.19432],[18.34962,51.19376],[18.34946,51.19348],[18.34933,51.19342],[18.34896,51.19276],[18.34867,51.19224],[18.34859,51.19215],[18.34847,51.19183],[18.34838,51.19155],[18.3483,51.19123],[18.34816,51.19062],[18.34803,51.19],[18.34806,51.18972],[18.34805,51.1894],[18.34801,51.18934],[18.34801,51.18917],[18.34799,51.18884],[18.34792,51.18833],[18.34776,51.18771],[18.3475,51.18665],[18.34749,51.1866]]]}}]}