{"type":"FeatureCollection","features":[{"type":"Feature","properties":{"name":"Arganil","admin":"munic\u00edpio","source":"\u00a9 OpenStreetMap contributors, ODbL 1.0","osm_relation":5395069},"geometry":{"type":"Polygon","coordinates":[[[-7.8090449,40.1817763],[-7.8082938,40.1835258],[-7.8080847,40.184644],[-7.8104484,40.189694],[-7.8108731,40.1908216],[-7.813915,40.1954252],[-7.8149045,40.1955912],[-7.8157077,40.1958241],[-7.8164608,40.1959094],[-7.81735,40.1960799],[-7.8175529,40.196081],[-7.8175618,40.1962682],[-7.8177103,40.1965811],[-7.8178934,40.1968158],[-7.8180334,40.1971289],[-7.8182284,40.1979224],[-7.8184552,40.1982703],[-7.8186004,40.1984258],[-7.8189361,40.198686],[-7.8203506,40.1994361],[-7.8208907,40.1996666],[-7.8214235,40.1998262],[-7.8217156,40.1999748],[-7.8221285,40.2002474],[-7.82263,40.200645],[-7.8236602,40.2015528],[-7.8245908,40.2021584],[-7.8248363,40.2022596],[-7.8249392,40.2023541],[-7.8250699,40.2024133],[-7.8253962,40.2024634],[-7.8263844,40.2028452],[-7.8267147,40.2029331],[-7.8270379,40.2030991],[-7.8274693,40.2033966],[-7.8279614,40.203533],[-7.8281678,40.2034638],[-7.8291796,40.2028678],[-7.8295662,40.2025087],[-7.830038,40.2019639],[-7.8306735,40.2013312],[-7.8312157,40.2009322],[-7.8316063,40.2007296],[-7.8321468,40.200352],[-7.8328892,40.1997097],[-7.8334349,40.1993497],[-7.8342351,40.1989398],[-7.8346083,40.1986948],[-7.8351895,40.198383],[-7.8353921,40.1981686],[-7.8359738,40.1977007],[-7.8362448,40.197432],[-7.8367374,40.1970857],[-7.8371021,40.1967287],[-7.8373014,40.1965963],[-7.8374561,40.1964414],[-7.8374858,40.1963477],[-7.8374896,40.1953822],[-7.8376537,40.1946388],[-7.8377155,40.1940828],[-7.837649,40.1908206],[-7.8378328,40.1895533],[-7.8379489,40.1890327],[-7.8381817,40.1886657],[-7.8385629,40.1878455],[-7.8391414,40.1869633],[-7.8392059,40.1868],[-7.8393468,40.1865948],[-7.8393986,40.1863882],[-7.8394379,40.1863359],[-7.8395578,40.1862805],[-7.8396227,40.1862795],[-7.8398228,40.1863856],[-7.839852,40.1863468],[-7.840031,40.1864775],[-7.8402392,40.1867276],[-7.8402426,40.186974],[-7.840178,40.187269],[-7.840206,40.1877892],[-7.8404199,40.1881799],[-7.8406477,40.188373],[-7.840711,40.1883833],[-7.8408876,40.1882419],[-7.841003,40.1879333],[-7.8411898,40.1877899],[-7.8415862,40.1875982],[-7.8423573,40.1873192],[-7.8427533,40.1872842],[-7.8428966,40.187311],[-7.8429643,40.1873643],[-7.8430622,40.1876308],[-7.8429775,40.1880209],[-7.8429769,40.1882331],[-7.8430854,40.188479],[-7.8433564,40.1886581],[-7.8437934,40.1890459],[-7.844275,40.1893133],[-7.8445559,40.1894561],[-7.8448207,40.1894762],[-7.8450243,40.189577],[-7.845163,40.1895936],[-7.8454123,40.1899277],[-7.8455147,40.1900135],[-7.8457508,40.1901104],[-7.8461893,40.1906698],[-7.8463147,40.1908972],[-7.8464581,40.1910743],[-7.8465847,40.1911579],[-7.8467016,40.1913388],[-7.847298,40.1919572],[-7.8475229,40.1921058],[-7.8480766,40.1925977],[-7.8486793,40.1932576],[-7.848961,40.193627],[-7.8495062,40.1940265],[-7.8497562,40.1942548],[-7.8500695,40.1943845],[-7.8510307,40.1944161],[-7.8519265,40.1943921],[-7.8528822,40.1941957],[-7.8538843,40.1940799],[-7.8543159,40.1939574],[-7.8547646,40.1937471],[-7.8558952,40.1933043],[-7.8567158,40.1930555],[-7.8572614,40.1927388],[-7.858176,40.1924806],[-7.8586021,40.192257],[-7.8596372,40.1918809],[-7.8605381,40.1916743],[-7.8608579,40.1916644],[-7.8609538,40.1916131],[-7.8613209,40.1915233],[-7.8617337,40.1913095],[-7.8620732,40.1911755],[-7.8622925,40.1911414],[-7.8624562,40.1910405],[-7.8627796,40.191008],[-7.8627641,40.1909852],[-7.8632426,40.1909149],[-7.863545,40.1907535],[-7.8637184,40.1906244],[-7.8638275,40.1905266],[-7.8639048,40.1903861],[-7.8640273,40.1903065],[-7.864392,40.1901356],[-7.8654964,40.1897721],[-7.8666797,40.1899437],[-7.8671565,40.1900399],[-7.867805,40.1901041],[-7.8696306,40.1909959],[-7.871981,40.1922315],[-7.8737965,40.1933359],[-7.8742343,40.1936476],[-7.8744853,40.1938725],[-7.8746378,40.1940833],[-7.8747584,40.1943971],[-7.8749203,40.1951213],[-7.875285,40.1959087],[-7.875463,40.1964941],[-7.8754869,40.196849],[-7.8754609,40.1970468],[-7.8750564,40.1982437],[-7.8743764,40.1998978],[-7.8743051,40.2002306],[-7.8732519,40.2028005],[-7.8731402,40.203322],[-7.8731373,40.2035956],[-7.873315,40.2041403],[-7.8739277,40.2054337],[-7.8741888,40.2058493],[-7.8743842,40.2060555],[-7.8747614,40.2067753],[-7.8752504,40.2073418],[-7.8754641,40.2077518],[-7.8755847,40.208146],[-7.8756049,40.2084914],[-7.8757133,40.2090272],[-7.8757458,40.2096441],[-7.8757852,40.2097483],[-7.8764753,40.2103719],[-7.876877,40.2103685],[-7.8774901,40.2102829],[-7.8776224,40.2102263],[-7.8777535,40.210219],[-7.8781312,40.2102955],[-7.8790359,40.2103391],[-7.8796352,40.210504],[-7.8798865,40.2105158],[-7.8802785,40.2104553],[-7.8806471,40.2104986],[-7.8812683,40.2106865],[-7.8816375,40.2107486],[-7.881906,40.210844],[-7.882609,40.2109012],[-7.8827963,40.2108875],[-7.8831923,40.210811],[-7.8833773,40.2107278],[-7.8836275,40.2106867],[-7.884072,40.2105458],[-7.8842349,40.2103755],[-7.8846431,40.2101536],[-7.8847082,40.2100146],[-7.8845676,40.2098319],[-7.8845841,40.2097299],[-7.8848549,40.2095851],[-7.8852735,40.2095367],[-7.8858274,40.2095473],[-7.8863143,40.209354],[-7.8866926,40.2092603],[-7.8872147,40.2089805],[-7.8881443,40.2089259],[-7.8882039,40.2088705],[-7.888225,40.2087301],[-7.8886438,40.2080075],[-7.8893924,40.2075643],[-7.8907668,40.207003],[-7.8912791,40.20657],[-7.8916676,40.2063198],[-7.891481,40.2057603],[-7.8914821,40.2054363],[-7.8919332,40.2044268],[-7.8920392,40.2043127],[-7.892304,40.2032481],[-7.8925942,40.2028746],[-7.8932269,40.2023899],[-7.8935813,40.2023501],[-7.893867,40.2023793],[-7.8940444,40.2022986],[-7.8942774,40.2023086],[-7.8944816,40.2022676],[-7.8946822,40.2020849],[-7.8951977,40.2018496],[-7.8952615,40.2017256],[-7.8953659,40.2016377],[-7.8957657,40.2014991],[-7.8961226,40.2016107],[-7.8962425,40.2015597],[-7.8963687,40.2014503],[-7.8964174,40.2013122],[-7.8965026,40.2009805],[-7.8964782,40.2008833],[-7.8967215,40.2003974],[-7.8967296,40.2001577],[-7.8969935,40.1998739],[-7.8971434,40.1996325],[-7.897977,40.1978914],[-7.8982429,40.1974532],[-7.8984156,40.1973567],[-7.8991058,40.1974147],[-7.8992982,40.1974043],[-7.8994821,40.1973581],[-7.8996082,40.197291],[-7.8997601,40.1971481],[-7.8998809,40.1969009],[-7.8998774,40.196705],[-7.8997356,40.1963114],[-7.8995398,40.1960219],[-7.8994246,40.1957636],[-7.8995586,40.1955846],[-7.8996496,40.1953794],[-7.9002693,40.1947887],[-7.9005785,40.1944192],[-7.9010513,40.1940566],[-7.9014295,40.1936705],[-7.9018624,40.1934482],[-7.9018919,40.1933992],[-7.90178,40.1931148],[-7.9017726,40.1929172],[-7.9021729,40.1926107],[-7.9024556,40.1923208],[-7.9027347,40.1918398],[-7.902699,40.1915977],[-7.9027744,40.191503],[-7.9029567,40.1913818],[-7.9033274,40.1910442],[-7.9024669,40.1905337],[-7.9022007,40.1903593],[-7.9020463,40.1902075],[-7.9020644,40.1891272],[-7.9022341,40.1882231],[-7.9022452,40.1877148],[-7.9025031,40.1868781],[-7.9026359,40.186676],[-7.9029461,40.1863634],[-7.9030552,40.1861607],[-7.9031512,40.1857823],[-7.9031971,40.1857337],[-7.9036105,40.1855958],[-7.9038527,40.1854252],[-7.9040514,40.1847307],[-7.9040441,40.1845773],[-7.9039526,40.184328],[-7.9040816,40.1841792],[-7.9040882,40.1840198],[-7.9040074,40.1838253],[-7.9041862,40.1836277],[-7.9046391,40.1833903],[-7.9050489,40.1833394],[-7.9055617,40.1832326],[-7.9058182,40.1831127],[-7.9064624,40.1825977],[-7.90779,40.1818767],[-7.9084896,40.1816845],[-7.9087461,40.1815701],[-7.909408,40.1811912],[-7.9097812,40.1808927],[-7.9099143,40.1808243],[-7.9101768,40.1807615],[-7.9105213,40.1807698],[-7.9105868,40.1807485],[-7.9106635,40.180649],[-7.9106747,40.1803035],[-7.9107453,40.1800748],[-7.9107411,40.1799452],[-7.9108065,40.1796713],[-7.9110159,40.1794711],[-7.9110588,40.1793625],[-7.9110507,40.1790971],[-7.910929,40.1786148],[-7.9107909,40.1784612],[-7.9107252,40.1783155],[-7.9106848,40.1775185],[-7.9104408,40.1761294],[-7.9104557,40.1760313],[-7.9106883,40.1758877],[-7.9107053,40.1757357],[-7.9107874,40.1755892],[-7.9109409,40.1754442],[-7.9109939,40.1752929],[-7.9110888,40.1751969],[-7.9113083,40.1751737],[-7.9114924,40.1752156],[-7.9119853,40.1754218],[-7.9121763,40.1754205],[-7.9122949,40.175332],[-7.9123665,40.1750949],[-7.9124683,40.1749988],[-7.9127214,40.1748645],[-7.9128699,40.1746669],[-7.9130219,40.174361],[-7.913138,40.1742583],[-7.9132769,40.1742059],[-7.9143792,40.1739287],[-7.9151553,40.1738044],[-7.9154278,40.1738021],[-7.9160268,40.173705],[-7.9162413,40.1734572],[-7.9164941,40.173427],[-7.9177025,40.1729505],[-7.9179929,40.1729468],[-7.918188,40.1729972],[-7.9182407,40.1730469],[-7.9182674,40.1731516],[-7.9182326,40.1733539],[-7.9182636,40.1734043],[-7.9183338,40.1734318],[-7.9184723,40.173427],[-7.9186699,40.1732365],[-7.919005,40.1730562],[-7.9193336,40.1729774],[-7.9194232,40.1728839],[-7.9194431,40.172621],[-7.9195297,40.1723584],[-7.9199227,40.1720062],[-7.9200689,40.1717544],[-7.9204236,40.1714719],[-7.9206882,40.1713364],[-7.9210147,40.1710193],[-7.9212159,40.1707686],[-7.9213911,40.1706265],[-7.9214391,40.1704318],[-7.9216774,40.1702623],[-7.9218479,40.1699426],[-7.9222734,40.1697526],[-7.9225513,40.1697179],[-7.922827,40.1696548],[-7.9228966,40.1696141],[-7.9229342,40.1695111],[-7.9227755,40.1691366],[-7.9227886,40.1690873],[-7.922903,40.1689842],[-7.9235551,40.1688461],[-7.9237449,40.1687277],[-7.9238396,40.1685829],[-7.9239006,40.1685777],[-7.9246203,40.1688762],[-7.925661,40.1695943],[-7.9262409,40.1700541],[-7.926737,40.1702778],[-7.926862,40.1702761],[-7.927133,40.1701249],[-7.9280752,40.1691905],[-7.9286441,40.168753],[-7.9290487,40.1686516],[-7.9293054,40.168652],[-7.9295044,40.1687342],[-7.9296863,40.169079],[-7.9297184,40.1692769],[-7.9298575,40.1693827],[-7.9300667,40.1696378],[-7.9306004,40.1700825],[-7.9309765,40.170301],[-7.9312208,40.1702992],[-7.9314134,40.1702348],[-7.9319713,40.1699005],[-7.9320806,40.1698549],[-7.9322337,40.1698382],[-7.9326158,40.1698389],[-7.934253,40.1701391],[-7.9345204,40.1701647],[-7.9352515,40.1703252],[-7.9359569,40.1703115],[-7.9363055,40.1702599],[-7.9364421,40.1701848],[-7.9366512,40.1700062],[-7.9366994,40.1698487],[-7.936708,40.1694848],[-7.9369601,40.1689848],[-7.9370393,40.1686613],[-7.9372932,40.1682505],[-7.9376995,40.1674615],[-7.9378836,40.1672364],[-7.9380778,40.1671132],[-7.9385366,40.1670638],[-7.9388643,40.166972],[-7.9391213,40.1668594],[-7.9394763,40.1666736],[-7.9398925,40.1663498],[-7.9403086,40.1656153],[-7.9405904,40.1650182],[-7.9411895,40.1642495],[-7.9416191,40.1639516],[-7.9421572,40.1637862],[-7.9424254,40.1636188],[-7.9429828,40.1633476],[-7.9431601,40.1630966],[-7.9432165,40.1627429],[-7.9430537,40.1623697],[-7.94299,40.161751],[-7.9428661,40.1610796],[-7.9428869,40.1608295],[-7.9429423,40.16067],[-7.9431354,40.1604058],[-7.9433541,40.1602972],[-7.943458,40.1602973],[-7.9437743,40.1603983],[-7.9440955,40.1606794],[-7.9445634,40.1612707],[-7.9448847,40.1615749],[-7.9450645,40.1616675],[-7.9453267,40.1616217],[-7.9454417,40.1615656],[-7.9456653,40.1615426],[-7.9458457,40.1614256],[-7.9459216,40.1612838],[-7.9462389,40.1609227],[-7.946309,40.1607747],[-7.9465571,40.1605657],[-7.9466956,40.1604942],[-7.9469069,40.1604389],[-7.9473331,40.1604311],[-7.947557,40.1605145],[-7.9477662,40.1606442],[-7.9477908,40.1608038],[-7.9473092,40.1612646],[-7.9469478,40.161729],[-7.94692,40.1618798],[-7.9469523,40.1620934],[-7.9470555,40.1622276],[-7.9474592,40.1623833],[-7.9479014,40.1623713],[-7.9480434,40.1622961],[-7.948257,40.1621001],[-7.948841,40.1616991],[-7.948991,40.1615521],[-7.9492469,40.1612027],[-7.9493911,40.1609592],[-7.9495823,40.1601692],[-7.9498014,40.1597231],[-7.9499866,40.1595911],[-7.9504669,40.1594232],[-7.9506614,40.1593112],[-7.9510032,40.1589547],[-7.9511046,40.1586598],[-7.9511083,40.1582698],[-7.9510442,40.1581157],[-7.9507595,40.1578702],[-7.9504815,40.1578509],[-7.9498911,40.1579355],[-7.9491783,40.1579074],[-7.9488621,40.1578359],[-7.9485185,40.1576803],[-7.9483961,40.1575833],[-7.9482405,40.1573014],[-7.9482235,40.157226],[-7.9482691,40.1571247],[-7.9484988,40.156934],[-7.9489556,40.1567526],[-7.9494498,40.1564238],[-7.9496116,40.156267],[-7.9498038,40.1559752],[-7.9498566,40.1558185],[-7.949865,40.1554909],[-7.9496841,40.1551014],[-7.9490455,40.1544941],[-7.9486078,40.1541812],[-7.9484091,40.1540874],[-7.9480642,40.1540165],[-7.9475102,40.1540399],[-7.9473311,40.1539794],[-7.9472757,40.1539317],[-7.947162,40.1538082],[-7.9472333,40.1534526],[-7.9472718,40.1533773],[-7.9473562,40.1533197],[-7.94759,40.1532152],[-7.9478018,40.1531631],[-7.9481109,40.1532495],[-7.9492962,40.1538711],[-7.9495548,40.1539778],[-7.9498715,40.1540188],[-7.9503992,40.1539719],[-7.9509841,40.1538365],[-7.9514585,40.1536839],[-7.9520532,40.1534231],[-7.952597,40.1532894],[-7.9530587,40.1533146],[-7.9539538,40.1534654],[-7.9541768,40.1534781],[-7.9544635,40.1534296],[-7.9546228,40.153387],[-7.9550374,40.1531251],[-7.9557868,40.1519732],[-7.9559941,40.1518238],[-7.956301,40.1516962],[-7.9566631,40.1517241],[-7.9572317,40.1519723],[-7.9581932,40.1525909],[-7.9583124,40.1527499],[-7.9588367,40.1531905],[-7.9589399,40.1532577],[-7.9590753,40.1532457],[-7.9594739,40.1530021],[-7.9597295,40.1527153],[-7.9604172,40.1514274],[-7.960641,40.1510796],[-7.9609516,40.151019],[-7.9610704,40.1512207],[-7.9610623,40.1513124],[-7.96079,40.1519717],[-7.9607735,40.1521977],[-7.9607967,40.1524358],[-7.9609555,40.1526989],[-7.96125,40.1526807],[-7.9617761,40.1524189],[-7.9620528,40.1523475],[-7.9632909,40.152331],[-7.9635656,40.1522583],[-7.963721,40.1521851],[-7.9639921,40.1520143],[-7.9641836,40.1518466],[-7.9644071,40.1515723],[-7.9644633,40.1514013],[-7.96444,40.1511814],[-7.9643685,40.1510895],[-7.9642493,40.1510162],[-7.9632707,40.1507764],[-7.9630082,40.1506845],[-7.9627381,40.1504885],[-7.9624748,40.149896],[-7.9621998,40.1489124],[-7.9622215,40.1485719],[-7.9623405,40.1484221],[-7.9631137,40.1480923],[-7.9633735,40.1479288],[-7.96388,40.1473385],[-7.9641406,40.1468174],[-7.9647674,40.1461004],[-7.9651339,40.1457955],[-7.9656332,40.1455793],[-7.9665871,40.1449848],[-7.9672399,40.1444997],[-7.9676372,40.1442698],[-7.9678606,40.1440594],[-7.9679392,40.1438985],[-7.9679174,40.1437971],[-7.9676706,40.1436239],[-7.9673919,40.1434952],[-7.9671263,40.1434873],[-7.9664383,40.1438708],[-7.9653691,40.1446246],[-7.9649044,40.1448122],[-7.9647218,40.144833],[-7.9645264,40.144817],[-7.9643272,40.1447278],[-7.9640745,40.1444603],[-7.963983,40.1442958],[-7.9639049,40.1439791],[-7.9638782,40.143777],[-7.9639741,40.143472],[-7.9642321,40.1430563],[-7.9648711,40.1425177],[-7.9655328,40.1422282],[-7.9659375,40.142087],[-7.9664656,40.1419709],[-7.9675377,40.1419797],[-7.9684559,40.1418358],[-7.9690733,40.14158],[-7.9696641,40.1412087],[-7.9697927,40.1410708],[-7.969922,40.1407735],[-7.9699001,40.1398697],[-7.9699248,40.139505],[-7.9699869,40.139388],[-7.9702869,40.1391833],[-7.9706724,40.1390845],[-7.9708606,40.1389201],[-7.9711195,40.1381342],[-7.9713004,40.1379856],[-7.9718812,40.1377882],[-7.9722712,40.1377673],[-7.9725184,40.1378386],[-7.972927,40.1380021],[-7.9734114,40.1382577],[-7.9746967,40.1387978],[-7.9751528,40.1389755],[-7.9758943,40.139189],[-7.9762457,40.139402],[-7.9765872,40.1397922],[-7.9768911,40.1399907],[-7.9771666,40.1400904],[-7.9773378,40.1400977],[-7.977471,40.140034],[-7.9776461,40.1397649],[-7.9777003,40.1396732],[-7.9785666,40.1393271],[-7.9789334,40.1391399],[-7.9791286,40.1389949],[-7.9792956,40.1387722],[-7.9793626,40.1385702],[-7.9793678,40.1383718],[-7.9793065,40.1381558],[-7.9790362,40.1377481],[-7.9790268,40.1375985],[-7.9790985,40.1374427],[-7.9792274,40.1373191],[-7.9797035,40.1370929],[-7.9805368,40.1365557],[-7.9808462,40.1363967],[-7.9810842,40.1363228],[-7.9814268,40.1363126],[-7.9816501,40.136366],[-7.9819255,40.1364972],[-7.9823333,40.1370752],[-7.9825762,40.1373212],[-7.9828753,40.1375304],[-7.9833784,40.1380305],[-7.983568,40.1382717],[-7.9838836,40.1388186],[-7.9842433,40.1395878],[-7.9843809,40.1397616],[-7.9844665,40.1398112],[-7.9847184,40.1398433],[-7.9848944,40.1398154],[-7.9849801,40.1397339],[-7.9850859,40.1392984],[-7.9851342,40.138865],[-7.9851305,40.1384046],[-7.9851977,40.1381674],[-7.9853885,40.1378702],[-7.9855742,40.1377888],[-7.9857264,40.1377997],[-7.98604,40.1379098],[-7.9867003,40.1382295],[-7.9871751,40.1386089],[-7.9875463,40.1389573],[-7.9880973,40.1393085],[-7.9887863,40.1395397],[-7.9894614,40.1396609],[-7.9900223,40.1398105],[-7.9904947,40.1399735],[-7.9911408,40.1403035],[-7.9914925,40.140396],[-7.9916399,40.1403892],[-7.9918065,40.1403327],[-7.9919779,40.1401711],[-7.9922218,40.1395339],[-7.9922244,40.1382783],[-7.992318,40.1380501],[-7.9927232,40.1375547],[-7.9931948,40.1371728],[-7.9936139,40.1369287],[-7.993928,40.1368123],[-7.9943465,40.1367455],[-7.9948743,40.1367816],[-7.9951927,40.136867],[-7.9953876,40.1369699],[-7.995506,40.1371612],[-7.995539,40.1374021],[-7.9955051,40.1376112],[-7.9950088,40.1386308],[-7.9949168,40.1394277],[-7.9946818,40.139417],[-7.9944889,40.1394759],[-7.99443,40.1396216],[-7.9944933,40.1399118],[-7.9944535,40.1400677],[-7.9943272,40.1401444],[-7.9938784,40.1402711],[-7.9936803,40.1403879],[-7.9929257,40.141232],[-7.9927978,40.1413217],[-7.9924631,40.1414684],[-7.9923428,40.1415716],[-7.9919582,40.1420871],[-7.9917238,40.1428728],[-7.9913488,40.1438205],[-7.9910956,40.1442893],[-7.9910493,40.1444401],[-7.9910407,40.1446996],[-7.9910742,40.1448147],[-7.9914505,40.1454355],[-7.991517,40.1456368],[-7.9914117,40.1458562],[-7.9912965,40.1460032],[-7.991096,40.1464339],[-7.9909872,40.146862],[-7.9909044,40.1470144],[-7.9907713,40.1471114],[-7.9904431,40.1472328],[-7.9902531,40.1473395],[-7.9899776,40.1476986],[-7.9897392,40.1481723],[-7.9896158,40.1482461],[-7.9892164,40.1482968],[-7.9890745,40.1483459],[-7.9890016,40.1484469],[-7.9889769,40.1487463],[-7.9890426,40.1488477],[-7.9896606,40.1495072],[-7.9901119,40.1497853],[-7.990195,40.1498887],[-7.9903478,40.1504084],[-7.9903283,40.1505058],[-7.9902196,40.1506033],[-7.9900899,40.1506349],[-7.9895754,40.1506371],[-7.989273,40.1508405],[-7.9891898,40.1509414],[-7.9891749,40.1510363],[-7.9892317,40.15119],[-7.9895099,40.1515542],[-7.9895931,40.1517135],[-7.9895319,40.1524378],[-7.9894508,40.1526441],[-7.98906,40.1529319],[-7.9889748,40.1530187],[-7.9888951,40.1532262],[-7.9889041,40.1533334],[-7.9889778,40.1534371],[-7.9893743,40.1537292],[-7.9894595,40.1538801],[-7.9893805,40.1540252],[-7.9887813,40.1543326],[-7.9886398,40.1545311],[-7.9886276,40.1546229],[-7.9887121,40.1547232],[-7.9889022,40.1548526],[-7.9891963,40.1549783],[-7.990241,40.1556968],[-7.9904054,40.1558431],[-7.9907239,40.1562907],[-7.9906878,40.156437],[-7.9905808,40.15659],[-7.9903427,40.1567659],[-7.9901584,40.1568441],[-7.9896845,40.1573408],[-7.9895863,40.1575383],[-7.9895512,40.1579516],[-7.9891719,40.1581918],[-7.9891118,40.1587825],[-7.9889643,40.159071],[-7.988406,40.1595952],[-7.98828,40.1597943],[-7.9884047,40.1600435],[-7.9884367,40.1602],[-7.9883481,40.1605631],[-7.9881672,40.1612064],[-7.9877991,40.1617044],[-7.9871319,40.1624709],[-7.9867792,40.1627502],[-7.9866737,40.1631066],[-7.9866673,40.1636158],[-7.9866027,40.1637865],[-7.9860045,40.1643843],[-7.9859736,40.1645301],[-7.9860326,40.165113],[-7.9859833,40.165617],[-7.9855374,40.1664602],[-7.985456,40.1667226],[-7.9852322,40.1671834],[-7.9850541,40.167394],[-7.9849329,40.1674725],[-7.9847274,40.1675249],[-7.9839,40.1675478],[-7.983687,40.1676201],[-7.9835673,40.1677165],[-7.9835091,40.1678217],[-7.9834641,40.1679713],[-7.9833784,40.1687516],[-7.9833855,40.1691344],[-7.9833046,40.1694953],[-7.9834188,40.1696185],[-7.9834685,40.169728],[-7.9834652,40.1698721],[-7.9832506,40.1703609],[-7.9832405,40.1705185],[-7.9832929,40.1706723],[-7.9834774,40.1708794],[-7.9834743,40.1709351],[-7.9833962,40.1710428],[-7.982843,40.1714949],[-7.9828243,40.1715473],[-7.9829152,40.1716388],[-7.9835108,40.1718594],[-7.9836723,40.1722964],[-7.9838604,40.1725457],[-7.9838948,40.1727099],[-7.9838581,40.1728084],[-7.9836971,40.1730159],[-7.9836709,40.1731752],[-7.9838763,40.1734721],[-7.983987,40.1739754],[-7.9841139,40.1751007],[-7.984115,40.1759613],[-7.9842811,40.1769269],[-7.984553,40.177418],[-7.9848623,40.1778258],[-7.9852862,40.1781481],[-7.9857152,40.1785373],[-7.9865936,40.1794401],[-7.9873118,40.1800306],[-7.9876198,40.1802294],[-7.98813,40.18076],[-7.9885168,40.181108],[-7.9905381,40.1836863],[-7.9923276,40.1851291],[-7.9923826,40.1853011],[-7.9928696,40.1856141],[-7.9934018,40.1860845],[-7.9940887,40.1869059],[-7.9948585,40.1874865],[-7.9959043,40.1886931],[-7.9960577,40.1887794],[-7.9962468,40.1888168],[-7.9971786,40.1886],[-7.9977542,40.1883865],[-7.9982919,40.1880565],[-7.9991909,40.1871384],[-7.9998492,40.1866602],[-8.000539,40.1863022],[-8.0011334,40.1859524],[-8.0011315,40.1858719],[-8.0011081,40.1848897],[-8.0011072,40.1843361],[-8.0011894,40.1835947],[-8.0011629,40.1832181],[-8.0010575,40.1827243],[-8.0010937,40.1820228],[-8.0012053,40.181179],[-8.0016361,40.1797753],[-8.0022441,40.1786123],[-8.0026097,40.1774419],[-8.0027802,40.1764062],[-8.0028494,40.1762623],[-8.0031679,40.1759458],[-8.003612,40.1752643],[-8.0041579,40.1738671],[-8.0065352,40.1734196],[-8.0072556,40.1734109],[-8.0081967,40.1732438],[-8.0108465,40.1726537],[-8.0110402,40.1725956],[-8.0118576,40.1722263],[-8.0128313,40.1719966],[-8.0135067,40.171906],[-8.0136358,40.1719321],[-8.0139563,40.1720976],[-8.0146516,40.1725627],[-8.0151493,40.1729383],[-8.0153967,40.1730835],[-8.0157811,40.1732376],[-8.0177928,40.1736589],[-8.0186132,40.1735997],[-8.0199544,40.1738107],[-8.0203397,40.1737992],[-8.0211663,40.1734772],[-8.0220686,40.1732805],[-8.0228896,40.1731724],[-8.0237558,40.1731467],[-8.0240245,40.1730769],[-8.0247158,40.1727624],[-8.0252415,40.1724806],[-8.0257701,40.1721498],[-8.0260789,40.1720847],[-8.0268888,40.1720453],[-8.0270693,40.1720629],[-8.027443,40.1721755],[-8.0287552,40.1726252],[-8.0291327,40.1727246],[-8.0302144,40.1731045],[-8.0311006,40.1735209],[-8.0314734,40.1736512],[-8.0316622,40.1737021],[-8.0323863,40.1737766],[-8.032575,40.1737155],[-8.0327023,40.1736326],[-8.0331269,40.17358],[-8.03337,40.1735051],[-8.0342844,40.1730654],[-8.0352816,40.1730623],[-8.0354627,40.1730017],[-8.0356572,40.1728848],[-8.0360893,40.1725088],[-8.036465,40.1722443],[-8.0366571,40.1721459],[-8.0368489,40.1721146],[-8.0372459,40.1721242],[-8.0375091,40.1720775],[-8.03789,40.1719601],[-8.0383865,40.1717263],[-8.0387814,40.1714886],[-8.0389635,40.1713539],[-8.0391412,40.1711052],[-8.0393659,40.1709214],[-8.0395704,40.1706775],[-8.0399206,40.1704124],[-8.0402422,40.1702365],[-8.0413778,40.1693866],[-8.0418837,40.1692826],[-8.0425216,40.169242],[-8.0432053,40.1690087],[-8.0440182,40.1690383],[-8.0450174,40.1687894],[-8.0456419,40.168552],[-8.0461852,40.1684185],[-8.0463782,40.1684096],[-8.0465939,40.1684449],[-8.0467744,40.1685013],[-8.0472331,40.1687856],[-8.0481117,40.1695482],[-8.0482264,40.1697275],[-8.0482556,40.1698775],[-8.0482104,40.1703905],[-8.0482402,40.1705349],[-8.0484756,40.1707743],[-8.0487217,40.1709113],[-8.0510373,40.1712146],[-8.052847,40.1713897],[-8.0539845,40.1715375],[-8.0548143,40.1715467],[-8.0554383,40.171624],[-8.055576,40.1715979],[-8.0562921,40.1713127],[-8.0573261,40.1708158],[-8.0574507,40.1707311],[-8.0575868,40.1705785],[-8.0577512,40.1703255],[-8.0578161,40.170175],[-8.0578405,40.1699813],[-8.0578895,40.1699324],[-8.0580245,40.1699199],[-8.0582213,40.1700095],[-8.0583467,40.1700251],[-8.0586722,40.1699171],[-8.0588613,40.1698126],[-8.0595714,40.1691941],[-8.060458,40.1685384],[-8.0608441,40.1682873],[-8.0628294,40.167203],[-8.0635969,40.167853],[-8.0652391,40.1689898],[-8.0673319,40.1701595],[-8.0677901,40.1703168],[-8.0684627,40.1704559],[-8.0694889,40.170569],[-8.0716918,40.1712107],[-8.0731535,40.1721748],[-8.0739728,40.1721119],[-8.0742199,40.172137],[-8.0744739,40.1722545],[-8.0746075,40.1724026],[-8.0747354,40.1727418],[-8.0748532,40.1751211],[-8.0751581,40.1756396],[-8.0752758,40.1759773],[-8.0754118,40.1765245],[-8.0754209,40.1766267],[-8.075359,40.1767921],[-8.0754291,40.1773533],[-8.0755005,40.1777288],[-8.0755625,40.1778338],[-8.0756848,40.177936],[-8.0765159,40.178224],[-8.0772823,40.1785767],[-8.0777505,40.1788443],[-8.0806421,40.1798768],[-8.0810342,40.181281],[-8.0819603,40.182239],[-8.082082,40.183648],[-8.0820326,40.1873498],[-8.0822642,40.1873392],[-8.0835745,40.1876611],[-8.0842686,40.1877365],[-8.0848099,40.1879576],[-8.0853871,40.1880686],[-8.0865879,40.1885798],[-8.0869779,40.1886891],[-8.087234,40.1887393],[-8.0876227,40.1887696],[-8.088273,40.1889775],[-8.0886177,40.189035],[-8.0896223,40.1890211],[-8.0900267,40.1890432],[-8.0906473,40.1892201],[-8.0915128,40.1895953],[-8.0918221,40.1896562],[-8.0919148,40.189833],[-8.0919189,40.1913178],[-8.0921243,40.192187],[-8.0922212,40.1923777],[-8.0920177,40.1947307],[-8.092179,40.194861],[-8.0941127,40.196004],[-8.0959344,40.1974393],[-8.0961696,40.1981948],[-8.0963575,40.1992738],[-8.096985,40.2008328],[-8.0971154,40.2009331],[-8.0973548,40.2010052],[-8.0987949,40.2006792],[-8.0991051,40.200547],[-8.1001348,40.2002264],[-8.10105,40.1998616],[-8.1023651,40.1992225],[-8.1028863,40.1990307],[-8.1034685,40.1987272],[-8.1060485,40.197865],[-8.1074276,40.1976385],[-8.1085198,40.1976452],[-8.1118235,40.1974724],[-8.1120447,40.1975125],[-8.1130903,40.1971944],[-8.1152678,40.1967893],[-8.1161479,40.1968047],[-8.1166995,40.1967049],[-8.1206222,40.1949889],[-8.1207761,40.1949216],[-8.1218643,40.1968911],[-8.1222063,40.1977203],[-8.1222289,40.1983946],[-8.1219744,40.1992549],[-8.1219321,40.1995665],[-8.1220016,40.2006893],[-8.1219553,40.2015867],[-8.1224585,40.2020461],[-8.1228525,40.2023123],[-8.1234605,40.2026355],[-8.1240381,40.2027784],[-8.1247484,40.20285],[-8.1254577,40.2028788],[-8.1261483,40.2028706],[-8.1282233,40.2025181],[-8.1285803,40.2024765],[-8.1295219,40.2024717],[-8.1302171,40.2025466],[-8.130338,40.2025964],[-8.1318899,40.2029575],[-8.1331208,40.2034972],[-8.134066,40.2041471],[-8.1342429,40.2043519],[-8.13447,40.2047707],[-8.1345984,40.2053263],[-8.13471,40.207966],[-8.1348304,40.2081075],[-8.1350774,40.2082846],[-8.1364712,40.2085837],[-8.1385891,40.2089136],[-8.1402776,40.2090703],[-8.1409371,40.2093475],[-8.1413571,40.2095895],[-8.1418044,40.2098722],[-8.1429158,40.2106959],[-8.1431327,40.2108214],[-8.143659,40.2110125],[-8.1442062,40.2110754],[-8.144653,40.2110377],[-8.1458093,40.2108554],[-8.1460338,40.2107851],[-8.1465911,40.2104769],[-8.1467669,40.2104183],[-8.1469418,40.210418],[-8.1476061,40.2105088],[-8.1483188,40.2105664],[-8.1489489,40.2106614],[-8.1498667,40.2109462],[-8.1533147,40.2114228],[-8.1593404,40.2121616],[-8.160752,40.2122866],[-8.1616974,40.2124369],[-8.1651919,40.2128572],[-8.1656225,40.2128514],[-8.1674957,40.2117621],[-8.1676887,40.2114497],[-8.168407,40.2107045],[-8.1686818,40.2104984],[-8.1691581,40.2098935],[-8.1697597,40.2093251],[-8.1702993,40.208964],[-8.1704186,40.2088211],[-8.1706148,40.2084715],[-8.1706757,40.2083001],[-8.1706819,40.2080535],[-8.1708539,40.2077102],[-8.1708976,40.2075469],[-8.1710443,40.2073215],[-8.1713077,40.2067445],[-8.172055,40.2055166],[-8.1727191,40.204846],[-8.1728101,40.2047114],[-8.1729536,40.2051214],[-8.1735932,40.2054938],[-8.1735997,40.2055482],[-8.173705,40.206432],[-8.1738391,40.2070261],[-8.1738146,40.2071626],[-8.1739134,40.2076241],[-8.1740121,40.2077223],[-8.1741504,40.2080214],[-8.1746099,40.2086657],[-8.174605,40.2094838],[-8.1749884,40.2098456],[-8.1753288,40.2110083],[-8.1755877,40.2112383],[-8.176095,40.2112736],[-8.1764569,40.2115361],[-8.1765327,40.2117758],[-8.1765521,40.2121268],[-8.1764967,40.2123702],[-8.1763947,40.2125869],[-8.1762077,40.2128499],[-8.1761955,40.213039],[-8.1765185,40.2134911],[-8.1771478,40.2148184],[-8.1777861,40.2157095],[-8.1766309,40.2180454],[-8.1766701,40.2183952],[-8.1776939,40.2198064],[-8.1777927,40.2198855],[-8.1774581,40.2201944],[-8.176095,40.2221087],[-8.1758718,40.2226547],[-8.1760107,40.2227079],[-8.176043,40.2228806],[-8.1761499,40.2229675],[-8.1764872,40.22302],[-8.1768543,40.2230112],[-8.1771611,40.2230665],[-8.1780211,40.2233262],[-8.1795005,40.2239788],[-8.179967,40.2242606],[-8.1803629,40.2242694],[-8.1805396,40.224208],[-8.1807956,40.2241699],[-8.1810165,40.2241838],[-8.1812849,40.2243205],[-8.1819263,40.2248231],[-8.1820611,40.2248938],[-8.1821872,40.2250527],[-8.1822176,40.2251686],[-8.1824838,40.2256492],[-8.1828311,40.2258919],[-8.1828991,40.2260151],[-8.182891,40.2261882],[-8.1827554,40.2266473],[-8.182937,40.2267466],[-8.1833851,40.2267084],[-8.1837262,40.2269412],[-8.1839637,40.2271511],[-8.1844503,40.2272527],[-8.1845635,40.2273706],[-8.1845996,40.2276684],[-8.1849109,40.2280931],[-8.1851125,40.2282754],[-8.1853554,40.2284284],[-8.1855638,40.2284938],[-8.1857272,40.2286981],[-8.185904,40.2287738],[-8.1861146,40.2289441],[-8.1861861,40.2290547],[-8.1864795,40.2291992],[-8.1867027,40.2294322],[-8.1866938,40.2296984],[-8.186618,40.2299871],[-8.1868091,40.2304964],[-8.1868845,40.2306152],[-8.1871452,40.2308526],[-8.1871549,40.2310848],[-8.1870279,40.2311962],[-8.1864679,40.2314841],[-8.1861434,40.2315591],[-8.1858919,40.2316814],[-8.1857606,40.2317667],[-8.1856511,40.2319134],[-8.1852612,40.2320428],[-8.1843868,40.2326116],[-8.1822046,40.2343074],[-8.182058,40.2347402],[-8.1820829,40.2357883],[-8.1818677,40.2362628],[-8.1814983,40.2363317],[-8.1798049,40.2367534],[-8.1791391,40.2368809],[-8.1785665,40.2366332],[-8.1778343,40.2366399],[-8.1768072,40.2368269],[-8.1750181,40.2379025],[-8.1708554,40.2427112],[-8.1680703,40.2452485],[-8.1653709,40.2477952],[-8.1636293,40.2492785],[-8.1637494,40.2493744],[-8.1641608,40.2494497],[-8.1650295,40.2494323],[-8.1680933,40.2488911],[-8.169533,40.2484868],[-8.1707812,40.2479246],[-8.1715866,40.2473789],[-8.1723004,40.2468589],[-8.1733803,40.245842],[-8.1741599,40.2453169],[-8.1748228,40.2451034],[-8.1757024,40.2450132],[-8.1769787,40.2450733],[-8.178013,40.2453045],[-8.1782645,40.2453845],[-8.1785109,40.2455725],[-8.1785451,40.2458891],[-8.1784483,40.246249],[-8.1781341,40.2464945],[-8.177907,40.2466064],[-8.1774806,40.2466586],[-8.1770234,40.2468141],[-8.176843,40.2470058],[-8.1767519,40.2473149],[-8.1768498,40.2478318],[-8.1772801,40.24865],[-8.177507,40.2489465],[-8.177423,40.2492576],[-8.1771643,40.2498273],[-8.1766917,40.2501649],[-8.1762726,40.2503586],[-8.1756181,40.2509325],[-8.1754885,40.2511723],[-8.1755526,40.2513903],[-8.175732,40.2515426],[-8.1762212,40.2516161],[-8.1766838,40.2516125],[-8.1772338,40.251502],[-8.1776229,40.2514647],[-8.1778049,40.2514632],[-8.1784695,40.2516051],[-8.1797019,40.2515387],[-8.1805155,40.2512865],[-8.181309,40.250748],[-8.1815165,40.250229],[-8.1814747,40.2493482],[-8.1816292,40.2484203],[-8.1819686,40.2477915],[-8.1827551,40.2471832],[-8.1833834,40.2461853],[-8.1835827,40.2453164],[-8.1840676,40.2444716],[-8.1845746,40.2440152],[-8.1852885,40.2437539],[-8.1861647,40.2437062],[-8.1868105,40.2438586],[-8.1874891,40.2441411],[-8.1880529,40.2446026],[-8.1887357,40.2452954],[-8.1889277,40.2458044],[-8.1889132,40.2463245],[-8.1885743,40.2467269],[-8.1880744,40.2470299],[-8.1876323,40.2473645],[-8.1873204,40.2479451],[-8.1871429,40.2486398],[-8.1872009,40.2492559],[-8.1876117,40.2497245],[-8.188531,40.2501592],[-8.1895022,40.2504939],[-8.1901981,40.2506091],[-8.1908475,40.2505162],[-8.1915474,40.2502975],[-8.1924536,40.2498046],[-8.1928535,40.2493349],[-8.1929063,40.2488452],[-8.1925943,40.2481975],[-8.1921423,40.2474227],[-8.1919934,40.2467059],[-8.192188,40.2461619],[-8.1926742,40.2456101],[-8.193175,40.2454333],[-8.1938245,40.2454252],[-8.1941535,40.2455389],[-8.1942621,40.2458743],[-8.1943764,40.2463116],[-8.1945339,40.2478736],[-8.1948249,40.2493589],[-8.1951754,40.2499356],[-8.1957323,40.2505249],[-8.1968867,40.2513215],[-8.1990335,40.2524187],[-8.1995163,40.2527531],[-8.1997984,40.2532116],[-8.2000154,40.2536947],[-8.2004142,40.2543983],[-8.2006436,40.25458],[-8.2009854,40.2546876],[-8.2019262,40.2546296],[-8.2029583,40.2544533],[-8.2034076,40.2541769],[-8.2047822,40.2540205],[-8.2057102,40.2539695],[-8.2064405,40.2541457],[-8.2066042,40.2542386],[-8.2068457,40.2543755],[-8.207031,40.2550029],[-8.207357,40.2558906],[-8.2072752,40.2564248],[-8.2072433,40.2566334],[-8.2068956,40.2571517],[-8.2060272,40.2575105],[-8.204923,40.2577965],[-8.2036079,40.2580777],[-8.2026082,40.2584473],[-8.2020028,40.2587738],[-8.2015684,40.2590667],[-8.2011615,40.2595028],[-8.2006831,40.259835],[-8.2002217,40.2600655],[-8.1996736,40.2602549],[-8.1991263,40.2603265],[-8.1987201,40.2602915],[-8.1978699,40.259148],[-8.1973603,40.2587748],[-8.1963308,40.2585801],[-8.1951439,40.2584736],[-8.1946324,40.2583539],[-8.1943612,40.2580605],[-8.1942971,40.2576618],[-8.1943724,40.2573997],[-8.1946104,40.2570427],[-8.1947044,40.2565848],[-8.1944579,40.2562428],[-8.19414,40.2561523],[-8.1937546,40.2562865],[-8.1933788,40.2564783],[-8.19315,40.2566971],[-8.1930809,40.2569405],[-8.1930812,40.2573022],[-8.1931704,40.2576056],[-8.193243,40.25849],[-8.1931804,40.2585014],[-8.1919312,40.2587412],[-8.1917081,40.258642],[-8.1912265,40.258586],[-8.190816,40.2585752],[-8.1904152,40.2586492],[-8.1898281,40.2588056],[-8.1884533,40.2590297],[-8.1877628,40.2591027],[-8.1871712,40.2592008],[-8.1853295,40.2589613],[-8.184398,40.2593045],[-8.1837739,40.2596448],[-8.1833755,40.2596447],[-8.182807,40.2595259],[-8.1822902,40.2595858],[-8.1818251,40.2597048],[-8.1814373,40.259705],[-8.180998,40.2596655],[-8.179912,40.2590325],[-8.1793694,40.2588542],[-8.1787747,40.2587357],[-8.1774565,40.2583403],[-8.1764229,40.2583013],[-8.1759319,40.2587568],[-8.1752865,40.2595094],[-8.1752089,40.2597272],[-8.1752916,40.2603737],[-8.1753174,40.2605754],[-8.1752693,40.2609338],[-8.1749491,40.2614536],[-8.1744329,40.2617813],[-8.1694025,40.2641952],[-8.1691601,40.2642673],[-8.1682955,40.2643365],[-8.1680814,40.2643982],[-8.1679442,40.2644866],[-8.1674699,40.2650594],[-8.1674462,40.2652764],[-8.1672315,40.2657264],[-8.1667848,40.2659165],[-8.166479,40.2663095],[-8.166289,40.2667531],[-8.166198,40.266848],[-8.1661484,40.2668736],[-8.1659148,40.2668247],[-8.1656075,40.2675236],[-8.1653633,40.2678824],[-8.1654732,40.2679424],[-8.1656254,40.268085],[-8.1656507,40.268148],[-8.1654434,40.2686687],[-8.1653947,40.2687067],[-8.1651783,40.2687155],[-8.1646092,40.2689068],[-8.1644984,40.2686944],[-8.164429,40.2686519],[-8.1633994,40.269472],[-8.1629035,40.2697465],[-8.1618484,40.2704171],[-8.1616819,40.2705553],[-8.1616127,40.2707467],[-8.1615851,40.2710123],[-8.1617518,40.27148],[-8.1620019,40.2720329],[-8.1621963,40.2722136],[-8.1625906,40.2724918],[-8.1627558,40.2728146],[-8.1628723,40.2728931],[-8.1629736,40.2731323],[-8.1629921,40.2734664],[-8.1630142,40.2738657],[-8.1632557,40.2741906],[-8.1632723,40.2743707],[-8.1629597,40.2753932],[-8.1627863,40.2757096],[-8.1620361,40.27626],[-8.1614391,40.2765646],[-8.1612192,40.276752],[-8.1607646,40.2773271],[-8.1603231,40.2786722],[-8.1603412,40.2789863],[-8.160436,40.2792941],[-8.1604392,40.2794101],[-8.1603683,40.279882],[-8.1603639,40.2803174],[-8.160327,40.2804691],[-8.1601562,40.2807666],[-8.1600454,40.2810821],[-8.1600224,40.2813362],[-8.1600661,40.2815045],[-8.160224,40.2816688],[-8.1604294,40.2818056],[-8.160651,40.2818919],[-8.1608453,40.2820146],[-8.1609523,40.2821487],[-8.1611897,40.2828205],[-8.1612355,40.2832818],[-8.1614229,40.2838716],[-8.1612549,40.2840975],[-8.1611113,40.2844167],[-8.1609646,40.2845504],[-8.1607592,40.2846053],[-8.1605643,40.2847266],[-8.1601551,40.2851905],[-8.1600938,40.2852918],[-8.1601804,40.2854497],[-8.1598736,40.2861571],[-8.1569779,40.287084],[-8.156923,40.2871027],[-8.15472,40.2882191],[-8.1539253,40.2883059],[-8.1527118,40.2886216],[-8.1506188,40.2892614],[-8.1501187,40.2893028],[-8.1497377,40.2894301],[-8.1494764,40.2894245],[-8.1477655,40.2890164],[-8.1471515,40.2889407],[-8.1465688,40.2889504],[-8.1458325,40.2890527],[-8.1448736,40.289064],[-8.1442911,40.2888995],[-8.1440369,40.2887745],[-8.1435727,40.2884839],[-8.1431438,40.288131],[-8.142625,40.2877998],[-8.1422565,40.287696],[-8.1419449,40.287653],[-8.1417573,40.2876718],[-8.1413803,40.2878461],[-8.1411154,40.2881191],[-8.1404478,40.2882038],[-8.140519,40.2886499],[-8.140504,40.2891106],[-8.1403911,40.2895748],[-8.1401743,40.2900702],[-8.1397837,40.290646],[-8.1379558,40.292711],[-8.1372517,40.2935964],[-8.1371185,40.2937019],[-8.1367725,40.2938345],[-8.1366141,40.2940405],[-8.1363374,40.2944005],[-8.1353109,40.2956131],[-8.1352324,40.2956685],[-8.1346223,40.2958822],[-8.1339098,40.2962863],[-8.1327714,40.2966299],[-8.1324393,40.2966457],[-8.1321894,40.2966179],[-8.1314096,40.2975229],[-8.1313819,40.2975899],[-8.1300507,40.2980483],[-8.1298067,40.2981018],[-8.129787,40.2981061],[-8.1284658,40.2983936],[-8.1276511,40.2985396],[-8.127452,40.2985398],[-8.1260536,40.2983895],[-8.1241716,40.29803],[-8.123142,40.2982796],[-8.1215945,40.2983983],[-8.1209594,40.298578],[-8.120299,40.2988495],[-8.1201475,40.298995],[-8.1198827,40.2994954],[-8.119764,40.2996479],[-8.1196493,40.299739],[-8.1192681,40.2999039],[-8.118494,40.2999531],[-8.1178521,40.2999426],[-8.117192,40.2999135],[-8.1165502,40.2998254],[-8.1159328,40.3000496],[-8.1157472,40.3001633],[-8.1156352,40.3003062],[-8.1155248,40.3009882],[-8.1154114,40.3013794],[-8.1149412,40.3014095],[-8.1143564,40.3014901],[-8.113413,40.3015357],[-8.1127397,40.3014634],[-8.1118639,40.3013091],[-8.1114881,40.3011565],[-8.1105896,40.3005859],[-8.1105131,40.3005496],[-8.1104329,40.3005507],[-8.1104517,40.3004733],[-8.1104996,40.3000253],[-8.1104253,40.2995488],[-8.1103178,40.2992665],[-8.1101335,40.298989],[-8.1098487,40.2984199],[-8.109476,40.2978753],[-8.1088474,40.2971661],[-8.1086477,40.2968677],[-8.108569,40.2965736],[-8.1085605,40.2963017],[-8.1086342,40.2960045],[-8.1089395,40.2954077],[-8.1091888,40.2951249],[-8.1095009,40.2948847],[-8.1098677,40.2942878],[-8.110155,40.2940416],[-8.1102843,40.2939726],[-8.1113028,40.2935265],[-8.1113688,40.2934252],[-8.1115332,40.2929367],[-8.1116367,40.2923032],[-8.1116206,40.2921014],[-8.1112695,40.2913877],[-8.1112002,40.2907973],[-8.1111874,40.289984],[-8.1112889,40.2892874],[-8.1112782,40.2887198],[-8.1118452,40.2872317],[-8.1124006,40.2864337],[-8.1124904,40.2858234],[-8.1123919,40.2853226],[-8.1123922,40.2849644],[-8.1124868,40.2844117],[-8.1050534,40.2794808],[-8.1053792,40.2783287],[-8.105334,40.277653],[-8.1055234,40.2773089],[-8.105858,40.2770137],[-8.1062276,40.2762925],[-8.1063112,40.2757863],[-8.1064828,40.2752029],[-8.1066491,40.2741799],[-8.1066559,40.2739265],[-8.1068156,40.273387],[-8.1073823,40.2721007],[-8.1077457,40.2710429],[-8.1079888,40.2705378],[-8.1080195,40.2701832],[-8.107933,40.2698395],[-8.1075955,40.2691872],[-8.1072705,40.2687939],[-8.1068245,40.2683387],[-8.1062645,40.2675419],[-8.1060393,40.2673046],[-8.1055881,40.2669231],[-8.1048043,40.2660286],[-8.1039821,40.2666684],[-8.1037261,40.2667783],[-8.1030517,40.2669395],[-8.1023837,40.2671504],[-8.1017083,40.2671448],[-8.1010578,40.2670318],[-8.1002554,40.2669486],[-8.0999853,40.2668762],[-8.0996425,40.266768],[-8.0985461,40.2662699],[-8.0982278,40.2661853],[-8.0978413,40.2660246],[-8.0974709,40.2659392],[-8.097279,40.2658237],[-8.0969548,40.2655315],[-8.0968244,40.2653361],[-8.0962915,40.2649527],[-8.0959858,40.2643099],[-8.0957824,40.2640959],[-8.0954596,40.2638447],[-8.0953192,40.2636418],[-8.0951112,40.2631489],[-8.0950181,40.2626477],[-8.0947852,40.2621163],[-8.0947465,40.2618332],[-8.0944919,40.2617278],[-8.0941055,40.2609493],[-8.0941234,40.2604637],[-8.0939668,40.2603619],[-8.0937618,40.2601528],[-8.0936974,40.2600656],[-8.0935646,40.260211],[-8.0933362,40.2603547],[-8.0925864,40.2605737],[-8.0920579,40.2607935],[-8.091408,40.2608392],[-8.0909658,40.2609665],[-8.09014,40.2611415],[-8.0888055,40.261597],[-8.0885119,40.261808],[-8.0883361,40.2618405],[-8.0883878,40.2620395],[-8.0886206,40.2625256],[-8.0887122,40.2628093],[-8.0887329,40.2629138],[-8.0886272,40.2631492],[-8.0880325,40.2637879],[-8.0870435,40.2644537],[-8.0865754,40.2646398],[-8.0864532,40.2647261],[-8.0863224,40.2650122],[-8.0860586,40.2651281],[-8.0858386,40.2653109],[-8.0858942,40.2662132],[-8.0860204,40.2667206],[-8.0860785,40.2673758],[-8.0862113,40.2678048],[-8.0862002,40.2679587],[-8.0861005,40.2682618],[-8.0857548,40.2685419],[-8.0852091,40.2694538],[-8.0847247,40.2699273],[-8.0842308,40.2705074],[-8.082605,40.2716627],[-8.0817282,40.2723659],[-8.081453,40.272511],[-8.0811796,40.2726077],[-8.0801262,40.2731794],[-8.0801631,40.2732267],[-8.0801366,40.2732757],[-8.0799566,40.2734194],[-8.077893,40.2748321],[-8.0773145,40.2753445],[-8.0769938,40.2754057],[-8.0762113,40.2758998],[-8.0759014,40.2756277],[-8.0745941,40.2744066],[-8.0736964,40.2735056],[-8.0730552,40.2730173],[-8.0729002,40.272849],[-8.0721937,40.2718166],[-8.0718903,40.271647],[-8.0717208,40.2714455],[-8.0712373,40.270595],[-8.0702779,40.2693937],[-8.0692368,40.2679465],[-8.0686115,40.2669336],[-8.0678074,40.2654032],[-8.0674708,40.2649135],[-8.0670705,40.264427],[-8.0668828,40.264125],[-8.0661987,40.26343],[-8.0659471,40.2629503],[-8.0652503,40.2612617],[-8.0649514,40.2606691],[-8.0646428,40.2602231],[-8.0643621,40.2588324],[-8.0631911,40.2560885],[-8.063059,40.2556049],[-8.0629336,40.2548967],[-8.0628144,40.254696],[-8.0619968,40.2537364],[-8.0615566,40.2530703],[-8.0612185,40.2526552],[-8.0608291,40.2519908],[-8.0588276,40.2509185],[-8.0563512,40.2502666],[-8.055732,40.2499774],[-8.0553866,40.2496344],[-8.0552063,40.2493994],[-8.054849,40.2485143],[-8.0546881,40.2482071],[-8.0544005,40.2477879],[-8.0542451,40.2474816],[-8.0539169,40.2466782],[-8.0536688,40.246172],[-8.053341,40.2456725],[-8.052723,40.2445287],[-8.0521319,40.2436661],[-8.0518994,40.2431264],[-8.0517039,40.2428057],[-8.0515824,40.2427284],[-8.0515016,40.2427949],[-8.0511121,40.2430381],[-8.049926,40.2436502],[-8.0495325,40.2437714],[-8.0490223,40.2438124],[-8.0482393,40.2439714],[-8.0479735,40.2439605],[-8.0476061,40.2437993],[-8.0471739,40.243553],[-8.0462423,40.2426788],[-8.0458786,40.2421785],[-8.0454496,40.2417668],[-8.044951,40.241401],[-8.0444983,40.2410076],[-8.0440021,40.2407646],[-8.0438817,40.2407319],[-8.0433771,40.2407222],[-8.0429831,40.2408328],[-8.0424494,40.2409055],[-8.0421759,40.2409796],[-8.0415099,40.2412595],[-8.040443,40.2417981],[-8.0399021,40.2421903],[-8.0395863,40.242488],[-8.039264,40.2428793],[-8.0382618,40.2444825],[-8.0376032,40.2459333],[-8.0374328,40.246455],[-8.0370311,40.2474244],[-8.036755,40.2479234],[-8.0364954,40.2485994],[-8.0364769,40.2487978],[-8.0361967,40.249818],[-8.0359485,40.2503007],[-8.0355794,40.2508684],[-8.0352836,40.2512579],[-8.0347249,40.2518761],[-8.0344595,40.2522757],[-8.0343972,40.252494],[-8.0343498,40.2536248],[-8.0343618,40.2542427],[-8.0343134,40.2546037],[-8.0341167,40.2555273],[-8.0339629,40.255844],[-8.0339123,40.2569373],[-8.0337225,40.2575093],[-8.0334788,40.2578203],[-8.0330102,40.2581484],[-8.0327488,40.2582883],[-8.0319158,40.2586878],[-8.0307858,40.2590684],[-8.0303649,40.2592487],[-8.0302923,40.2592798],[-8.0286773,40.2602488],[-8.0283005,40.2604348],[-8.0280482,40.2605187],[-8.0278088,40.2605604],[-8.0274277,40.2605052],[-8.0271756,40.2604211],[-8.0268155,40.2602241],[-8.0264795,40.2599361],[-8.0263689,40.2597435],[-8.026313,40.2595507],[-8.0263015,40.2591716],[-8.0265532,40.2583054],[-8.0266206,40.2571375],[-8.0266872,40.2569415],[-8.026749,40.2568498],[-8.02711,40.2565971],[-8.0282543,40.2561312],[-8.0286251,40.2559311],[-8.0288292,40.255738],[-8.0288825,40.2556417],[-8.0288759,40.2554566],[-8.0287596,40.2550642],[-8.0286892,40.2549698],[-8.0285601,40.2549202],[-8.0283115,40.2549239],[-8.0267892,40.2552189],[-8.0264258,40.255238],[-8.0260508,40.2551861],[-8.0249313,40.2553151],[-8.0227637,40.2558385],[-8.0221657,40.2560243],[-8.0219431,40.2560936],[-8.0215097,40.256235],[-8.0198259,40.2566035],[-8.0192248,40.2567735],[-8.018833,40.2569639],[-8.0185627,40.2571592],[-8.01815,40.2576706],[-8.0179332,40.2581424],[-8.0178379,40.2586241],[-8.0178466,40.2591062],[-8.0179979,40.2597976],[-8.0180971,40.2609695],[-8.0180723,40.2615703],[-8.0177761,40.2632009],[-8.0176932,40.2639075],[-8.017466,40.2644827],[-8.0170748,40.2650609],[-8.016665,40.2654532],[-8.0160339,40.2665856],[-8.0157934,40.2667291],[-8.0155487,40.2667592],[-8.0153072,40.2666676],[-8.0151466,40.2664808],[-8.0151015,40.2661881],[-8.015113,40.2655073],[-8.0151692,40.2649282],[-8.0151424,40.264734],[-8.0147688,40.2639627],[-8.014735,40.2637626],[-8.0147515,40.263569],[-8.0148422,40.2632711],[-8.0152479,40.2625915],[-8.0153836,40.2623015],[-8.0153654,40.2621102],[-8.0151896,40.2616187],[-8.0150765,40.261428],[-8.0149726,40.2613314],[-8.0147285,40.2612462],[-8.0134517,40.2610453],[-8.0128299,40.2609156],[-8.0123329,40.260756],[-8.0112387,40.2602385],[-8.0108683,40.2601697],[-8.0103637,40.2601945],[-8.0097376,40.2602867],[-8.0089468,40.2606112],[-8.0087779,40.2607544],[-8.0085242,40.2609694],[-8.0084789,40.2610675],[-8.0084443,40.2614496],[-8.0082011,40.262411],[-8.0079552,40.2629935],[-8.0078289,40.2631482],[-8.0078856,40.2635799],[-8.0077983,40.2638021],[-8.0075808,40.2639457],[-8.0068708,40.2642396],[-8.0063647,40.2643359],[-8.0059865,40.2644581],[-8.0055995,40.2645968],[-8.0048777,40.2649188],[-8.004615,40.2650668],[-8.0041667,40.2654452],[-8.0036241,40.2664535],[-8.0034014,40.2670786],[-8.0034543,40.267586],[-8.0035882,40.2680719],[-8.0035632,40.2681748],[-8.0034771,40.2682665],[-8.003115,40.2685064],[-8.0015642,40.2690157],[-8.0010775,40.2692479],[-8.0008309,40.2694101],[-8.0004793,40.269735],[-8.00001,40.2703006],[-7.999728,40.2711522],[-7.9997358,40.2716791],[-8.0000063,40.2724739],[-7.9999575,40.27276],[-7.9996865,40.2731703],[-7.999482,40.2733657],[-7.9988263,40.2737772],[-7.998419,40.2739692],[-7.9977109,40.274187],[-7.9974299,40.2742227],[-7.9973551,40.2743622],[-7.9973327,40.2746219],[-7.9971499,40.2749169],[-7.9970834,40.2752112],[-7.9972098,40.2754892],[-7.9969742,40.2758787],[-7.9969749,40.2760647],[-7.9970194,40.2761559],[-7.9972,40.2763393],[-7.9976727,40.2766843],[-7.9977497,40.2773441],[-7.9978934,40.2775339],[-7.9980125,40.2775755],[-7.9987551,40.277663],[-7.9991185,40.2778407],[-7.9993141,40.2780278],[-7.9993499,40.2781229],[-7.9993482,40.2783188],[-7.9991702,40.2789938],[-7.9991666,40.2791915],[-7.9993564,40.2797599],[-7.9996367,40.2801371],[-7.9998502,40.2803295],[-8.0008024,40.2814225],[-8.0011828,40.2816636],[-8.0015407,40.2820414],[-8.0020126,40.2827804],[-8.0020112,40.282877],[-8.0019541,40.2829835],[-8.0017464,40.2833188],[-8.0006217,40.2845264],[-8.0002094,40.2849109],[-7.9995048,40.2857449],[-7.9993212,40.2858744],[-7.998686,40.2864843],[-7.9977608,40.2870906],[-7.9973231,40.2873324],[-7.99676,40.287723],[-7.9964852,40.2879551],[-7.9963005,40.2880517],[-7.9961149,40.2881055],[-7.9954897,40.2880642],[-7.9951761,40.2879611],[-7.9946373,40.2875651],[-7.9943252,40.2874153],[-7.9939207,40.2872707],[-7.9933579,40.287178],[-7.9927789,40.2870184],[-7.9918882,40.2869663],[-7.9915749,40.2868928],[-7.9906684,40.286834],[-7.9903348,40.2867581],[-7.9900274,40.2866159],[-7.9896541,40.286363],[-7.9893325,40.286214],[-7.9887212,40.2859473],[-7.9880696,40.2857324],[-7.9878156,40.2856878],[-7.9871023,40.2856684],[-7.9867767,40.2856126],[-7.9865904,40.2855476],[-7.986319,40.2852144],[-7.9861369,40.285092],[-7.9852109,40.284689],[-7.9847832,40.2845469],[-7.9847268,40.2845303],[-7.9844858,40.2847537],[-7.9843037,40.2850121],[-7.9834767,40.285549],[-7.9830582,40.285757],[-7.9826154,40.2860396],[-7.9820845,40.2861728],[-7.9813693,40.2865049],[-7.9812392,40.2865905],[-7.9809436,40.2868795],[-7.9803929,40.2871154],[-7.9776978,40.2894519],[-7.977828,40.2904942],[-7.9779278,40.2908795],[-7.9778932,40.2909738],[-7.9777728,40.2910581],[-7.9770352,40.2913076],[-7.9766997,40.2914968],[-7.9764286,40.2917606],[-7.9763536,40.2919747],[-7.9763532,40.2921678],[-7.9765612,40.2927787],[-7.9761721,40.2933608],[-7.9759274,40.2936521],[-7.9755617,40.293951],[-7.9755385,40.2940435],[-7.9755678,40.2941055],[-7.9761503,40.294339],[-7.9763421,40.2943013],[-7.9764456,40.2943225],[-7.9765492,40.2944512],[-7.9764735,40.2946355],[-7.9762091,40.2948355],[-7.9757816,40.2952489],[-7.975137,40.2956981],[-7.9748472,40.2959618],[-7.9737448,40.2967033],[-7.9717699,40.2979456],[-7.9717088,40.298041],[-7.971759,40.2981364],[-7.9719526,40.2983241],[-7.9721972,40.2984967],[-7.9722605,40.2985922],[-7.9721667,40.2987854],[-7.9719186,40.2987758],[-7.9717949,40.2988128],[-7.9714916,40.2989831],[-7.9713669,40.2989602],[-7.9711841,40.2988505],[-7.971063,40.2988326],[-7.970818,40.2989493],[-7.9701873,40.2990607],[-7.9697416,40.2992168],[-7.9697595,40.2999713],[-7.9698215,40.3003604],[-7.9700157,40.3009697],[-7.9701547,40.3012088],[-7.9701783,40.3014037],[-7.9700014,40.3015966],[-7.9698081,40.3019073],[-7.9695687,40.3020392],[-7.968252,40.3025982],[-7.9679885,40.3027757],[-7.967646,40.3030831],[-7.9674497,40.3033741],[-7.9673283,40.3036664],[-7.9673217,40.3041309],[-7.9668658,40.3035813],[-7.9666282,40.3034214],[-7.9657407,40.3024616],[-7.9653218,40.3018429],[-7.9649459,40.3011775],[-7.9645877,40.3006507],[-7.9641472,40.2996026],[-7.9640099,40.2990831],[-7.9635655,40.2980716],[-7.9634342,40.2978682],[-7.9631135,40.2975783],[-7.9624907,40.2972216],[-7.9616592,40.2969547],[-7.9615365,40.2969492],[-7.9611672,40.2969683],[-7.9605188,40.2970724],[-7.9598447,40.2972253],[-7.9589074,40.2973607],[-7.9585381,40.2973745],[-7.9581671,40.297247],[-7.9570395,40.2965252],[-7.956932,40.2965348],[-7.956043,40.297201],[-7.9559214,40.2972591],[-7.9543951,40.2983234],[-7.9538894,40.2987422],[-7.9535872,40.2990367],[-7.953112,40.2996526],[-7.9527524,40.3000486],[-7.9524536,40.3003351],[-7.9520894,40.3005642],[-7.9515533,40.3007942],[-7.9508953,40.300966],[-7.9497609,40.3011274],[-7.9493692,40.3012433],[-7.9489753,40.3014312],[-7.9483205,40.3016874],[-7.9479347,40.3017822],[-7.9475034,40.3017624],[-7.9473335,40.3016875],[-7.9461543,40.3007907],[-7.945975,40.3006128],[-7.9459519,40.300328],[-7.9461636,40.2997269],[-7.9465403,40.2990788],[-7.9467745,40.2987736],[-7.9472558,40.2983792],[-7.9476357,40.2981845],[-7.9478609,40.2979966],[-7.9479397,40.2978917],[-7.9481585,40.2974168],[-7.9484103,40.2971186],[-7.9485623,40.2965952],[-7.9485305,40.2964193],[-7.9484449,40.2963071],[-7.9481653,40.2961628],[-7.9471644,40.295781],[-7.9460585,40.2952645],[-7.9449253,40.2948164],[-7.944559,40.2945408],[-7.943962,40.2938777],[-7.9431172,40.2934973],[-7.9430168,40.2933999],[-7.9429234,40.2932076],[-7.9429661,40.2929271],[-7.9429819,40.2928239],[-7.9431607,40.2924406],[-7.9434172,40.292076],[-7.9439333,40.2915798],[-7.9443077,40.291345],[-7.9455602,40.2909079],[-7.9457706,40.2906459],[-7.9463004,40.2896852],[-7.9465052,40.2894041],[-7.94715,40.2887424],[-7.948471,40.2871302],[-7.9487169,40.2869528],[-7.9493402,40.2866178],[-7.949686,40.2863267],[-7.949747,40.2862325],[-7.9497929,40.2858504],[-7.9497366,40.2855583],[-7.9495914,40.2851637],[-7.9493832,40.284889],[-7.9482764,40.2840655],[-7.9471186,40.283585],[-7.9465255,40.2833966],[-7.9458953,40.2832503],[-7.9456439,40.2832733],[-7.9452713,40.2833988],[-7.9446508,40.2837181],[-7.944039,40.2841491],[-7.9428444,40.2850958],[-7.941819,40.2860679],[-7.9413322,40.2864251],[-7.9411978,40.2864648],[-7.9402159,40.2865944],[-7.9396921,40.2867446],[-7.9395731,40.2868237],[-7.9393941,40.2870173],[-7.9391248,40.287504],[-7.9389762,40.2879794],[-7.9387785,40.2884549],[-7.9384008,40.2889363],[-7.9379967,40.2893055],[-7.93761,40.2895274],[-7.9364632,40.2898902],[-7.9363155,40.2899136],[-7.93594,40.2899735],[-7.9350066,40.2900333],[-7.9342475,40.2900013],[-7.9329604,40.290009],[-7.9295539,40.2903751],[-7.9284267,40.2906765],[-7.9276351,40.2908187],[-7.9272936,40.290949],[-7.9269267,40.2912671],[-7.9257103,40.2928621],[-7.9252778,40.2932539],[-7.9250299,40.293343],[-7.9244762,40.2934618],[-7.9235765,40.2935672],[-7.9230273,40.2936714],[-7.9226574,40.2938058],[-7.9222737,40.2940438],[-7.9219385,40.2936768],[-7.9217206,40.293335],[-7.9216987,40.2932328],[-7.9217668,40.2930422],[-7.9217666,40.2928868],[-7.9220593,40.2919316],[-7.9220551,40.2915505],[-7.921465,40.2900965],[-7.9213327,40.288936],[-7.9212694,40.288744],[-7.9212024,40.288647],[-7.9207396,40.2882877],[-7.9205203,40.287804],[-7.9204654,40.2869849],[-7.9203923,40.2868557],[-7.9204782,40.2861241],[-7.9206619,40.2857178],[-7.9204493,40.2856558],[-7.919846,40.2855733],[-7.9191289,40.2855588],[-7.9183593,40.2856464],[-7.9174866,40.2859565],[-7.9164892,40.2860709],[-7.9152827,40.2862811],[-7.9146479,40.2864775],[-7.9139313,40.2866115],[-7.9136016,40.2866385],[-7.9121899,40.2866198],[-7.9119309,40.2866089],[-7.91177,40.28655],[-7.9115166,40.2864579],[-7.911086,40.2862749],[-7.9043843,40.2826846],[-7.9041122,40.2826841],[-7.9038338,40.2827544],[-7.9036361,40.2826482],[-7.903043,40.2824303],[-7.9028471,40.2823306],[-7.902704,40.282236],[-7.9026194,40.2821318],[-7.9024443,40.2812576],[-7.9020935,40.2812842],[-7.8947299,40.2823498],[-7.894627,40.2823442],[-7.8913161,40.2829177],[-7.8910899,40.2829327],[-7.888437,40.2834582],[-7.8880748,40.2835565],[-7.8865867,40.2840723],[-7.8862242,40.2842179],[-7.8842479,40.2851762],[-7.8837659,40.2853656],[-7.8834399,40.2854612],[-7.8832344,40.2854802],[-7.8831452,40.2854628],[-7.8830343,40.2853678],[-7.8830194,40.2853067],[-7.8831745,40.2840214],[-7.8831165,40.2834359],[-7.8831502,40.2831926],[-7.8834735,40.2824807],[-7.8835404,40.2822501],[-7.8835632,40.281905],[-7.883497,40.2814283],[-7.8833323,40.2813593],[-7.8826964,40.2809625],[-7.8812361,40.2806574],[-7.8803319,40.2802721],[-7.8795588,40.2800118],[-7.8791623,40.2799963],[-7.8787491,40.2799219],[-7.8784813,40.2799084],[-7.8782128,40.2798404],[-7.8780158,40.2797532],[-7.8776216,40.2797504],[-7.8771419,40.2798078],[-7.8767762,40.2797533],[-7.8764114,40.2796363],[-7.8763515,40.2795835],[-7.8763171,40.279472],[-7.8763312,40.278923],[-7.8762961,40.2787628],[-7.8762626,40.2787064],[-7.8759183,40.2785359],[-7.8758177,40.2783851],[-7.8758179,40.2781198],[-7.8757599,40.2780138],[-7.8755763,40.2778682],[-7.8754353,40.2778093],[-7.8739315,40.2774917],[-7.8732153,40.2772978],[-7.8728189,40.2771347],[-7.8725228,40.2769707],[-7.8723393,40.2768198],[-7.8720031,40.2766615],[-7.8715905,40.2766678],[-7.8712105,40.2765842],[-7.8700213,40.2760162],[-7.8695878,40.2757487],[-7.8693755,40.2756863],[-7.8684662,40.2756662],[-7.8680876,40.275568],[-7.867358,40.2753026],[-7.8665504,40.2751488],[-7.8663537,40.2751461],[-7.8659777,40.2750338],[-7.8657827,40.274916],[-7.8653338,40.2744433],[-7.864613,40.2741619],[-7.8642654,40.2739697],[-7.8640889,40.2738075],[-7.8638482,40.273402],[-7.8635465,40.2729927],[-7.8629873,40.2727297],[-7.8625622,40.272483],[-7.8623995,40.2725077],[-7.8620297,40.272459],[-7.8612223,40.2722708],[-7.8601412,40.2720744],[-7.8594062,40.2718557],[-7.8587294,40.2717404],[-7.8572282,40.2717082],[-7.8569715,40.2715587],[-7.8565939,40.271446],[-7.856237,40.2713003],[-7.8557576,40.2710383],[-7.8552142,40.2706105],[-7.8550827,40.270541],[-7.8546445,40.2701271],[-7.8544514,40.2698655],[-7.8540664,40.2690676],[-7.8538805,40.2688139],[-7.8521387,40.2674567],[-7.8516555,40.266992],[-7.8514246,40.2666917],[-7.8509671,40.2659538],[-7.8504787,40.2652513],[-7.8504121,40.2648552],[-7.8502034,40.2642986],[-7.8499919,40.2638768],[-7.8492469,40.2630543],[-7.84858,40.2625735],[-7.8477374,40.261869],[-7.8471996,40.261235],[-7.8469862,40.261065],[-7.8460081,40.26054],[-7.845771,40.2603844],[-7.8450908,40.260079],[-7.8440966,40.2597144],[-7.8439749,40.2596927],[-7.8437164,40.2595629],[-7.8432391,40.2594545],[-7.8429826,40.2594265],[-7.8424578,40.259479],[-7.8401802,40.2600603],[-7.8393903,40.2602998],[-7.839024,40.2603619],[-7.836337,40.2612487],[-7.8352245,40.2617327],[-7.8341304,40.2621159],[-7.8313277,40.2633822],[-7.8305642,40.2636608],[-7.8291122,40.2643341],[-7.8286668,40.2646291],[-7.8270079,40.2659482],[-7.8267477,40.2660741],[-7.8262445,40.266254],[-7.8261159,40.2662728],[-7.8255344,40.2662983],[-7.8256491,40.2661416],[-7.8257828,40.2657707],[-7.8258604,40.2651205],[-7.8258525,40.264734],[-7.8257519,40.2642479],[-7.8253224,40.2630488],[-7.8252109,40.2628458],[-7.8248912,40.2624617],[-7.8245254,40.2612627],[-7.8244933,40.2608802],[-7.8245014,40.2599102],[-7.8244604,40.259623],[-7.824349,40.2592397],[-7.8240982,40.2587682],[-7.8230697,40.2576133],[-7.8223901,40.2570585],[-7.8216258,40.2566776],[-7.8213863,40.2566038],[-7.819415,40.2561898],[-7.818041,40.2559951],[-7.814927,40.2559334],[-7.8129324,40.2557287],[-7.8124936,40.2557339],[-7.812249,40.2556967],[-7.8116361,40.2556953],[-7.811616,40.2556714],[-7.8111225,40.2556868],[-7.810749,40.2557716],[-7.810235,40.2558307],[-7.8097461,40.2558449],[-7.8094915,40.2558962],[-7.8087379,40.2561248],[-7.807746,40.2565865],[-7.8072406,40.256766],[-7.8069873,40.256805],[-7.8059751,40.2567341],[-7.8052352,40.2567238],[-7.8045122,40.2566272],[-7.8042556,40.2565412],[-7.8036618,40.2562463],[-7.8030896,40.2555639],[-7.8026367,40.2548647],[-7.8024384,40.254383],[-7.8010708,40.2525416],[-7.799587,40.2508765],[-7.7971294,40.2484001],[-7.7951552,40.246761],[-7.7927636,40.2445902],[-7.7908084,40.2427749],[-7.7887086,40.2407365],[-7.7883375,40.2400565],[-7.7877347,40.239272],[-7.7866683,40.238064],[-7.7855077,40.2365602],[-7.7850564,40.235696],[-7.7849878,40.2354879],[-7.7847514,40.2350861],[-7.7843347,40.2344103],[-7.7838404,40.2337419],[-7.783413,40.2327559],[-7.7828518,40.2316682],[-7.7824676,40.2305045],[-7.7823921,40.2299187],[-7.7823932,40.2296777],[-7.7824144,40.2292505],[-7.7826752,40.2280697],[-7.7827069,40.2273059],[-7.7828665,40.2263364],[-7.7829511,40.225541],[-7.7830313,40.2252539],[-7.7830411,40.2250014],[-7.7835187,40.2227838],[-7.7839751,40.2202958],[-7.7840256,40.219531],[-7.7839194,40.217537],[-7.7839055,40.2156861],[-7.7840562,40.2135325],[-7.7840961,40.2112218],[-7.7841544,40.2101102],[-7.7842584,40.2087666],[-7.7843435,40.2081877],[-7.784422,40.2081164],[-7.7849939,40.2076783],[-7.7863364,40.2069097],[-7.7878424,40.2061654],[-7.7890275,40.2054034],[-7.7904105,40.204839],[-7.792018,40.2038945],[-7.7929967,40.2034512],[-7.7957195,40.2015964],[-7.7960954,40.200398],[-7.7962714,40.2000733],[-7.7972907,40.1985456],[-7.7976915,40.1979816],[-7.7986929,40.1968467],[-7.7993152,40.1962403],[-7.7997343,40.1957504],[-7.8006261,40.1934782],[-7.8013688,40.1922052],[-7.8018537,40.1908337],[-7.8020328,40.1904357],[-7.8035269,40.1888136],[-7.8042337,40.1876809],[-7.8048591,40.1869769],[-7.8057862,40.1861287],[-7.8061203,40.1858623],[-7.8065349,40.1856369],[-7.8070047,40.1851322],[-7.8074579,40.1839887],[-7.8077276,40.1829811],[-7.8081241,40.1825091],[-7.8088798,40.1818541],[-7.8090449,40.1817763]]]}}]}