{"type": "FeatureCollection", "features": [{"type": "Feature", "properties": {"name": "Primorsko", "admin": "municipality", "source": "\u00a9 OpenStreetMap contributors, ODbL 1.0", "osm_relation": 1937061}, "geometry": {"type": "MultiPolygon", "coordinates": [[[[27.49902, 42.24084], [27.49938, 42.23994], [27.50102, 42.23845], [27.50088, 42.23712], [27.50159, 42.23636], [27.50299, 42.23565], [27.50416, 42.23455], [27.50632, 42.23413], [27.50737, 42.23428], [27.50787, 42.2338], [27.50928, 42.2339], [27.50976, 42.23341], [27.51085, 42.23338], [27.51013, 42.2323], [27.51073, 42.23181], [27.51059, 42.23144], [27.51078, 42.23101], [27.5102, 42.23094], [27.50896, 42.22998], [27.50831, 42.22899], [27.50833, 42.22837], [27.50915, 42.22691], [27.50911, 42.22602], [27.50777, 42.22487], [27.50665, 42.22437], [27.5063, 42.2231], [27.50577, 42.2224], [27.50307, 42.22077], [27.50279, 42.21946], [27.50342, 42.21787], [27.50465, 42.21605], [27.50592, 42.21535], [27.50645, 42.21479], [27.50712, 42.21465], [27.50852, 42.21306], [27.5097, 42.21269], [27.51016, 42.21176], [27.51167, 42.21048], [27.51047, 42.2089], [27.50773, 42.20617], [27.5061, 42.20566], [27.50448, 42.20431], [27.50464, 42.20315], [27.50351, 42.20171], [27.50332, 42.2005], [27.50257, 42.19977], [27.50207, 42.19788], [27.50236, 42.19678], [27.50376, 42.19564], [27.50412, 42.19508], [27.50452, 42.19308], [27.50407, 42.19222], [27.5031, 42.19156], [27.50251, 42.19078], [27.50226, 42.18984], [27.50271, 42.18786], [27.50198, 42.1864], [27.5021, 42.18584], [27.50154, 42.18464], [27.50134, 42.18352], [27.50058, 42.1827], [27.50252, 42.18321], [27.50456, 42.18058], [27.50847, 42.17918], [27.50933, 42.17928], [27.51044, 42.17995], [27.51191, 42.17996], [27.51452, 42.18041], [27.51484, 42.18014], [27.51499, 42.17929], [27.51555, 42.1788], [27.51891, 42.17877], [27.52044, 42.17831], [27.52094, 42.17726], [27.52102, 42.1764], [27.52132, 42.17614], [27.52262, 42.17659], [27.52468, 42.17594], [27.52611, 42.17735], [27.52674, 42.17757], [27.52786, 42.1767], [27.52903, 42.17645], [27.52967, 42.17585], [27.53043, 42.17557], [27.53074, 42.17507], [27.5308, 42.17402], [27.53126, 42.17355], [27.53126, 42.17278], [27.53223, 42.1706], [27.53276, 42.17029], [27.53423, 42.1701], [27.53425, 42.16929], [27.53321, 42.16798], [27.53317, 42.16754], [27.53461, 42.16617], [27.5348, 42.16375], [27.53589, 42.16322], [27.53665, 42.16133], [27.53847, 42.15999], [27.54148, 42.15984], [27.54273, 42.15941], [27.54278, 42.15827], [27.54319, 42.15787], [27.54379, 42.15572], [27.54475, 42.15445], [27.54579, 42.15423], [27.54652, 42.15297], [27.5492, 42.15222], [27.55142, 42.15244], [27.55237, 42.1517], [27.55318, 42.15163], [27.55488, 42.15207], [27.55646, 42.15279], [27.55742, 42.15361], [27.55776, 42.15472], [27.55826, 42.15492], [27.55988, 42.15359], [27.56209, 42.15299], [27.56282, 42.15219], [27.56439, 42.15116], [27.56619, 42.15055], [27.56626, 42.15169], [27.56569, 42.15318], [27.56595, 42.15453], [27.56582, 42.15666], [27.56693, 42.1572], [27.56847, 42.15723], [27.56992, 42.15771], [27.57065, 42.15805], [27.57134, 42.15922], [27.57377, 42.1595], [27.57448, 42.15984], [27.57494, 42.16051], [27.57518, 42.16145], [27.57567, 42.16194], [27.5773, 42.16151], [27.57862, 42.16042], [27.57988, 42.16148], [27.58032, 42.16253], [27.57994, 42.16314], [27.5803, 42.16364], [27.5806, 42.16533], [27.58026, 42.16594], [27.58006, 42.16765], [27.57898, 42.16974], [27.57885, 42.17044], [27.58001, 42.17378], [27.58147, 42.17548], [27.58445, 42.17636], [27.58417, 42.17683], [27.5871, 42.17877], [27.58779, 42.17954], [27.58793, 42.1803], [27.59058, 42.18234], [27.5918, 42.18582], [27.59099, 42.1866], [27.5915, 42.18682], [27.59086, 42.18727], [27.59092, 42.18758], [27.59149, 42.18741], [27.59302, 42.18765], [27.59346, 42.18709], [27.59444, 42.18686], [27.59512, 42.18732], [27.59551, 42.18826], [27.59608, 42.1888], [27.59639, 42.18896], [27.59841, 42.18886], [27.59942, 42.19002], [27.59964, 42.18979], [27.59964, 42.18869], [27.60053, 42.18755], [27.6012, 42.18706], [27.60277, 42.18659], [27.60668, 42.18634], [27.61196, 42.18769], [27.61381, 42.18776], [27.61478, 42.18762], [27.61545, 42.18702], [27.61688, 42.18632], [27.6176, 42.18635], [27.61822, 42.18599], [27.61857, 42.18398], [27.61792, 42.18371], [27.61711, 42.18283], [27.61924, 42.17884], [27.6235, 42.17569], [27.62456, 42.17532], [27.62371, 42.17298], [27.62281, 42.17178], [27.62271, 42.17108], [27.62348, 42.1703], [27.6239, 42.16932], [27.62389, 42.16873], [27.62292, 42.16685], [27.62348, 42.16483], [27.62471, 42.16435], [27.62562, 42.165], [27.62672, 42.16471], [27.62703, 42.16536], [27.62765, 42.16563], [27.62888, 42.16433], [27.63051, 42.16382], [27.63181, 42.16434], [27.63475, 42.1664], [27.63535, 42.16696], [27.63506, 42.16803], [27.63525, 42.16837], [27.63612, 42.16875], [27.63943, 42.16833], [27.64071, 42.16859], [27.6412, 42.1681], [27.64193, 42.16798], [27.6448, 42.16779], [27.64606, 42.168], [27.64659, 42.16779], [27.64925, 42.17065], [27.65064, 42.1717], [27.65412, 42.17332], [27.65494, 42.17401], [27.65516, 42.17442], [27.65497, 42.17679], [27.65454, 42.17777], [27.65475, 42.17834], [27.65662, 42.17999], [27.65797, 42.18047], [27.65956, 42.18151], [27.66056, 42.1826], [27.66147, 42.18412], [27.66319, 42.18576], [27.66446, 42.18609], [27.66678, 42.18557], [27.67116, 42.1856], [27.67232, 42.18611], [27.67604, 42.18703], [27.6786, 42.18838], [27.68063, 42.18852], [27.68106, 42.18909], [27.68356, 42.19083], [27.68621, 42.19149], [27.68858, 42.19156], [27.69159, 42.1927], [27.6925, 42.19394], [27.69271, 42.19471], [27.69251, 42.19503], [27.69109, 42.19567], [27.68964, 42.19599], [27.68637, 42.19627], [27.68541, 42.19696], [27.68527, 42.19813], [27.6865, 42.20042], [27.6866, 42.20143], [27.68694, 42.20172], [27.69126, 42.2009], [27.69239, 42.20135], [27.69284, 42.20378], [27.69271, 42.20493], [27.6941, 42.20614], [27.69444, 42.20718], [27.6939, 42.20829], [27.69389, 42.20904], [27.69308, 42.21041], [27.69325, 42.21328], [27.69448, 42.21395], [27.69563, 42.21421], [27.69718, 42.21311], [27.69889, 42.21235], [27.70088, 42.21211], [27.70427, 42.21261], [27.70671, 42.2134], [27.70746, 42.21401], [27.70822, 42.21567], [27.70768, 42.21622], [27.70765, 42.2166], [27.70817, 42.2178], [27.70648, 42.21931], [27.70647, 42.22075], [27.70776, 42.22151], [27.7086, 42.22161], [27.70865, 42.22237], [27.70994, 42.2235], [27.7106, 42.22364], [27.7109, 42.22412], [27.7115, 42.22404], [27.71196, 42.2243], [27.71268, 42.22417], [27.71403, 42.22449], [27.71526, 42.22422], [27.71632, 42.22361], [27.71698, 42.22357], [27.71754, 42.22361], [27.71935, 42.22452], [27.72059, 42.22449], [27.72187, 42.22482], [27.72255, 42.22534], [27.72446, 42.22504], [27.72718, 42.22514], [27.72888, 42.22433], [27.72955, 42.22494], [27.7307, 42.22502], [27.73244, 42.22462], [27.73455, 42.22522], [27.73628, 42.22524], [27.73937, 42.22588], [27.73977, 42.22561], [27.73966, 42.22492], [27.73998, 42.22431], [27.74037, 42.2242], [27.74225, 42.22462], [27.74322, 42.22274], [27.74491, 42.22078], [27.74509, 42.22037], [27.74501, 42.21925], [27.7474, 42.21852], [27.74815, 42.21853], [27.75016, 42.21935], [27.7564, 42.22077], [27.761, 42.21934], [27.76459, 42.22064], [27.76595, 42.22049], [27.76877, 42.21946], [27.7698, 42.21932], [27.7763, 42.2198], [27.77697, 42.22008], [27.77704, 42.22071], [27.7763, 42.22168], [27.77627, 42.22299], [27.77724, 42.22502], [27.77865, 42.22616], [27.77731, 42.2277], [27.77692, 42.22975], [27.77707, 42.23126], [27.77803, 42.23314], [27.77967, 42.23438], [27.78036, 42.23461], [27.7805, 42.23442], [27.78111, 42.23481], [27.78204, 42.23462], [27.78227, 42.23439], [27.78158, 42.23318], [27.78229, 42.23385], [27.78257, 42.23471], [27.78328, 42.23469], [27.78376, 42.23442], [27.78402, 42.23391], [27.78452, 42.23418], [27.7855, 42.23517], [27.7849, 42.23656], [27.78494, 42.23757], [27.7842, 42.23831], [27.784, 42.23801], [27.78446, 42.23759], [27.78443, 42.23685], [27.7813, 42.23689], [27.77951, 42.23744], [27.7788, 42.23812], [27.77816, 42.2381], [27.7776, 42.23902], [27.77834, 42.23947], [27.77765, 42.23961], [27.77753, 42.23987], [27.77765, 42.24092], [27.77819, 42.24084], [27.77746, 42.24231], [27.77718, 42.24247], [27.77767, 42.24349], [27.77729, 42.24351], [27.77687, 42.24253], [27.77609, 42.24253], [27.77418, 42.24418], [27.77391, 42.24495], [27.77302, 42.24491], [27.77288, 42.24523], [27.77268, 42.24518], [27.77283, 42.24489], [27.77219, 42.24463], [27.77161, 42.24522], [27.77107, 42.24505], [27.77128, 42.24385], [27.77169, 42.24365], [27.77147, 42.24345], [27.77155, 42.24309], [27.77213, 42.24234], [27.77165, 42.2418], [27.76991, 42.24138], [27.76776, 42.24139], [27.76633, 42.24201], [27.76607, 42.24256], [27.76466, 42.24383], [27.7643, 42.24392], [27.76228, 42.24336], [27.76125, 42.2435], [27.76003, 42.24413], [27.75957, 42.24489], [27.75891, 42.24524], [27.75631, 42.2456], [27.75361, 42.24889], [27.75293, 42.25005], [27.75194, 42.25265], [27.75203, 42.25289], [27.75176, 42.25316], [27.75125, 42.25492], [27.75119, 42.25617], [27.75132, 42.2583], [27.75189, 42.26065], [27.75234, 42.26187], [27.75378, 42.26415], [27.75446, 42.26476], [27.75557, 42.26428], [27.75503, 42.26474], [27.75567, 42.26512], [27.75666, 42.26515], [27.75666, 42.26483], [27.75709, 42.26482], [27.75735, 42.26437], [27.75831, 42.26449], [27.7577, 42.26434], [27.75751, 42.26407], [27.75873, 42.26408], [27.75892, 42.26366], [27.75852, 42.26349], [27.75861, 42.26335], [27.75926, 42.26359], [27.7592, 42.26394], [27.76052, 42.2641], [27.762, 42.26477], [27.76458, 42.26457], [27.76562, 42.26521], [27.76671, 42.26544], [27.76688, 42.26582], [27.7667, 42.26636], [27.76619, 42.26656], [27.7642, 42.26694], [27.76312, 42.2675], [27.75993, 42.26842], [27.75795, 42.27124], [27.75559, 42.27639], [27.75491, 42.27742], [27.75459, 42.27922], [27.75427, 42.27981], [27.75422, 42.2801], [27.75468, 42.28021], [27.75423, 42.2802], [27.75394, 42.28307], [27.75431, 42.28461], [27.75423, 42.28559], [27.75476, 42.28704], [27.75537, 42.28762], [27.75652, 42.28728], [27.75571, 42.28784], [27.75599, 42.28839], [27.75652, 42.28875], [27.75766, 42.289], [27.75902, 42.28869], [27.75849, 42.2879], [27.75914, 42.28824], [27.75931, 42.28906], [27.76034, 42.28976], [27.7611, 42.28957], [27.76179, 42.28905], [27.76451, 42.2895], [27.76526, 42.2901], [27.76562, 42.29082], [27.76631, 42.29095], [27.7668, 42.29183], [27.76736, 42.29197], [27.76807, 42.29324], [27.76911, 42.2935], [27.76963, 42.294], [27.76981, 42.29477], [27.77093, 42.29507], [27.77249, 42.2946], [27.7731, 42.29501], [27.77353, 42.29655], [27.77316, 42.29632], [27.77291, 42.29655], [27.77278, 42.29681], [27.77314, 42.29713], [27.77265, 42.29714], [27.77229, 42.29771], [27.77158, 42.29797], [27.77046, 42.29906], [27.76952, 42.29927], [27.76891, 42.29967], [27.76874, 42.30026], [27.76901, 42.30066], [27.77162, 42.30067], [27.7719, 42.30118], [27.77244, 42.3013], [27.773, 42.30117], [27.77334, 42.30078], [27.77508, 42.3009], [27.7766, 42.30259], [27.77835, 42.3024], [27.77942, 42.30266], [27.78047, 42.30394], [27.78101, 42.30556], [27.78166, 42.30637], [27.78253, 42.30624], [27.78457, 42.30648], [27.78483, 42.30699], [27.7864, 42.30783], [27.78686, 42.3077], [27.78708, 42.3072], [27.78807, 42.30711], [27.78825, 42.30679], [27.78869, 42.30723], [27.78933, 42.30743], [27.79027, 42.3074], [27.79051, 42.30722], [27.7901, 42.30709], [27.79073, 42.307], [27.7914, 42.30631], [27.79334, 42.30659], [27.79388, 42.30636], [27.79432, 42.30676], [27.79409, 42.30711], [27.79358, 42.3072], [27.79384, 42.30821], [27.79362, 42.30862], [27.79316, 42.30848], [27.79313, 42.30924], [27.79236, 42.30938], [27.79145, 42.3091], [27.79117, 42.30871], [27.79096, 42.30939], [27.79025, 42.30946], [27.79053, 42.30965], [27.79035, 42.30977], [27.78982, 42.30969], [27.78999, 42.31012], [27.78893, 42.31096], [27.78795, 42.3112], [27.78768, 42.31064], [27.78735, 42.31064], [27.78736, 42.31122], [27.78579, 42.3127], [27.78448, 42.31305], [27.78387, 42.31277], [27.78318, 42.31291], [27.78282, 42.31227], [27.78178, 42.31215], [27.78145, 42.31279], [27.78041, 42.31254], [27.78007, 42.31318], [27.77868, 42.31319], [27.78062, 42.31575], [27.78062, 42.31626], [27.78012, 42.31729], [27.78116, 42.31728], [27.78187, 42.31882], [27.77909, 42.31833], [27.77928, 42.31909], [27.77911, 42.31961], [27.77738, 42.31962], [27.77739, 42.32013], [27.77427, 42.32003], [27.77358, 42.31977], [27.77323, 42.32003], [27.77194, 42.31998], [27.7716, 42.32051], [27.77163, 42.32082], [27.77205, 42.32102], [27.77466, 42.32162], [27.77499, 42.32188], [27.77463, 42.32195], [27.77622, 42.32232], [27.77791, 42.32308], [27.77825, 42.32298], [27.77825, 42.32278], [27.78009, 42.32323], [27.78114, 42.32383], [27.78157, 42.3245], [27.78261, 42.32476], [27.7813, 42.32488], [27.78183, 42.32516], [27.78059, 42.32472], [27.7802, 42.32495], [27.78045, 42.32517], [27.78038, 42.32552], [27.78004, 42.32543], [27.77994, 42.32504], [27.77987, 42.32549], [27.77931, 42.32512], [27.77894, 42.32518], [27.77853, 42.32567], [27.77944, 42.32623], [27.77917, 42.32637], [27.77951, 42.32665], [27.7802, 42.32685], [27.78042, 42.32766], [27.78192, 42.32814], [27.7819, 42.32847], [27.78213, 42.32824], [27.78266, 42.32837], [27.78341, 42.329], [27.7822, 42.32885], [27.78202, 42.3291], [27.78278, 42.32956], [27.78175, 42.32952], [27.78191, 42.32989], [27.78141, 42.32972], [27.78121, 42.32995], [27.78226, 42.33071], [27.78191, 42.3307], [27.78223, 42.33114], [27.78316, 42.33149], [27.78327, 42.33177], [27.78296, 42.33192], [27.78402, 42.33219], [27.7848, 42.33292], [27.78491, 42.3335], [27.78399, 42.33342], [27.78345, 42.33371], [27.78377, 42.33366], [27.7851, 42.33432], [27.78574, 42.33489], [27.78442, 42.33601], [27.78323, 42.33567], [27.78216, 42.33566], [27.78123, 42.33528], [27.78162, 42.33586], [27.78116, 42.33562], [27.78076, 42.33575], [27.78029, 42.33498], [27.77957, 42.33465], [27.77872, 42.33503], [27.77845, 42.33544], [27.77876, 42.33568], [27.77867, 42.33585], [27.7781, 42.33569], [27.77798, 42.3353], [27.77765, 42.33517], [27.77743, 42.33523], [27.77759, 42.33563], [27.77673, 42.33566], [27.77667, 42.33596], [27.77617, 42.33555], [27.77562, 42.33552], [27.77552, 42.33539], [27.77583, 42.33516], [27.77566, 42.33482], [27.77535, 42.3348], [27.7756, 42.33457], [27.7753, 42.33361], [27.77453, 42.33306], [27.77365, 42.33308], [27.77335, 42.33334], [27.77291, 42.33427], [27.77305, 42.33479], [27.77255, 42.33477], [27.77259, 42.33531], [27.7723, 42.33514], [27.77242, 42.33562], [27.77267, 42.33573], [27.77235, 42.33605], [27.77271, 42.33654], [27.77313, 42.33653], [27.77313, 42.33678], [27.77229, 42.33664], [27.7724, 42.33679], [27.77195, 42.33684], [27.77201, 42.33701], [27.77163, 42.33699], [27.77166, 42.33678], [27.77046, 42.33637], [27.7707, 42.3363], [27.76968, 42.33582], [27.76955, 42.33601], [27.76839, 42.33561], [27.76708, 42.33556], [27.7672, 42.33474], [27.76417, 42.33287], [27.76329, 42.33318], [27.76218, 42.33262], [27.76175, 42.3331], [27.76167, 42.33282], [27.76134, 42.3331], [27.76014, 42.33301], [27.76012, 42.3335], [27.75927, 42.33387], [27.75936, 42.33448], [27.75834, 42.33435], [27.75803, 42.33395], [27.75766, 42.33387], [27.75777, 42.33359], [27.75642, 42.3332], [27.75642, 42.33275], [27.75591, 42.33243], [27.75534, 42.33225], [27.75493, 42.33239], [27.75492, 42.33204], [27.75526, 42.33193], [27.75606, 42.33222], [27.7567, 42.33163], [27.75673, 42.33074], [27.75709, 42.33015], [27.75648, 42.32942], [27.75561, 42.32903], [27.75542, 42.32865], [27.75566, 42.32832], [27.75553, 42.3281], [27.7548, 42.3279], [27.75351, 42.32997], [27.75357, 42.3294], [27.75468, 42.32762], [27.75241, 42.32654], [27.74945, 42.32611], [27.74642, 42.32671], [27.74575, 42.32716], [27.7443, 42.32723], [27.74319, 42.32761], [27.74308, 42.32828], [27.74332, 42.32868], [27.74316, 42.32872], [27.74142, 42.32875], [27.74092, 42.32792], [27.74004, 42.32794], [27.73917, 42.32829], [27.73422, 42.33152], [27.73159, 42.33388], [27.73109, 42.33497], [27.73114, 42.33556], [27.73155, 42.33636], [27.73224, 42.33692], [27.73316, 42.33621], [27.73264, 42.33706], [27.72964, 42.33734], [27.72962, 42.33763], [27.72904, 42.33737], [27.72904, 42.33541], [27.72825, 42.33414], [27.72739, 42.33353], [27.72455, 42.3327], [27.72282, 42.33203], [27.72237, 42.33157], [27.72155, 42.33143], [27.71984, 42.32953], [27.72055, 42.32717], [27.72217, 42.3261], [27.72122, 42.32345], [27.72165, 42.32292], [27.72565, 42.3228], [27.72985, 42.32219], [27.72905, 42.32165], [27.72441, 42.31988], [27.72341, 42.31888], [27.72194, 42.31813], [27.72116, 42.31713], [27.71656, 42.31692], [27.71111, 42.31506], [27.7027, 42.31373], [27.70004, 42.31307], [27.69931, 42.31415], [27.69855, 42.31418], [27.69704, 42.31486], [27.6958, 42.31494], [27.6942, 42.31449], [27.69142, 42.3153], [27.69102, 42.3155], [27.69105, 42.31571], [27.69277, 42.3169], [27.69288, 42.31779], [27.69252, 42.31911], [27.6932, 42.32147], [27.69573, 42.32469], [27.6951, 42.32482], [27.69275, 42.32679], [27.69276, 42.32728], [27.69171, 42.3292], [27.69187, 42.33098], [27.68934, 42.33261], [27.6894, 42.33341], [27.68844, 42.3338], [27.68639, 42.33314], [27.68504, 42.33239], [27.68421, 42.33227], [27.68232, 42.333], [27.68213, 42.33312], [27.68205, 42.33568], [27.68102, 42.33668], [27.67505, 42.3398], [27.6702, 42.34086], [27.66965, 42.34117], [27.66451, 42.34712], [27.66331, 42.34882], [27.66277, 42.35005], [27.6592, 42.35169], [27.65304, 42.35249], [27.65075, 42.35256], [27.65014, 42.35374], [27.64945, 42.35419], [27.64673, 42.35421], [27.64423, 42.35353], [27.64174, 42.35336], [27.64106, 42.35419], [27.64071, 42.35509], [27.63988, 42.35523], [27.63871, 42.35594], [27.63706, 42.35625], [27.63641, 42.35719], [27.63197, 42.36179], [27.62927, 42.36433], [27.62933, 42.3662], [27.62863, 42.36738], [27.62839, 42.36876], [27.62719, 42.37179], [27.62351, 42.37199], [27.6177, 42.37271], [27.61489, 42.3748], [27.61499, 42.37394], [27.61371, 42.37373], [27.61324, 42.37184], [27.61233, 42.37206], [27.61207, 42.37113], [27.6099, 42.37058], [27.61058, 42.37017], [27.61042, 42.37007], [27.60823, 42.37005], [27.60806, 42.36882], [27.60739, 42.36832], [27.60706, 42.36772], [27.60564, 42.36661], [27.6047, 42.36633], [27.60156, 42.36334], [27.60105, 42.36212], [27.60034, 42.36146], [27.60055, 42.36121], [27.60036, 42.36059], [27.60044, 42.3597], [27.59967, 42.35819], [27.59888, 42.35744], [27.59742, 42.35674], [27.59634, 42.35661], [27.5932, 42.35765], [27.59145, 42.3579], [27.59025, 42.35779], [27.58728, 42.35626], [27.5861, 42.35533], [27.58537, 42.35436], [27.58411, 42.35386], [27.58336, 42.35305], [27.58227, 42.35278], [27.58176, 42.3519], [27.58287, 42.35035], [27.58222, 42.34901], [27.58392, 42.3473], [27.58312, 42.34651], [27.58267, 42.34668], [27.58261, 42.34707], [27.58223, 42.34694], [27.58204, 42.34719], [27.581, 42.34645], [27.58077, 42.34573], [27.57995, 42.34506], [27.58019, 42.34399], [27.57981, 42.34381], [27.57953, 42.34291], [27.579, 42.34236], [27.57868, 42.34155], [27.57735, 42.34074], [27.57716, 42.34028], [27.57437, 42.33926], [27.57182, 42.33644], [27.57137, 42.33478], [27.56692, 42.33203], [27.56589, 42.33096], [27.56412, 42.32984], [27.56284, 42.32861], [27.55935, 42.32726], [27.55852, 42.32665], [27.55648, 42.32628], [27.55929, 42.32576], [27.56239, 42.32577], [27.56378, 42.326], [27.56386, 42.3244], [27.56537, 42.32243], [27.55822, 42.31968], [27.55567, 42.32141], [27.55409, 42.32166], [27.55233, 42.32019], [27.5488, 42.31953], [27.54695, 42.32127], [27.54661, 42.32259], [27.54485, 42.32203], [27.53984, 42.31897], [27.53827, 42.31876], [27.53859, 42.31816], [27.53975, 42.31704], [27.54004, 42.31585], [27.5418, 42.31454], [27.54275, 42.31472], [27.54339, 42.31339], [27.54315, 42.31189], [27.54141, 42.31196], [27.53872, 42.31273], [27.5355, 42.31311], [27.53354, 42.31167], [27.5388, 42.30668], [27.54096, 42.30549], [27.54108, 42.30519], [27.5398, 42.3041], [27.53779, 42.30391], [27.53628, 42.30336], [27.53514, 42.30241], [27.53496, 42.302], [27.53289, 42.30169], [27.53119, 42.30049], [27.52606, 42.29809], [27.52482, 42.29852], [27.5245, 42.29764], [27.52457, 42.29586], [27.52394, 42.29334], [27.52355, 42.29032], [27.52372, 42.28975], [27.52442, 42.28927], [27.52459, 42.28782], [27.52224, 42.28186], [27.52241, 42.28065], [27.52118, 42.27809], [27.51902, 42.27804], [27.51884, 42.27695], [27.51733, 42.2766], [27.51788, 42.27583], [27.51772, 42.27496], [27.5183, 42.27458], [27.51806, 42.27445], [27.51856, 42.27428], [27.51801, 42.27401], [27.5174, 42.27404], [27.51573, 42.27253], [27.51676, 42.27239], [27.51708, 42.27205], [27.51884, 42.27189], [27.52017, 42.27232], [27.52004, 42.27196], [27.51902, 42.27107], [27.52196, 42.27017], [27.51834, 42.26701], [27.51613, 42.26473], [27.5157, 42.26358], [27.51462, 42.26344], [27.51258, 42.26134], [27.50817, 42.25903], [27.50776, 42.25814], [27.50759, 42.25588], [27.50796, 42.2537], [27.50716, 42.2535], [27.50451, 42.252], [27.50325, 42.25095], [27.50266, 42.24974], [27.50144, 42.24938], [27.50101, 42.2486], [27.50093, 42.24784], [27.50195, 42.24589], [27.50223, 42.24364], [27.50179, 42.24309], [27.50117, 42.24288], [27.50119, 42.2425], [27.49928, 42.24149], [27.49902, 42.24093], [27.49902, 42.24084]]], [[[27.76525, 42.28964], [27.76564, 42.28971], [27.7663, 42.29028], [27.76583, 42.2901], [27.76525, 42.28964]]]]}}]}