{"type":"FeatureCollection","features":[{"type":"Feature","properties":{"name":"Zila Kasur","admin":"district","source":"© OpenStreetMap contributors, ODbL 1.0","osm_relation":16117665},"geometry":{"type":"Polygon","coordinates":[[[73.66053,31.13917],[73.66056,31.13911],[73.66061,31.13912],[73.66061,31.13912],[73.66065,31.13887],[73.66301,31.1321],[73.66375,31.12997],[73.66484,31.12906],[73.67072,31.12416],[73.67107,31.12132],[73.67129,31.11954],[73.67149,31.11797],[73.67201,31.11719],[73.67768,31.10868],[73.67975,31.1016],[73.68039,31.09939],[73.68194,31.09475],[73.68157,31.08882],[73.68155,31.08855],[73.67691,31.08817],[73.67342,31.08739],[73.67149,31.08197],[73.66568,31.08197],[73.66747,31.07863],[73.66878,31.07617],[73.66878,31.07075],[73.66878,31.07075],[73.66568,31.06688],[73.66869,31.05936],[73.66878,31.05914],[73.67459,31.05372],[73.67665,31.0538],[73.68504,31.05411],[73.68975,31.05128],[73.69235,31.04972],[73.69471,31.0483],[73.71087,31.04321],[73.71543,31.04178],[73.71561,31.04172],[73.71987,31.03398],[73.7221,31.03131],[73.72568,31.02701],[73.72726,31.02009],[73.72833,31.01542],[73.72877,31.01347],[73.7317,31.00914],[73.7369,31.00147],[73.74248,30.99764],[73.75045,30.99218],[73.76006,30.99248],[73.76283,30.99256],[73.76569,30.98927],[73.76787,30.98676],[73.76787,30.98051],[73.76787,30.98016],[73.76787,30.97962],[73.76787,30.97951],[73.76787,30.97515],[73.76787,30.96791],[73.76787,30.96474],[73.76787,30.96438],[73.76787,30.96353],[73.76671,30.95037],[73.76477,30.93954],[73.76511,30.93925],[73.76905,30.93589],[73.77048,30.93467],[73.77793,30.92831],[73.78494,30.92588],[73.78799,30.92483],[73.82206,30.93218],[73.82407,30.92857],[73.82414,30.92844],[73.82744,30.92252],[73.82744,30.92252],[73.83328,30.91206],[73.84644,30.89541],[73.84837,30.89241],[73.85388,30.88388],[73.85418,30.88341],[73.85379,30.86754],[73.85766,30.85942],[73.86963,30.85847],[73.87237,30.85825],[73.87534,30.85819],[73.88118,30.85806],[73.88127,30.85806],[73.8846,30.85799],[73.89018,30.85787],[73.89023,30.85784],[73.89663,30.85367],[73.89792,30.85284],[73.90488,30.85322],[73.91301,30.85361],[73.92114,30.85361],[73.92114,30.85361],[73.92656,30.85787],[73.9266,30.85801],[73.92772,30.86174],[73.93025,30.86174],[73.93275,30.86174],[73.93576,30.86029],[73.9432,30.85671],[73.94707,30.85593],[73.94707,30.85593],[73.94708,30.85572],[73.94746,30.84664],[73.9494,30.8389],[73.9552,30.83619],[73.96139,30.83348],[73.9614,30.83348],[73.9614,30.83348],[73.96796,30.83383],[73.96875,30.83387],[73.97688,30.83387],[73.98356,30.83],[73.98423,30.82961],[73.98888,30.82652],[73.98888,30.82347],[73.98888,30.82148],[73.99081,30.818],[73.99391,30.82342],[74.0001,30.82419],[74.00253,30.82814],[74.0032,30.82923],[74.00784,30.83116],[74.01481,30.83155],[74.01481,30.83155],[74.01481,30.83155],[74.01752,30.82652],[74.01752,30.82176],[74.01752,30.8211],[74.01636,30.81606],[74.01636,30.81606],[74.01636,30.81065],[74.02685,30.80503],[74.02704,30.80492],[74.0272,30.80484],[74.03223,30.79942],[74.04345,30.7971],[74.05622,30.79632],[74.06876,30.79458],[74.06883,30.79457],[74.07016,30.79439],[74.07403,30.78843],[74.07519,30.78665],[74.07597,30.78403],[74.07829,30.7762],[74.07907,30.77153],[74.07984,30.76691],[74.0779,30.75917],[74.07718,30.75814],[74.07687,30.7577],[74.07519,30.7553],[74.07728,30.75367],[74.08216,30.74988],[74.09067,30.74446],[74.09422,30.74125],[74.0988,30.7371],[74.10334,30.73095],[74.10422,30.72975],[74.1107,30.72481],[74.11235,30.72356],[74.11893,30.71969],[74.1197,30.71117],[74.11977,30.71097],[74.11977,30.71097],[74.11992,30.71055],[74.12208,30.70439],[74.12241,30.70343],[74.12241,30.69969],[74.12241,30.69344],[74.12241,30.69337],[74.12241,30.69337],[74.13247,30.69143],[74.13581,30.68715],[74.13581,30.68714],[74.13789,30.68446],[74.13806,30.68376],[74.13931,30.67853],[74.13983,30.67634],[74.14641,30.66898],[74.15221,30.6655],[74.15609,30.66085],[74.15996,30.65621],[74.16277,30.65319],[74.16513,30.65065],[74.16513,30.65065],[74.16652,30.64891],[74.16692,30.64883],[74.16932,30.64868],[74.17057,30.65019],[74.17087,30.65028],[74.17138,30.65064],[74.17236,30.65192],[74.17336,30.65246],[74.17457,30.65347],[74.1761,30.65439],[74.17733,30.65512],[74.17788,30.65615],[74.17898,30.65816],[74.18091,30.66069],[74.18116,30.66104],[74.18138,30.66123],[74.18166,30.66137],[74.18289,30.66177],[74.1859,30.66286],[74.18728,30.66333],[74.18761,30.66351],[74.18898,30.66397],[74.19041,30.66444],[74.19137,30.6647],[74.19339,30.66513],[74.19539,30.66682],[74.19687,30.66807],[74.19756,30.66887],[74.19788,30.66966],[74.19786,30.67029],[74.19796,30.6706],[74.19807,30.6708],[74.19883,30.67141],[74.19991,30.6721],[74.20135,30.67329],[74.20211,30.67397],[74.20294,30.67466],[74.20322,30.67502],[74.20526,30.67593],[74.20548,30.67612],[74.20667,30.67779],[74.2072,30.67844],[74.20912,30.68124],[74.20896,30.68241],[74.21025,30.68478],[74.21195,30.68777],[74.21316,30.68873],[74.21457,30.68981],[74.21516,30.69022],[74.2157,30.69055],[74.21647,30.69165],[74.21668,30.69167],[74.21833,30.69279],[74.21886,30.69348],[74.21919,30.6935],[74.21948,30.69489],[74.21966,30.69601],[74.22047,30.69738],[74.2213,30.6988],[74.22145,30.69937],[74.22161,30.70019],[74.22159,30.70048],[74.2216,30.70096],[74.2217,30.70154],[74.22176,30.70199],[74.22209,30.70273],[74.22236,30.70358],[74.22273,30.70542],[74.22302,30.70686],[74.22305,30.70795],[74.2232,30.70928],[74.22328,30.70965],[74.22424,30.71167],[74.22458,30.7122],[74.2251,30.71283],[74.22515,30.71307],[74.22749,30.71284],[74.22711,30.71491],[74.22685,30.71582],[74.22656,30.71662],[74.22677,30.71723],[74.22714,30.7186],[74.22722,30.71878],[74.22728,30.71885],[74.22789,30.71922],[74.22861,30.71972],[74.2295,30.72094],[74.22981,30.72201],[74.23027,30.72221],[74.23094,30.72255],[74.2322,30.72417],[74.23243,30.72443],[74.23258,30.72451],[74.24227,30.72323],[74.24309,30.72304],[74.24373,30.72305],[74.24524,30.72286],[74.24536,30.72436],[74.24182,30.7259],[74.24354,30.72592],[74.24462,30.72567],[74.24659,30.7259],[74.24747,30.7259],[74.24845,30.72588],[74.25011,30.72541],[74.25124,30.72509],[74.2521,30.72461],[74.25304,30.72424],[74.25545,30.72381],[74.25639,30.7236],[74.25957,30.72304],[74.26011,30.72299],[74.26098,30.72307],[74.26131,30.72318],[74.26213,30.72351],[74.26244,30.72376],[74.26426,30.72432],[74.26544,30.72489],[74.26668,30.72609],[74.26691,30.72612],[74.26762,30.72735],[74.26801,30.72881],[74.26907,30.73027],[74.2684,30.73434],[74.26925,30.73429],[74.27132,30.73216],[74.27317,30.73385],[74.27364,30.73402],[74.27399,30.73469],[74.27418,30.73488],[74.27461,30.73562],[74.27485,30.73722],[74.27659,30.73526],[74.27941,30.73289],[74.28149,30.73085],[74.28271,30.73201],[74.28651,30.73553],[74.28183,30.73953],[74.27814,30.74156],[74.27703,30.74239],[74.2761,30.74281],[74.27499,30.74359],[74.27438,30.74414],[74.27438,30.74483],[74.27429,30.74526],[74.27466,30.74583],[74.27395,30.74797],[74.27399,30.74914],[74.27364,30.75332],[74.27294,30.75443],[74.2725,30.75443],[74.27176,30.75613],[74.27141,30.75655],[74.26876,30.75966],[74.2666,30.76283],[74.26495,30.76525],[74.26378,30.76654],[74.26078,30.76979],[74.25999,30.77222],[74.26113,30.77465],[74.26357,30.77654],[74.26468,30.77704],[74.26736,30.7768],[74.26811,30.77626],[74.27383,30.77353],[74.27437,30.77343],[74.2753,30.77383],[74.27728,30.7743],[74.27833,30.77412],[74.28023,30.77397],[74.28346,30.77439],[74.28669,30.77585],[74.28892,30.77503],[74.28943,30.77499],[74.28982,30.77505],[74.29261,30.77622],[74.29466,30.77707],[74.29616,30.77717],[74.2974,30.77707],[74.30017,30.77939],[74.30184,30.77935],[74.30562,30.78647],[74.3068,30.78918],[74.30261,30.78949],[74.30113,30.78965],[74.29959,30.79174],[74.29828,30.79376],[74.29479,30.7944],[74.29665,30.79687],[74.29663,30.79986],[74.29929,30.80461],[74.3014,30.80385],[74.30207,30.80544],[74.30223,30.808],[74.30267,30.80848],[74.30494,30.81096],[74.30601,30.81275],[74.30675,30.81368],[74.30931,30.81761],[74.31042,30.8189],[74.31084,30.81927],[74.31314,30.82094],[74.31618,30.82349],[74.31757,30.82463],[74.31909,30.82636],[74.31974,30.82732],[74.31927,30.82941],[74.31916,30.83063],[74.31924,30.83283],[74.31962,30.8338],[74.32062,30.83621],[74.3206,30.83649],[74.321,30.83722],[74.32122,30.83731],[74.32187,30.83822],[74.32224,30.83855],[74.32129,30.83949],[74.32102,30.83972],[74.32084,30.84119],[74.32011,30.84193],[74.32011,30.84368],[74.32014,30.84472],[74.32035,30.84607],[74.32044,30.84655],[74.328,30.84999],[74.32832,30.85014],[74.32987,30.85045],[74.3309,30.85057],[74.33126,30.85075],[74.33267,30.85101],[74.33445,30.85107],[74.33514,30.85083],[74.33622,30.85018],[74.33843,30.84935],[74.34044,30.84903],[74.34065,30.84905],[74.34071,30.84916],[74.34068,30.84934],[74.3406,30.84942],[74.3401,30.84952],[74.33982,30.84964],[74.33961,30.84984],[74.33916,30.8507],[74.33917,30.8508],[74.33967,30.85101],[74.33973,30.85108],[74.33971,30.8513],[74.33964,30.85134],[74.33895,30.85133],[74.33885,30.85137],[74.3388,30.85145],[74.33882,30.85204],[74.33882,30.85249],[74.33886,30.85254],[74.34079,30.8536],[74.34098,30.85365],[74.34451,30.85416],[74.34539,30.85428],[74.34604,30.85442],[74.34822,30.85493],[74.34838,30.85491],[74.35428,30.85264],[74.35467,30.8508],[74.35494,30.8504],[74.35516,30.84844],[74.3555,30.84836],[74.35658,30.84795],[74.35709,30.8476],[74.35941,30.84852],[74.36089,30.84819],[74.36146,30.84786],[74.36224,30.84786],[74.36342,30.84716],[74.36352,30.84719],[74.36716,30.84901],[74.36852,30.85179],[74.36783,30.85314],[74.36464,30.8573],[74.36957,30.85737],[74.37106,30.85794],[74.37215,30.85819],[74.37256,30.85847],[74.37403,30.85975],[74.37587,30.85928],[74.37597,30.85811],[74.37798,30.8583],[74.38218,30.86034],[74.38219,30.86039],[74.38006,30.86196],[74.37526,30.86454],[74.3738,30.86534],[74.37215,30.8665],[74.36635,30.86971],[74.36332,30.87176],[74.36095,30.87365],[74.3618,30.87788],[74.3626,30.87903],[74.36467,30.88065],[74.36517,30.88144],[74.36532,30.88209],[74.36636,30.88501],[74.36694,30.88634],[74.36655,30.89023],[74.36594,30.8926],[74.36597,30.89297],[74.36757,30.89431],[74.36994,30.89504],[74.37266,30.89551],[74.37448,30.89565],[74.38135,30.89559],[74.38201,30.89557],[74.38305,30.89533],[74.38487,30.89699],[74.38575,30.89855],[74.38678,30.89921],[74.39039,30.90226],[74.39306,30.90492],[74.39406,30.9063],[74.39735,30.90935],[74.40478,30.90956],[74.40881,30.90959],[74.40983,30.90951],[74.41464,30.90868],[74.42284,30.90776],[74.42399,30.90975],[74.42397,30.91044],[74.42377,30.91171],[74.42385,30.9127],[74.42336,30.91349],[74.42411,30.91485],[74.42441,30.9159],[74.42373,30.91658],[74.42016,30.91865],[74.41879,30.91916],[74.41613,30.91914],[74.41117,30.91951],[74.41068,30.92109],[74.41027,30.92343],[74.41476,30.92202],[74.41664,30.92179],[74.42019,30.92124],[74.42109,30.921],[74.42364,30.92075],[74.4239,30.92277],[74.42497,30.92503],[74.42656,30.92689],[74.42694,30.92796],[74.42877,30.93111],[74.42654,30.93052],[74.42362,30.9294],[74.42287,30.92954],[74.42162,30.92943],[74.41383,30.9296],[74.41778,30.93788],[74.41649,30.94035],[74.42016,30.94112],[74.42424,30.94158],[74.42867,30.94241],[74.43102,30.94217],[74.43262,30.94208],[74.43676,30.94209],[74.43805,30.94194],[74.43949,30.94206],[74.44063,30.945],[74.44188,30.94545],[74.44199,30.95168],[74.45136,30.95146],[74.4552,30.95137],[74.45153,30.95584],[74.45351,30.95605],[74.45613,30.95669],[74.46344,30.95665],[74.4664,30.95676],[74.46692,30.95719],[74.45696,30.96385],[74.45798,30.96505],[74.45916,30.96575],[74.46089,30.96652],[74.46396,30.96759],[74.46673,30.96801],[74.46793,30.96899],[74.46926,30.96957],[74.47121,30.97031],[74.47139,30.97008],[74.47211,30.97053],[74.47212,30.97077],[74.47281,30.97092],[74.47989,30.97424],[74.48147,30.97066],[74.48635,30.97243],[74.48733,30.97246],[74.4899,30.97254],[74.49169,30.97423],[74.49183,30.97444],[74.49201,30.97442],[74.49795,30.9644],[74.49881,30.96405],[74.5018,30.9644],[74.50237,30.96454],[74.50619,30.96597],[74.50877,30.96731],[74.51109,30.97112],[74.51458,30.97679],[74.51492,30.97756],[74.51609,30.97932],[74.51635,30.97956],[74.51794,30.98042],[74.51966,30.98135],[74.51984,30.98142],[74.52123,30.98195],[74.52346,30.98321],[74.52414,30.98359],[74.52596,30.984],[74.52631,30.98408],[74.52961,30.98571],[74.52974,30.98577],[74.53182,30.98661],[74.53298,30.98699],[74.53308,30.98702],[74.53959,30.98961],[74.54557,30.99206],[74.54571,30.99211],[74.54579,30.99432],[74.54514,30.995],[74.54381,30.99499],[74.54309,30.99662],[74.54385,30.99783],[74.54409,30.99792],[74.54326,30.99923],[74.54302,30.99977],[74.54221,31.00072],[74.54195,31.00121],[74.54177,31.0018],[74.54134,31.00444],[74.54128,31.00476],[74.54095,31.00626],[74.53972,31.00877],[74.54164,31.01425],[74.54202,31.01583],[74.54254,31.01732],[74.54636,31.02745],[74.54776,31.03224],[74.54902,31.03309],[74.55787,31.03838],[74.55805,31.03789],[74.55825,31.03783],[74.5589,31.03736],[74.55918,31.0387],[74.55989,31.04322],[74.56021,31.04383],[74.56056,31.04448],[74.5608,31.04482],[74.56109,31.04588],[74.56149,31.04878],[74.56261,31.04952],[74.56357,31.05012],[74.56687,31.05301],[74.56915,31.05888],[74.57415,31.05888],[74.57606,31.05819],[74.57699,31.05773],[74.58066,31.05682],[74.58096,31.0564],[74.58122,31.05599],[74.59047,31.05003],[74.59294,31.04561],[74.59394,31.04411],[74.59626,31.04214],[74.59591,31.04168],[74.59611,31.04003],[74.59699,31.03762],[74.60303,31.04049],[74.60811,31.04269],[74.60991,31.04363],[74.61242,31.04446],[74.61339,31.04483],[74.61485,31.04472],[74.61841,31.04394],[74.62367,31.04496],[74.63274,31.04698],[74.63504,31.04757],[74.63618,31.04786],[74.63787,31.04801],[74.64605,31.04977],[74.65032,31.04896],[74.65781,31.0501],[74.65879,31.05042],[74.66094,31.05076],[74.66706,31.05214],[74.6712,31.05358],[74.67802,31.05935],[74.68804,31.06764],[74.69618,31.07378],[74.69096,31.08069],[74.69074,31.0814],[74.69326,31.0826],[74.69514,31.08363],[74.69583,31.08414],[74.69725,31.08462],[74.70143,31.09046],[74.70242,31.09171],[74.70212,31.09291],[74.70139,31.09715],[74.69991,31.09965],[74.69909,31.09983],[74.69894,31.1014],[74.69727,31.10252],[74.69806,31.10327],[74.69823,31.10786],[74.69858,31.10867],[74.69823,31.11238],[74.69197,31.11786],[74.68987,31.1183],[74.68995,31.11971],[74.69002,31.12453],[74.68948,31.12675],[74.68909,31.12794],[74.68278,31.12721],[74.67326,31.12361],[74.66643,31.12445],[74.66377,31.12732],[74.65918,31.13382],[74.65721,31.13286],[74.65407,31.12996],[74.65309,31.12926],[74.6515,31.12926],[74.64892,31.12824],[74.64669,31.12684],[74.6454,31.12423],[74.64274,31.12262],[74.64081,31.11993],[74.63819,31.11846],[74.63635,31.11813],[74.6339,31.11986],[74.63232,31.12162],[74.63266,31.12394],[74.63189,31.12673],[74.63116,31.12728],[74.63094,31.12798],[74.63144,31.12996],[74.63249,31.1313],[74.63101,31.1327],[74.62944,31.13187],[74.62665,31.1311],[74.62485,31.13202],[74.62204,31.13299],[74.61873,31.13136],[74.61755,31.13143],[74.61693,31.13182],[74.61601,31.13196],[74.61481,31.13149],[74.6138,31.13165],[74.61227,31.13242],[74.61193,31.13297],[74.61009,31.1338],[74.60873,31.13365],[74.60481,31.13261],[74.60403,31.1329],[74.60328,31.13367],[74.6026,31.13334],[74.60099,31.13204],[74.60009,31.12998],[74.59899,31.12888],[74.59695,31.12937],[74.59667,31.12798],[74.59685,31.12656],[74.59715,31.12583],[74.59927,31.12355],[74.60298,31.11901],[74.60395,31.1174],[74.60554,31.11444],[74.60757,31.11398],[74.60852,31.11347],[74.61002,31.11174],[74.60991,31.11066],[74.60963,31.10977],[74.60985,31.10683],[74.61032,31.10481],[74.61034,31.10393],[74.61049,31.10279],[74.61017,31.10061],[74.60976,31.09998],[74.61056,31.09904],[74.60979,31.09805],[74.60946,31.09789],[74.60959,31.09754],[74.60858,31.09677],[74.60736,31.0948],[74.60633,31.09486],[74.60618,31.09456],[74.60586,31.09456],[74.60494,31.09504],[74.60408,31.095],[74.60423,31.09309],[74.60262,31.09316],[74.59934,31.09304],[74.6006,31.08932],[74.60075,31.08796],[74.59959,31.08804],[74.59781,31.0878],[74.5967,31.08898],[74.59582,31.0887],[74.59504,31.08866],[74.5932,31.08903],[74.59134,31.0886],[74.59089,31.08938],[74.59099,31.09146],[74.5908,31.09245],[74.58909,31.09245],[74.58821,31.09216],[74.58768,31.09194],[74.58719,31.09161],[74.58649,31.09114],[74.58679,31.09055],[74.58774,31.08941],[74.58818,31.0888],[74.58849,31.08822],[74.58874,31.08766],[74.58763,31.0874],[74.58658,31.08696],[74.58604,31.08677],[74.58563,31.08668],[74.58386,31.08645],[74.58358,31.08733],[74.58254,31.08696],[74.58238,31.08723],[74.58207,31.08707],[74.5819,31.08732],[74.58076,31.08714],[74.58021,31.08702],[74.57985,31.08682],[74.57953,31.08652],[74.57886,31.08566],[74.57774,31.08628],[74.5773,31.08598],[74.57545,31.08573],[74.57458,31.08572],[74.57378,31.0858],[74.57326,31.08453],[74.57312,31.08426],[74.5726,31.08356],[74.57207,31.08266],[74.57188,31.08253],[74.57129,31.08136],[74.57067,31.08154],[74.56931,31.08178],[74.56814,31.08205],[74.56749,31.0821],[74.56569,31.08231],[74.56432,31.08235],[74.56381,31.08316],[74.56309,31.0827],[74.56219,31.08343],[74.56058,31.08259],[74.55979,31.08306],[74.55914,31.08314],[74.55845,31.08315],[74.55799,31.08323],[74.55791,31.0837],[74.55719,31.08431],[74.5562,31.0849],[74.55455,31.08501],[74.55383,31.08511],[74.55304,31.08551],[74.55218,31.08595],[74.55144,31.08646],[74.55099,31.08741],[74.55062,31.08833],[74.55041,31.08936],[74.55045,31.09058],[74.55043,31.09203],[74.55042,31.09348],[74.55049,31.09446],[74.55056,31.09544],[74.55064,31.09553],[74.55104,31.09688],[74.55049,31.09795],[74.5498,31.09945],[74.54925,31.10069],[74.54916,31.10177],[74.55018,31.10364],[74.54999,31.10465],[74.55001,31.10581],[74.54994,31.1067],[74.54991,31.10732],[74.54967,31.10891],[74.54963,31.10961],[74.54973,31.11044],[74.54971,31.1116],[74.54976,31.11225],[74.54969,31.11307],[74.54912,31.11348],[74.54768,31.11461],[74.54813,31.11551],[74.54823,31.11591],[74.54826,31.11645],[74.54845,31.1172],[74.54846,31.11768],[74.54846,31.11822],[74.54826,31.11917],[74.54822,31.12023],[74.54838,31.12117],[74.5485,31.12204],[74.54686,31.12218],[74.54543,31.12246],[74.54529,31.12193],[74.54438,31.12173],[74.54381,31.12102],[74.54211,31.12152],[74.54118,31.12199],[74.53991,31.12224],[74.53879,31.12252],[74.53891,31.12311],[74.53754,31.12331],[74.53639,31.12369],[74.53478,31.12437],[74.53438,31.12473],[74.5329,31.12532],[74.53138,31.1259],[74.53094,31.1261],[74.53035,31.12639],[74.52946,31.12691],[74.528,31.12803],[74.52588,31.12875],[74.5249,31.12923],[74.52406,31.12942],[74.52381,31.12944],[74.52263,31.12932],[74.52209,31.12932],[74.52125,31.12947],[74.52011,31.12963],[74.51871,31.13004],[74.51718,31.13045],[74.51564,31.13087],[74.51465,31.13108],[74.51405,31.13125],[74.51258,31.13183],[74.51205,31.13207],[74.5112,31.13211],[74.51041,31.13196],[74.5104,31.13208],[74.51073,31.13302],[74.51084,31.13347],[74.51111,31.13436],[74.51135,31.13543],[74.51175,31.13585],[74.51211,31.13638],[74.51232,31.13675],[74.51287,31.13746],[74.5134,31.13859],[74.51365,31.13921],[74.51376,31.13949],[74.51413,31.14192],[74.51419,31.14243],[74.51397,31.14431],[74.51392,31.1453],[74.51378,31.14624],[74.51381,31.14698],[74.51368,31.14845],[74.51393,31.14919],[74.51411,31.14947],[74.51454,31.14992],[74.51468,31.1501],[74.51487,31.15089],[74.51533,31.15107],[74.51492,31.15147],[74.51525,31.152],[74.51447,31.15241],[74.51333,31.15301],[74.51293,31.15358],[74.51352,31.15458],[74.51386,31.15579],[74.51332,31.15637],[74.51296,31.15666],[74.51245,31.15696],[74.51173,31.15733],[74.51077,31.15779],[74.51103,31.15835],[74.51147,31.15902],[74.51156,31.15985],[74.51162,31.16029],[74.51189,31.16167],[74.51199,31.16205],[74.51221,31.1626],[74.51299,31.16418],[74.51251,31.16425],[74.51235,31.16433],[74.51176,31.16473],[74.51288,31.16668],[74.51167,31.16755],[74.51082,31.16841],[74.51094,31.16976],[74.51127,31.17107],[74.51047,31.17141],[74.51036,31.17154],[74.51056,31.172],[74.5109,31.1726],[74.50995,31.17332],[74.50992,31.17413],[74.50996,31.17593],[74.51031,31.17732],[74.51049,31.17868],[74.51043,31.17973],[74.51049,31.18029],[74.51065,31.18101],[74.51097,31.18173],[74.5117,31.18239],[74.51231,31.18259],[74.51309,31.18273],[74.51388,31.18286],[74.51489,31.18291],[74.51565,31.18288],[74.51608,31.18308],[74.51718,31.18373],[74.51739,31.18376],[74.51764,31.18374],[74.51869,31.18352],[74.51918,31.18345],[74.51957,31.18409],[74.5199,31.18498],[74.51996,31.18542],[74.51996,31.18622],[74.52016,31.18676],[74.52012,31.18759],[74.52137,31.18995],[74.52153,31.19071],[74.52111,31.19159],[74.52078,31.19244],[74.5205,31.19291],[74.51995,31.1943],[74.52071,31.19499],[74.52106,31.19552],[74.52142,31.19615],[74.5216,31.19704],[74.52084,31.1975],[74.52082,31.19843],[74.52102,31.1993],[74.52157,31.20056],[74.52161,31.20092],[74.5215,31.202],[74.52147,31.20271],[74.52249,31.20282],[74.5239,31.20317],[74.52517,31.20359],[74.52489,31.20469],[74.52482,31.20523],[74.52536,31.20535],[74.52545,31.20613],[74.52473,31.2067],[74.52376,31.20809],[74.52406,31.20886],[74.52473,31.20923],[74.52528,31.20977],[74.5257,31.21049],[74.52573,31.21105],[74.52609,31.21191],[74.52517,31.21241],[74.52543,31.2128],[74.52561,31.21296],[74.52537,31.21375],[74.52537,31.2144],[74.52519,31.21495],[74.52513,31.21534],[74.52499,31.2157],[74.52409,31.21732],[74.52361,31.21793],[74.52429,31.21863],[74.52452,31.21952],[74.52464,31.22024],[74.52373,31.22066],[74.52295,31.22087],[74.52298,31.22157],[74.5228,31.22301],[74.52262,31.22334],[74.522,31.22387],[74.52135,31.22458],[74.52083,31.22511],[74.51993,31.22543],[74.51871,31.22604],[74.51721,31.2268],[74.51715,31.22745],[74.51717,31.2284],[74.51769,31.22919],[74.51854,31.23036],[74.51984,31.23186],[74.51953,31.23235],[74.51895,31.23334],[74.51952,31.23382],[74.52074,31.23487],[74.52172,31.23597],[74.52221,31.23639],[74.52321,31.23761],[74.52406,31.23728],[74.52466,31.23747],[74.52571,31.23763],[74.52633,31.23817],[74.527,31.23877],[74.52776,31.23952],[74.52818,31.24],[74.52861,31.24092],[74.52898,31.24201],[74.52979,31.24365],[74.53021,31.24417],[74.53042,31.24439],[74.53072,31.24485],[74.5314,31.24616],[74.532,31.24788],[74.53256,31.24877],[74.5327,31.2494],[74.53276,31.25044],[74.53261,31.25111],[74.53212,31.25228],[74.53183,31.25263],[74.53095,31.25336],[74.52958,31.25442],[74.52838,31.25555],[74.52786,31.25661],[74.52739,31.25812],[74.52699,31.25894],[74.52637,31.25959],[74.52503,31.26042],[74.52425,31.26098],[74.5238,31.26171],[74.52342,31.26261],[74.52317,31.2634],[74.52297,31.264],[74.52283,31.26469],[74.52273,31.26498],[74.52237,31.26572],[74.52209,31.26671],[74.5217,31.26743],[74.52142,31.2677],[74.5206,31.2689],[74.52078,31.26934],[74.52121,31.27114],[74.52113,31.27208],[74.52172,31.27223],[74.52238,31.27362],[74.52281,31.27401],[74.5242,31.27527],[74.52476,31.27562],[74.52551,31.27621],[74.52645,31.27678],[74.52688,31.27848],[74.52763,31.28001],[74.52827,31.2808],[74.5286,31.28138],[74.52883,31.28222],[74.52965,31.28269],[74.53031,31.28325],[74.53094,31.28399],[74.53121,31.28444],[74.53132,31.28482],[74.53145,31.28546],[74.53193,31.28642],[74.53208,31.28717],[74.53214,31.28783],[74.53252,31.2879],[74.53295,31.28898],[74.53269,31.2894],[74.53253,31.28981],[74.53256,31.28997],[74.53262,31.29014],[74.53305,31.29083],[74.53328,31.29126],[74.53386,31.29217],[74.53466,31.29323],[74.53457,31.29385],[74.53488,31.29476],[74.53515,31.29492],[74.53517,31.29525],[74.53572,31.29582],[74.53614,31.29683],[74.53684,31.29821],[74.53699,31.29849],[74.53716,31.29904],[74.53727,31.29957],[74.53747,31.30029],[74.53759,31.30047],[74.53758,31.30099],[74.53798,31.30123],[74.53827,31.30152],[74.53881,31.30225],[74.53984,31.30253],[74.54103,31.30306],[74.54185,31.3034],[74.54203,31.30359],[74.5421,31.30373],[74.54208,31.30388],[74.54195,31.30441],[74.54167,31.30536],[74.54082,31.30602],[74.53955,31.30574],[74.53797,31.30522],[74.53754,31.30513],[74.53648,31.30469],[74.53616,31.3047],[74.5358,31.30465],[74.53541,31.30476],[74.53509,31.30489],[74.53434,31.30487],[74.53376,31.30543],[74.53349,31.3058],[74.53295,31.30643],[74.53259,31.30686],[74.53281,31.30733],[74.5315,31.30823],[74.53007,31.30848],[74.5295,31.30863],[74.52883,31.30885],[74.52858,31.30884],[74.52828,31.30947],[74.52798,31.31009],[74.5277,31.31055],[74.52712,31.31124],[74.52634,31.31174],[74.52637,31.31243],[74.5274,31.31242],[74.52797,31.31339],[74.52852,31.31327],[74.52907,31.31413],[74.53106,31.31336],[74.53207,31.31286],[74.53233,31.31362],[74.53296,31.31394],[74.53376,31.31363],[74.534,31.31383],[74.53482,31.31346],[74.53541,31.31501],[74.53491,31.3152],[74.535,31.31544],[74.53392,31.316],[74.53468,31.31693],[74.53489,31.31701],[74.53515,31.31729],[74.53588,31.31722],[74.53619,31.31762],[74.53721,31.31781],[74.53748,31.31922],[74.5379,31.31918],[74.53762,31.32055],[74.53676,31.32065],[74.53665,31.32098],[74.53604,31.32104],[74.53514,31.32145],[74.53433,31.32205],[74.53428,31.32241],[74.53412,31.32285],[74.53403,31.3236],[74.53421,31.32437],[74.53378,31.32497],[74.53473,31.32534],[74.53493,31.32588],[74.53618,31.32605],[74.5367,31.32621],[74.53745,31.32679],[74.5375,31.32773],[74.53745,31.32797],[74.53691,31.32966],[74.53682,31.33018],[74.53736,31.33025],[74.53733,31.33066],[74.53881,31.33064],[74.53879,31.33099],[74.53932,31.33104],[74.53948,31.33132],[74.54003,31.33157],[74.5409,31.33208],[74.54124,31.33235],[74.54168,31.33261],[74.54267,31.33389],[74.54304,31.33421],[74.5434,31.33448],[74.5436,31.33469],[74.54363,31.3351],[74.54387,31.33523],[74.54445,31.33486],[74.54573,31.33499],[74.54607,31.33489],[74.5464,31.33466],[74.54675,31.33459],[74.54707,31.33464],[74.54755,31.33469],[74.54822,31.33468],[74.54878,31.33485],[74.54838,31.33599],[74.54787,31.33679],[74.54735,31.33756],[74.54644,31.33887],[74.54696,31.33922],[74.54665,31.33957],[74.54647,31.33986],[74.54611,31.34051],[74.54594,31.34073],[74.54661,31.34129],[74.54733,31.34156],[74.5475,31.34201],[74.54776,31.34236],[74.54809,31.34306],[74.54823,31.34359],[74.54867,31.34424],[74.54874,31.34449],[74.54902,31.34554],[74.54903,31.34582],[74.54944,31.34665],[74.54998,31.34836],[74.55022,31.3492],[74.55052,31.35013],[74.5504,31.3505],[74.55084,31.35146],[74.55113,31.35185],[74.55116,31.35243],[74.55125,31.35311],[74.55186,31.35389],[74.55184,31.3539],[74.53401,31.35669],[74.53327,31.35681],[74.52654,31.35787],[74.52093,31.35531],[74.51581,31.35299],[74.51543,31.35281],[74.50483,31.34877],[74.49725,31.34524],[74.49372,31.35837],[74.49366,31.35843],[74.48867,31.36342],[74.4816,31.36393],[74.4715,31.36393],[74.47097,31.36248],[74.46859,31.35593],[74.46829,31.3551],[74.46746,31.35281],[74.45818,31.35193],[74.45685,31.3518],[74.45651,31.35067],[74.45534,31.34676],[74.4518,31.33009],[74.45141,31.32832],[74.45026,31.32316],[74.44978,31.321],[74.44927,31.3203],[74.44271,31.3114],[74.44271,31.3068],[74.44271,31.30412],[74.44271,31.30282],[74.44067,31.29397],[74.43991,31.29069],[74.4397,31.28973],[74.43968,31.28969],[74.43925,31.28732],[74.43983,31.28354],[74.43979,31.28126],[74.43968,31.27672],[74.43987,31.2747],[74.44022,31.27158],[74.44075,31.26714],[74.44026,31.26513],[74.43783,31.26307],[74.43783,31.26042],[74.4355,31.2597],[74.43543,31.25262],[74.43361,31.25284],[74.43333,31.24855],[74.43041,31.24796],[74.43056,31.24669],[74.43086,31.24413],[74.4278,31.24327],[74.42322,31.242],[74.414,31.23915],[74.41423,31.24418],[74.41097,31.24317],[74.41146,31.24752],[74.40825,31.24747],[74.40767,31.24746],[74.40934,31.2515],[74.41217,31.25152],[74.41161,31.25308],[74.41239,31.25565],[74.41076,31.25618],[74.41245,31.26025],[74.41252,31.2604],[74.41346,31.26251],[74.41349,31.26372],[74.4135,31.26438],[74.41288,31.26655],[74.41265,31.26736],[74.41243,31.26813],[74.4137,31.26816],[74.41859,31.26957],[74.41945,31.27355],[74.41898,31.27568],[74.41803,31.27546],[74.41599,31.27548],[74.41312,31.27533],[74.40934,31.27434],[74.40662,31.273],[74.40183,31.27029],[74.40069,31.2674],[74.39953,31.26642],[74.39245,31.26571],[74.38653,31.26455],[74.38275,31.26468],[74.36696,31.26437],[74.36387,31.26356],[74.36083,31.2614],[74.35724,31.25909],[74.35372,31.25727],[74.35192,31.25766],[74.34857,31.25967],[74.34548,31.26107],[74.33962,31.26303],[74.32935,31.26188],[74.32018,31.25997],[74.30079,31.25177],[74.28832,31.26096],[74.27888,31.26487],[74.2749,31.2666],[74.26803,31.26399],[74.26552,31.2612],[74.26368,31.26025],[74.25142,31.25456],[74.24921,31.25337],[74.24786,31.25109],[74.24921,31.24781],[74.24932,31.24533],[74.24909,31.24453],[74.24647,31.24475],[74.24351,31.24465],[74.24237,31.24412],[74.24016,31.24293],[74.23364,31.23992],[74.23046,31.23794],[74.23013,31.23772],[74.22984,31.23752],[74.22881,31.23642],[74.22856,31.23622],[74.22153,31.23047],[74.21977,31.22895],[74.21776,31.22756],[74.21583,31.22653],[74.21332,31.22557],[74.21379,31.22477],[74.21329,31.22407],[74.21214,31.22165],[74.20847,31.21635],[74.20504,31.2136],[74.20429,31.21196],[74.20423,31.20958],[74.20326,31.20822],[74.20229,31.20932],[74.20034,31.20992],[74.19333,31.21073],[74.1906,31.21134],[74.18843,31.21119],[74.18605,31.21005],[74.18142,31.20774],[74.17774,31.2054],[74.17727,31.20397],[74.17723,31.20281],[74.17689,31.20059],[74.17523,31.20065],[74.17504,31.20241],[74.17408,31.20342],[74.17189,31.20448],[74.16824,31.20606],[74.16554,31.20744],[74.1629,31.20867],[74.16077,31.20983],[74.15843,31.21243],[74.15646,31.21449],[74.15395,31.21575],[74.15195,31.21603],[74.14897,31.21573],[74.14944,31.2166],[74.15154,31.21735],[74.15406,31.21757],[74.15738,31.21785],[74.15912,31.21895],[74.1597,31.21997],[74.15867,31.22328],[74.15976,31.22438],[74.1603,31.22535],[74.16105,31.2263],[74.16047,31.22713],[74.1597,31.22766],[74.15843,31.22768],[74.15594,31.22942],[74.15418,31.23095],[74.15489,31.23269],[74.15562,31.23328],[74.15811,31.23366],[74.1588,31.23377],[74.16045,31.23841],[74.16221,31.23898],[74.16326,31.24021],[74.16343,31.24137],[74.16461,31.2452],[74.16485,31.24906],[74.16373,31.25043],[74.1612,31.25274],[74.16051,31.25452],[74.16,31.25548],[74.15717,31.25762],[74.15773,31.25858],[74.15888,31.26006],[74.1597,31.26138],[74.15981,31.26193],[74.15689,31.26162],[74.15616,31.26045],[74.15536,31.25984],[74.15455,31.25947],[74.15292,31.25968],[74.15013,31.26054],[74.14934,31.26314],[74.14886,31.26459],[74.14863,31.26593],[74.14775,31.26914],[74.14728,31.27028],[74.14594,31.27108],[74.14328,31.27182],[74.14167,31.2729],[74.13912,31.27629],[74.13747,31.27748],[74.13616,31.27815],[74.13391,31.27853],[74.12985,31.27917],[74.12552,31.27908],[74.12481,31.27662],[74.12339,31.27488],[74.12204,31.27393],[74.11983,31.27218],[74.11884,31.27077],[74.11811,31.27],[74.11612,31.26665],[74.11635,31.26419],[74.11668,31.26285],[74.11708,31.26158],[74.11777,31.25962],[74.11597,31.25733],[74.1147,31.25692],[74.11228,31.25399],[74.11144,31.25269],[74.11035,31.25083],[74.1091,31.24702],[74.1061,31.24463],[74.09981,31.2408],[74.0976,31.23867],[74.09402,31.24491],[74.09385,31.24713],[74.09415,31.2497],[74.09429,31.25236],[74.09405,31.25463],[74.09341,31.2563],[74.0936,31.25964],[74.09274,31.26123],[74.09263,31.26455],[74.09283,31.26806],[74.09181,31.27273],[74.09171,31.27319],[74.09027,31.27644],[74.08296,31.28174],[74.08199,31.28234],[74.07916,31.28019],[74.07716,31.27874],[74.07568,31.27781],[74.07358,31.27643],[74.07296,31.2744],[74.07261,31.27252],[74.07094,31.26853],[74.06879,31.26645],[74.06369,31.26972],[74.06074,31.27237],[74.05905,31.2739],[74.05678,31.27693],[74.05478,31.27849],[74.05568,31.28012],[74.05616,31.28091],[74.05131,31.28347],[74.04735,31.28511],[74.04523,31.28694],[74.04272,31.28925],[74.03944,31.29277],[74.03783,31.29468],[74.03246,31.29807],[74.02963,31.30062],[74.02714,31.30339],[74.026,31.30535],[74.02277,31.30887],[74.02039,31.30812],[74.02038,31.30811],[74.01465,31.3019],[74.01459,31.30183],[74.01459,31.30183],[74.01445,31.3019],[74.01271,31.30284],[74.01234,31.30309],[74.01198,31.30332],[74.01146,31.30355],[74.01105,31.30373],[74.01001,31.3043],[74.00984,31.30439],[74.00832,31.3052],[74.0083,31.30522],[73.99486,31.30567],[73.99379,31.3057],[73.99203,31.30438],[73.98873,31.3019],[73.98582,31.29972],[73.98025,31.29554],[73.9771,31.29414],[73.97718,31.29394],[73.97706,31.29412],[73.97154,31.29168],[73.97154,31.29168],[73.97133,31.29163],[73.97132,31.29168],[73.95994,31.29168],[73.95994,31.29168],[73.95567,31.29168],[73.95565,31.2917],[73.94496,31.2917],[73.94129,31.29018],[73.9343,31.28732],[73.93123,31.28084],[73.93027,31.2788],[73.92998,31.2782],[73.92997,31.27818],[73.92996,31.27815],[73.92995,31.27813],[73.92695,31.27703],[73.92076,31.27475],[73.92076,31.27475],[73.92076,31.27475],[73.92076,31.27475],[73.90965,31.26895],[73.90964,31.26894],[73.90915,31.26171],[73.90916,31.2617],[73.91263,31.26038],[73.91262,31.26037],[73.91931,31.25782],[73.91883,31.24718],[73.91124,31.23647],[73.9106,31.23557],[73.9104,31.23533],[73.91041,31.23532],[73.90649,31.23073],[73.90627,31.23048],[73.90238,31.2259],[73.89738,31.2259],[73.89126,31.2259],[73.87743,31.2259],[73.87753,31.22566],[73.87748,31.22572],[73.87741,31.2259],[73.87725,31.2259],[73.87723,31.2259],[73.87723,31.2259],[73.87645,31.22565],[73.87637,31.22562],[73.87465,31.22508],[73.87465,31.22508],[73.86366,31.2216],[73.85166,31.2211],[73.84495,31.21987],[73.83856,31.2187],[73.83694,31.21861],[73.82776,31.2181],[73.82776,31.21803],[73.82161,31.21768],[73.82161,31.21768],[73.81726,31.22203],[73.81726,31.22203],[73.80614,31.21526],[73.79583,31.21231],[73.79439,31.2119],[73.7926,31.21139],[73.77954,31.20946],[73.77245,31.2062],[73.77243,31.20619],[73.76667,31.20354],[73.75671,31.19896],[73.75535,31.19833],[73.75399,31.19747],[73.75011,31.19499],[73.74553,31.19208],[73.74471,31.19156],[73.74443,31.19076],[73.74302,31.18682],[73.73778,31.17383],[73.73733,31.17273],[73.73665,31.17109],[73.73555,31.1684],[73.72646,31.16405],[73.72636,31.164],[73.72634,31.16399],[73.71986,31.16335],[73.71987,31.1634],[73.71666,31.1631],[73.712,31.17041],[73.71086,31.17221],[73.71086,31.17221],[73.71085,31.17221],[73.71085,31.17221],[73.70957,31.17161],[73.70366,31.1689],[73.70363,31.16884],[73.7036,31.16883],[73.70035,31.16232],[73.69987,31.16136],[73.69877,31.15916],[73.69472,31.1547],[73.69403,31.15394],[73.69153,31.15119],[73.6891,31.14852],[73.68115,31.14566],[73.6761,31.14385],[73.67609,31.14387],[73.67026,31.1418],[73.66566,31.1406],[73.66053,31.13917]]]}}]}