{"type": "FeatureCollection", "features": [{"type": "Feature", "properties": {"name": "Rapa Nui", "admin": "island", "source": "\u00a9 OpenStreetMap contributors, ODbL 1.0", "osm_relation": 3538209}, "geometry": {"type": "Polygon", "coordinates": [[[-109.404977, -27.0794693], [-109.4047174, -27.0802486], [-109.4049159, -27.0806104], [-109.4048931, -27.0822439], [-109.4051486, -27.0826123], [-109.4050102, -27.083469], [-109.4056286, -27.0853405], [-109.4064179, -27.0861727], [-109.4065949, -27.0866457], [-109.4087999, -27.0884741], [-109.4093139, -27.0892332], [-109.4094195, -27.089799], [-109.4092061, -27.0900623], [-109.4092007, -27.0903752], [-109.409422, -27.0910617], [-109.4102655, -27.091956], [-109.4103165, -27.0926368], [-109.4117542, -27.0946373], [-109.4116133, -27.0951056], [-109.4117602, -27.0953581], [-109.4112251, -27.0958846], [-109.4110286, -27.0967054], [-109.4112962, -27.0970087], [-109.4116203, -27.0970783], [-109.4118281, -27.0975385], [-109.4116817, -27.0980223], [-109.4120615, -27.0991814], [-109.4134574, -27.1003683], [-109.4140314, -27.1005342], [-109.4147971, -27.1013114], [-109.4153497, -27.1014857], [-109.415601, -27.1018395], [-109.416161, -27.1021578], [-109.4170802, -27.1036646], [-109.4178186, -27.1041133], [-109.417932, -27.1043873], [-109.4192306, -27.1051322], [-109.4195974, -27.1056711], [-109.4192278, -27.1064104], [-109.4192099, -27.1070561], [-109.4197706, -27.1075593], [-109.4196673, -27.1077533], [-109.4198196, -27.1079228], [-109.4197963, -27.1082717], [-109.4204371, -27.1084606], [-109.4202565, -27.1086925], [-109.4204344, -27.1090638], [-109.421433, -27.1099051], [-109.4213948, -27.1104098], [-109.4210748, -27.1106732], [-109.4208603, -27.1112355], [-109.4208482, -27.1123266], [-109.4212534, -27.1144218], [-109.421323, -27.115094], [-109.4211752, -27.1155606], [-109.4213189, -27.1162539], [-109.4214128, -27.1164628], [-109.421903, -27.1167409], [-109.4215429, -27.1170787], [-109.4214866, -27.1173736], [-109.421915, -27.118245], [-109.422487, -27.1187702], [-109.4230863, -27.1189404], [-109.4230282, -27.1190787], [-109.423293, -27.1192984], [-109.4230208, -27.1195717], [-109.4232823, -27.1197675], [-109.4231105, -27.1204196], [-109.423312, -27.1207509], [-109.4232347, -27.1212327], [-109.4233996, -27.1213676], [-109.4227616, -27.1217579], [-109.4225869, -27.1228882], [-109.4223415, -27.1232386], [-109.4225045, -27.1234337], [-109.4223395, -27.1238061], [-109.422534, -27.124021], [-109.4228397, -27.1238969], [-109.4229584, -27.1241296], [-109.4229039, -27.1243445], [-109.4227164, -27.1243946], [-109.4227485, -27.1250093], [-109.4234788, -27.1257553], [-109.4236471, -27.1262829], [-109.4238435, -27.1264022], [-109.4233603, -27.1267679], [-109.4237255, -27.1270199], [-109.4239026, -27.1277372], [-109.424217, -27.127899], [-109.4244152, -27.1283038], [-109.4248474, -27.128371], [-109.4247475, -27.128713], [-109.4252064, -27.1288332], [-109.4251122, -27.1293229], [-109.4256105, -27.1292805], [-109.4255568, -27.1303875], [-109.425766, -27.131145], [-109.4265435, -27.1319332], [-109.4266961, -27.1323676], [-109.4272237, -27.1325312], [-109.4276489, -27.1331279], [-109.4279708, -27.1331118], [-109.42795, -27.1333582], [-109.4281139, -27.1331792], [-109.4282677, -27.1332798], [-109.4272091, -27.1339199], [-109.4275765, -27.1343846], [-109.4273579, -27.134547], [-109.4274665, -27.1348418], [-109.4273649, -27.135097], [-109.4275725, -27.1355602], [-109.4271238, -27.1358214], [-109.4272648, -27.1360791], [-109.4271102, -27.1362734], [-109.4272392, -27.1364935], [-109.4270602, -27.1373886], [-109.427157, -27.1376169], [-109.4276999, -27.1378565], [-109.4276194, -27.1384628], [-109.4270247, -27.1394921], [-109.4271125, -27.1396497], [-109.4275745, -27.1396723], [-109.4275387, -27.1404115], [-109.4279327, -27.1408594], [-109.4278545, -27.1409917], [-109.4274117, -27.1410321], [-109.4272647, -27.141762], [-109.4277412, -27.1422893], [-109.4284822, -27.1423401], [-109.4287741, -27.1435002], [-109.4293763, -27.1440564], [-109.429959, -27.1443129], [-109.429825, -27.1447304], [-109.4302333, -27.1447561], [-109.4307217, -27.1451841], [-109.4303928, -27.1456173], [-109.4308662, -27.146424], [-109.4313851, -27.1467924], [-109.4311915, -27.1471329], [-109.4310419, -27.1468854], [-109.4306459, -27.146919], [-109.4305632, -27.1470983], [-109.430889, -27.1475989], [-109.4309729, -27.1480643], [-109.4313497, -27.1481156], [-109.4315147, -27.1484104], [-109.4319224, -27.1483024], [-109.4320035, -27.1485649], [-109.4323216, -27.1487989], [-109.4324286, -27.1493346], [-109.4326736, -27.1493643], [-109.4330776, -27.1491038], [-109.4345462, -27.1493024], [-109.4357599, -27.1503168], [-109.4362846, -27.1502313], [-109.4365029, -27.1500411], [-109.4364734, -27.1494385], [-109.4367177, -27.1496588], [-109.4378829, -27.1495256], [-109.4399929, -27.1500211], [-109.4406556, -27.1507226], [-109.4407493, -27.152], [-109.4401105, -27.1529695], [-109.4402258, -27.1535327], [-109.4398257, -27.1536352], [-109.4398926, -27.1543548], [-109.4397035, -27.154371], [-109.4394064, -27.1539337], [-109.4394439, -27.1533108], [-109.4389216, -27.1534319], [-109.4389967, -27.1536043], [-109.4392133, -27.1535966], [-109.4387627, -27.15367], [-109.4385682, -27.1538895], [-109.4389849, -27.1540562], [-109.4394118, -27.1548143], [-109.440148, -27.1545554], [-109.4405758, -27.1547201], [-109.4409545, -27.1550557], [-109.4414087, -27.1560028], [-109.4423548, -27.1567623], [-109.4418356, -27.1566288], [-109.4413631, -27.156967], [-109.4410727, -27.1575016], [-109.4413624, -27.15781], [-109.4408287, -27.1584423], [-109.4423582, -27.1594114], [-109.4423716, -27.1595796], [-109.4426505, -27.1595092], [-109.4424519, -27.1599414], [-109.4425367, -27.1601631], [-109.4435544, -27.1603117], [-109.4431306, -27.1606565], [-109.4423045, -27.1604727], [-109.4419069, -27.1605938], [-109.4419055, -27.1610246], [-109.442279, -27.1611475], [-109.4421744, -27.1615741], [-109.442756, -27.1619185], [-109.4422013, -27.162219], [-109.4422026, -27.1624284], [-109.4428497, -27.1623956], [-109.4431112, -27.1625704], [-109.444061, -27.1627127], [-109.442558, -27.1630727], [-109.441343, -27.1630978], [-109.4411659, -27.1636431], [-109.4416079, -27.1646039], [-109.4421991, -27.1653316], [-109.4440556, -27.1668957], [-109.4452509, -27.168306], [-109.4460536, -27.1687182], [-109.4464284, -27.1695719], [-109.4472435, -27.1704979], [-109.4482537, -27.1722946], [-109.4487901, -27.1744529], [-109.4488168, -27.1757105], [-109.4490529, -27.1761047], [-109.4491648, -27.1770434], [-109.4498294, -27.177984], [-109.4498453, -27.1784466], [-109.4491066, -27.1795901], [-109.4484637, -27.1817829], [-109.4481021, -27.1824354], [-109.447415, -27.1830126], [-109.4471304, -27.1835539], [-109.4470716, -27.1854356], [-109.4464605, -27.1865206], [-109.4464876, -27.1871321], [-109.4462266, -27.1877], [-109.4461373, -27.1890819], [-109.4458586, -27.1895912], [-109.4458832, -27.1900937], [-109.4453603, -27.1907138], [-109.4440018, -27.1914267], [-109.4435464, -27.191825], [-109.442668, -27.1917451], [-109.441815, -27.1918871], [-109.4391181, -27.1928294], [-109.4382571, -27.1926958], [-109.4378373, -27.1931515], [-109.4368342, -27.1934688], [-109.4333205, -27.1950947], [-109.4326405, -27.1955229], [-109.4321205, -27.1961505], [-109.4307976, -27.1968316], [-109.4286883, -27.196915], [-109.427889, -27.1971583], [-109.4274196, -27.1967969], [-109.4265155, -27.1971643], [-109.424762, -27.1964535], [-109.4229423, -27.1965505], [-109.422393, -27.1964156], [-109.4221563, -27.1961835], [-109.421654, -27.1961684], [-109.4208911, -27.1952858], [-109.4197221, -27.194811], [-109.4171548, -27.1932517], [-109.4165513, -27.1930689], [-109.4155838, -27.1920895], [-109.4145803, -27.1917295], [-109.4135991, -27.1911151], [-109.4131462, -27.1911255], [-109.4128016, -27.1913486], [-109.4126663, -27.191653], [-109.4120861, -27.191797], [-109.4122819, -27.1915286], [-109.412053, -27.1914204], [-109.4122765, -27.1912453], [-109.4123383, -27.1908753], [-109.4121728, -27.1908183], [-109.4119806, -27.190286], [-109.4117151, -27.1902523], [-109.4114895, -27.1899933], [-109.4113394, -27.1895351], [-109.4110829, -27.1894337], [-109.4108442, -27.1896522], [-109.4106005, -27.1892469], [-109.4097188, -27.1893471], [-109.409991, -27.1887858], [-109.4097742, -27.1886599], [-109.4097896, -27.1881372], [-109.4096469, -27.1879919], [-109.4096299, -27.1864629], [-109.4093415, -27.1860108], [-109.408822, -27.1858385], [-109.4089012, -27.1846682], [-109.4084092, -27.1844121], [-109.4084616, -27.1840924], [-109.4079989, -27.1836745], [-109.4080572, -27.1831897], [-109.4076795, -27.1821453], [-109.4070402, -27.1816019], [-109.4064514, -27.1816087], [-109.4060183, -27.1813756], [-109.4062489, -27.1808201], [-109.4062069, -27.1803603], [-109.4052574, -27.1784719], [-109.4052416, -27.1777146], [-109.4048022, -27.176991], [-109.4050451, -27.1759045], [-109.4046071, -27.1753106], [-109.4045672, -27.174194], [-109.4042011, -27.1738169], [-109.403442, -27.1736439], [-109.4032542, -27.1736845], [-109.4030021, -27.1741176], [-109.4030303, -27.1736284], [-109.4023356, -27.1736601], [-109.4019886, -27.1734426], [-109.4020308, -27.1728899], [-109.4015977, -27.1725327], [-109.4005423, -27.1724684], [-109.4007796, -27.1722728], [-109.3994729, -27.1724266], [-109.3997714, -27.1721381], [-109.3987153, -27.1722009], [-109.3977515, -27.1717735], [-109.3974313, -27.1714143], [-109.3975271, -27.171108], [-109.3974193, -27.1709606], [-109.3980172, -27.1692515], [-109.3967754, -27.1679898], [-109.3959828, -27.167892], [-109.3956327, -27.1680399], [-109.3953525, -27.1676307], [-109.3948826, -27.1683749], [-109.3948388, -27.1687948], [-109.3939349, -27.1689431], [-109.3934347, -27.1685732], [-109.3927386, -27.1685577], [-109.3925255, -27.1687553], [-109.3921454, -27.1687096], [-109.3914173, -27.1689595], [-109.3911655, -27.1693846], [-109.3909582, -27.1694365], [-109.3906975, -27.1691913], [-109.3901128, -27.1690958], [-109.3898612, -27.169203], [-109.3895575, -27.1698141], [-109.389326, -27.1699154], [-109.3891181, -27.1698082], [-109.3889738, -27.1700388], [-109.3888589, -27.1698509], [-109.3885275, -27.1697756], [-109.3880059, -27.1687297], [-109.3874413, -27.1685649], [-109.3871087, -27.1680208], [-109.3862544, -27.1680506], [-109.3855733, -27.1677298], [-109.3850752, -27.1678475], [-109.3843903, -27.1676139], [-109.3839223, -27.1675971], [-109.3835524, -27.1677856], [-109.383287, -27.1676458], [-109.3824779, -27.1676581], [-109.3818744, -27.166904], [-109.3810979, -27.1666726], [-109.3799626, -27.1676083], [-109.3799107, -27.1678865], [-109.3796434, -27.1679194], [-109.3796595, -27.168204], [-109.3793772, -27.168238], [-109.3789588, -27.1679898], [-109.3790431, -27.1676726], [-109.378818, -27.1677404], [-109.3789424, -27.1673494], [-109.3787174, -27.1671021], [-109.3782916, -27.1672799], [-109.3779067, -27.1669213], [-109.3776901, -27.1671904], [-109.3775465, -27.1667296], [-109.3773199, -27.1666658], [-109.3770102, -27.1671164], [-109.3767637, -27.1670201], [-109.376571, -27.1671421], [-109.376514, -27.1666439], [-109.3761264, -27.1665365], [-109.3754035, -27.1668885], [-109.3752357, -27.1667436], [-109.3745291, -27.1667143], [-109.3738009, -27.1673902], [-109.373534, -27.1670472], [-109.3732283, -27.1669529], [-109.3710409, -27.1674861], [-109.3699258, -27.1681085], [-109.3691795, -27.1689467], [-109.3688831, -27.1689503], [-109.3685719, -27.1685768], [-109.368187, -27.168516], [-109.3676814, -27.1685673], [-109.36744, -27.1689359], [-109.3671303, -27.1689753], [-109.3665469, -27.1687719], [-109.3661546, -27.1683394], [-109.3656658, -27.1685899], [-109.3648464, -27.1680399], [-109.3644058, -27.1680315], [-109.3642117, -27.1682156], [-109.3642858, -27.1677404], [-109.3640859, -27.1674636], [-109.364837, -27.1669291], [-109.3648953, -27.1662192], [-109.3644991, -27.1658438], [-109.3637694, -27.1659036], [-109.3638325, -27.1654233], [-109.3631405, -27.1650152], [-109.3626912, -27.1650475], [-109.3624046, -27.1652936], [-109.3627173, -27.1660596], [-109.3622708, -27.1661703], [-109.3620369, -27.1664002], [-109.3609102, -27.1663063], [-109.3590032, -27.1655665], [-109.3583702, -27.1651811], [-109.358114, -27.1647665], [-109.356899, -27.1645678], [-109.3564758, -27.1648387], [-109.3563816, -27.1642528], [-109.3565704, -27.1640374], [-109.3563223, -27.164004], [-109.3564401, -27.1636764], [-109.3558734, -27.1638874], [-109.3559763, -27.163686], [-109.3557242, -27.1635608], [-109.3557154, -27.1632267], [-109.3554935, -27.1632028], [-109.3550912, -27.1632434], [-109.3547874, -27.1634993], [-109.3551569, -27.164121], [-109.3545755, -27.163556], [-109.3544118, -27.1638642], [-109.3539184, -27.1638423], [-109.3532123, -27.1641633], [-109.3533658, -27.1644729], [-109.3530829, -27.1644312], [-109.3526966, -27.1649395], [-109.3525384, -27.164606], [-109.3522011, -27.164421], [-109.3513428, -27.164958], [-109.3508157, -27.1645636], [-109.3503752, -27.1648339], [-109.3504543, -27.1643363], [-109.3495329, -27.163729], [-109.3495967, -27.1630202], [-109.3499279, -27.1624928], [-109.3498421, -27.1621355], [-109.3495524, -27.1618825], [-109.3496342, -27.1616892], [-109.349421, -27.1615252], [-109.3500987, -27.1609061], [-109.3497711, -27.1601699], [-109.349552, -27.1600718], [-109.3486807, -27.1602341], [-109.3477325, -27.1595563], [-109.3471982, -27.1597569], [-109.3471785, -27.1595299], [-109.3475327, -27.1592544], [-109.347477, -27.1588959], [-109.3470539, -27.1584108], [-109.3465818, -27.1583058], [-109.3463109, -27.1584359], [-109.3461473, -27.1580564], [-109.34569, -27.1577868], [-109.3450329, -27.1562057], [-109.3444267, -27.1559026], [-109.3438916, -27.1552749], [-109.3428938, -27.1551747], [-109.3412356, -27.1543538], [-109.3413836, -27.1539601], [-109.3411908, -27.1536711], [-109.3411879, -27.1525829], [-109.34085, -27.1521473], [-109.3409492, -27.1517082], [-109.3393654, -27.1504623], [-109.3384762, -27.1504856], [-109.3384735, -27.1500996], [-109.3379103, -27.1495876], [-109.3376595, -27.1489862], [-109.3371472, -27.1488322], [-109.3369098, -27.1491986], [-109.3363854, -27.1493251], [-109.3363452, -27.1498251], [-109.3361145, -27.1499707], [-109.3355633, -27.1494981], [-109.3354708, -27.149238], [-109.3349893, -27.1491521], [-109.3349035, -27.1489015], [-109.3346789, -27.1488334], [-109.3342705, -27.1490279], [-109.3343925, -27.1485661], [-109.3338588, -27.1477379], [-109.3333009, -27.1476592], [-109.332794, -27.1478728], [-109.3321475, -27.1477666], [-109.3320322, -27.1472427], [-109.3315092, -27.1471639], [-109.3312812, -27.1468906], [-109.3308614, -27.1472081], [-109.330958, -27.1468083], [-109.3300152, -27.1461114], [-109.3300487, -27.1455302], [-109.3298864, -27.1450266], [-109.3295901, -27.1450349], [-109.3291126, -27.1446936], [-109.3284796, -27.1449001], [-109.3280766, -27.1446817], [-109.328206, -27.1443559], [-109.3278708, -27.1445779], [-109.3277078, -27.144233], [-109.3271727, -27.1445081], [-109.3265236, -27.1444914], [-109.3262574, -27.1428868], [-109.325261, -27.142197], [-109.3240674, -27.1416003], [-109.3230388, -27.1413044], [-109.3219377, -27.1404439], [-109.321408, -27.1404845], [-109.3206054, -27.1409317], [-109.3203887, -27.1412572], [-109.320311, -27.1408974], [-109.3199529, -27.1405656], [-109.3189028, -27.1405716], [-109.3181797, -27.1402707], [-109.3179456, -27.1398084], [-109.3185648, -27.139106], [-109.3182483, -27.138643], [-109.3172546, -27.1388578], [-109.316606, -27.1391515], [-109.3163815, -27.1396001], [-109.3157713, -27.139692], [-109.3146917, -27.1393447], [-109.314339, -27.1389998], [-109.3137543, -27.1387957], [-109.3130341, -27.1379436], [-109.3125178, -27.1379114], [-109.3121463, -27.137693], [-109.3115254, -27.1379639], [-109.3113228, -27.1383483], [-109.3109894, -27.1384147], [-109.3099844, -27.1377443], [-109.3078601, -27.1373015], [-109.3073398, -27.1375724], [-109.3071319, -27.138236], [-109.3064721, -27.1383351], [-109.3056197, -27.1392248], [-109.3058418, -27.1397183], [-109.3056017, -27.1401587], [-109.3049982, -27.140278], [-109.3041352, -27.1398448], [-109.3032172, -27.140315], [-109.3022516, -27.1410848], [-109.3015181, -27.1412924], [-109.3013051, -27.1412013], [-109.3010795, -27.1403281], [-109.3005967, -27.1406044], [-109.3003882, -27.1405346], [-109.3004123, -27.1402852], [-109.3000231, -27.1404963], [-109.2998926, -27.1402529], [-109.3001716, -27.1399719], [-109.2997371, -27.1400262], [-109.2995158, -27.1395291], [-109.298683, -27.1399164], [-109.2983718, -27.1403198], [-109.2981385, -27.1403257], [-109.2980319, -27.1401634], [-109.2982914, -27.1393787], [-109.2978609, -27.1387719], [-109.2970723, -27.1387361], [-109.2958921, -27.1389628], [-109.2950593, -27.1388041], [-109.293965, -27.13963], [-109.2940588, -27.1405716], [-109.2937893, -27.1410764], [-109.2929122, -27.1416146], [-109.2923516, -27.1416791], [-109.2920136, -27.1420634], [-109.2917857, -27.1421039], [-109.2908898, -27.1417328], [-109.2907396, -27.1414082], [-109.2904861, -27.1413175], [-109.2905062, -27.1410967], [-109.2900033, -27.1411444], [-109.290179, -27.1406134], [-109.2897774, -27.1408831], [-109.2895433, -27.1408497], [-109.2897351, -27.1401318], [-109.2893676, -27.1397135], [-109.2889331, -27.1397947], [-109.2887266, -27.1402374], [-109.2884852, -27.1399343], [-109.2883739, -27.140395], [-109.288105, -27.140176], [-109.2874126, -27.1407277], [-109.2864742, -27.1408785], [-109.2852472, -27.1401291], [-109.2848521, -27.1397111], [-109.2845169, -27.1396192], [-109.284128, -27.1391216], [-109.2827842, -27.1382706], [-109.2823034, -27.1381041], [-109.2818394, -27.1383894], [-109.2820466, -27.1380194], [-109.2816791, -27.1374638], [-109.2818239, -27.1367859], [-109.2821887, -27.1367299], [-109.2823899, -27.1362823], [-109.2820479, -27.136083], [-109.2817881, -27.1352526], [-109.2805915, -27.1351139], [-109.280114, -27.1348143], [-109.2798445, -27.1344109], [-109.2792155, -27.1340767], [-109.2786294, -27.1342367], [-109.2785563, -27.1337915], [-109.2780635, -27.1336113], [-109.2778274, -27.1333463], [-109.2775125, -27.1321485], [-109.2771569, -27.1318293], [-109.2766044, -27.1318914], [-109.2761913, -27.1317052], [-109.2753645, -27.1323038], [-109.2749736, -27.1320334], [-109.2743915, -27.132179], [-109.2736968, -27.1317124], [-109.2735212, -27.1313794], [-109.2735198, -27.1306585], [-109.2743003, -27.1291552], [-109.2746007, -27.1288634], [-109.2743828, -27.1281777], [-109.2747335, -27.1281866], [-109.2747067, -27.1278608], [-109.2750473, -27.1277223], [-109.275339, -27.1272574], [-109.2758909, -27.127221], [-109.2763951, -27.1262518], [-109.2762665, -27.1260863], [-109.2756178, -27.1259976], [-109.2756143, -27.1254011], [-109.2752024, -27.1256947], [-109.2742555, -27.1252522], [-109.2739647, -27.1249453], [-109.2739204, -27.124654], [-109.2741911, -27.1240985], [-109.2739542, -27.1235598], [-109.273698, -27.1235595], [-109.2730159, -27.1240402], [-109.2725772, -27.1234856], [-109.2721787, -27.1233068], [-109.2712996, -27.1236088], [-109.2705669, -27.1233777], [-109.2701206, -27.1234084], [-109.2687617, -27.123575], [-109.2662316, -27.1243633], [-109.2654246, -27.1241801], [-109.2652111, -27.1242947], [-109.2651085, -27.1241209], [-109.2649223, -27.1242264], [-109.2650813, -27.1239737], [-109.2649156, -27.1239026], [-109.2646547, -27.124354], [-109.2645531, -27.1242107], [-109.2647645, -27.1237755], [-109.2630929, -27.1230423], [-109.2624449, -27.122941], [-109.2613928, -27.1230826], [-109.2613648, -27.1228884], [-109.2611897, -27.1228488], [-109.2609177, -27.1231056], [-109.2608488, -27.1228037], [-109.2597866, -27.1222953], [-109.2587457, -27.1223353], [-109.2577655, -27.1219363], [-109.2574807, -27.1220536], [-109.2575378, -27.1218451], [-109.2573216, -27.1216889], [-109.2572038, -27.1217506], [-109.2573015, -27.1218707], [-109.2570757, -27.1219513], [-109.2569091, -27.1215447], [-109.2557753, -27.1216911], [-109.2541262, -27.1210889], [-109.2532413, -27.1213086], [-109.2529349, -27.1211509], [-109.2523702, -27.1211694], [-109.2518431, -27.1208007], [-109.2504568, -27.1206092], [-109.2466355, -27.1210052], [-109.2461579, -27.1214157], [-109.2455831, -27.1211021], [-109.2443546, -27.1211387], [-109.2439616, -27.1209571], [-109.2436528, -27.1210522], [-109.2434592, -27.1215343], [-109.2428058, -27.1212341], [-109.242596, -27.1214626], [-109.2419941, -27.1211671], [-109.2411446, -27.121238], [-109.240547, -27.121389], [-109.2401813, -27.1217619], [-109.240156, -27.1213274], [-109.2392246, -27.12139], [-109.2380523, -27.1211679], [-109.2378166, -27.1215], [-109.2377201, -27.1213319], [-109.2370521, -27.1213495], [-109.2366622, -27.1217229], [-109.235814, -27.1211387], [-109.2354638, -27.1214775], [-109.2354711, -27.1209466], [-109.2350877, -27.1207052], [-109.2348618, -27.1207736], [-109.2345227, -27.1203476], [-109.2346664, -27.119942], [-109.2339214, -27.1197742], [-109.2335361, -27.1191683], [-109.2330255, -27.117602], [-109.2331378, -27.1169923], [-109.2328646, -27.1166649], [-109.2328156, -27.1159407], [-109.2326032, -27.1154471], [-109.232329, -27.1153476], [-109.2325617, -27.1150628], [-109.2322385, -27.1150612], [-109.2323331, -27.1148656], [-109.2320826, -27.1147943], [-109.2321568, -27.1139458], [-109.2317893, -27.1128746], [-109.2317931, -27.1114036], [-109.2310652, -27.1105271], [-109.2311439, -27.1101728], [-109.2309409, -27.1093659], [-109.2301394, -27.108756], [-109.2302686, -27.1085695], [-109.2298793, -27.1083447], [-109.2300248, -27.1082422], [-109.2298732, -27.1080231], [-109.2294489, -27.1077548], [-109.2291672, -27.1078181], [-109.2292405, -27.1075409], [-109.2288005, -27.107382], [-109.2284756, -27.1068567], [-109.2281241, -27.1068829], [-109.2280101, -27.1065952], [-109.2278561, -27.1065996], [-109.2279616, -27.1064737], [-109.2276982, -27.105933], [-109.2279187, -27.1057644], [-109.2276102, -27.1054017], [-109.2276795, -27.1052002], [-109.2278797, -27.1051717], [-109.227935, -27.1047266], [-109.2277575, -27.1046058], [-109.2277173, -27.1042134], [-109.2281318, -27.1040709], [-109.2280194, -27.1038841], [-109.2282374, -27.1037235], [-109.2280808, -27.1035727], [-109.2282418, -27.1034966], [-109.2281641, -27.1032885], [-109.2285314, -27.1031212], [-109.2285273, -27.1028694], [-109.2287792, -27.1026758], [-109.2286036, -27.1024342], [-109.2287648, -27.1023607], [-109.2286739, -27.1022858], [-109.2292898, -27.1021107], [-109.2292944, -27.1017895], [-109.229432, -27.1017845], [-109.2297441, -27.1011755], [-109.2299208, -27.10115], [-109.2299648, -27.1008618], [-109.230144, -27.1008605], [-109.2302435, -27.1005952], [-109.2300363, -27.1002543], [-109.2301422, -27.1003035], [-109.2300819, -27.1001174], [-109.2306262, -27.0995457], [-109.2306946, -27.0991612], [-109.2309156, -27.0991027], [-109.23096, -27.0988411], [-109.2312052, -27.0988892], [-109.2311218, -27.0986203], [-109.2312867, -27.0985984], [-109.2312888, -27.0984166], [-109.2316726, -27.0982553], [-109.2322671, -27.0974205], [-109.2324286, -27.0974517], [-109.2325377, -27.097083], [-109.232807, -27.0970095], [-109.233191, -27.096494], [-109.2348276, -27.0954737], [-109.2352266, -27.0939935], [-109.2358045, -27.0937336], [-109.2358762, -27.0933914], [-109.2362508, -27.093127], [-109.2367129, -27.093122], [-109.2367485, -27.0928315], [-109.2369034, -27.0929134], [-109.2369142, -27.0927923], [-109.2375142, -27.0927251], [-109.2385851, -27.0922946], [-109.2386603, -27.092061], [-109.2388399, -27.0922282], [-109.2395216, -27.0922297], [-109.2429338, -27.0920484], [-109.244113, -27.0922844], [-109.2448334, -27.0920781], [-109.2448836, -27.0922002], [-109.2458917, -27.0924183], [-109.247112, -27.0931914], [-109.2488072, -27.0933923], [-109.2496468, -27.092818], [-109.2519481, -27.0919751], [-109.252793, -27.0919345], [-109.2532651, -27.0920778], [-109.2535978, -27.0919452], [-109.2537197, -27.0916539], [-109.2541704, -27.0916348], [-109.2544185, -27.0912921], [-109.2553613, -27.0908062], [-109.2556188, -27.0905125], [-109.2556402, -27.0907244], [-109.2560399, -27.090811], [-109.2565696, -27.0906784], [-109.2566373, -27.0904301], [-109.2568197, -27.0904259], [-109.2569847, -27.0907113], [-109.2581347, -27.0907357], [-109.2588763, -27.0912778], [-109.259972, -27.0915524], [-109.2615424, -27.0915518], [-109.2639269, -27.0918736], [-109.2655067, -27.0917494], [-109.2660083, -27.0918425], [-109.2669109, -27.0914617], [-109.2681152, -27.0917434], [-109.2682634, -27.0914157], [-109.2684457, -27.0917339], [-109.2701449, -27.0917775], [-109.2708394, -27.0915387], [-109.271028, -27.0912145], [-109.2727628, -27.0919485], [-109.2744901, -27.0923345], [-109.2755972, -27.0919941], [-109.2764555, -27.0920736], [-109.2766751, -27.0924858], [-109.2776826, -27.0931004], [-109.2781359, -27.0930753], [-109.2791082, -27.0934824], [-109.2803455, -27.0935002], [-109.2811145, -27.0928192], [-109.2814283, -27.0927738], [-109.2813197, -27.0925446], [-109.2816193, -27.0923026], [-109.2818695, -27.0917052], [-109.2827919, -27.0911441], [-109.2829742, -27.0906929], [-109.2834466, -27.0903839], [-109.2835075, -27.0899817], [-109.2845617, -27.0894991], [-109.2849796, -27.0890797], [-109.2855232, -27.0893803], [-109.2862862, -27.0890612], [-109.2862902, -27.0887555], [-109.2868474, -27.0883752], [-109.2868024, -27.0880928], [-109.2872962, -27.088095], [-109.2872732, -27.0879166], [-109.2874895, -27.0879261], [-109.2875591, -27.0876016], [-109.2877993, -27.0876982], [-109.2878171, -27.0874289], [-109.2882139, -27.0872515], [-109.288838, -27.0875285], [-109.2896272, -27.0882309], [-109.2901059, -27.0880671], [-109.290204, -27.0883182], [-109.2904247, -27.0880042], [-109.2909613, -27.0879504], [-109.2912521, -27.0878079], [-109.2912852, -27.0876279], [-109.2915678, -27.0880932], [-109.2925132, -27.0885176], [-109.2926776, -27.0883344], [-109.2926122, -27.0880038], [-109.2929184, -27.0880342], [-109.2928371, -27.0878723], [-109.2933459, -27.0881756], [-109.2937846, -27.0880347], [-109.2935105, -27.0873204], [-109.2942498, -27.0878926], [-109.2950925, -27.0879496], [-109.2953662, -27.0881176], [-109.2953882, -27.0883032], [-109.2959701, -27.0883227], [-109.2962425, -27.0879245], [-109.2969258, -27.0877675], [-109.2975102, -27.0878863], [-109.2976986, -27.0883257], [-109.2982173, -27.0885045], [-109.2984639, -27.0882954], [-109.2981472, -27.0881562], [-109.2984496, -27.0880514], [-109.298577, -27.0875451], [-109.2989485, -27.087143], [-109.2984979, -27.0867287], [-109.2987188, -27.0858207], [-109.2991121, -27.0858165], [-109.2994749, -27.0852368], [-109.2998698, -27.084989], [-109.3012109, -27.0849078], [-109.3019351, -27.085157], [-109.3021819, -27.0848959], [-109.3023281, -27.0842666], [-109.302672, -27.0841444], [-109.3029135, -27.0838278], [-109.3027686, -27.0830105], [-109.3030094, -27.0832051], [-109.3032659, -27.0831658], [-109.3040296, -27.0821418], [-109.3041701, -27.0817293], [-109.3058793, -27.0810773], [-109.3060403, -27.0806916], [-109.3059605, -27.0804248], [-109.3057486, -27.0804887], [-109.3056708, -27.0803466], [-109.3060034, -27.0803269], [-109.3058565, -27.0801656], [-109.3060573, -27.0800913], [-109.3065565, -27.0800455], [-109.3068972, -27.0795823], [-109.3068868, -27.0790895], [-109.3080197, -27.0790963], [-109.3083912, -27.0788683], [-109.3088579, -27.0789722], [-109.3110506, -27.0777022], [-109.3110292, -27.0772825], [-109.3118164, -27.0762651], [-109.3128691, -27.0761766], [-109.3129282, -27.076418], [-109.3134485, -27.076246], [-109.3135498, -27.0759618], [-109.3133989, -27.0757352], [-109.3135924, -27.0756179], [-109.3138931, -27.0748286], [-109.3136051, -27.0745901], [-109.3140225, -27.074542], [-109.3141446, -27.0741008], [-109.3137798, -27.073484], [-109.3132889, -27.0733437], [-109.3130971, -27.0729854], [-109.3127324, -27.0727496], [-109.312792, -27.0718187], [-109.3130261, -27.0717996], [-109.3129401, -27.072038], [-109.313065, -27.0723704], [-109.3137576, -27.0726672], [-109.3139685, -27.0726153], [-109.3141271, -27.0723173], [-109.3140966, -27.0718731], [-109.3146542, -27.0716844], [-109.3147997, -27.0714808], [-109.3153448, -27.0714193], [-109.3153314, -27.0709661], [-109.3151169, -27.0707798], [-109.3153455, -27.0707192], [-109.3159805, -27.069425], [-109.3169638, -27.0694066], [-109.3171977, -27.0697991], [-109.3179084, -27.0700949], [-109.3182396, -27.0699683], [-109.3191258, -27.0703974], [-109.3197273, -27.070208], [-109.3197784, -27.0703794], [-109.3206918, -27.0705284], [-109.3212491, -27.0702567], [-109.3215873, -27.0702999], [-109.3220209, -27.070787], [-109.3222948, -27.0706723], [-109.3226957, -27.0716716], [-109.3230041, -27.0716778], [-109.3230649, -27.0720701], [-109.3224634, -27.0723943], [-109.3226653, -27.0730201], [-109.3233667, -27.0733275], [-109.3241733, -27.0733311], [-109.3244953, -27.0729751], [-109.3244176, -27.0727019], [-109.3247715, -27.0719567], [-109.3252549, -27.0718587], [-109.3254239, -27.0715441], [-109.326052, -27.071577], [-109.3258239, -27.0713745], [-109.325733, -27.0709877], [-109.3259104, -27.0709419], [-109.3258622, -27.0705941], [-109.3266708, -27.0702132], [-109.3278681, -27.0707858], [-109.3282989, -27.0707876], [-109.3299897, -27.0697307], [-109.3309171, -27.0695277], [-109.3316258, -27.0689563], [-109.3316554, -27.068747], [-109.3319625, -27.0688496], [-109.3321918, -27.0687252], [-109.3320614, -27.068309], [-109.3324533, -27.0680863], [-109.3328858, -27.0675328], [-109.3332982, -27.0661582], [-109.333731, -27.0655557], [-109.334084, -27.0655429], [-109.3350168, -27.0650141], [-109.3366523, -27.0644021], [-109.3368458, -27.064231], [-109.3367247, -27.0640313], [-109.3368609, -27.0636897], [-109.337058, -27.0640384], [-109.3378875, -27.0640319], [-109.3384474, -27.0637572], [-109.3384505, -27.0634007], [-109.3391662, -27.0635488], [-109.3396309, -27.063384], [-109.3398857, -27.0627498], [-109.340803, -27.0622644], [-109.3414511, -27.0621199], [-109.3419342, -27.0623456], [-109.3427313, -27.0616876], [-109.3430207, -27.0617456], [-109.3434155, -27.0615836], [-109.3433847, -27.0612337], [-109.343508, -27.0611549], [-109.343911, -27.0611328], [-109.3443981, -27.0613358], [-109.3455666, -27.0606593], [-109.3458684, -27.0602329], [-109.3458979, -27.0595268], [-109.3460675, -27.0592822], [-109.3466697, -27.0595098], [-109.3467029, -27.0593085], [-109.3468944, -27.0592527], [-109.3471967, -27.0596772], [-109.3474026, -27.0597258], [-109.3479585, -27.0595432], [-109.3480873, -27.0593222], [-109.3481838, -27.0597934], [-109.3486998, -27.0599597], [-109.3496342, -27.0596274], [-109.3501009, -27.0597468], [-109.3513457, -27.0596974], [-109.3520281, -27.0599519], [-109.3534986, -27.0593984], [-109.355001, -27.0591868], [-109.3554561, -27.0593936], [-109.3560655, -27.0592434], [-109.3563042, -27.059416], [-109.3569231, -27.0591019], [-109.3574441, -27.0592357], [-109.3577484, -27.0591215], [-109.3584183, -27.0592583], [-109.3590566, -27.059639], [-109.3593404, -27.0594554], [-109.3598152, -27.0595928], [-109.3602427, -27.059123], [-109.3608525, -27.0591264], [-109.3610167, -27.0589183], [-109.3614021, -27.0591622], [-109.3615249, -27.0596416], [-109.362373, -27.0592757], [-109.3622675, -27.0594978], [-109.362459, -27.0596398], [-109.3626892, -27.0591401], [-109.363237, -27.0595533], [-109.3637161, -27.059699], [-109.3641108, -27.0594915], [-109.3645915, -27.0594829], [-109.3651877, -27.0586755], [-109.3659035, -27.0585727], [-109.3661077, -27.0580001], [-109.3668084, -27.0576484], [-109.3670099, -27.0571635], [-109.3675811, -27.0570146], [-109.3680583, -27.0564242], [-109.3684928, -27.0566488], [-109.3685996, -27.0564354], [-109.368845, -27.0567119], [-109.3693934, -27.056804], [-109.3698902, -27.0564218], [-109.3702175, -27.0558886], [-109.3705665, -27.0557874], [-109.3705172, -27.0556252], [-109.3707801, -27.0556351], [-109.3707901, -27.0554311], [-109.3709541, -27.0556064], [-109.3711824, -27.0555422], [-109.3714739, -27.0558366], [-109.3720479, -27.0557299], [-109.372905, -27.0551809], [-109.3730179, -27.0548371], [-109.3733453, -27.0547184], [-109.373739, -27.055101], [-109.3741927, -27.0549665], [-109.375317, -27.0555512], [-109.3758054, -27.0554733], [-109.3759121, -27.0556522], [-109.3763691, -27.055747], [-109.3770008, -27.055673], [-109.3775895, -27.0561306], [-109.3783325, -27.0560964], [-109.378641, -27.0558784], [-109.379033, -27.0560218], [-109.3809195, -27.0558593], [-109.382152, -27.0562821], [-109.3843375, -27.0561956], [-109.3850306, -27.0564857], [-109.3853437, -27.056445], [-109.3857448, -27.0569079], [-109.3866344, -27.0571162], [-109.3865273, -27.0573277], [-109.3871932, -27.0576759], [-109.3871985, -27.0582707], [-109.3874903, -27.0583566], [-109.3876223, -27.0586158], [-109.388114, -27.0587357], [-109.3882656, -27.0591077], [-109.3887599, -27.0592724], [-109.3890824, -27.0597437], [-109.3887157, -27.0604168], [-109.389056, -27.0608647], [-109.3902247, -27.0610946], [-109.3904346, -27.0609608], [-109.3905057, -27.060667], [-109.3907163, -27.0607823], [-109.3909748, -27.0606685], [-109.3910799, -27.0607799], [-109.3909694, -27.0608584], [-109.3912118, -27.0608832], [-109.3911923, -27.0610343], [-109.3919246, -27.061108], [-109.3919802, -27.0613985], [-109.3927695, -27.0617896], [-109.3927742, -27.0620906], [-109.3934316, -27.0630518], [-109.3933274, -27.0637536], [-109.3936835, -27.0642084], [-109.3947369, -27.0649108], [-109.3955762, -27.0661726], [-109.3968461, -27.0668684], [-109.3974677, -27.0673977], [-109.3974469, -27.0676259], [-109.397918, -27.0677659], [-109.397686, -27.0679406], [-109.3980742, -27.0681654], [-109.3980357, -27.0683015], [-109.3987598, -27.0689496], [-109.3989278, -27.0694584], [-109.3991752, -27.0694987], [-109.3991423, -27.069658], [-109.3993409, -27.0697319], [-109.3993885, -27.0704962], [-109.3998063, -27.0707313], [-109.3999001, -27.0713823], [-109.4005339, -27.072276], [-109.4006049, -27.0733228], [-109.4015759, -27.0749245], [-109.4015282, -27.0760765], [-109.40172, -27.0765613], [-109.4025907, -27.0772561], [-109.4026101, -27.0774923], [-109.4030501, -27.0778071], [-109.4031812, -27.0781864], [-109.4036767, -27.0782913], [-109.4038635, -27.0786594], [-109.404126, -27.078719], [-109.4041216, -27.0789722], [-109.404977, -27.0794693]]]}}]}