{"type":"FeatureCollection","features":[{"type":"Feature","properties":{"name":"Iași","admin":"județul","source":"© OpenStreetMap contributors, ODbL 1.0","osm_relation":2256747},"geometry":{"type":"Polygon","coordinates":[[[27.3284,47.57226],[27.39126,47.58942],[27.42676,47.58365],[27.41853,47.56499],[27.43289,47.56228],[27.42398,47.55393],[27.44018,47.54881],[27.43083,47.54411],[27.45659,47.53654],[27.44408,47.53097],[27.451,47.5222],[27.46775,47.52642],[27.45614,47.51872],[27.45434,47.50744],[27.47492,47.48519],[27.49346,47.48872],[27.49207,47.48108],[27.50675,47.47822],[27.51635,47.4908],[27.51631,47.47371],[27.52173,47.48237],[27.53707,47.47872],[27.53145,47.48493],[27.53821,47.48902],[27.55944,47.46342],[27.57187,47.46481],[27.57091,47.45102],[27.55773,47.44726],[27.56075,47.4378],[27.55254,47.43334],[27.55659,47.42539],[27.57069,47.42481],[27.57589,47.40836],[27.58453,47.40832],[27.58154,47.39825],[27.569,47.39384],[27.56898,47.37308],[27.58285,47.37895],[27.57318,47.36879],[27.5886,47.36478],[27.59669,47.3725],[27.595,47.34731],[27.60568,47.34972],[27.60511,47.33923],[27.61513,47.34092],[27.6008,47.32903],[27.58093,47.32783],[27.59573,47.32686],[27.59234,47.32138],[27.59994,47.31707],[27.60414,47.32863],[27.6108,47.32562],[27.60602,47.31697],[27.62199,47.32601],[27.6282,47.30985],[27.63843,47.31135],[27.63299,47.303],[27.64647,47.29946],[27.64648,47.30697],[27.66301,47.30828],[27.67372,47.29928],[27.67923,47.30947],[27.68612,47.28426],[27.69094,47.29196],[27.70627,47.28955],[27.70505,47.30013],[27.73227,47.29266],[27.73777,47.27565],[27.74826,47.27625],[27.74519,47.26401],[27.75872,47.25756],[27.74236,47.25693],[27.75685,47.25051],[27.74592,47.24163],[27.75933,47.23991],[27.75535,47.23022],[27.77466,47.23095],[27.76998,47.22116],[27.78652,47.21784],[27.77694,47.20459],[27.79011,47.20775],[27.78674,47.19019],[27.80377,47.18831],[27.7963,47.1707],[27.81126,47.16565],[27.8009,47.15167],[27.78423,47.14969],[27.79993,47.14194],[27.78127,47.14237],[27.84259,47.13564],[27.85095,47.12509],[27.8383,47.12999],[27.82586,47.12275],[27.82947,47.11775],[27.85664,47.11262],[27.8605,47.10336],[27.87485,47.10791],[27.86689,47.10272],[27.8837,47.09894],[27.87975,47.09183],[27.89321,47.08708],[27.89757,47.07338],[27.90575,47.07681],[27.91652,47.06683],[27.95876,47.05744],[27.94408,47.05049],[27.96416,47.04924],[27.95982,47.04102],[27.97305,47.04448],[28.01704,47.02307],[28.02866,47.03044],[28.04216,47.02011],[28.04856,47.02473],[28.05382,47.01397],[28.04248,47.01927],[28.03203,47.01151],[28.09624,46.97848],[28.07833,46.96281],[28.09376,46.95638],[28.08968,46.94784],[28.09713,46.95001],[28.09652,46.94107],[28.08096,46.93733],[28.10277,46.93267],[28.10608,46.92832],[28.09602,46.92842],[28.11259,46.92117],[28.08306,46.90205],[28.08595,46.89493],[28.11342,46.89305],[28.11883,46.87773],[28.09826,46.8705],[28.11234,46.86936],[28.10746,46.86587],[28.1274,46.85272],[28.12381,46.84743],[28.10835,46.84389],[28.11471,46.83762],[28.10756,46.84722],[28.0529,46.85097],[28.01468,46.8338],[27.99023,46.83842],[27.9798,46.85734],[27.94201,46.85518],[27.92828,46.86641],[27.92146,46.86316],[27.94044,46.84466],[27.92814,46.83983],[27.94116,46.83766],[27.93527,46.83238],[27.94383,46.82251],[27.91941,46.82201],[27.92033,46.8106],[27.89519,46.80725],[27.88829,46.81374],[27.89503,46.81647],[27.88921,46.8382],[27.88021,46.84344],[27.88593,46.8239],[27.86954,46.83994],[27.87223,46.85836],[27.8459,46.86554],[27.83291,46.86345],[27.82966,46.8535],[27.79704,46.86016],[27.81406,46.88089],[27.81187,46.93436],[27.79583,46.92748],[27.78763,46.94645],[27.77064,46.94717],[27.7917,46.87432],[27.78593,46.8827],[27.76854,46.87627],[27.73297,46.92227],[27.7247,46.92],[27.70538,46.94009],[27.69367,46.93715],[27.66002,46.97362],[27.63764,46.97717],[27.62136,46.99168],[27.60634,46.95724],[27.61676,46.95003],[27.60762,46.94648],[27.61816,46.93948],[27.61623,46.92499],[27.63052,46.92195],[27.64394,46.8964],[27.60687,46.89338],[27.59121,46.8789],[27.58409,46.87995],[27.58897,46.88728],[27.57099,46.88891],[27.5683,46.87747],[27.5473,46.91432],[27.53188,46.916],[27.51997,46.91454],[27.52183,46.89137],[27.53308,46.88212],[27.48645,46.8751],[27.48958,46.86964],[27.47552,46.86637],[27.47173,46.87117],[27.45993,46.86235],[27.45476,46.86936],[27.42454,46.86252],[27.41712,46.8746],[27.40207,46.8759],[27.39811,46.89363],[27.37253,46.89225],[27.32187,46.86421],[27.29497,46.86737],[27.28476,46.87593],[27.25125,46.86761],[27.24851,46.87617],[27.22632,46.86806],[27.22329,46.87803],[27.19341,46.88786],[27.20299,46.89523],[27.17273,46.92463],[27.12195,46.95062],[27.13385,46.96345],[27.14788,46.9582],[27.17102,46.97096],[27.16567,46.97285],[27.18033,46.98889],[27.21702,46.97392],[27.24361,46.9929],[27.23586,47.01419],[27.18643,47.03001],[27.17693,47.04017],[27.18564,47.04971],[27.18305,47.06145],[27.15603,47.08268],[27.09757,47.09201],[27.0604,47.08494],[27.05223,47.06352],[27.02539,47.05263],[27.03543,47.04996],[27.03655,47.04194],[27.02246,47.03346],[27.00266,47.03959],[26.98338,47.07932],[26.97093,47.07726],[26.97177,47.0619],[26.95936,47.06023],[26.95991,47.04502],[26.90255,47.02798],[26.88864,47.04575],[26.87151,47.04604],[26.88526,47.05177],[26.87814,47.05766],[26.83244,47.03739],[26.81961,47.04211],[26.81228,47.06744],[26.75958,47.09784],[26.72543,47.08514],[26.68276,47.11243],[26.63446,47.09263],[26.6146,47.10956],[26.6226,47.13215],[26.6116,47.13517],[26.61369,47.14651],[26.60001,47.15467],[26.61068,47.16815],[26.6022,47.17299],[26.61588,47.18379],[26.60931,47.197],[26.59054,47.19901],[26.59878,47.20305],[26.57417,47.21854],[26.56583,47.23473],[26.50781,47.27171],[26.54629,47.30084],[26.5629,47.29242],[26.57422,47.30642],[26.56354,47.31508],[26.55052,47.30986],[26.55023,47.31794],[26.54128,47.31539],[26.52129,47.3402],[26.51089,47.33526],[26.49699,47.34992],[26.4988,47.36185],[26.50886,47.36313],[26.49299,47.39234],[26.52746,47.40464],[26.53293,47.3898],[26.5709,47.38943],[26.57057,47.37628],[26.59934,47.36736],[26.61167,47.35489],[26.68178,47.3617],[26.67988,47.36812],[26.66369,47.36708],[26.67864,47.37679],[26.64397,47.39879],[26.67952,47.41338],[26.68885,47.41415],[26.69597,47.40081],[26.70341,47.40885],[26.6804,47.43978],[26.68152,47.46154],[26.69508,47.45947],[26.70059,47.47173],[26.72684,47.47288],[26.69754,47.49289],[26.70408,47.49939],[26.70137,47.5108],[26.71879,47.51528],[26.7879,47.49986],[26.8178,47.50801],[26.8377,47.49725],[26.87914,47.49164],[26.97737,47.49622],[27.00839,47.47546],[27.00679,47.48551],[27.01659,47.46912],[27.00526,47.46651],[27.0224,47.46133],[27.0419,47.43826],[27.04916,47.46622],[27.08225,47.46439],[27.07254,47.51282],[27.10004,47.54792],[27.14448,47.54174],[27.14966,47.52919],[27.15907,47.53521],[27.17958,47.51736],[27.21722,47.52078],[27.22324,47.51308],[27.22951,47.51498],[27.2247,47.52235],[27.2591,47.52907],[27.24634,47.5427],[27.25414,47.55263],[27.24664,47.556],[27.25155,47.5647],[27.28799,47.57397],[27.29495,47.56696],[27.30558,47.57187],[27.30106,47.57601],[27.32805,47.5732],[27.3284,47.57226]]]}},{"type":"Feature","properties":{"name":"Vrancea","admin":"județul","source":"© OpenStreetMap contributors, ODbL 1.0","osm_relation":2260187},"geometry":{"type":"Polygon","coordinates":[[[27.4928473,46.159225],[27.4788657,46.1675962],[27.4758826,46.1606371],[27.4673533,46.1579299],[27.4645149,46.1619007],[27.4662376,46.1571586],[27.4591697,46.1574323],[27.4480355,46.1842143],[27.4156552,46.1892578],[27.419982,46.1938029],[27.3938787,46.1942659],[27.3789769,46.1899113],[27.3759133,46.1781785],[27.3809625,46.165078],[27.3751372,46.1636457],[27.3746311,46.1574304],[27.3500329,46.1527167],[27.3470102,46.157006],[27.3504019,46.1688982],[27.3339022,46.1684839],[27.3303669,46.1794359],[27.3141896,46.183795],[27.3192929,46.1919153],[27.3179608,46.2027678],[27.3066227,46.2061765],[27.262731,46.2004213],[27.2698861,46.1832198],[27.245776,46.1778824],[27.2393672,46.1783273],[27.2355291,46.1895961],[27.2261873,46.1868478],[27.2216828,46.1913644],[27.200685,46.1792962],[27.1981804,46.1856011],[27.190424,46.186666],[27.185839,46.1719244],[27.1732423,46.1812796],[27.1694445,46.1738524],[27.1646457,46.1746736],[27.1701708,46.1696053],[27.123624,46.1474833],[27.1272488,46.137812],[27.1401146,46.1341952],[27.1332373,46.120606],[27.1385656,46.1182961],[27.1361278,46.1144815],[27.1319223,46.1170781],[27.1229692,46.1040922],[27.0861291,46.1115058],[27.1051953,46.1050218],[27.1056461,46.0887017],[27.0845117,46.0952877],[27.0794511,46.0882285],[27.0731835,46.0876787],[26.9835787,46.1132638],[26.9612156,46.1087176],[26.9456599,46.0998188],[26.9507006,46.0978508],[26.9527031,46.0862117],[26.9399482,46.0777406],[26.9326544,46.0645639],[26.8701411,46.0851411],[26.8480895,46.0786988],[26.8449787,46.0714173],[26.8248742,46.0723215],[26.8071056,46.0657855],[26.8011895,46.0758081],[26.787987,46.0786358],[26.7807715,46.093904],[26.7621155,46.0865556],[26.7402234,46.0874122],[26.7336576,46.0953987],[26.717757,46.0890399],[26.7046134,46.0938854],[26.6813913,46.0793029],[26.6533776,46.0793387],[26.6447019,46.0751383],[26.6341048,46.0575102],[26.6081471,46.0447827],[26.6014427,46.0473927],[26.5860832,46.0404318],[26.5820517,46.0252348],[26.5726031,46.0168393],[26.5400557,46.0233032],[26.5357404,46.0279009],[26.5156523,46.0269216],[26.491727,46.0452216],[26.4800352,46.0447908],[26.4772331,46.0399483],[26.4603674,46.0351422],[26.4400116,46.0388885],[26.4411779,46.0234728],[26.4460148,46.0188869],[26.4337154,46.0025537],[26.4369443,45.9887016],[26.4062876,45.9719401],[26.3896636,45.9558296],[26.3914627,45.9458664],[26.3872344,45.9408637],[26.3940865,45.9211893],[26.3824771,45.9174005],[26.375811,45.9065274],[26.3780311,45.8894153],[26.3871308,45.8748395],[26.3732788,45.8557187],[26.3710472,45.8432632],[26.3770825,45.837112],[26.3781898,45.8270177],[26.3749404,45.8209102],[26.3862794,45.8048049],[26.4098915,45.7902366],[26.4267556,45.7884491],[26.4409754,45.7763659],[26.4433945,45.7515636],[26.4357431,45.7396711],[26.4430287,45.7311587],[26.4668159,45.7193207],[26.4671792,45.7045659],[26.4830018,45.701144],[26.48949,45.6937274],[26.4871987,45.6875145],[26.4928343,45.6768946],[26.5083865,45.6668031],[26.517931,45.6512468],[26.530084,45.6408412],[26.5414842,45.6417751],[26.5514016,45.6293813],[26.579685,45.6333041],[26.593553,45.6203486],[26.6152779,45.6280417],[26.6477796,45.6090378],[26.681552,45.6087005],[26.7188795,45.5719258],[26.7433922,45.5664649],[26.7468532,45.5625151],[26.7391024,45.5568687],[26.7432584,45.5506282],[26.7822181,45.547774],[26.7921573,45.5522599],[26.8054235,45.5478489],[26.8176267,45.5287552],[26.8339228,45.5178371],[26.853052,45.5253578],[26.8901674,45.5168084],[26.9001979,45.523427],[26.9033643,45.5386525],[26.906081,45.5328356],[26.9262483,45.5353604],[26.9385444,45.5320233],[26.9405468,45.5254931],[26.9482968,45.5218687],[26.9641421,45.5336809],[26.9858538,45.537734],[26.9750736,45.53197],[27.0022308,45.4848728],[27.0182135,45.4781286],[27.0454463,45.4525758],[27.0899409,45.4458981],[27.1003104,45.4583268],[27.1036746,45.4705868],[27.1090831,45.4688163],[27.1092845,45.4748933],[27.1272506,45.4662696],[27.1361727,45.4655773],[27.1402376,45.4728323],[27.1582834,45.465208],[27.1429496,45.4513329],[27.1204244,45.4476945],[27.1066545,45.4385237],[27.1127032,45.4347541],[27.1040876,45.4260356],[27.1200641,45.4208103],[27.1148475,45.4092998],[27.143526,45.4105023],[27.1479249,45.416422],[27.1747684,45.4276724],[27.1944082,45.4533681],[27.2042877,45.4528386],[27.2234392,45.4275851],[27.2380096,45.4329613],[27.2410352,45.4299161],[27.2567312,45.4494179],[27.2795001,45.4543513],[27.2811317,45.4335361],[27.2769871,45.4322353],[27.2802634,45.4268286],[27.2735395,45.4281626],[27.2646242,45.4205015],[27.2700348,45.3902096],[27.3395847,45.3835116],[27.3366259,45.3713346],[27.3730293,45.3736333],[27.3944455,45.3833158],[27.4014697,45.3770194],[27.4347603,45.3947091],[27.429441,45.4056025],[27.4352125,45.406883],[27.4327702,45.4096674],[27.5585467,45.488385],[27.5429366,45.4993683],[27.5369652,45.4939397],[27.5269468,45.5002336],[27.5418149,45.5091528],[27.524543,45.5195847],[27.5222325,45.5296857],[27.5283105,45.5485482],[27.5042505,45.5631652],[27.5100637,45.5766603],[27.536287,45.5810992],[27.5187826,45.590246],[27.5151758,45.6046289],[27.4975656,45.6068972],[27.5134211,45.6154954],[27.5099,45.6237283],[27.4883784,45.6293883],[27.4894886,45.6404058],[27.4691409,45.6366024],[27.4637773,45.6455529],[27.4523329,45.6506084],[27.4565605,45.6579232],[27.4415342,45.678229],[27.4245495,45.668382],[27.4210588,45.6709307],[27.4261957,45.6782103],[27.4156311,45.6774529],[27.3999714,45.6859566],[27.362382,45.7293797],[27.3539746,45.7469109],[27.3556489,45.7591436],[27.3385954,45.7837766],[27.342299,45.7882648],[27.3275898,45.79478],[27.3196669,45.8054795],[27.3032587,45.8451039],[27.2900754,45.8600872],[27.2791513,45.8569081],[27.2754323,45.8665791],[27.2815853,45.8679664],[27.2792066,45.8705528],[27.2486538,45.8726551],[27.2524009,45.882397],[27.2828212,45.8863209],[27.2419095,45.9468976],[27.2270465,46.0091381],[27.235167,46.0241013],[27.2331342,46.0366372],[27.2369135,46.0461911],[27.268532,46.0414884],[27.2755343,46.0477979],[27.2777972,46.059197],[27.290288,46.0598614],[27.2818401,46.0751374],[27.2919086,46.083243],[27.3195868,46.0861394],[27.3227031,46.0791001],[27.3683104,46.0786611],[27.3717457,46.0878233],[27.4243045,46.0893011],[27.4297926,46.0946477],[27.4220262,46.0991811],[27.4226776,46.1109987],[27.4281795,46.1161596],[27.4187277,46.1314537],[27.4267741,46.1395351],[27.4488892,46.1264615],[27.4809851,46.1258637],[27.4840809,46.1397538],[27.503082,46.1396328],[27.5023586,46.1433354],[27.4846922,46.1453379],[27.4928473,46.159225]]]}},{"type":"Feature","properties":{"name":"Popești","admin":"comuna","source":"© OpenStreetMap contributors, ODbL 1.0","osm_relation":14786210},"geometry":{"type":"Polygon","coordinates":[[[22.5005302,47.1788706],[22.5009452,47.1771006],[22.5036574,47.174915],[22.5059494,47.1741937],[22.5068648,47.173002],[22.5071757,47.1713987],[22.4941402,47.1694081],[22.4942679,47.1703814],[22.493646,47.1709715],[22.4926396,47.1712906],[22.4914321,47.1723292],[22.4898056,47.1726017],[22.4892211,47.1729364],[22.4889622,47.1737832],[22.4884782,47.1741856],[22.4874548,47.1745131],[22.485909,47.1742936],[22.4852362,47.1744765],[22.4839067,47.1738526],[22.4839538,47.172999],[22.4834469,47.1726232],[22.48359,47.1720327],[22.4833821,47.1717367],[22.4834308,47.1711441],[22.482622,47.1704971],[22.4809898,47.1698269],[22.4811797,47.1693965],[22.4808836,47.1687313],[22.4804625,47.1684762],[22.4796665,47.1669277],[22.4777211,47.1662412],[22.4760097,47.1659839],[22.4758995,47.1666149],[22.4754547,47.1671471],[22.4744966,47.1677566],[22.4737356,47.1686225],[22.4728703,47.1688251],[22.4722441,47.1685899],[22.4716497,47.168611],[22.4690552,47.1676103],[22.4678694,47.1665217],[22.4677642,47.166165],[22.4649819,47.1643865],[22.4622397,47.1635137],[22.4611359,47.1633698],[22.4594864,47.1625499],[22.4575157,47.162232],[22.4569794,47.1599853],[22.4560543,47.1590554],[22.4547151,47.158813],[22.4451404,47.1580818],[22.4452115,47.155276],[22.4460053,47.1534434],[22.4446038,47.1518407],[22.4438788,47.1522321],[22.4438147,47.152598],[22.4439832,47.1527538],[22.4437519,47.1532267],[22.4430999,47.1533399],[22.4426731,47.1536065],[22.4416159,47.1535759],[22.4405499,47.1543646],[22.4395601,47.1542033],[22.4390005,47.1535527],[22.4386593,47.1534879],[22.438314,47.1536664],[22.4377843,47.1545666],[22.4378348,47.1555096],[22.4382852,47.1568522],[22.4362619,47.1572926],[22.4360759,47.1577119],[22.4325546,47.1581953],[22.4311687,47.1582441],[22.4299898,47.1590984],[22.4286863,47.15925],[22.4278928,47.1596799],[22.4274984,47.1605067],[22.4268525,47.1606632],[22.4263441,47.1611863],[22.4252518,47.1613151],[22.4243091,47.1622323],[22.4232645,47.1624059],[22.4222181,47.1630018],[22.4205847,47.1636283],[22.4196098,47.1635077],[22.4175461,47.1642036],[22.4166389,47.1640605],[22.4161436,47.164332],[22.4159025,47.1656283],[22.4146499,47.1669798],[22.4135607,47.1676723],[22.4116285,47.1668098],[22.4112351,47.1675719],[22.4105473,47.1678023],[22.4098689,47.1678172],[22.4089699,47.1675857],[22.4085421,47.1677907],[22.4066174,47.1673108],[22.4066729,47.1669897],[22.4057427,47.1667548],[22.4055113,47.166542],[22.4054874,47.1661262],[22.4058415,47.1661661],[22.4071184,47.1657275],[22.4071515,47.1655642],[22.4080248,47.165382],[22.4083203,47.1659363],[22.4089046,47.1650074],[22.4094339,47.1652878],[22.4095856,47.1650691],[22.4095223,47.1643461],[22.409262,47.163831],[22.408642,47.1633188],[22.408932,47.1628279],[22.4095722,47.1624531],[22.4103297,47.1622978],[22.4112642,47.1632113],[22.4156981,47.1622126],[22.4155574,47.1575749],[22.4145766,47.1559475],[22.4145073,47.1554511],[22.4154155,47.1482554],[22.4085148,47.1425787],[22.4084421,47.1422385],[22.4068166,47.1413335],[22.4062973,47.1427657],[22.4045378,47.1432905],[22.4027013,47.1433912],[22.4015438,47.1432306],[22.3997919,47.14381],[22.3979902,47.1431038],[22.3971325,47.1429966],[22.3959411,47.1431295],[22.395321,47.1433745],[22.3943421,47.1441396],[22.3936119,47.1452891],[22.3933897,47.146732],[22.3922091,47.1482682],[22.3918876,47.1494441],[22.391325,47.1499673],[22.3907412,47.1509493],[22.3908624,47.1517199],[22.3902734,47.1532752],[22.3896571,47.1535761],[22.388793,47.1535523],[22.38846,47.1536903],[22.3870358,47.15333],[22.3853637,47.1523994],[22.3841257,47.1522855],[22.3817021,47.152462],[22.3810514,47.1521814],[22.3797856,47.1523084],[22.3786274,47.1519276],[22.378262,47.1519596],[22.3782,47.1524665],[22.376401,47.1521999],[22.3775155,47.1544419],[22.377526,47.1559774],[22.3773505,47.1563238],[22.3761091,47.1565342],[22.3764999,47.156935],[22.3763459,47.1571484],[22.3751183,47.1578304],[22.3751621,47.1585133],[22.3746261,47.1593284],[22.3742334,47.161093],[22.3736412,47.1619487],[22.3724623,47.1621357],[22.3717576,47.162868],[22.3713677,47.1630234],[22.3684444,47.1630216],[22.3668731,47.163723],[22.3665872,47.164131],[22.3664298,47.1655212],[22.3661991,47.1657963],[22.3643932,47.1661724],[22.363277,47.1661693],[22.3612479,47.1672999],[22.3604466,47.1681223],[22.3599761,47.1682455],[22.359113,47.1678846],[22.3581047,47.1683874],[22.3573777,47.1689484],[22.3556583,47.1710085],[22.3541775,47.1718485],[22.3526277,47.1734926],[22.3519714,47.173752],[22.3500577,47.1762818],[22.348767,47.1775275],[22.3471594,47.1797577],[22.3469912,47.1805936],[22.3470884,47.1818466],[22.3435205,47.1830716],[22.3425303,47.1842084],[22.3411684,47.1846141],[22.3394419,47.1858074],[22.3389282,47.186937],[22.3377328,47.1881183],[22.3373287,47.1889571],[22.3367701,47.191185],[22.3356865,47.1920155],[22.3346645,47.1933218],[22.3344044,47.1949052],[22.3330598,47.1974116],[22.3320095,47.1985439],[22.3317289,47.1994885],[22.3302198,47.2024271],[22.329798,47.2036262],[22.3295161,47.2037702],[22.3292588,47.2070213],[22.3286071,47.2079439],[22.3283288,47.2087163],[22.327969,47.2090453],[22.3277147,47.2096072],[22.3274698,47.2096804],[22.3276375,47.2098182],[22.3273914,47.2099893],[22.3274448,47.2101255],[22.3270652,47.2103075],[22.3272871,47.2109958],[22.3270531,47.2110247],[22.3271126,47.2111631],[22.3269422,47.2113511],[22.3265977,47.211519],[22.3266224,47.2117653],[22.3263919,47.2118743],[22.3264131,47.2120048],[22.3256671,47.212399],[22.3255909,47.2126569],[22.3262626,47.213231],[22.3261998,47.2134028],[22.3264997,47.213925],[22.325967,47.2152127],[22.3260942,47.2163823],[22.3253202,47.216366],[22.3238956,47.2170373],[22.3228275,47.2172145],[22.322503,47.2174988],[22.3212263,47.2178936],[22.3203697,47.2177221],[22.32055,47.2174369],[22.3195053,47.2174293],[22.3191036,47.2170593],[22.316463,47.2176938],[22.3154832,47.2181963],[22.3149289,47.2169841],[22.3152371,47.2166185],[22.3151696,47.2161402],[22.3148889,47.2157033],[22.3144266,47.2157346],[22.3138179,47.2153306],[22.3124511,47.2153966],[22.3124213,47.2156887],[22.3128208,47.2163732],[22.3136722,47.2173829],[22.3135733,47.2182508],[22.3133764,47.2186632],[22.3122487,47.2199028],[22.3115464,47.2210479],[22.3107976,47.2211417],[22.3106781,47.2218278],[22.3108687,47.2224448],[22.3117096,47.2225934],[22.3118925,47.2230592],[22.3124134,47.2235809],[22.3153446,47.225933],[22.3145726,47.2276951],[22.314315,47.227607],[22.3144477,47.2285425],[22.3117394,47.2302576],[22.3102289,47.2309111],[22.3104748,47.2317758],[22.3093629,47.2326416],[22.3090757,47.2333272],[22.3080758,47.2341154],[22.3057352,47.2344556],[22.3050595,47.2348562],[22.3039002,47.235156],[22.3011397,47.2350918],[22.3010986,47.2352335],[22.2999183,47.2349602],[22.2992892,47.2360665],[22.2993443,47.2375497],[22.3016729,47.2378449],[22.3037732,47.2375043],[22.3059703,47.2368503],[22.3070575,47.2368074],[22.309168,47.2360674],[22.3100196,47.2360189],[22.3118494,47.2354168],[22.3129747,47.2353543],[22.3138688,47.2355942],[22.3155231,47.2380333],[22.3194399,47.2377827],[22.3212047,47.2378389],[22.3213571,47.2368082],[22.3216715,47.2361581],[22.3215965,47.2357278],[22.3217853,47.2353849],[22.3216413,47.2353369],[22.3230416,47.2338685],[22.3267246,47.2318675],[22.3311934,47.230428],[22.3337398,47.2291676],[22.3352928,47.2288216],[22.3368306,47.2282077],[22.3375308,47.2272619],[22.3395115,47.2258137],[22.3401855,47.2247185],[22.3408277,47.2231278],[22.3414359,47.2225198],[22.3428508,47.2216746],[22.350133,47.2207729],[22.3526785,47.2210799],[22.3567666,47.2220484],[22.3616831,47.2236445],[22.3626848,47.2240723],[22.3631099,47.2244459],[22.3629726,47.2251603],[22.3631567,47.225355],[22.3635071,47.225451],[22.3640913,47.225254],[22.3666321,47.2263044],[22.3710572,47.2277001],[22.3674019,47.2316744],[22.3677271,47.2317131],[22.3710157,47.2309719],[22.3722063,47.2309657],[22.3730694,47.2316877],[22.3756472,47.2324328],[22.3783455,47.2336708],[22.3789821,47.2338255],[22.3803832,47.2353041],[22.3822492,47.2366817],[22.3827555,47.2367125],[22.3825812,47.2369888],[22.3830189,47.2375006],[22.3867279,47.237513],[22.3878566,47.2379838],[22.3897772,47.2392982],[22.3909387,47.2395503],[22.3922946,47.2408888],[22.3987879,47.243793],[22.3982912,47.2450879],[22.3982228,47.2459226],[22.4021217,47.2472962],[22.4017393,47.2485671],[22.4020602,47.2499586],[22.4027593,47.2506417],[22.4041987,47.251372],[22.4028717,47.2517581],[22.4021904,47.25227],[22.4031934,47.2544046],[22.4039649,47.2549001],[22.405076,47.254333],[22.4056598,47.2547227],[22.4058415,47.2552369],[22.4057192,47.2555792],[22.40591,47.2567665],[22.4072247,47.2564056],[22.4077933,47.2568597],[22.4100372,47.2564797],[22.4102799,47.2566742],[22.4099771,47.2570409],[22.4093554,47.2573829],[22.4096887,47.2577824],[22.4104764,47.2577284],[22.4105352,47.2578953],[22.4111298,47.2577425],[22.4114602,47.2594871],[22.4112983,47.2603403],[22.4115982,47.2616226],[22.4115533,47.2628061],[22.4112286,47.2633483],[22.4100167,47.2634577],[22.4080273,47.2633188],[22.40802,47.2648933],[22.4084277,47.2674279],[22.4089455,47.2676519],[22.4084361,47.2680242],[22.4087318,47.268278],[22.409085,47.2693784],[22.4100403,47.2711407],[22.4111021,47.272578],[22.4120966,47.2727565],[22.414597,47.2740711],[22.4183656,47.2751815],[22.4231576,47.2762097],[22.4233812,47.2763624],[22.4237367,47.2773084],[22.4259779,47.2771283],[22.4261089,47.2766299],[22.42793,47.2753574],[22.4418398,47.2682178],[22.4400606,47.2671244],[22.4524298,47.2587372],[22.4543375,47.2594909],[22.4551491,47.2604348],[22.4565033,47.2612082],[22.4569115,47.2617616],[22.457666,47.2622276],[22.461695,47.2597637],[22.4639854,47.2585811],[22.4655734,47.2600544],[22.4658772,47.2599053],[22.4662707,47.2601753],[22.4670075,47.25988],[22.4671261,47.2597544],[22.4668092,47.2594244],[22.467261,47.2591282],[22.4685933,47.2597333],[22.4697051,47.2592421],[22.4713399,47.2604579],[22.474387,47.2622161],[22.4785106,47.2666278],[22.4902752,47.2581542],[22.4850024,47.2572923],[22.4809142,47.2561949],[22.4799559,47.255753],[22.4794825,47.2553007],[22.4764418,47.2533401],[22.4756064,47.2526974],[22.4755415,47.2523417],[22.4749079,47.2518522],[22.4745808,47.251187],[22.4741393,47.2510624],[22.4737119,47.2501823],[22.4706599,47.2478059],[22.47008,47.2469858],[22.4691193,47.2462747],[22.469125,47.2458928],[22.4689567,47.2456791],[22.4678227,47.2448415],[22.4676337,47.244661],[22.4676677,47.2444629],[22.4671567,47.2442104],[22.467012,47.2438438],[22.4653078,47.2429924],[22.4643348,47.241533],[22.4637476,47.2415272],[22.4628716,47.2410317],[22.462995,47.2408341],[22.4626272,47.2405229],[22.4618566,47.2402794],[22.4607707,47.2394389],[22.4600771,47.2391974],[22.4596571,47.2388277],[22.4592815,47.2379325],[22.4585478,47.2378993],[22.4584449,47.2376998],[22.4580292,47.2375362],[22.4575799,47.2375807],[22.4568045,47.2368991],[22.4547981,47.2359845],[22.4541255,47.2354725],[22.4545726,47.2341253],[22.4544422,47.2338856],[22.4545218,47.2327445],[22.4538153,47.2310019],[22.4553377,47.2281491],[22.4657161,47.2361563],[22.467152,47.2365641],[22.4693769,47.234824],[22.4677044,47.2338871],[22.4619288,47.2300606],[22.4598829,47.2281164],[22.4613895,47.2272393],[22.4626769,47.2269828],[22.4612364,47.225053],[22.4591054,47.2226589],[22.4585589,47.221434],[22.4590159,47.2213694],[22.4592767,47.2211284],[22.4594656,47.2200842],[22.4597393,47.2195476],[22.4592,47.2183229],[22.4598494,47.2161784],[22.4599457,47.2148312],[22.4606791,47.2142009],[22.4600673,47.2138097],[22.4640384,47.2119437],[22.4655077,47.210838],[22.4645791,47.2103044],[22.4651996,47.2097944],[22.466112,47.2101942],[22.4683718,47.2078367],[22.4686218,47.2075451],[22.4695624,47.2050009],[22.4709136,47.2026266],[22.4714371,47.2019097],[22.4723584,47.2013947],[22.4752735,47.200496],[22.4761044,47.2000965],[22.4799197,47.1998396],[22.4824139,47.1993395],[22.4846778,47.1986414],[22.4869642,47.1991934],[22.4892135,47.1983776],[22.4915939,47.196176],[22.4925021,47.1949847],[22.4950704,47.19463],[22.4966522,47.1936736],[22.4976484,47.1921241],[22.4981625,47.190776],[22.4969616,47.1881728],[22.4958095,47.187817],[22.4939679,47.1877767],[22.4933419,47.1867133],[22.4933102,47.1861644],[22.4935529,47.1852569],[22.4950042,47.1838462],[22.4959016,47.1831923],[22.4989306,47.1819162],[22.5000988,47.180727],[22.5006272,47.1795125],[22.5005302,47.1788706]]]}},{"type":"Feature","properties":{"name":"Hălmăgel","admin":"comuna","source":"© OpenStreetMap contributors, ODbL 1.0","osm_relation":14784015},"geometry":{"type":"Polygon","coordinates":[[[22.6806876,46.3876987],[22.6810933,46.3872103],[22.681519,46.3858176],[22.6818879,46.3853207],[22.6843362,46.3848783],[22.6871622,46.3839476],[22.6892861,46.3839669],[22.6904013,46.3841313],[22.6914957,46.3838541],[22.6927808,46.3826975],[22.693001,46.382023],[22.6948574,46.3805382],[22.6963852,46.3800312],[22.6987492,46.3787332],[22.6989521,46.3784656],[22.6990863,46.3768939],[22.699358,46.3763559],[22.6992385,46.3757769],[22.6995543,46.3737813],[22.6977351,46.3710226],[22.6980136,46.3706514],[22.6980259,46.3694616],[22.6984177,46.3686251],[22.6993164,46.3655515],[22.7000682,46.3650859],[22.7017555,46.3647041],[22.7061134,46.3646151],[22.7072457,46.3638804],[22.708166,46.3635322],[22.7106838,46.3630543],[22.7131774,46.3622402],[22.7138905,46.3621864],[22.7157577,46.3628028],[22.7174419,46.3630829],[22.7186872,46.3630277],[22.720645,46.3625201],[22.7211841,46.3625308],[22.722992,46.3631306],[22.7246604,46.3628396],[22.7278177,46.3636299],[22.7297681,46.3618347],[22.7338485,46.3595822],[22.7344198,46.358997],[22.7367704,46.3583484],[22.7384081,46.3582551],[22.7408704,46.3575277],[22.7436512,46.3564075],[22.744842,46.3554221],[22.7456801,46.3544142],[22.7462283,46.3532386],[22.7487202,46.3512153],[22.7482505,46.3508642],[22.7480895,46.3505249],[22.7473559,46.3500182],[22.7458356,46.3482037],[22.7452807,46.3470561],[22.7442817,46.3462025],[22.7424407,46.3452274],[22.7410975,46.3449158],[22.7394521,46.3449678],[22.738857,46.3448081],[22.7381169,46.3442754],[22.7371737,46.3441273],[22.7360521,46.3430555],[22.7298402,46.3396245],[22.7294417,46.3392374],[22.7283012,46.3373692],[22.7285119,46.3358619],[22.7262677,46.334846],[22.7244467,46.3337711],[22.7217755,46.3330312],[22.7212613,46.3325758],[22.7202303,46.3326189],[22.7172941,46.3320644],[22.7167113,46.3314931],[22.7137573,46.3296026],[22.7124785,46.3292161],[22.7110371,46.3294035],[22.7088341,46.3293468],[22.7053144,46.3273685],[22.7021497,46.3261349],[22.70064,46.3257612],[22.7004361,46.3254093],[22.6942701,46.3230303],[22.6924151,46.3228691],[22.6888046,46.3235894],[22.6867972,46.323648],[22.6852294,46.3234677],[22.6840764,46.3236427],[22.6831862,46.3235256],[22.6812563,46.3225944],[22.6786026,46.3218468],[22.6778713,46.3213612],[22.6766353,46.3184119],[22.6772492,46.316839],[22.6781041,46.3159949],[22.6791672,46.3153251],[22.6806447,46.3125708],[22.6826372,46.3096576],[22.6821899,46.3090705],[22.6817154,46.3078094],[22.6819013,46.305551],[22.6816596,46.3039048],[22.6812044,46.3030787],[22.6808512,46.3015508],[22.680974,46.3003593],[22.6803581,46.2981004],[22.6791274,46.297158],[22.6771569,46.2961126],[22.6757425,46.2956567],[22.6741106,46.2939017],[22.6729567,46.2920057],[22.6724334,46.2907356],[22.6729978,46.2906819],[22.6739379,46.2901867],[22.6744583,46.2895851],[22.674432,46.2885317],[22.6748204,46.2877071],[22.6744919,46.2871127],[22.6731288,46.2867423],[22.6729468,46.2860285],[22.6736498,46.2844512],[22.6733755,46.2842497],[22.6721541,46.2839951],[22.670999,46.2831596],[22.6699515,46.281914],[22.6676717,46.2799563],[22.6661044,46.277714],[22.6648255,46.2768259],[22.6604832,46.2715578],[22.6593277,46.2690139],[22.6584737,46.2657732],[22.6588817,46.2646572],[22.659971,46.2640603],[22.6604796,46.2618469],[22.6603158,46.2614563],[22.6595351,46.2611093],[22.6573085,46.2592023],[22.6565614,46.2580936],[22.655985,46.257657],[22.6552365,46.2574543],[22.6544399,46.2562637],[22.6544023,46.2554509],[22.6555805,46.2548753],[22.656246,46.2549304],[22.6564814,46.2541512],[22.6573455,46.2539458],[22.6584464,46.25228],[22.658824,46.251406],[22.659539,46.250601],[22.6606999,46.2494201],[22.6617188,46.248993],[22.6602808,46.2454559],[22.6597663,46.2446116],[22.6589306,46.244058],[22.6574084,46.2434414],[22.657293,46.2431463],[22.6573291,46.2428987],[22.6579973,46.2422294],[22.6583985,46.2421223],[22.6591155,46.2412098],[22.6586745,46.2407484],[22.6589151,46.2405049],[22.6590671,46.2396388],[22.6582474,46.2387527],[22.6579163,46.2375436],[22.6574999,46.2374797],[22.6572888,46.2358704],[22.6568882,46.2354332],[22.6536295,46.2344752],[22.6516835,46.2342416],[22.6501834,46.2338511],[22.6472217,46.2335689],[22.6471733,46.232785],[22.6476175,46.2317287],[22.6478881,46.2305305],[22.6483258,46.2296263],[22.6490396,46.2287969],[22.64175,46.2277999],[22.6378149,46.2269579],[22.6356864,46.2262668],[22.6344726,46.2261864],[22.6325585,46.2275444],[22.6319498,46.228708],[22.6312704,46.2305896],[22.6307213,46.2308273],[22.6297582,46.2302914],[22.6289992,46.2328047],[22.6282228,46.2339334],[22.6277957,46.2349457],[22.6261418,46.236487],[22.6252569,46.2377634],[22.6238768,46.2385764],[22.6218322,46.2391303],[22.6214,46.2391126],[22.6191227,46.2383333],[22.6176851,46.2382834],[22.6165321,46.2392605],[22.6164242,46.2401592],[22.6135974,46.243208],[22.6129745,46.2433909],[22.6122936,46.2433025],[22.6099259,46.2445541],[22.6096031,46.2443802],[22.6073976,46.2446626],[22.6074659,46.2449301],[22.6062587,46.2451635],[22.6066047,46.2459494],[22.6043347,46.2467709],[22.6047032,46.2477101],[22.6037852,46.2496532],[22.604225,46.2504072],[22.6030854,46.2509283],[22.6027551,46.2525956],[22.6028749,46.2547817],[22.6022324,46.2551317],[22.6024571,46.2558931],[22.6027904,46.256329],[22.6051012,46.2583229],[22.6047824,46.2588643],[22.6052364,46.2602327],[22.6057679,46.2607285],[22.6055941,46.2623577],[22.6065754,46.2630692],[22.6064234,46.2636824],[22.6064759,46.2647972],[22.6059569,46.2665569],[22.6065183,46.2670972],[22.6065815,46.268047],[22.6061398,46.2681174],[22.6061263,46.2684285],[22.6068412,46.2683204],[22.6069936,46.2701047],[22.6057741,46.2700833],[22.6058503,46.2721774],[22.6061204,46.2734139],[22.6072289,46.2733729],[22.6075292,46.2754556],[22.6089852,46.2756455],[22.6088313,46.2763501],[22.6098053,46.2768035],[22.6101393,46.2773342],[22.6123136,46.2780128],[22.6135119,46.2780996],[22.6139322,46.2791105],[22.6161695,46.2811135],[22.6176873,46.2835833],[22.6174915,46.2846488],[22.6186348,46.2864478],[22.6178019,46.2881045],[22.618888,46.2886675],[22.618855,46.2887957],[22.6181766,46.2899312],[22.6175203,46.2902248],[22.6175039,46.2933315],[22.6161455,46.2952754],[22.6157965,46.2970041],[22.6151522,46.2986696],[22.6147873,46.2991675],[22.6145729,46.3001541],[22.6145451,46.3007977],[22.6150463,46.3021064],[22.6144927,46.3060115],[22.6170177,46.3101472],[22.6188109,46.3120349],[22.6182657,46.3124002],[22.6166288,46.3145168],[22.6165529,46.3152784],[22.6175272,46.3159211],[22.6177176,46.3164487],[22.6183516,46.316991],[22.6185794,46.3187063],[22.6181168,46.3199519],[22.6186885,46.3215326],[22.6179811,46.322687],[22.6177748,46.3233473],[22.6178192,46.3239635],[22.618708,46.3260125],[22.6188652,46.3273079],[22.6184514,46.3278427],[22.6185358,46.3283514],[22.6216977,46.3307799],[22.6224356,46.3317169],[22.6225635,46.3326725],[22.6217268,46.3350573],[22.6217985,46.3362695],[22.6226859,46.3377059],[22.6241873,46.3389946],[22.6246724,46.339778],[22.6245686,46.3403539],[22.6250659,46.3413194],[22.6252261,46.3457542],[22.6268606,46.3461897],[22.6280578,46.3457519],[22.6297001,46.346005],[22.630089,46.3463661],[22.6312116,46.3486627],[22.6383649,46.3528763],[22.6393102,46.3537783],[22.6396501,46.3554494],[22.6384221,46.3568748],[22.6381636,46.3576491],[22.6393673,46.3599726],[22.6440614,46.3636289],[22.6449841,46.3632544],[22.6469825,46.3632422],[22.6491524,46.3635313],[22.6497294,46.3644151],[22.6513696,46.3657105],[22.6525222,46.3657128],[22.6531535,46.3660448],[22.6533516,46.3668039],[22.6552419,46.3686079],[22.6561086,46.3691892],[22.6575927,46.3693472],[22.6582963,46.3701485],[22.6586016,46.3709204],[22.6591851,46.3712939],[22.6624677,46.37228],[22.6640477,46.3734395],[22.6651336,46.3735679],[22.66771,46.3743436],[22.6705899,46.3744021],[22.6739968,46.3747342],[22.6758596,46.3756266],[22.6771593,46.3770993],[22.6782824,46.3790067],[22.6783454,46.3812651],[22.6793085,46.3832131],[22.6806876,46.3876987]]]}},{"type":"Feature","properties":{"name":"Dragoslavele","admin":"comuna","source":"© OpenStreetMap contributors, ODbL 1.0","osm_relation":13137472},"geometry":{"type":"Polygon","coordinates":[[[25.2715831,45.4079162],[25.2722874,45.4074867],[25.2728509,45.4074414],[25.2740677,45.4082939],[25.2748964,45.4086359],[25.2758753,45.410276],[25.2778615,45.4118552],[25.2782333,45.4127737],[25.2793994,45.4137896],[25.2799633,45.4145111],[25.2818058,45.4151431],[25.2839786,45.4145608],[25.2864597,45.4151937],[25.287006,45.4156137],[25.2876846,45.4158668],[25.2881727,45.4168095],[25.2886283,45.4171073],[25.2886834,45.4174433],[25.2892485,45.4181303],[25.2902685,45.4189167],[25.2917375,45.4195579],[25.292569,45.420642],[25.293421,45.4213215],[25.2949441,45.4219511],[25.2957946,45.4221228],[25.296574,45.4220654],[25.2978068,45.4215842],[25.2993886,45.4219351],[25.2998499,45.4222825],[25.2992838,45.4230118],[25.2992089,45.4232599],[25.2993335,45.4233477],[25.3007138,45.4232443],[25.3014105,45.4227021],[25.3017658,45.4220912],[25.3020224,45.4211138],[25.305109,45.4164135],[25.3055505,45.4154819],[25.3071139,45.4134128],[25.3081277,45.4112079],[25.3081231,45.4099033],[25.30835,45.4091038],[25.307962,45.4060798],[25.3083693,45.4038856],[25.3089668,45.402883],[25.3094161,45.4016199],[25.3104803,45.400514],[25.3120553,45.3995074],[25.3124006,45.3984081],[25.3123893,45.3979729],[25.3118898,45.3969686],[25.3118384,45.3946665],[25.3107612,45.3938827],[25.3099092,45.3928351],[25.3085243,45.3915814],[25.3082769,45.3910494],[25.3080209,45.3895179],[25.3083946,45.3890744],[25.3092865,45.3887147],[25.3095361,45.3882398],[25.3115591,45.3873404],[25.312409,45.3871653],[25.3136155,45.3864176],[25.3143672,45.3857384],[25.3155414,45.3851053],[25.3185703,45.3828886],[25.3208371,45.3816717],[25.3216017,45.3810938],[25.321652,45.3809286],[25.3207323,45.3800804],[25.320721,45.3772058],[25.3194413,45.3749473],[25.3165592,45.3731102],[25.3158779,45.3721002],[25.3157033,45.3710887],[25.3163727,45.3699557],[25.3203268,45.3672654],[25.3210774,45.3655964],[25.3213219,45.3640479],[25.3195331,45.3613147],[25.3191903,45.3604228],[25.3198587,45.3591707],[25.3217937,45.357915],[25.3236465,45.3570763],[25.3250754,45.3559411],[25.3254924,45.3550469],[25.3259839,45.3524262],[25.3259746,45.3508189],[25.3250346,45.3488571],[25.3240981,45.3474906],[25.323835,45.3457651],[25.3228152,45.3445774],[25.3209543,45.3439279],[25.3194274,45.3426227],[25.317648,45.3414372],[25.3149409,45.3403735],[25.3129885,45.3384146],[25.3110393,45.3369915],[25.3090804,45.3337825],[25.3097908,45.3325627],[25.3082852,45.3332826],[25.3033864,45.3362368],[25.3013003,45.3366536],[25.2980162,45.3368291],[25.2929799,45.3378585],[25.2914723,45.3384213],[25.2869858,45.33961],[25.2843023,45.3408699],[25.2835037,45.3406287],[25.2823796,45.3405635],[25.2796937,45.3393577],[25.2784016,45.3390755],[25.2752716,45.3390155],[25.2734544,45.338717],[25.2714668,45.3390797],[25.2699599,45.3386682],[25.2695094,45.3383505],[25.2682169,45.3384422],[25.2672467,45.3381662],[25.2663803,45.3375231],[25.2635171,45.3361239],[25.2612131,45.3366603],[25.2600802,45.33587],[25.2597235,45.3358746],[25.2589302,45.3354073],[25.2570356,45.3351279],[25.2562925,45.3344884],[25.2552093,45.3339499],[25.2523876,45.3338579],[25.2506897,45.3331637],[25.2492726,45.3329209],[25.2478841,45.3324385],[25.2472003,45.3324469],[25.2454636,45.3301454],[25.2452772,45.3279467],[25.2437459,45.3273141],[25.2411186,45.3268152],[25.238427,45.3259831],[25.2380797,45.325359],[25.2364164,45.3238973],[25.2362166,45.3233608],[25.2352468,45.322216],[25.2348061,45.3211716],[25.2351497,45.3201539],[25.2354106,45.3179642],[25.2349041,45.3163232],[25.2344012,45.3156444],[25.2317395,45.3141971],[25.2312702,45.3141631],[25.2298678,45.3136237],[25.2285131,45.3126917],[25.2255909,45.3116681],[25.2241175,45.3103831],[25.2238993,45.3086598],[25.2227468,45.3070637],[25.2227608,45.3068016],[25.2240479,45.3055174],[25.2236693,45.3041601],[25.223902,45.3037696],[25.2237384,45.3032461],[25.2233184,45.3027591],[25.2230107,45.3016731],[25.2213028,45.3004484],[25.2210994,45.3001348],[25.2197856,45.2996821],[25.2187804,45.2988246],[25.2173216,45.2979434],[25.2160256,45.2974365],[25.2155064,45.2970151],[25.2144172,45.2967643],[25.2137241,45.295754],[25.2127474,45.2952794],[25.2114852,45.2939116],[25.2103351,45.2933155],[25.2093485,45.2939931],[25.2074933,45.2947754],[25.206144,45.2957518],[25.2055747,45.2956783],[25.202954,45.2959278],[25.200796,45.2966044],[25.2000378,45.2970583],[25.1985813,45.2975937],[25.1978991,45.2981191],[25.1949668,45.2987249],[25.1934761,45.298621],[25.1895199,45.2977606],[25.1883964,45.2976965],[25.1877685,45.2978681],[25.1831636,45.294633],[25.1821717,45.2941856],[25.1797967,45.293551],[25.1778487,45.2940549],[25.1752394,45.2953807],[25.1742011,45.295447],[25.1736075,45.2959717],[25.1719931,45.2962429],[25.1714524,45.296095],[25.1711315,45.2956186],[25.1711704,45.295214],[25.1615893,45.2952305],[25.1599341,45.2949985],[25.1589089,45.2946004],[25.1569673,45.2941765],[25.1564344,45.2938583],[25.1558065,45.2938198],[25.1553203,45.2935441],[25.1545215,45.2934139],[25.1500916,45.2937762],[25.1496959,45.2937152],[25.149092,45.2932835],[25.1471075,45.2930042],[25.1445551,45.2934769],[25.1428788,45.2932527],[25.14025,45.2934855],[25.1408589,45.2943927],[25.1424937,45.2954584],[25.1436666,45.296463],[25.1448233,45.2969013],[25.1453865,45.2974063],[25.1454562,45.2975804],[25.1443134,45.2984641],[25.1430811,45.2999247],[25.1440955,45.3002428],[25.1430919,45.3003439],[25.1452048,45.3058528],[25.1477206,45.3093528],[25.1472555,45.3107516],[25.1468686,45.3112356],[25.1466618,45.3118608],[25.1464906,45.3118354],[25.1460429,45.3124068],[25.1479263,45.3130634],[25.1483339,45.3135728],[25.1476809,45.314229],[25.1474609,45.314674],[25.1450406,45.3170349],[25.1465615,45.3173666],[25.146435,45.3179294],[25.146647,45.3180824],[25.1448478,45.3192358],[25.1451282,45.3194495],[25.1442743,45.3209114],[25.1424533,45.3248659],[25.1424095,45.3256257],[25.1416528,45.3260602],[25.1413474,45.3270362],[25.1417754,45.3279932],[25.1414174,45.3286839],[25.1413668,45.3301671],[25.1422101,45.3321448],[25.1428918,45.3344989],[25.1427939,45.3359472],[25.1425665,45.3368979],[25.1415121,45.3388245],[25.1410842,45.3405603],[25.1405988,45.3408366],[25.1406147,45.3410393],[25.1389597,45.3415026],[25.137902,45.3421318],[25.1380239,45.3429557],[25.1377674,45.3448061],[25.137847,45.3453716],[25.1376562,45.3476124],[25.13778,45.348306],[25.1382251,45.3489584],[25.1380963,45.3493569],[25.1351529,45.3522649],[25.1343267,45.3537769],[25.1337124,45.3542237],[25.1328532,45.3555446],[25.1330128,45.356447],[25.1326741,45.3575316],[25.1270515,45.3609675],[25.1263228,45.3614635],[25.1250599,45.3628197],[25.1242552,45.3631775],[25.1223382,45.3653832],[25.1227452,45.3662128],[25.1224674,45.3664885],[25.1230908,45.3660976],[25.1241094,45.3660737],[25.1265965,45.3647503],[25.1292162,45.3637503],[25.1316482,45.3633017],[25.1337182,45.3634701],[25.1371127,45.3630789],[25.1383075,45.3623943],[25.1401335,45.3619822],[25.1434164,45.3602281],[25.145719,45.3593375],[25.1463074,45.3587952],[25.147696,45.3583537],[25.1513331,45.3582045],[25.1521556,45.3580134],[25.1532783,45.3583415],[25.1541166,45.3580467],[25.1554572,45.3583962],[25.1573029,45.3583301],[25.1643231,45.3597548],[25.1651741,45.360764],[25.1672332,45.3607776],[25.1683561,45.3634065],[25.1687989,45.3639636],[25.1697645,45.3646516],[25.1711744,45.3642711],[25.1724666,45.3633807],[25.1731115,45.3633129],[25.1743024,45.3645864],[25.1748761,45.3661008],[25.175738,45.3674758],[25.175047,45.3682427],[25.1748059,45.3694205],[25.175052,45.3698701],[25.1750261,45.3702817],[25.175464,45.370385],[25.1757163,45.3706773],[25.1763741,45.3699052],[25.177205,45.3694695],[25.1782704,45.369294],[25.1783952,45.3689909],[25.1804273,45.368927],[25.180819,45.369188],[25.1808341,45.3697706],[25.1806765,45.3701717],[25.1803266,45.3704612],[25.180401,45.3707667],[25.1813998,45.3704948],[25.1820049,45.3713514],[25.183246,45.3713606],[25.1845273,45.3715895],[25.1859029,45.3715202],[25.1877176,45.3731016],[25.1881262,45.3737038],[25.1884752,45.3737032],[25.1883049,45.3741728],[25.188503,45.3742421],[25.1901027,45.3737383],[25.1900644,45.3742069],[25.1906236,45.3742715],[25.1910222,45.3740553],[25.1918179,45.3731731],[25.1921527,45.3737816],[25.1940985,45.3744623],[25.1954278,45.3739353],[25.1988904,45.3744258],[25.2003099,45.3736583],[25.2012425,45.3734359],[25.2012893,45.3737079],[25.201839,45.3735639],[25.2018645,45.3733518],[25.2020739,45.3733053],[25.2027381,45.3740234],[25.2032619,45.3739718],[25.2038208,45.3742054],[25.2047661,45.3750125],[25.2050219,45.3759554],[25.2077951,45.3790955],[25.2089146,45.3788334],[25.2092392,45.3789592],[25.2093832,45.3795906],[25.2109216,45.3805185],[25.2110192,45.3813661],[25.2108557,45.3818318],[25.2109055,45.3825132],[25.2115207,45.3828445],[25.2141433,45.3829785],[25.215305,45.3828618],[25.2164798,45.3831377],[25.2184256,45.3832653],[25.22018,45.3831637],[25.2223896,45.383552],[25.224179,45.3834912],[25.2249586,45.383735],[25.2275388,45.3832053],[25.23004,45.3833854],[25.2318682,45.3833109],[25.2329903,45.3840173],[25.2348635,45.3843119],[25.2346789,45.384855],[25.2334937,45.3864034],[25.2378185,45.3868713],[25.2382142,45.3865086],[25.2386813,45.3864748],[25.2405602,45.3874251],[25.244848,45.3900802],[25.2482216,45.3917377],[25.2493802,45.3920812],[25.2503928,45.39214],[25.2512453,45.3919549],[25.2518897,45.3920818],[25.2525247,45.392426],[25.2534005,45.3924369],[25.2546359,45.3933357],[25.2554345,45.3944643],[25.2559114,45.3947968],[25.2562182,45.3958751],[25.2584102,45.3980282],[25.2587026,45.3989901],[25.2596432,45.4000011],[25.2601331,45.4008485],[25.2603954,45.4009754],[25.2593662,45.4013274],[25.2591158,45.4020997],[25.2587126,45.4027101],[25.2581823,45.4031621],[25.2577315,45.4032329],[25.2570282,45.4036602],[25.2545391,45.40363],[25.2539787,45.4037511],[25.2536599,45.4046179],[25.2538431,45.4050831],[25.2564891,45.4064701],[25.2565342,45.4068731],[25.2569164,45.4073249],[25.2576643,45.4077568],[25.2583155,45.4086823],[25.2584559,45.4097066],[25.260912,45.4106005],[25.2620908,45.4099501],[25.2629691,45.4096967],[25.2640715,45.4081379],[25.2665577,45.4080154],[25.2689196,45.4076409],[25.2715831,45.4079162]]]}}]}