{"type":"FeatureCollection","features":[{"type":"Feature","properties":{"name":"Rotuma","admin":"dependency","source":"© OpenStreetMap contributors, ODbL 1.0","osm_relation":7223650},"geometry":{"type":"Polygon","coordinates":[[[176.72958,-12.51524],[176.7356,-12.54934],[176.7475,-12.58192],[176.76492,-12.61201],[176.78873,-12.64011],[176.81769,-12.66415],[176.85068,-12.68253],[176.88656,-12.69461],[176.98385,-12.71769],[177.00979,-12.72213],[177.06733,-12.72825],[177.10339,-12.72907],[177.14328,-12.73247],[177.17475,-12.72985],[177.20544,-12.72251],[177.23961,-12.70812],[177.27331,-12.68695],[177.30217,-12.65974],[177.32508,-12.62754],[177.34171,-12.5899],[177.34844,-12.56389],[177.35158,-12.53724],[177.34835,-12.48371],[177.345,-12.46677],[177.33608,-12.43545],[177.32172,-12.40298],[177.3063,-12.37908],[177.29594,-12.36593],[177.28149,-12.349],[177.25403,-12.32237],[177.22197,-12.30129],[177.18646,-12.28651],[177.14877,-12.27855],[177.01649,-12.26317],[176.98513,-12.26139],[176.95387,-12.26435],[176.92094,-12.27282],[176.88614,-12.28672],[176.8607,-12.30035],[176.83477,-12.31831],[176.80728,-12.33969],[176.78751,-12.35723],[176.76507,-12.3839],[176.74762,-12.41397],[176.73568,-12.44653],[176.72961,-12.48063],[176.72958,-12.51524]]]}}]}