{"type":"FeatureCollection","features":[{"type":"Feature","properties":{"name":"Nizhegorodskaya","admin":"oblast","source":"© OpenStreetMap contributors, ODbL 1.0","osm_relation":72195},"geometry":{"type":"Polygon","coordinates":[[[41.77648,55.09864],[41.80198,55.07071],[41.84392,55.07394],[41.86249,55.05721],[41.89709,55.06408],[41.96095,55.09531],[41.99948,55.09808],[42.00229,55.09114],[41.98072,55.05507],[42.00231,55.0374],[41.98995,55.01604],[41.99834,54.99534],[42.06077,54.97766],[42.11241,54.9796],[42.22719,54.95892],[42.25538,54.97898],[42.30022,54.99182],[42.32233,54.98782],[42.36911,55.00741],[42.41445,55.00701],[42.44527,55.02553],[42.48549,55.00935],[42.48531,54.99079],[42.44545,54.96465],[42.49368,54.91954],[42.49442,54.90771],[42.47188,54.89813],[42.45763,54.87799],[42.44379,54.88364],[42.42493,54.8616],[42.44291,54.85608],[42.4391,54.84311],[42.44957,54.83351],[42.42553,54.80558],[42.43037,54.79396],[42.50169,54.83814],[42.54348,54.80349],[42.57982,54.78743],[42.60197,54.79257],[42.62421,54.7801],[42.64194,54.78199],[42.6377,54.7863],[42.66823,54.80682],[42.70553,54.80768],[42.69641,54.81278],[42.72902,54.81763],[42.74089,54.81185],[42.73046,54.8013],[42.73911,54.79553],[42.73586,54.78834],[42.76304,54.79268],[42.80934,54.77007],[42.79223,54.75487],[42.81667,54.75329],[42.81617,54.76407],[42.84251,54.77152],[42.90109,54.75964],[42.92398,54.78033],[42.93794,54.78037],[42.93938,54.78721],[42.95005,54.7812],[42.96925,54.79776],[43.00688,54.78368],[43.03314,54.79412],[43.04695,54.78853],[43.03623,54.7816],[43.04645,54.77241],[43.06757,54.77919],[43.08603,54.77479],[43.1151,54.7935],[43.13693,54.82579],[43.13158,54.83311],[43.14046,54.84064],[43.13122,54.84971],[43.15126,54.86288],[43.14866,54.87682],[43.16106,54.88022],[43.16022,54.89345],[43.21122,54.89173],[43.21389,54.90161],[43.23034,54.90216],[43.22337,54.91053],[43.24166,54.92144],[43.26582,54.91256],[43.28697,54.92993],[43.27812,54.93582],[43.29407,54.94677],[43.28941,54.9541],[43.40298,54.94515],[43.41833,54.93153],[43.45503,54.93431],[43.46438,54.9101],[43.48626,54.90423],[43.59077,54.90265],[43.61436,54.88341],[43.61393,54.87118],[43.63162,54.86247],[43.61459,54.85893],[43.61822,54.85442],[43.73371,54.82018],[43.78006,54.82967],[43.77354,54.81944],[43.86114,54.80495],[43.95776,54.80609],[43.91503,54.75378],[43.92102,54.73949],[43.99698,54.72633],[44.03129,54.74149],[44.0898,54.73758],[44.09564,54.72207],[44.07839,54.70403],[44.08268,54.69],[44.06844,54.64857],[44.10165,54.64529],[44.12009,54.63392],[44.17201,54.63536],[44.19466,54.6137],[44.18848,54.60376],[44.20058,54.59646],[44.27059,54.60038],[44.27186,54.60621],[44.30858,54.59045],[44.35629,54.59045],[44.37113,54.58364],[44.38152,54.55211],[44.41223,54.5418],[44.40504,54.53465],[44.42449,54.53618],[44.43095,54.52884],[44.46852,54.52213],[44.52602,54.52546],[44.53674,54.5179],[44.55938,54.52791],[44.58383,54.56847],[44.58023,54.5728],[44.5986,54.57026],[44.62845,54.55484],[44.65911,54.51391],[44.62382,54.49577],[44.61644,54.50682],[44.62388,54.52342],[44.60232,54.51717],[44.60263,54.48736],[44.57525,54.48014],[44.58615,54.47151],[44.65145,54.48557],[44.68766,54.48442],[44.76977,54.52089],[44.80658,54.50141],[44.80418,54.48886],[44.84536,54.47983],[44.85138,54.48924],[44.90819,54.4634],[44.91952,54.4621],[44.96755,54.48806],[45.0198,54.47685],[45.01492,54.48437],[45.02677,54.49496],[45.04194,54.4891],[45.03906,54.47897],[45.04659,54.47572],[45.06442,54.47844],[45.10036,54.46841],[45.111,54.48067],[45.14034,54.48939],[45.12688,54.51646],[45.1437,54.52821],[45.11641,54.53205],[45.10963,54.52383],[45.08818,54.53025],[45.10165,54.5434],[45.07059,54.55967],[45.02589,54.54603],[45.0095,54.55683],[45.01138,54.57106],[45.03018,54.58225],[45.04768,54.58165],[45.0457,54.59746],[45.02941,54.60825],[45.05266,54.62191],[45.0361,54.62986],[45.08741,54.65235],[45.07163,54.67187],[45.04957,54.68078],[45.05329,54.68908],[45.03455,54.69115],[45.01825,54.70528],[45.0264,54.73595],[45.07359,54.76359],[45.11195,54.80006],[45.13356,54.78635],[45.15837,54.78655],[45.16515,54.78126],[45.15872,54.7722],[45.1944,54.74957],[45.19998,54.76384],[45.22066,54.77982],[45.20822,54.80006],[45.22658,54.80283],[45.21989,54.81835],[45.22572,54.84252],[45.23481,54.84791],[45.22615,54.84662],[45.22238,54.86006],[45.2307,54.87729],[45.25901,54.87842],[45.28338,54.86845],[45.29814,54.87808],[45.37124,54.88217],[45.39149,54.87393],[45.42685,54.88553],[45.42341,54.90083],[45.43911,54.91577],[45.41671,54.92194],[45.4325,54.93362],[45.41526,54.94708],[45.44715,54.95889],[45.44778,54.98181],[45.42582,54.99668],[45.41183,54.99722],[45.41946,55.00474],[45.43602,55.00307],[45.42135,55.02496],[45.42288,55.03818],[45.45747,55.06561],[45.46176,55.08178],[45.48329,55.08467],[45.47841,55.10088],[45.4864,55.11227],[45.50965,55.11021],[45.52785,55.09828],[45.57058,55.10112],[45.54765,55.13542],[45.59227,55.13007],[45.59604,55.14121],[45.58429,55.14244],[45.59313,55.16577],[45.61475,55.16224],[45.61217,55.16915],[45.6283,55.17155],[45.63191,55.18375],[45.66649,55.17748],[45.66562,55.18336],[45.69034,55.18091],[45.70312,55.19027],[45.74387,55.17547],[45.74937,55.16905],[45.73084,55.1595],[45.7359,55.14793],[45.76773,55.15469],[45.78532,55.12615],[45.7836,55.11638],[45.75589,55.11447],[45.75898,55.10181],[45.74895,55.09086],[45.73058,55.09243],[45.71925,55.08114],[45.75211,55.06792],[45.74328,55.05706],[45.71598,55.04741],[45.73417,55.04171],[45.69877,55.01189],[45.70214,55.00255],[45.72344,54.99137],[45.75,55.00234],[45.80677,55.00592],[45.80901,54.99775],[45.84933,55.01109],[45.90511,55.00488],[45.89916,54.9985],[45.92439,54.99372],[45.92919,55.00337],[45.94746,55.00458],[45.94497,54.99756],[45.9602,54.99687],[45.97424,55.00127],[45.99974,55.02522],[46.02162,55.02135],[46.02128,55.02984],[46.03489,55.02739],[46.0547,55.04106],[46.06204,55.04771],[46.04122,55.05363],[46.06797,55.0649],[46.07799,55.08219],[46.03218,55.09425],[46.04429,55.11602],[46.04038,55.12992],[46.02921,55.15084],[46.01302,55.14975],[46.01204,55.16278],[46.05143,55.17067],[46.05409,55.18931],[46.0743,55.20072],[46.07818,55.22102],[46.10664,55.23091],[46.11821,55.2217],[46.15931,55.23074],[46.16451,55.23265],[46.15155,55.24742],[46.17176,55.24921],[46.18263,55.26434],[46.20801,55.26108],[46.20294,55.26675],[46.22264,55.27303],[46.21837,55.27765],[46.22959,55.28883],[46.19993,55.33116],[46.20074,55.34076],[46.23656,55.34553],[46.2152,55.3733],[46.24119,55.38295],[46.25664,55.39918],[46.3667,55.41446],[46.38838,55.42771],[46.38391,55.45055],[46.39111,55.46193],[46.34588,55.48417],[46.32401,55.47803],[46.31838,55.49712],[46.34584,55.50534],[46.3088,55.50001],[46.28889,55.50915],[46.28005,55.49914],[46.2507,55.50298],[46.24125,55.5196],[46.21433,55.52067],[46.22876,55.53222],[46.20639,55.544],[46.18572,55.54224],[46.18585,55.53109],[46.19311,55.52395],[46.20439,55.52759],[46.20263,55.52245],[46.15181,55.52669],[46.1458,55.51619],[46.13302,55.51547],[46.11027,55.52756],[46.10743,55.543],[46.08647,55.54254],[46.11685,55.55516],[46.08247,55.57005],[46.09792,55.57728],[46.08324,55.59426],[46.06353,55.59781],[46.06671,55.61258],[46.04601,55.62842],[46.01011,55.63452],[45.96191,55.6298],[45.94298,55.66498],[45.91578,55.6688],[45.91238,55.69357],[45.95642,55.71673],[45.93378,55.72984],[45.94678,55.74094],[45.94816,55.75548],[45.96763,55.7581],[45.995,55.74948],[46.03264,55.78542],[46.06692,55.78241],[46.10044,55.79864],[46.11197,55.82862],[46.07349,55.86976],[46.14262,55.88902],[46.16854,55.88618],[46.16853,55.89303],[46.15971,55.89104],[46.15068,55.90014],[46.1318,55.90048],[46.1365,55.89255],[46.12358,55.89554],[46.14464,55.91666],[46.10212,55.92697],[46.07929,55.94863],[46.16377,55.99654],[46.15782,55.99879],[46.16484,56.00831],[46.18138,56.01106],[46.18525,56.03162],[46.14513,56.03481],[46.1564,56.05027],[46.1487,56.05269],[46.08974,56.03868],[46.08385,56.04399],[46.11093,56.07186],[46.08808,56.06524],[46.05949,56.0683],[46.05395,56.07696],[46.05606,56.10171],[46.04419,56.10602],[46.05259,56.11489],[46.04704,56.12155],[46.06917,56.12401],[46.1106,56.14445],[46.11084,56.1501],[46.08614,56.1568],[46.097,56.17705],[46.06653,56.17304],[46.04622,56.16071],[45.99982,56.17479],[45.96202,56.16482],[45.93683,56.18744],[45.93204,56.2126],[45.89755,56.21983],[45.89816,56.23547],[45.88168,56.23676],[45.86629,56.25484],[45.92033,56.25647],[45.92317,56.31254],[45.97004,56.31846],[45.94678,56.36314],[45.93383,56.37331],[45.95252,56.40339],[45.97444,56.41202],[45.96367,56.42869],[45.91629,56.42581],[45.89554,56.43427],[45.80267,56.42889],[45.75324,56.41282],[45.752,56.41984],[45.7666,56.42564],[45.76847,56.44628],[45.75116,56.45536],[45.68766,56.4529],[45.6619,56.46092],[45.64875,56.49106],[45.62374,56.51404],[45.65217,56.51736],[45.65687,56.53606],[45.64415,56.53403],[45.62866,56.54301],[45.62556,56.55231],[45.63785,56.56107],[45.62577,56.56129],[45.62705,56.56802],[45.64629,56.58138],[45.67007,56.61449],[45.71827,56.61534],[45.74463,56.60522],[45.75061,56.62318],[45.88733,56.62576],[45.88606,56.64789],[45.95475,56.65043],[45.93431,56.6648],[45.93198,56.67741],[45.89296,56.68279],[45.91896,56.70399],[45.90186,56.70666],[45.8707,56.69056],[45.85884,56.69783],[45.88219,56.71938],[45.87332,56.73114],[45.8652,56.72804],[45.86605,56.73584],[45.91853,56.72248],[45.92211,56.72776],[45.9414,56.85938],[45.96884,56.8586],[45.97052,56.87066],[46.09867,56.86321],[46.14919,56.87924],[46.20734,56.88271],[46.23962,56.89942],[46.27166,56.90286],[46.30355,56.88742],[46.31477,56.94525],[46.44862,56.93888],[46.46396,56.93077],[46.49238,56.93952],[46.5153,56.93571],[46.50497,56.91336],[46.53881,56.9134],[46.54672,56.93274],[46.60769,56.92322],[46.62421,56.93905],[46.67317,56.94203],[46.67221,56.95167],[46.6814,56.95177],[46.66953,56.97112],[46.71586,56.97282],[46.72154,56.96339],[46.76465,56.96779],[46.79052,56.99673],[46.74852,57.00096],[46.75445,57.03284],[46.7974,57.04292],[46.80901,57.06721],[46.80578,57.07795],[46.81556,57.07911],[46.81307,57.09051],[46.78181,57.08624],[46.76705,57.09653],[46.7775,57.10071],[46.76788,57.10702],[46.76975,57.11726],[46.80278,57.12344],[46.78658,57.1348],[46.77393,57.12833],[46.77236,57.14151],[46.74918,57.16191],[46.77621,57.16792],[46.7799,57.18223],[46.83816,57.17713],[46.84665,57.21834],[46.85656,57.22149],[46.82584,57.23033],[46.79723,57.22415],[46.8071,57.23315],[46.79632,57.24952],[46.80975,57.2601],[46.79279,57.28427],[46.79818,57.29053],[46.75523,57.2921],[46.74859,57.27929],[46.7177,57.28551],[46.72305,57.29807],[46.71264,57.29857],[46.71525,57.31321],[46.68325,57.34094],[46.73333,57.36562],[46.76103,57.36657],[46.76828,57.38572],[46.77906,57.38436],[46.76791,57.39364],[46.77711,57.40281],[46.77164,57.40932],[46.72595,57.40426],[46.7211,57.38871],[46.70901,57.38161],[46.68474,57.39501],[46.6878,57.4065],[46.71065,57.42213],[46.73677,57.41864],[46.7417,57.4303],[46.76916,57.4221],[46.76757,57.44012],[46.7769,57.4356],[46.82164,57.44663],[46.82255,57.45936],[46.80439,57.47163],[46.77354,57.47026],[46.77101,57.49883],[46.75293,57.52151],[46.80099,57.52213],[46.84005,57.50617],[46.86227,57.5053],[46.90244,57.51571],[46.9413,57.49514],[47.02194,57.48781],[47.13405,57.50962],[47.17858,57.53043],[47.20333,57.5311],[47.23671,57.55469],[47.29372,57.56132],[47.2933,57.5539],[47.31485,57.54799],[47.33825,57.56029],[47.35035,57.55071],[47.36889,57.55602],[47.37797,57.54685],[47.37507,57.52073],[47.48136,57.51518],[47.4941,57.5787],[47.53336,57.57808],[47.52491,57.58413],[47.53407,57.59246],[47.52462,57.59852],[47.5366,57.60556],[47.52221,57.60971],[47.51674,57.62795],[47.5565,57.65275],[47.53519,57.68927],[47.60558,57.7411],[47.59318,57.76416],[47.605,57.77456],[47.59965,57.78493],[47.56304,57.79471],[47.57713,57.80162],[47.57803,57.81044],[47.60144,57.81601],[47.61024,57.83617],[47.62708,57.84537],[47.61714,57.85923],[47.64409,57.86279],[47.65981,57.85546],[47.66496,57.85728],[47.65745,57.8647],[47.70007,57.87046],[47.71262,57.87905],[47.73729,57.8735],[47.74426,57.88222],[47.76922,57.87949],[47.76082,57.88361],[47.77019,57.89222],[47.73751,57.91062],[47.73518,57.93294],[47.7248,57.92857],[47.69077,57.94818],[47.67776,57.94528],[47.63369,57.95791],[47.60097,57.95311],[47.58087,57.96558],[47.54721,57.96262],[47.44779,57.98238],[47.41533,57.9783],[47.41667,58.00697],[47.1208,58.02034],[46.58647,58.02783],[46.574,58.03555],[46.55252,58.03236],[46.50298,58.04475],[46.49146,58.04041],[46.48499,58.02741],[46.4894,58.02146],[46.47819,58.01209],[46.43876,58.0032],[46.40218,58.03118],[46.34841,58.05296],[46.34493,58.06222],[45.92333,58.05657],[45.90339,58.04264],[45.8426,58.04992],[45.80951,58.04376],[45.81169,58.03429],[45.7988,58.02311],[45.7478,58.02834],[45.75297,58.01559],[45.73474,58.01276],[45.74996,57.99361],[45.74141,57.98584],[45.72442,57.98983],[45.74774,57.97594],[45.7434,57.96679],[45.72615,57.96308],[45.72806,57.95628],[45.71382,57.95425],[45.71219,57.94211],[45.64838,57.9206],[45.61377,57.91875],[45.58703,57.94433],[45.55182,57.95087],[45.54158,57.94294],[45.53966,57.95499],[45.50888,57.97607],[45.50891,58.02851],[45.29352,58.03206],[45.29434,58.05141],[45.22146,58.05272],[45.22357,58.08867],[45.00946,58.09118],[45.00784,58.07618],[44.97164,58.07526],[44.95076,58.08516],[44.86901,58.07671],[44.8499,58.06168],[44.85561,58.03768],[44.81321,58.01438],[44.81694,57.98223],[44.82719,57.97128],[44.80098,57.95986],[44.8428,57.90604],[44.87356,57.89451],[44.88078,57.88192],[44.86389,57.85455],[44.86857,57.84594],[44.86296,57.83824],[44.83477,57.81971],[44.83559,57.79956],[44.76103,57.75342],[44.76837,57.7455],[44.75941,57.73613],[44.7665,57.71241],[44.71059,57.69063],[44.60667,57.70158],[44.57882,57.69365],[44.56181,57.67501],[44.50089,57.65567],[44.50974,57.64717],[44.49308,57.62795],[44.50415,57.6142],[44.448,57.58298],[44.45149,57.57191],[44.40501,57.55956],[44.36529,57.52834],[44.31321,57.51366],[44.24576,57.51785],[44.22698,57.49136],[44.17819,57.4716],[44.14883,57.4737],[44.12227,57.4575],[44.03128,57.44352],[44.01707,57.43257],[43.93218,57.43628],[43.92403,57.42123],[43.87991,57.42716],[43.85339,57.41748],[43.74751,57.45636],[43.71078,57.48234],[43.67209,57.49105],[43.6556,57.5069],[43.65103,57.53091],[43.6319,57.54716],[43.55133,57.55533],[43.5383,57.57246],[43.51012,57.56743],[43.50887,57.57308],[43.53099,57.58123],[43.52604,57.58946],[43.5361,57.59914],[43.4941,57.60313],[43.42108,57.54976],[43.3645,57.52977],[43.35272,57.50386],[43.33659,57.49409],[43.32691,57.49754],[43.32963,57.49299],[43.30705,57.48276],[43.30294,57.42878],[43.32336,57.41414],[43.20876,57.32119],[43.19654,57.3011],[43.19235,57.26555],[43.10999,57.20842],[43.08677,57.16677],[43.08667,57.13629],[43.1049,57.08583],[43.15162,57.02938],[43.21473,56.97862],[43.2508,56.89503],[43.28564,56.85841],[43.3006,56.82083],[43.27295,56.81336],[43.27006,56.79754],[43.2595,56.80065],[43.24959,56.8085],[43.23652,56.85128],[43.19823,56.86043],[43.18125,56.85512],[43.17302,56.87069],[43.15234,56.87903],[43.14051,56.87483],[43.15189,56.87021],[43.14014,56.85318],[43.10528,56.82923],[43.02746,56.82083],[42.98309,56.82793],[42.90538,56.79915],[42.89092,56.80988],[42.87081,56.80943],[42.83216,56.77318],[42.83342,56.75729],[42.8258,56.75207],[42.83232,56.74448],[42.82398,56.73689],[42.84346,56.72886],[42.82637,56.72832],[42.82468,56.71764],[42.8026,56.70798],[42.79745,56.69173],[42.8143,56.68634],[42.80951,56.67866],[42.82759,56.668],[42.82298,56.65487],[42.85915,56.63662],[42.89838,56.64577],[42.92734,56.63494],[42.91332,56.62018],[42.92413,56.6018],[42.91345,56.59237],[42.92491,56.56936],[42.85317,56.55292],[42.84313,56.53036],[42.82113,56.51593],[42.86877,56.50921],[42.90104,56.51573],[42.89199,56.48492],[42.90136,56.46985],[42.81027,56.4691],[42.79906,56.47649],[42.77578,56.46872],[42.64975,56.46864],[42.6478,56.45467],[42.67977,56.45257],[42.67806,56.44132],[42.64081,56.42783],[42.61518,56.43063],[42.61124,56.42234],[42.6204,56.41419],[42.60626,56.40975],[42.63542,56.40568],[42.64272,56.39085],[42.71388,56.37399],[42.73276,56.35096],[42.77541,56.33026],[42.78153,56.27656],[42.76279,56.27701],[42.73908,56.25574],[42.74178,56.24909],[42.76899,56.24264],[42.75753,56.23385],[42.77046,56.23438],[42.78412,56.21982],[42.75282,56.20877],[42.75714,56.1956],[42.76955,56.1938],[42.78449,56.20769],[42.80358,56.20145],[42.83206,56.20899],[42.82632,56.19592],[42.80364,56.1951],[42.83117,56.1788],[42.84065,56.18974],[42.90017,56.18525],[42.89503,56.19445],[42.91045,56.20146],[42.89992,56.20729],[42.91263,56.2088],[42.92374,56.19368],[42.90499,56.19156],[42.90674,56.18522],[42.92163,56.18193],[42.94288,56.19047],[42.94867,56.18391],[42.94483,56.17324],[42.97613,56.16735],[42.96226,56.15973],[42.96692,56.14546],[42.8644,56.13381],[42.85154,56.13906],[42.82258,56.11722],[42.77552,56.11737],[42.74382,56.10189],[42.73463,56.10785],[42.70237,56.10112],[42.70752,56.09991],[42.67896,56.08395],[42.67131,56.08926],[42.67147,56.08396],[42.68822,56.08365],[42.68065,56.04824],[42.71193,56.04654],[42.70487,56.01113],[42.71908,56.00953],[42.70878,55.98449],[42.71855,55.96922],[42.69564,55.98358],[42.67841,55.97135],[42.66421,55.98165],[42.65569,55.9781],[42.66708,55.97618],[42.65338,55.95519],[42.61628,55.9336],[42.59394,55.93544],[42.57658,55.92469],[42.56682,55.9284],[42.5764,55.9409],[42.57037,55.95227],[42.53068,55.95437],[42.52652,55.93546],[42.50648,55.91743],[42.50385,55.87836],[42.46097,55.84871],[42.45347,55.8505],[42.45087,55.84066],[42.40985,55.82432],[42.39671,55.78996],[42.35017,55.7883],[42.36301,55.77801],[42.27466,55.7677],[42.25549,55.75608],[42.24813,55.7311],[42.20612,55.72103],[42.18833,55.67704],[42.12878,55.67835],[42.12488,55.66835],[42.14269,55.63985],[42.14424,55.62217],[42.07516,55.62088],[42.06418,55.61224],[42.06483,55.58737],[42.1036,55.52817],[42.08547,55.49637],[42.15591,55.46658],[42.1679,55.45705],[42.16687,55.44399],[42.09293,55.40202],[42.07438,55.41891],[42.05915,55.41653],[42.01667,55.37744],[42.00221,55.3251],[41.97967,55.32815],[41.96173,55.348],[41.94244,55.34413],[41.94084,55.33486],[41.97126,55.31546],[41.97252,55.2866],[41.91319,55.25684],[41.89476,55.2644],[41.86053,55.24111],[41.86448,55.23186],[41.87957,55.23345],[41.87771,55.22023],[41.90727,55.21596],[41.90834,55.21028],[41.86649,55.19401],[41.86845,55.17994],[41.88268,55.17743],[41.87345,55.16473],[41.82213,55.1666],[41.8113,55.15745],[41.80517,55.15177],[41.81423,55.14858],[41.78395,55.12975],[41.79203,55.11422],[41.80597,55.10791],[41.79494,55.09857],[41.77648,55.09864]]]}}]}