{"type":"FeatureCollection","features":[{"type":"Feature","properties":{"name":"American Samoa","admin":"territory","source":"© OpenStreetMap contributors, ODbL 1.0","osm_relation":2177187},"geometry":{"type":"MultiPolygon","coordinates":[[[[-171.14191,-11.06076],[-171.14115,-11.07382],[-171.14114,-11.07382],[-171.14113,-11.07382],[-171.14112,-11.07383],[-171.13966,-11.07717],[-171.13529,-11.08719],[-171.13383,-11.09053],[-171.13384,-11.09053],[-171.13386,-11.09053],[-171.13387,-11.09053],[-171.13386,-11.09054],[-171.13385,-11.09055],[-171.13385,-11.09055],[-171.12063,-11.10091],[-171.10588,-11.10552],[-171.09834,-11.10787],[-171.07441,-11.11013],[-171.04887,-11.10929],[-171.03217,-11.10509],[-171.01963,-11.09463],[-171.01708,-11.08953],[-171.01138,-11.07814],[-171.01116,-11.06022],[-171.01155,-11.05869],[-171.01238,-11.04712],[-171.01407,-11.0237],[-171.01876,-11.01339],[-171.01928,-11.01225],[-171.0279,-11.00652],[-171.03358,-11.00409],[-171.03634,-11.00291],[-171.05163,-11.00014],[-171.05771,-10.99903],[-171.07463,-10.9972],[-171.08486,-10.99751],[-171.09488,-10.9978],[-171.1114,-11.00379],[-171.12577,-11.0156],[-171.13745,-11.03009],[-171.14116,-11.04622],[-171.14118,-11.04661],[-171.14191,-11.06076]]],[[[-170.89035,-14.32335],[-170.88925,-14.3309],[-170.88793,-14.33371],[-170.8837,-14.34269],[-170.875,-14.3499],[-170.875,-14.34965],[-170.87193,-14.35266],[-170.86968,-14.35486],[-170.86594,-14.35858],[-170.86206,-14.36079],[-170.85833,-14.36292],[-170.8553,-14.36465],[-170.85233,-14.36635],[-170.84554,-14.3682],[-170.84217,-14.36912],[-170.84015,-14.36967],[-170.8381,-14.37022],[-170.83397,-14.37052],[-170.82966,-14.37082],[-170.82819,-14.37093],[-170.82506,-14.37115],[-170.82501,-14.37125],[-170.8231,-14.37178],[-170.82165,-14.375],[-170.82085,-14.37706],[-170.82075,-14.37746],[-170.81849,-14.38],[-170.81799,-14.38055],[-170.81259,-14.38831],[-170.81227,-14.38878],[-170.8101,-14.39059],[-170.80938,-14.3912],[-170.8072,-14.39303],[-170.80647,-14.39364],[-170.80631,-14.39377],[-170.80582,-14.39418],[-170.80566,-14.39432],[-170.805,-14.39487],[-170.80396,-14.39575],[-170.80281,-14.39614],[-170.802,-14.39642],[-170.80118,-14.3967],[-170.79872,-14.39755],[-170.79791,-14.39783],[-170.79785,-14.39785],[-170.79768,-14.39791],[-170.79763,-14.39793],[-170.79704,-14.39813],[-170.79527,-14.39874],[-170.79468,-14.39894],[-170.79251,-14.39969],[-170.79036,-14.39996],[-170.78587,-14.40052],[-170.78439,-14.4036],[-170.78114,-14.40746],[-170.78083,-14.40772],[-170.7774,-14.41058],[-170.77734,-14.41064],[-170.77713,-14.41081],[-170.77706,-14.41087],[-170.77434,-14.41314],[-170.77412,-14.41321],[-170.76696,-14.41551],[-170.76339,-14.41683],[-170.75985,-14.41814],[-170.75055,-14.41895],[-170.75,-14.419],[-170.74359,-14.41955],[-170.74267,-14.41963],[-170.73993,-14.41987],[-170.73902,-14.41995],[-170.73902,-14.41995],[-170.72575,-14.41594],[-170.71392,-14.40793],[-170.71329,-14.40751],[-170.71304,-14.40735],[-170.7114,-14.40626],[-170.71077,-14.40585],[-170.70735,-14.40359],[-170.69708,-14.39681],[-170.69366,-14.39455],[-170.69012,-14.39221],[-170.68854,-14.39111],[-170.67584,-14.38227],[-170.67332,-14.38066],[-170.66923,-14.37806],[-170.66633,-14.37578],[-170.66592,-14.37545],[-170.66535,-14.375],[-170.66436,-14.37428],[-170.66138,-14.3721],[-170.66039,-14.37138],[-170.66038,-14.37138],[-170.66,-14.37091],[-170.65882,-14.36948],[-170.65843,-14.36901],[-170.65656,-14.36675],[-170.65449,-14.36425],[-170.65278,-14.35897],[-170.65187,-14.35619],[-170.65184,-14.35609],[-170.65049,-14.35291],[-170.64818,-14.34745],[-170.64532,-14.34367],[-170.64317,-14.34083],[-170.64279,-14.34032],[-170.63976,-14.33839],[-170.63746,-14.33691],[-170.63193,-14.3355],[-170.62769,-14.33528],[-170.625,-14.33514],[-170.62348,-14.33498],[-170.62175,-14.33479],[-170.61657,-14.33423],[-170.61645,-14.33422],[-170.61483,-14.33423],[-170.61256,-14.33424],[-170.60576,-14.33429],[-170.60349,-14.33431],[-170.60238,-14.33431],[-170.60189,-14.33419],[-170.59719,-14.33303],[-170.59562,-14.33265],[-170.59422,-14.3323],[-170.59245,-14.33187],[-170.58998,-14.33152],[-170.58855,-14.33132],[-170.5865,-14.33103],[-170.58507,-14.33302],[-170.58142,-14.33482],[-170.5796,-14.33523],[-170.57283,-14.33674],[-170.55954,-14.33805],[-170.54891,-14.33733],[-170.54848,-14.33728],[-170.53809,-14.33613],[-170.53084,-14.33533],[-170.52927,-14.33502],[-170.51968,-14.33316],[-170.50944,-14.32876],[-170.50641,-14.32516],[-170.50238,-14.32036],[-170.5,-14.31762],[-170.49149,-14.30169],[-170.49034,-14.28247],[-170.49472,-14.26596],[-170.50472,-14.25681],[-170.50528,-14.25628],[-170.50565,-14.25566],[-170.50646,-14.2543],[-170.50617,-14.25284],[-170.5065,-14.25146],[-170.50685,-14.25],[-170.5106,-14.23213],[-170.51296,-14.22962],[-170.52182,-14.22022],[-170.53678,-14.20434],[-170.55922,-14.19839],[-170.56634,-14.19776],[-170.58166,-14.1964],[-170.58786,-14.1976],[-170.58834,-14.19769],[-170.58978,-14.19797],[-170.59026,-14.19806],[-170.59223,-14.19844],[-170.59817,-14.19958],[-170.60015,-14.19997],[-170.60044,-14.20002],[-170.60131,-14.20019],[-170.6016,-14.20025],[-170.60223,-14.20037],[-170.60635,-14.19774],[-170.62034,-14.18881],[-170.625,-14.18583],[-170.62808,-14.18284],[-170.63663,-14.17874],[-170.64166,-14.17694],[-170.6418,-14.17692],[-170.65532,-14.17554],[-170.6652,-14.17595],[-170.67664,-14.17834],[-170.68709,-14.18224],[-170.69533,-14.19017],[-170.69537,-14.1902],[-170.7028,-14.19686],[-170.70392,-14.20337],[-170.70607,-14.20498],[-170.70623,-14.2051],[-170.71338,-14.20878],[-170.7153,-14.21042],[-170.72033,-14.21473],[-170.72447,-14.2202],[-170.72629,-14.22268],[-170.73213,-14.22363],[-170.73723,-14.22583],[-170.74057,-14.22848],[-170.7416,-14.2293],[-170.74598,-14.23376],[-170.7475,-14.23658],[-170.748,-14.23751],[-170.7495,-14.2403],[-170.75,-14.24123],[-170.75,-14.24118],[-170.76625,-14.24397],[-170.79716,-14.24664],[-170.79999,-14.24688],[-170.80447,-14.24632],[-170.81676,-14.24764],[-170.82326,-14.25],[-170.82311,-14.24997],[-170.8231,-14.24997],[-170.82297,-14.25],[-170.82392,-14.25068],[-170.82682,-14.25357],[-170.82933,-14.25743],[-170.8295,-14.25769],[-170.83205,-14.25716],[-170.84027,-14.25802],[-170.85045,-14.26471],[-170.85519,-14.26876],[-170.86253,-14.27504],[-170.86267,-14.27519],[-170.86506,-14.27775],[-170.86703,-14.27987],[-170.87249,-14.28516],[-170.875,-14.2876],[-170.875,-14.28767],[-170.88184,-14.29848],[-170.88637,-14.3081],[-170.88846,-14.31298],[-170.89029,-14.31719],[-170.89035,-14.32335]]],[[[-169.7259,-14.16615],[-169.72571,-14.17244],[-169.7258,-14.18097],[-169.7228,-14.18937],[-169.71419,-14.20073],[-169.70377,-14.21066],[-169.69284,-14.2216],[-169.68035,-14.2306],[-169.67267,-14.23289],[-169.66061,-14.23383],[-169.64673,-14.23258],[-169.63643,-14.23044],[-169.63561,-14.23004],[-169.63267,-14.22861],[-169.63135,-14.22797],[-169.63011,-14.22922],[-169.62982,-14.22951],[-169.62754,-14.23234],[-169.62648,-14.23303],[-169.625,-14.234],[-169.625,-14.23444],[-169.62282,-14.23569],[-169.61563,-14.23772],[-169.60865,-14.23791],[-169.60163,-14.23706],[-169.58833,-14.23377],[-169.58093,-14.22979],[-169.57159,-14.22429],[-169.56995,-14.22356],[-169.5698,-14.22346],[-169.56935,-14.22316],[-169.5692,-14.22306],[-169.56873,-14.22274],[-169.56732,-14.22179],[-169.56685,-14.22148],[-169.56659,-14.22986],[-169.56523,-14.24179],[-169.56289,-14.25],[-169.56381,-14.25],[-169.56141,-14.25433],[-169.55887,-14.25892],[-169.55338,-14.26391],[-169.55132,-14.26466],[-169.54667,-14.26635],[-169.53919,-14.269],[-169.53449,-14.27274],[-169.5329,-14.27401],[-169.52769,-14.28171],[-169.52199,-14.29486],[-169.51888,-14.3018],[-169.5134,-14.30779],[-169.51296,-14.30793],[-169.50656,-14.31008],[-169.50236,-14.3121],[-169.5,-14.31302],[-169.48282,-14.3172],[-169.48269,-14.31725],[-169.48269,-14.31725],[-169.47324,-14.31636],[-169.46406,-14.31308],[-169.45377,-14.30952],[-169.44653,-14.30519],[-169.44603,-14.30487],[-169.44597,-14.30483],[-169.44164,-14.30585],[-169.43093,-14.30961],[-169.43021,-14.30986],[-169.4195,-14.31142],[-169.40898,-14.31003],[-169.3974,-14.30718],[-169.38779,-14.30088],[-169.38621,-14.29961],[-169.38024,-14.29482],[-169.375,-14.28849],[-169.37361,-14.28561],[-169.37067,-14.27952],[-169.37006,-14.27679],[-169.36937,-14.27367],[-169.36905,-14.26857],[-169.36752,-14.2613],[-169.36704,-14.2449],[-169.36744,-14.23318],[-169.36729,-14.21855],[-169.36686,-14.20945],[-169.36689,-14.20411],[-169.3669,-14.20208],[-169.3692,-14.19378],[-169.37211,-14.18927],[-169.375,-14.18478],[-169.37721,-14.18126],[-169.38564,-14.17461],[-169.39518,-14.17001],[-169.4121,-14.16864],[-169.41592,-14.16859],[-169.43045,-14.17127],[-169.43212,-14.17126],[-169.43641,-14.17003],[-169.45357,-14.16771],[-169.45807,-14.16728],[-169.46045,-14.1695],[-169.46144,-14.1694],[-169.46443,-14.1691],[-169.49401,-14.16609],[-169.5,-14.16605],[-169.50606,-14.16687],[-169.51075,-14.16839],[-169.5157,-14.17016],[-169.52145,-14.1732],[-169.5238,-14.17472],[-169.52819,-14.17546],[-169.52978,-14.17573],[-169.53525,-14.17699],[-169.54255,-14.17978],[-169.54338,-14.18057],[-169.54653,-14.18378],[-169.54695,-14.18426],[-169.54696,-14.18428],[-169.547,-14.18432],[-169.54701,-14.18433],[-169.54701,-14.1843],[-169.54703,-14.1842],[-169.54704,-14.18417],[-169.54809,-14.17885],[-169.54826,-14.17801],[-169.54762,-14.16358],[-169.54794,-14.16267],[-169.54914,-14.15928],[-169.55016,-14.15776],[-169.55416,-14.15185],[-169.55427,-14.15169],[-169.55472,-14.14258],[-169.55751,-14.13448],[-169.55913,-14.13136],[-169.56186,-14.12613],[-169.56237,-14.125],[-169.56762,-14.1206],[-169.56878,-14.11963],[-169.57223,-14.11674],[-169.57339,-14.11577],[-169.57565,-14.11364],[-169.57571,-14.11359],[-169.59001,-14.10752],[-169.59924,-14.10539],[-169.60989,-14.10594],[-169.61508,-14.10681],[-169.625,-14.11046],[-169.62626,-14.11099],[-169.63049,-14.11371],[-169.63668,-14.11271],[-169.6462,-14.11119],[-169.65547,-14.10967],[-169.66149,-14.1089],[-169.66575,-14.10937],[-169.67802,-14.11152],[-169.6928,-14.11661],[-169.70232,-14.12035],[-169.70328,-14.12134],[-169.70656,-14.125],[-169.71266,-14.12946],[-169.71732,-14.13331],[-169.72045,-14.13772],[-169.72257,-14.14367],[-169.72527,-14.15562],[-169.7259,-14.16615]]],[[[-168.226,-14.54704],[-168.22523,-14.55141],[-168.22348,-14.56134],[-168.21799,-14.57513],[-168.20676,-14.59009],[-168.19511,-14.59707],[-168.18133,-14.5998],[-168.17354,-14.60134],[-168.15785,-14.60181],[-168.1358,-14.59968],[-168.1291,-14.59726],[-168.12877,-14.59703],[-168.12778,-14.59633],[-168.12745,-14.5961],[-168.12157,-14.5914],[-168.11614,-14.58705],[-168.1104,-14.57917],[-168.10844,-14.57364],[-168.10593,-14.56655],[-168.10223,-14.55403],[-168.10219,-14.55313],[-168.10161,-14.53794],[-168.10469,-14.52482],[-168.10946,-14.51253],[-168.11116,-14.50812],[-168.11594,-14.50023],[-168.12163,-14.49369],[-168.12334,-14.49173],[-168.13489,-14.48457],[-168.1441,-14.4812],[-168.15223,-14.47823],[-168.15223,-14.47815],[-168.15223,-14.47792],[-168.15223,-14.47785],[-168.15228,-14.47785],[-168.15244,-14.47785],[-168.1525,-14.47785],[-168.1535,-14.47785],[-168.15649,-14.47788],[-168.15749,-14.47789],[-168.17204,-14.47955],[-168.1733,-14.47969],[-168.18678,-14.48325],[-168.19953,-14.49013],[-168.20978,-14.50005],[-168.20982,-14.50009],[-168.21848,-14.51184],[-168.21847,-14.51185],[-168.21845,-14.51188],[-168.21844,-14.51189],[-168.2185,-14.51201],[-168.21869,-14.51237],[-168.21875,-14.51248],[-168.22312,-14.52158],[-168.22453,-14.52451],[-168.22527,-14.53591],[-168.226,-14.54704]]]]}},{"type":"Feature","properties":{"name":"Samoa","admin":"country","source":"© OpenStreetMap contributors, ODbL 1.0","osm_relation":1872673},"geometry":{"type":"MultiPolygon","coordinates":[[[[-171.40623,-14.07644],[-171.41017,-14.07581],[-171.41549,-14.07238],[-171.40811,-14.07032],[-171.40859,-14.07462],[-171.40623,-14.07644]]],[[[-171.42771,-14.05859],[-171.4178,-14.05982],[-171.42017,-14.0614],[-171.41846,-14.06476],[-171.41585,-14.06471],[-171.41793,-14.06877],[-171.42409,-14.06829],[-171.42926,-14.06368],[-171.42771,-14.05859]]],[[[-171.6561,-13.87113],[-171.64897,-13.8757],[-171.64543,-13.87599],[-171.64058,-13.87215],[-171.63695,-13.87358],[-171.63348,-13.87295],[-171.6313,-13.87377],[-171.63039,-13.87755],[-171.6269,-13.87969],[-171.62513,-13.8838],[-171.62106,-13.88502],[-171.61724,-13.88234],[-171.61686,-13.8803],[-171.60953,-13.87601],[-171.60769,-13.87239],[-171.60625,-13.87196],[-171.60488,-13.87421],[-171.5981,-13.87284],[-171.59385,-13.87364],[-171.58295,-13.87927],[-171.58651,-13.88295],[-171.58652,-13.88948],[-171.58946,-13.89554],[-171.58706,-13.8911],[-171.5814,-13.89251],[-171.57752,-13.89024],[-171.57519,-13.89178],[-171.5707,-13.88747],[-171.571,-13.89438],[-171.56623,-13.89594],[-171.56638,-13.90188],[-171.56064,-13.90052],[-171.56398,-13.90634],[-171.56377,-13.9094],[-171.5602,-13.91169],[-171.55454,-13.91151],[-171.55274,-13.90874],[-171.54934,-13.90824],[-171.54522,-13.91094],[-171.54575,-13.91514],[-171.53747,-13.91294],[-171.54964,-13.92615],[-171.56404,-13.93376],[-171.57067,-13.93969],[-171.57011,-13.94251],[-171.56316,-13.94345],[-171.55132,-13.94173],[-171.54624,-13.94359],[-171.53957,-13.94063],[-171.54005,-13.93829],[-171.53031,-13.93248],[-171.52774,-13.92875],[-171.52459,-13.92823],[-171.52281,-13.92983],[-171.52436,-13.93484],[-171.5202,-13.94006],[-171.51484,-13.93882],[-171.51384,-13.9413],[-171.50782,-13.94076],[-171.50774,-13.94293],[-171.51142,-13.94279],[-171.51494,-13.94518],[-171.51601,-13.95092],[-171.49863,-13.95155],[-171.49702,-13.94975],[-171.49186,-13.95511],[-171.48715,-13.95133],[-171.48748,-13.95628],[-171.48563,-13.95639],[-171.48361,-13.95369],[-171.48111,-13.95453],[-171.48014,-13.96046],[-171.47387,-13.96236],[-171.47493,-13.96428],[-171.47355,-13.96635],[-171.46957,-13.96597],[-171.47074,-13.97093],[-171.46985,-13.97471],[-171.46317,-13.97786],[-171.46019,-13.97809],[-171.45871,-13.97612],[-171.45642,-13.97953],[-171.45448,-13.97929],[-171.4532,-13.97768],[-171.45368,-13.97309],[-171.45237,-13.97463],[-171.44806,-13.97331],[-171.4448,-13.97576],[-171.44069,-13.97588],[-171.43986,-13.98284],[-171.4371,-13.98484],[-171.43815,-13.98794],[-171.43308,-13.98876],[-171.43383,-13.99072],[-171.42787,-13.99515],[-171.42813,-13.99801],[-171.42426,-14.00345],[-171.42384,-14.01831],[-171.42684,-14.02398],[-171.42375,-14.02496],[-171.42448,-14.02642],[-171.42734,-14.0246],[-171.43373,-14.03488],[-171.43759,-14.04525],[-171.43684,-14.04764],[-171.43413,-14.04889],[-171.46106,-14.04453],[-171.46742,-14.04615],[-171.4703,-14.04413],[-171.49326,-14.03983],[-171.5071,-14.04258],[-171.53033,-14.03977],[-171.53996,-14.04502],[-171.54771,-14.04297],[-171.55652,-14.04505],[-171.55965,-14.04376],[-171.56024,-14.04575],[-171.5642,-14.04394],[-171.57939,-14.04424],[-171.58353,-14.04586],[-171.58532,-14.04296],[-171.59434,-14.0431],[-171.6069,-14.04055],[-171.61047,-14.03612],[-171.60974,-14.03598],[-171.60811,-14.03306],[-171.60815,-14.0323],[-171.61109,-14.0359],[-171.61614,-14.03451],[-171.62615,-14.03805],[-171.64275,-14.04035],[-171.65391,-14.04365],[-171.66001,-14.0406],[-171.67798,-14.0393],[-171.68029,-14.03601],[-171.6855,-14.03529],[-171.68737,-14.03219],[-171.69442,-14.02866],[-171.70176,-14.02917],[-171.70525,-14.0345],[-171.71669,-14.03539],[-171.71895,-14.03905],[-171.72963,-14.04434],[-171.74153,-14.0434],[-171.74575,-14.04554],[-171.75416,-14.04289],[-171.76475,-14.04389],[-171.76777,-14.042],[-171.76937,-14.03855],[-171.76869,-14.03517],[-171.76576,-14.03356],[-171.76594,-14.03168],[-171.76879,-14.02901],[-171.77307,-14.02809],[-171.77308,-14.02546],[-171.77528,-14.02411],[-171.77551,-14.01767],[-171.77901,-14.01682],[-171.78107,-14.01188],[-171.78598,-14.0117],[-171.78965,-14.00883],[-171.80235,-14.01032],[-171.81146,-14.00768],[-171.82676,-14.00861],[-171.82897,-14.00725],[-171.8377,-13.99785],[-171.84005,-13.99448],[-171.83988,-13.99178],[-171.83455,-13.99815],[-171.83132,-13.99847],[-171.83104,-14.00251],[-171.82743,-14.00599],[-171.8196,-14.00457],[-171.8153,-14.00681],[-171.81307,-14.0071],[-171.8128,-14.006],[-171.81572,-14.00598],[-171.82112,-14.00221],[-171.82348,-14.00325],[-171.82265,-14.00142],[-171.82649,-14.00215],[-171.83149,-13.99553],[-171.83158,-13.98793],[-171.83345,-13.98526],[-171.8367,-13.98804],[-171.83581,-13.98998],[-171.83745,-13.99117],[-171.84141,-13.98814],[-171.85192,-13.98977],[-171.85344,-13.98505],[-171.85685,-13.98348],[-171.8633,-13.98947],[-171.87134,-13.98995],[-171.87346,-13.99135],[-171.87463,-13.99025],[-171.87664,-13.99113],[-171.8765,-13.99191],[-171.87084,-13.99106],[-171.88469,-13.99868],[-171.88856,-14.00274],[-171.89741,-14.00297],[-171.89987,-14.00111],[-171.90323,-14.00517],[-171.91734,-14.00433],[-171.92205,-14.00168],[-171.92263,-13.99837],[-171.92832,-13.99426],[-171.93142,-13.9896],[-171.93346,-13.98994],[-171.93342,-13.9863],[-171.93757,-13.98826],[-171.94814,-13.98065],[-171.95167,-13.97391],[-171.95174,-13.9691],[-171.95775,-13.96321],[-171.96014,-13.95802],[-171.95946,-13.95488],[-171.96168,-13.95082],[-171.96071,-13.94867],[-171.96497,-13.94306],[-171.9717,-13.93811],[-171.97124,-13.93524],[-171.97513,-13.93356],[-171.9789,-13.93523],[-171.98074,-13.93752],[-171.97871,-13.94441],[-171.97618,-13.94616],[-171.9809,-13.9475],[-171.9851,-13.95231],[-171.98721,-13.95056],[-171.98842,-13.95167],[-171.9914,-13.9464],[-171.9897,-13.94493],[-171.9892,-13.94073],[-171.9936,-13.93958],[-171.9938,-13.93603],[-171.99524,-13.93504],[-172.00268,-13.93576],[-172.00411,-13.9341],[-172.00292,-13.93308],[-172.00364,-13.93004],[-172.00862,-13.92872],[-172.01098,-13.92629],[-172.00658,-13.92438],[-172.00711,-13.92139],[-172.004,-13.91933],[-172.00472,-13.91686],[-172.01354,-13.91442],[-172.01446,-13.91285],[-172.02166,-13.91179],[-172.02732,-13.91356],[-172.03628,-13.90975],[-172.03775,-13.90751],[-172.04545,-13.90693],[-172.05468,-13.90301],[-172.06049,-13.89602],[-172.06662,-13.89291],[-172.06543,-13.88539],[-172.06895,-13.87742],[-172.07211,-13.87427],[-172.07179,-13.8681],[-172.07349,-13.86605],[-172.06358,-13.86073],[-172.05708,-13.85068],[-172.0431,-13.84169],[-172.03635,-13.82929],[-172.03463,-13.82995],[-172.02778,-13.8247],[-172.0218,-13.82557],[-172.02171,-13.82404],[-172.02088,-13.82544],[-172.01934,-13.82363],[-172.01196,-13.82864],[-172.01063,-13.82731],[-172.0099,-13.82743],[-172.01153,-13.82887],[-172.00961,-13.82931],[-171.9781,-13.8277],[-171.9713,-13.82932],[-171.97042,-13.8277],[-171.9635,-13.82511],[-171.96173,-13.82224],[-171.95198,-13.81526],[-171.94515,-13.81447],[-171.94115,-13.80986],[-171.93179,-13.8093],[-171.92968,-13.80692],[-171.92529,-13.8064],[-171.92225,-13.804],[-171.91676,-13.80468],[-171.90766,-13.79843],[-171.90616,-13.79962],[-171.90264,-13.79805],[-171.89889,-13.80148],[-171.88923,-13.80235],[-171.88243,-13.79689],[-171.87886,-13.79825],[-171.87259,-13.79627],[-171.87,-13.7982],[-171.86727,-13.79534],[-171.86685,-13.79785],[-171.86552,-13.7948],[-171.86437,-13.79721],[-171.86046,-13.79853],[-171.86025,-13.80093],[-171.85716,-13.79848],[-171.85433,-13.7996],[-171.85499,-13.79603],[-171.85244,-13.79519],[-171.84881,-13.80039],[-171.84789,-13.79862],[-171.84287,-13.79859],[-171.84283,-13.79698],[-171.83974,-13.79823],[-171.8381,-13.79436],[-171.83673,-13.7939],[-171.83566,-13.79553],[-171.83036,-13.79295],[-171.82636,-13.79932],[-171.82175,-13.7989],[-171.8163,-13.80428],[-171.81262,-13.80451],[-171.81198,-13.80624],[-171.80779,-13.80788],[-171.80918,-13.81335],[-171.80797,-13.81665],[-171.80398,-13.8152],[-171.80243,-13.8171],[-171.80047,-13.81598],[-171.79987,-13.81617],[-171.80303,-13.81767],[-171.80076,-13.81918],[-171.80234,-13.8205],[-171.80225,-13.82068],[-171.80079,-13.82157],[-171.79775,-13.8198],[-171.7991,-13.82189],[-171.79692,-13.8207],[-171.7936,-13.82305],[-171.79256,-13.82677],[-171.77784,-13.82916],[-171.77592,-13.82442],[-171.78046,-13.82141],[-171.78174,-13.81708],[-171.78093,-13.81452],[-171.77947,-13.81481],[-171.7704,-13.8292],[-171.7666,-13.82775],[-171.76474,-13.83236],[-171.76186,-13.83278],[-171.75962,-13.82948],[-171.76045,-13.82877],[-171.7604,-13.82819],[-171.75958,-13.8292],[-171.7589,-13.82801],[-171.76105,-13.82658],[-171.76087,-13.82735],[-171.76185,-13.82777],[-171.76306,-13.82411],[-171.75877,-13.82444],[-171.75162,-13.82914],[-171.74962,-13.82798],[-171.74787,-13.82968],[-171.74568,-13.82816],[-171.74544,-13.83003],[-171.74872,-13.83053],[-171.74739,-13.83214],[-171.74623,-13.83117],[-171.74334,-13.83241],[-171.74441,-13.83281],[-171.74338,-13.83841],[-171.74123,-13.84148],[-171.73798,-13.84266],[-171.73064,-13.84151],[-171.72437,-13.84481],[-171.72212,-13.84443],[-171.72125,-13.85101],[-171.71837,-13.8531],[-171.71625,-13.8518],[-171.7118,-13.8551],[-171.7081,-13.86376],[-171.70478,-13.86375],[-171.69906,-13.85981],[-171.68592,-13.86469],[-171.68183,-13.86222],[-171.66688,-13.86217],[-171.66571,-13.8608],[-171.66283,-13.86631],[-171.65942,-13.86654],[-171.6561,-13.87113]]],[[[-172.10482,-13.86105],[-172.11646,-13.85554],[-172.11757,-13.84906],[-172.11999,-13.84655],[-172.12274,-13.84624],[-172.1224,-13.84442],[-172.10785,-13.84049],[-172.10102,-13.85041],[-172.10177,-13.85515],[-172.10543,-13.85925],[-172.10482,-13.86105]]],[[[-172.35425,-13.77267],[-172.36113,-13.7743],[-172.36724,-13.77344],[-172.37337,-13.77907],[-172.37827,-13.77691],[-172.38668,-13.77749],[-172.38648,-13.77908],[-172.39075,-13.78238],[-172.39905,-13.78453],[-172.40577,-13.78517],[-172.41259,-13.78058],[-172.41691,-13.78234],[-172.4196,-13.78575],[-172.4222,-13.78528],[-172.43265,-13.78864],[-172.44664,-13.78942],[-172.45277,-13.79468],[-172.456,-13.79441],[-172.4651,-13.78774],[-172.47258,-13.78673],[-172.47596,-13.78745],[-172.48883,-13.79726],[-172.5075,-13.79827],[-172.51258,-13.7951],[-172.5181,-13.80169],[-172.52452,-13.80109],[-172.52925,-13.80276],[-172.5443,-13.79723],[-172.5472,-13.79492],[-172.55147,-13.78637],[-172.55211,-13.77795],[-172.56938,-13.76828],[-172.57708,-13.76626],[-172.57908,-13.76024],[-172.58252,-13.75627],[-172.58275,-13.74652],[-172.59047,-13.74388],[-172.5952,-13.74001],[-172.59667,-13.73719],[-172.59622,-13.7219],[-172.59408,-13.71919],[-172.60046,-13.7086],[-172.60581,-13.70486],[-172.608,-13.70518],[-172.60735,-13.70313],[-172.61071,-13.6992],[-172.62125,-13.69537],[-172.62678,-13.68762],[-172.63365,-13.68436],[-172.63381,-13.68115],[-172.64641,-13.66719],[-172.64597,-13.66419],[-172.64852,-13.65916],[-172.6542,-13.65654],[-172.65799,-13.65164],[-172.66228,-13.65196],[-172.66266,-13.649],[-172.66737,-13.64766],[-172.66983,-13.64332],[-172.66915,-13.64201],[-172.67109,-13.64206],[-172.67143,-13.63909],[-172.67416,-13.63595],[-172.67814,-13.63539],[-172.67962,-13.63291],[-172.67811,-13.62736],[-172.68204,-13.62432],[-172.6846,-13.6193],[-172.68984,-13.61758],[-172.69212,-13.62102],[-172.6939,-13.61727],[-172.70377,-13.61381],[-172.71455,-13.60327],[-172.72043,-13.60112],[-172.72003,-13.59979],[-172.72628,-13.59247],[-172.72789,-13.58716],[-172.7354,-13.57706],[-172.73909,-13.57453],[-172.74046,-13.57564],[-172.74681,-13.57317],[-172.75341,-13.567],[-172.76069,-13.56634],[-172.78149,-13.5461],[-172.78609,-13.54478],[-172.78756,-13.53831],[-172.79156,-13.53534],[-172.79197,-13.52958],[-172.80012,-13.5211],[-172.80407,-13.51589],[-172.8035,-13.51458],[-172.79582,-13.50893],[-172.79257,-13.50055],[-172.78961,-13.50099],[-172.78436,-13.4927],[-172.77619,-13.49222],[-172.76471,-13.49771],[-172.76179,-13.49617],[-172.76088,-13.49248],[-172.75735,-13.4899],[-172.75131,-13.49669],[-172.74035,-13.49867],[-172.73434,-13.50365],[-172.73308,-13.5068],[-172.7173,-13.51562],[-172.71214,-13.51569],[-172.70083,-13.51949],[-172.69549,-13.5172],[-172.69429,-13.51506],[-172.68645,-13.5145],[-172.68541,-13.51122],[-172.68276,-13.50969],[-172.67881,-13.51032],[-172.67858,-13.51492],[-172.67646,-13.51475],[-172.67199,-13.51156],[-172.67197,-13.50949],[-172.66832,-13.50918],[-172.66375,-13.50554],[-172.65661,-13.508],[-172.65503,-13.51266],[-172.65108,-13.51482],[-172.65192,-13.51624],[-172.65135,-13.51671],[-172.63959,-13.51742],[-172.63763,-13.51906],[-172.63431,-13.51288],[-172.63158,-13.51108],[-172.63187,-13.51003],[-172.63592,-13.51055],[-172.63613,-13.50473],[-172.63269,-13.50204],[-172.62574,-13.50099],[-172.62128,-13.49615],[-172.61414,-13.49249],[-172.61112,-13.49194],[-172.60541,-13.49389],[-172.6005,-13.49182],[-172.58667,-13.49597],[-172.57854,-13.48864],[-172.57012,-13.48653],[-172.56319,-13.48255],[-172.55188,-13.48101],[-172.54445,-13.4755],[-172.52991,-13.47298],[-172.52481,-13.47556],[-172.51332,-13.47746],[-172.50593,-13.47272],[-172.4976,-13.4724],[-172.49463,-13.46847],[-172.48742,-13.46777],[-172.48095,-13.46126],[-172.47449,-13.46239],[-172.46606,-13.46844],[-172.45947,-13.46861],[-172.45428,-13.46643],[-172.44835,-13.46979],[-172.44434,-13.46805],[-172.42745,-13.46807],[-172.42158,-13.47119],[-172.42007,-13.46742],[-172.42493,-13.46837],[-172.41955,-13.46557],[-172.41418,-13.45011],[-172.40557,-13.45112],[-172.38752,-13.44589],[-172.36347,-13.4497],[-172.35795,-13.44086],[-172.35373,-13.44019],[-172.35332,-13.43881],[-172.35341,-13.4404],[-172.33019,-13.44933],[-172.33017,-13.45045],[-172.32599,-13.44763],[-172.33409,-13.44361],[-172.33665,-13.44552],[-172.33556,-13.44316],[-172.33063,-13.44406],[-172.31579,-13.4519],[-172.30583,-13.45968],[-172.30274,-13.46581],[-172.29119,-13.47891],[-172.28469,-13.4924],[-172.27826,-13.49804],[-172.27439,-13.50534],[-172.26326,-13.51028],[-172.26407,-13.51425],[-172.25868,-13.52286],[-172.24843,-13.53176],[-172.23787,-13.54409],[-172.2355,-13.55476],[-172.22766,-13.5582],[-172.22672,-13.56985],[-172.21971,-13.57498],[-172.21314,-13.57723],[-172.20987,-13.58082],[-172.21032,-13.5825],[-172.21362,-13.58245],[-172.21482,-13.58419],[-172.20489,-13.59583],[-172.2006,-13.61512],[-172.19846,-13.61675],[-172.19785,-13.62043],[-172.19406,-13.62271],[-172.19761,-13.63136],[-172.19261,-13.63715],[-172.19158,-13.64159],[-172.18863,-13.64385],[-172.18816,-13.64971],[-172.18362,-13.65874],[-172.17404,-13.66862],[-172.17928,-13.67845],[-172.19134,-13.68888],[-172.19302,-13.68857],[-172.19388,-13.69273],[-172.19484,-13.69204],[-172.19564,-13.69408],[-172.19677,-13.69368],[-172.19791,-13.69435],[-172.1962,-13.69418],[-172.19943,-13.6969],[-172.19826,-13.7018],[-172.2042,-13.70476],[-172.20363,-13.70797],[-172.20111,-13.70915],[-172.20412,-13.7127],[-172.20281,-13.71449],[-172.19906,-13.7139],[-172.1962,-13.7173],[-172.19626,-13.7216],[-172.22056,-13.73685],[-172.21839,-13.73827],[-172.21801,-13.74338],[-172.21623,-13.74431],[-172.22104,-13.74718],[-172.22318,-13.75299],[-172.22055,-13.75307],[-172.21961,-13.75774],[-172.21443,-13.76407],[-172.21192,-13.78034],[-172.21444,-13.78234],[-172.21413,-13.79028],[-172.22053,-13.79394],[-172.22601,-13.80192],[-172.2322,-13.80328],[-172.23892,-13.80106],[-172.24424,-13.8036],[-172.25328,-13.79518],[-172.26259,-13.7983],[-172.2693,-13.79626],[-172.27168,-13.79432],[-172.27249,-13.78949],[-172.27812,-13.78126],[-172.28288,-13.77834],[-172.28448,-13.77358],[-172.28764,-13.7723],[-172.288,-13.77068],[-172.28543,-13.76972],[-172.28584,-13.76562],[-172.28906,-13.7641],[-172.28961,-13.75862],[-172.29356,-13.76036],[-172.29548,-13.75842],[-172.3004,-13.7602],[-172.30881,-13.75475],[-172.31705,-13.75989],[-172.32165,-13.76045],[-172.32381,-13.76233],[-172.32383,-13.76533],[-172.32659,-13.76724],[-172.32558,-13.77022],[-172.32701,-13.77422],[-172.33208,-13.77834],[-172.34894,-13.77776],[-172.35425,-13.77267]]],[[[-172.14633,-13.82179],[-172.14751,-13.82692],[-172.15045,-13.82928],[-172.15608,-13.8266],[-172.15572,-13.82089],[-172.15397,-13.81863],[-172.14829,-13.81911],[-172.14633,-13.82179]]]]}}]}