{"type":"FeatureCollection","features":[{"type":"Feature","properties":{"name":"Campidanu de Mesu","admin":"provìntzia","source":"© OpenStreetMap contributors, ODbL 1.0","osm_relation":19622158},"geometry":{"type":"Polygon","coordinates":[[[8.37928,39.45641],[8.38966,39.45231],[8.39043,39.45008],[8.38897,39.44722],[8.3927,39.44674],[8.41015,39.45524],[8.41381,39.46603],[8.42372,39.46645],[8.4269,39.4704],[8.43581,39.47149],[8.45155,39.46232],[8.46757,39.46945],[8.48512,39.47348],[8.49596,39.48299],[8.51723,39.47954],[8.51985,39.48098],[8.52354,39.47924],[8.53035,39.4803],[8.53463,39.47903],[8.5367,39.46956],[8.53997,39.46725],[8.54396,39.46705],[8.54706,39.45859],[8.56269,39.45007],[8.58224,39.44445],[8.58005,39.43693],[8.58401,39.43142],[8.59006,39.43175],[8.60604,39.4242],[8.61147,39.42334],[8.61682,39.42551],[8.61703,39.41796],[8.62636,39.41318],[8.63601,39.38748],[8.64003,39.38289],[8.65043,39.3793],[8.67706,39.37884],[8.67959,39.37804],[8.67885,39.37473],[8.68206,39.37825],[8.69281,39.38218],[8.69923,39.37499],[8.73437,39.39561],[8.75683,39.40474],[8.77652,39.4067],[8.78012,39.40442],[8.78223,39.40575],[8.78871,39.40483],[8.80066,39.40818],[8.82274,39.40687],[8.82739,39.41458],[8.84888,39.40655],[8.87309,39.3997],[8.87823,39.40012],[8.88432,39.39803],[8.92998,39.39954],[8.94182,39.40534],[8.96321,39.41276],[8.97811,39.42194],[8.97842,39.42797],[8.96812,39.45259],[8.95882,39.46192],[8.95685,39.46562],[8.96062,39.46224],[8.98816,39.46806],[8.99237,39.47229],[8.99782,39.47194],[9.00299,39.47643],[9.01136,39.4804],[9.01486,39.48638],[9.01559,39.49153],[9.01415,39.49781],[9.00942,39.50764],[9.00964,39.51239],[9.0125,39.51822],[9.01006,39.52059],[9.00827,39.52705],[8.98847,39.52962],[8.98282,39.5316],[8.9828,39.5341],[8.98687,39.53751],[8.98742,39.5408],[8.99355,39.54425],[8.99527,39.54923],[9.0003,39.55298],[9.00269,39.56167],[9.00192,39.56594],[9.00666,39.57751],[9.00576,39.58121],[9.01264,39.58399],[9.0115,39.58659],[9.0143,39.58762],[9.01948,39.60253],[9.02323,39.60579],[9.02389,39.6138],[9.0287,39.62288],[9.03514,39.62573],[9.04653,39.64013],[9.04685,39.65666],[9.04891,39.6603],[9.04856,39.66574],[9.05004,39.66802],[9.04818,39.67227],[9.05242,39.67848],[9.04846,39.68253],[9.04763,39.68947],[9.05089,39.6959],[9.05664,39.69717],[9.05511,39.70008],[9.05799,39.69907],[9.05936,39.70219],[9.05652,39.71121],[9.06187,39.72228],[9.05279,39.72968],[9.0585,39.7313],[9.05796,39.73303],[9.06275,39.73471],[9.06338,39.73871],[9.0662,39.74267],[9.0717,39.74281],[9.07369,39.75021],[9.07178,39.75233],[9.06034,39.75618],[9.06024,39.75755],[9.05761,39.75654],[9.0462,39.75862],[9.0432,39.75684],[9.0323,39.75937],[9.02361,39.75843],[9.01849,39.76137],[9.0157,39.75928],[8.99799,39.76104],[8.99606,39.76384],[8.99814,39.76772],[8.9794,39.7778],[8.97855,39.78049],[8.97158,39.77718],[8.95721,39.77958],[8.95239,39.77791],[8.93873,39.78283],[8.93587,39.77941],[8.938,39.77202],[8.94223,39.76781],[8.94021,39.76353],[8.94124,39.75756],[8.93525,39.7548],[8.93249,39.75711],[8.92613,39.75669],[8.92433,39.75832],[8.91667,39.75162],[8.91231,39.74636],[8.90991,39.73964],[8.90177,39.73297],[8.91207,39.72519],[8.91315,39.72166],[8.90848,39.72044],[8.90319,39.71313],[8.89367,39.7091],[8.8931,39.70755],[8.88147,39.70485],[8.87854,39.69416],[8.87361,39.68857],[8.86874,39.68735],[8.86695,39.68473],[8.8644,39.68417],[8.86571,39.67559],[8.86154,39.6679],[8.85659,39.66892],[8.8497,39.66483],[8.83981,39.66369],[8.83168,39.66701],[8.82272,39.66088],[8.81795,39.66135],[8.81607,39.6596],[8.81253,39.66049],[8.8061,39.6591],[8.80229,39.6565],[8.78493,39.65416],[8.78022,39.64687],[8.77672,39.64452],[8.77559,39.64044],[8.76824,39.63878],[8.76158,39.63437],[8.75053,39.63324],[8.74316,39.62701],[8.72839,39.64084],[8.72294,39.63641],[8.70284,39.63874],[8.70193,39.64168],[8.69657,39.64538],[8.68831,39.64293],[8.67133,39.63114],[8.66034,39.64196],[8.64481,39.64827],[8.64101,39.65219],[8.62819,39.65435],[8.62503,39.65936],[8.62595,39.66538],[8.61948,39.67025],[8.61795,39.67639],[8.61081,39.68055],[8.61035,39.68571],[8.60802,39.68987],[8.60439,39.68924],[8.60303,39.69109],[8.59686,39.69014],[8.59644,39.6922],[8.59519,39.69064],[8.58939,39.69195],[8.58136,39.68749],[8.57661,39.68755],[8.57146,39.68458],[8.56704,39.68684],[8.56604,39.6898],[8.55938,39.69068],[8.55988,39.69241],[8.55001,39.69601],[8.54241,39.69169],[8.53709,39.69368],[8.52174,39.69274],[8.51872,39.69405],[8.51831,39.69633],[8.5208,39.7008],[8.51566,39.69972],[8.514,39.70525],[8.51105,39.70396],[8.50764,39.7069],[8.50655,39.7056],[8.50246,39.7062],[8.5002,39.70982],[8.50266,39.71082],[8.50252,39.71235],[8.49986,39.71403],[8.49509,39.71327],[8.48862,39.71552],[8.4988,39.71757],[8.49739,39.71871],[8.49856,39.71917],[8.49845,39.71944],[8.49681,39.71925],[8.49772,39.72185],[8.49358,39.72301],[8.48816,39.7293],[8.49012,39.73149],[8.48633,39.73237],[8.47988,39.73969],[8.47633,39.74638],[8.47186,39.74882],[8.46891,39.75796],[8.46128,39.76439],[8.46021,39.76812],[8.45753,39.76965],[8.45134,39.76952],[8.44969,39.76152],[8.44361,39.75823],[8.44514,39.75727],[8.44416,39.75356],[8.44527,39.74828],[8.44806,39.74426],[8.44691,39.7429],[8.44848,39.7426],[8.44769,39.74158],[8.4492,39.74002],[8.4478,39.73987],[8.44881,39.73882],[8.4471,39.73781],[8.44773,39.73579],[8.44658,39.73594],[8.44506,39.73164],[8.45009,39.72885],[8.45036,39.72731],[8.44817,39.72629],[8.45023,39.72487],[8.45002,39.72208],[8.44671,39.71874],[8.4475,39.71553],[8.44533,39.71462],[8.4448,39.71246],[8.44661,39.71376],[8.45297,39.7133],[8.4556,39.70892],[8.45331,39.70075],[8.45407,39.69789],[8.45054,39.6895],[8.44836,39.68588],[8.4425,39.68529],[8.44404,39.68399],[8.44219,39.68317],[8.44764,39.68121],[8.44441,39.67827],[8.44685,39.67797],[8.44583,39.67548],[8.45042,39.67529],[8.45247,39.67085],[8.4601,39.66761],[8.45311,39.66216],[8.45377,39.65861],[8.44982,39.65696],[8.45252,39.6544],[8.4511,39.65342],[8.45207,39.64884],[8.45013,39.64501],[8.45398,39.64229],[8.44987,39.63805],[8.45019,39.63605],[8.44816,39.63533],[8.45151,39.63128],[8.45071,39.62975],[8.45296,39.62119],[8.4598,39.62007],[8.46012,39.61639],[8.46559,39.61612],[8.46657,39.61252],[8.46438,39.60758],[8.4681,39.60736],[8.47036,39.60435],[8.47046,39.59819],[8.46908,39.59472],[8.46469,39.59222],[8.46621,39.59021],[8.46354,39.58758],[8.46462,39.57742],[8.46304,39.57469],[8.46045,39.57428],[8.45999,39.56915],[8.45496,39.56349],[8.45624,39.56047],[8.45242,39.55558],[8.45386,39.55125],[8.44731,39.53976],[8.43583,39.52364],[8.42963,39.51793],[8.40688,39.48948],[8.40363,39.48665],[8.39707,39.48574],[8.39689,39.48105],[8.3872,39.47552],[8.38736,39.47232],[8.3847,39.47062],[8.38559,39.46703],[8.38382,39.4659],[8.38637,39.46361],[8.38259,39.46174],[8.38451,39.45909],[8.38291,39.45886],[8.38249,39.45671],[8.37928,39.45641]]]}},{"type":"Feature","properties":{"name":"Aristanis","admin":"provìntzia","source":"© OpenStreetMap contributors, ODbL 1.0","osm_relation":40021},"geometry":{"type":"MultiPolygon","coordinates":[[[[8.27548,39.88245],[8.27571,39.88141],[8.27632,39.88203],[8.27548,39.88245]]],[[[8.29605,39.98177],[8.29928,39.98173],[8.30379,39.98687],[8.31106,39.98902],[8.31362,39.99638],[8.31101,39.99654],[8.31073,39.99422],[8.30871,39.99373],[8.30293,39.99515],[8.30007,39.99384],[8.30116,39.98655],[8.29605,39.98177]]],[[[8.3776,40.36065],[8.37715,40.35982],[8.37812,40.36029],[8.3776,40.36065]]],[[[8.37657,40.03589],[8.37892,40.03231],[8.3782,40.029],[8.39312,40.02941],[8.39736,40.03297],[8.40241,40.03222],[8.40678,40.02889],[8.40914,40.02181],[8.4137,40.01935],[8.41399,40.01395],[8.41059,40.01011],[8.40989,40.00514],[8.41109,39.99927],[8.40758,39.99526],[8.40543,39.99495],[8.40523,39.99222],[8.40184,39.9898],[8.39837,39.983],[8.3926,39.97985],[8.39144,39.97552],[8.3928,39.97288],[8.39739,39.97073],[8.39964,39.96579],[8.40145,39.95669],[8.39966,39.95427],[8.40107,39.9533],[8.40138,39.95242],[8.39964,39.94902],[8.40181,39.94764],[8.40126,39.94537],[8.40289,39.94396],[8.40124,39.94125],[8.40162,39.93274],[8.39875,39.91983],[8.40017,39.91319],[8.3988,39.91032],[8.39581,39.90907],[8.39877,39.90732],[8.39852,39.90412],[8.40193,39.89852],[8.41076,39.9009],[8.4247,39.89351],[8.4356,39.8831],[8.43872,39.87644],[8.43686,39.87337],[8.43878,39.87146],[8.43859,39.86835],[8.43235,39.86482],[8.43277,39.86006],[8.43652,39.85806],[8.44065,39.86501],[8.43995,39.87091],[8.44255,39.87477],[8.44156,39.87963],[8.45914,39.895],[8.47068,39.90124],[8.46733,39.90116],[8.46661,39.90381],[8.48035,39.90466],[8.48699,39.90354],[8.49188,39.90959],[8.4942,39.90857],[8.49081,39.90569],[8.48747,39.90129],[8.48944,39.90224],[8.49316,39.90113],[8.49468,39.90111],[8.48955,39.90235],[8.49024,39.90378],[8.49176,39.90229],[8.4925,39.90387],[8.49027,39.90384],[8.49105,39.90543],[8.49309,39.90384],[8.49493,39.90615],[8.50837,39.90777],[8.52388,39.90258],[8.53176,39.89727],[8.5306,39.89665],[8.53084,39.89643],[8.53182,39.89722],[8.53494,39.89429],[8.53358,39.89367],[8.53379,39.89341],[8.53497,39.89426],[8.53692,39.89229],[8.53506,39.89129],[8.53514,39.8912],[8.53695,39.89225],[8.53916,39.88934],[8.54157,39.88114],[8.53959,39.87932],[8.54216,39.88023],[8.54561,39.87598],[8.53988,39.86985],[8.54428,39.86604],[8.54303,39.86521],[8.55038,39.86717],[8.55216,39.86348],[8.57018,39.86555],[8.57052,39.86383],[8.56899,39.86468],[8.56504,39.86297],[8.56784,39.85676],[8.56588,39.856],[8.56436,39.8584],[8.55615,39.86225],[8.54564,39.86031],[8.53707,39.86552],[8.54531,39.86007],[8.55248,39.86091],[8.55336,39.85953],[8.55568,39.84949],[8.55412,39.83394],[8.55151,39.82983],[8.55355,39.82947],[8.5524,39.82688],[8.5513,39.82713],[8.55108,39.82908],[8.55084,39.82961],[8.55061,39.82973],[8.55119,39.82687],[8.55241,39.82566],[8.54524,39.79452],[8.53401,39.77332],[8.53235,39.77145],[8.53041,39.77178],[8.53125,39.76985],[8.51266,39.75277],[8.51039,39.75382],[8.5098,39.75379],[8.50911,39.75328],[8.51979,39.74398],[8.50992,39.73248],[8.51309,39.73057],[8.50999,39.72951],[8.51109,39.73125],[8.50991,39.73239],[8.50399,39.72864],[8.50509,39.72644],[8.50908,39.72482],[8.50661,39.72254],[8.50765,39.72185],[8.50673,39.72008],[8.50462,39.72123],[8.50608,39.72282],[8.50457,39.72123],[8.50674,39.71984],[8.50021,39.70838],[8.50352,39.70589],[8.50655,39.7056],[8.50764,39.7069],[8.51105,39.70396],[8.514,39.70525],[8.51566,39.69972],[8.5208,39.7008],[8.51806,39.69542],[8.52137,39.69278],[8.53709,39.69368],[8.54241,39.69169],[8.55001,39.69601],[8.55988,39.69241],[8.55938,39.69068],[8.56604,39.6898],[8.56704,39.68684],[8.57146,39.68458],[8.57661,39.68755],[8.58136,39.68749],[8.58939,39.69195],[8.59519,39.69064],[8.59644,39.6922],[8.59686,39.69014],[8.60303,39.69109],[8.60439,39.68924],[8.60849,39.68969],[8.61081,39.68055],[8.61795,39.67639],[8.61948,39.67025],[8.62595,39.66538],[8.62503,39.65936],[8.62819,39.65435],[8.64101,39.65219],[8.64481,39.64827],[8.66034,39.64196],[8.67133,39.63114],[8.68831,39.64293],[8.69657,39.64538],[8.70193,39.64168],[8.70284,39.63874],[8.72294,39.63641],[8.72839,39.64084],[8.74316,39.62701],[8.75053,39.63324],[8.76158,39.63437],[8.76824,39.63878],[8.77559,39.64044],[8.77672,39.64452],[8.78022,39.64687],[8.78493,39.65416],[8.80229,39.6565],[8.8061,39.6591],[8.81253,39.66049],[8.81607,39.6596],[8.81795,39.66135],[8.82272,39.66088],[8.83168,39.66701],[8.83981,39.66369],[8.8497,39.66483],[8.85659,39.66892],[8.86154,39.6679],[8.86571,39.67559],[8.8644,39.68417],[8.86695,39.68473],[8.86874,39.68735],[8.87361,39.68857],[8.87854,39.69416],[8.88147,39.70485],[8.8931,39.70755],[8.89367,39.7091],[8.90319,39.71313],[8.90848,39.72044],[8.91299,39.72142],[8.91207,39.72519],[8.90177,39.73297],[8.90971,39.73941],[8.91273,39.747],[8.92433,39.75832],[8.9156,39.76019],[8.91619,39.76724],[8.90913,39.76706],[8.90463,39.77189],[8.90046,39.77157],[8.89605,39.7738],[8.893,39.77291],[8.88829,39.78058],[8.88663,39.78739],[8.88118,39.79269],[8.88488,39.79191],[8.88915,39.79456],[8.90497,39.79621],[8.91318,39.79514],[8.91623,39.79312],[8.92862,39.79302],[8.93225,39.79054],[8.9375,39.79091],[8.94059,39.78483],[8.94512,39.78465],[8.94738,39.78133],[8.95313,39.77851],[8.95579,39.78578],[8.96691,39.79395],[8.96943,39.79971],[8.97451,39.80228],[8.97418,39.80435],[8.97672,39.80532],[8.98182,39.8167],[8.98599,39.82078],[8.98665,39.8256],[8.98899,39.82459],[8.99301,39.82715],[8.99663,39.82737],[8.99786,39.82339],[8.99885,39.82633],[9.00506,39.82819],[9.00644,39.82574],[9.00848,39.82837],[9.01451,39.82582],[9.01722,39.82226],[9.02039,39.82226],[9.02229,39.81919],[9.03159,39.81969],[9.03207,39.81679],[9.02943,39.81069],[9.04036,39.80533],[9.04188,39.80296],[9.04818,39.80311],[9.05429,39.80088],[9.06199,39.81074],[9.07676,39.81707],[9.07912,39.82211],[9.08255,39.82285],[9.0836,39.82761],[9.0942,39.82801],[9.10045,39.83108],[9.10691,39.84123],[9.10657,39.84715],[9.11356,39.84958],[9.12757,39.83945],[9.14666,39.84572],[9.1645,39.83234],[9.16678,39.83335],[9.16889,39.83729],[9.16999,39.84114],[9.16868,39.84497],[9.17289,39.85123],[9.16012,39.85585],[9.1482,39.86956],[9.13983,39.87447],[9.13673,39.87865],[9.13642,39.88191],[9.128,39.88781],[9.12885,39.88846],[9.12678,39.89113],[9.11538,39.886],[9.11286,39.88266],[9.10973,39.88323],[9.1064,39.87721],[9.10962,39.87118],[9.10559,39.86777],[9.09977,39.87242],[9.09331,39.88231],[9.087,39.88538],[9.0819,39.88593],[9.07734,39.89209],[9.0671,39.89394],[9.06215,39.89879],[9.04922,39.90104],[9.0391,39.91203],[9.0281,39.9147],[9.02268,39.9132],[9.0119,39.91673],[9.00413,39.91586],[8.9984,39.91811],[8.98923,39.91446],[8.98343,39.91734],[8.98638,39.92019],[8.98641,39.92456],[8.98942,39.92641],[8.99074,39.93487],[8.99538,39.93595],[8.98887,39.94337],[8.99701,39.94924],[8.99452,39.95149],[8.99638,39.95356],[8.99362,39.95789],[8.99526,39.95981],[9.0003,39.96047],[9.003,39.96746],[9.0111,39.97573],[9.01795,39.98025],[9.01772,39.98187],[9.01517,39.98369],[9.012,39.99],[9.00706,39.99212],[9.00263,39.99199],[8.99989,39.98935],[8.99164,39.98665],[8.98833,39.98785],[8.98867,39.99064],[8.98167,39.98734],[8.975,39.98955],[8.96596,39.9894],[8.96223,39.99043],[8.96174,39.99253],[8.95647,39.99281],[8.9533,39.99637],[8.95169,40.00383],[8.94582,40.00699],[8.94776,40.01219],[8.94567,40.01315],[8.9467,40.01482],[8.94527,40.02023],[8.94848,40.02204],[8.94765,40.02384],[8.94943,40.02568],[8.95299,40.02719],[8.95427,40.03104],[8.96546,40.03788],[8.96497,40.04318],[8.96769,40.04544],[8.96654,40.04624],[8.97421,40.04753],[8.98853,40.05728],[8.99283,40.05768],[9.00538,40.05491],[9.00765,40.04987],[9.01191,40.04617],[9.01832,40.04438],[9.02659,40.03761],[9.03685,40.052],[9.0411,40.05502],[9.04129,40.05821],[9.04842,40.05876],[9.04219,40.06149],[9.03782,40.0615],[9.03609,40.06436],[9.03444,40.07559],[9.03522,40.08886],[9.03196,40.09775],[9.02799,40.10259],[9.02215,40.1151],[9.0171,40.11984],[9.01544,40.12557],[9.01686,40.12621],[9.00243,40.13436],[9.01007,40.13658],[9.01867,40.14625],[9.019,40.15501],[9.01685,40.16436],[9.01293,40.1665],[9.01262,40.17053],[9.00598,40.17273],[9.00607,40.1751],[9.001,40.17767],[8.99875,40.1769],[8.998,40.18029],[8.99958,40.18329],[9.01277,40.1891],[9.01491,40.19352],[9.01734,40.19369],[9.01257,40.19874],[8.99057,40.20903],[8.99167,40.21419],[8.98253,40.21822],[8.96694,40.21516],[8.95809,40.2118],[8.95432,40.21399],[8.94781,40.21191],[8.9409,40.2125],[8.93499,40.21015],[8.9289,40.21164],[8.91027,40.20804],[8.87562,40.20812],[8.85694,40.21067],[8.83575,40.20608],[8.82608,40.20007],[8.80191,40.19472],[8.79589,40.19167],[8.78531,40.19334],[8.78316,40.1902],[8.78064,40.1898],[8.77675,40.19334],[8.76473,40.19702],[8.7621,40.19209],[8.74128,40.18055],[8.74554,40.1941],[8.74317,40.20074],[8.72904,40.20535],[8.71816,40.20531],[8.70965,40.21414],[8.69889,40.21319],[8.68998,40.21033],[8.68509,40.20747],[8.68201,40.20307],[8.67301,40.20415],[8.67313,40.20972],[8.66744,40.22994],[8.66927,40.24081],[8.66771,40.24959],[8.6513,40.25598],[8.64794,40.25535],[8.64743,40.25804],[8.63696,40.26111],[8.63294,40.26081],[8.6316,40.26313],[8.6269,40.2638],[8.62828,40.26552],[8.62482,40.26949],[8.61648,40.27315],[8.61835,40.27686],[8.62144,40.27714],[8.62059,40.28032],[8.62469,40.28133],[8.62342,40.28326],[8.61805,40.28392],[8.61793,40.28812],[8.614,40.29101],[8.61849,40.30411],[8.61118,40.30776],[8.61252,40.31351],[8.61516,40.31421],[8.6152,40.31736],[8.62029,40.31892],[8.62072,40.32243],[8.61351,40.32404],[8.60902,40.32916],[8.5915,40.33261],[8.5928,40.33615],[8.59026,40.33935],[8.59121,40.34256],[8.58942,40.34512],[8.59092,40.34688],[8.58709,40.34929],[8.58762,40.35335],[8.58388,40.35637],[8.57345,40.35785],[8.56882,40.36162],[8.5706,40.36309],[8.56973,40.367],[8.56526,40.36844],[8.56507,40.37317],[8.56297,40.37705],[8.56021,40.37865],[8.56248,40.38209],[8.55306,40.38485],[8.55059,40.38354],[8.54868,40.38646],[8.55402,40.39031],[8.55044,40.39355],[8.55165,40.39608],[8.54769,40.39635],[8.53995,40.40264],[8.52575,40.40047],[8.52566,40.40594],[8.52046,40.41132],[8.51902,40.417],[8.51409,40.42162],[8.50382,40.42296],[8.5006,40.42605],[8.49445,40.42549],[8.4887,40.42136],[8.48582,40.41282],[8.479,40.40837],[8.47431,40.4078],[8.47036,40.40979],[8.45896,40.40709],[8.45363,40.40007],[8.44368,40.39553],[8.43954,40.3964],[8.43966,40.39901],[8.43804,40.39958],[8.42336,40.39282],[8.42044,40.39628],[8.41168,40.39724],[8.39979,40.40751],[8.39919,40.39834],[8.39603,40.39548],[8.39575,40.3931],[8.39312,40.39185],[8.39467,40.38712],[8.39166,40.38477],[8.39251,40.37961],[8.38918,40.37676],[8.38887,40.37394],[8.3862,40.37264],[8.39015,40.37063],[8.38864,40.36868],[8.38966,40.36586],[8.38761,40.36546],[8.38728,40.36361],[8.37958,40.36182],[8.38031,40.35976],[8.3784,40.35807],[8.38131,40.35687],[8.37979,40.35606],[8.38238,40.35356],[8.3805,40.35222],[8.38755,40.34828],[8.38564,40.34367],[8.3839,40.34329],[8.38269,40.3384],[8.38956,40.33734],[8.3914,40.33956],[8.39591,40.34049],[8.39849,40.33786],[8.407,40.33766],[8.40574,40.33631],[8.40786,40.33556],[8.41652,40.33561],[8.4207,40.33788],[8.42337,40.33572],[8.43295,40.33346],[8.43174,40.33227],[8.43422,40.33026],[8.43383,40.32765],[8.43657,40.32674],[8.43552,40.32592],[8.43851,40.32302],[8.43664,40.32167],[8.4427,40.3211],[8.44345,40.31851],[8.44786,40.32079],[8.45027,40.32064],[8.45069,40.31917],[8.45529,40.3212],[8.46407,40.31529],[8.46332,40.31258],[8.46544,40.3123],[8.46673,40.31016],[8.46578,40.30764],[8.46819,40.30645],[8.46464,40.30582],[8.46449,40.30041],[8.46734,40.29785],[8.47102,40.29712],[8.46849,40.29503],[8.46847,40.29441],[8.46908,40.29383],[8.47456,40.2928],[8.47271,40.28666],[8.47412,40.28712],[8.47379,40.28628],[8.47523,40.28465],[8.47475,40.28773],[8.47787,40.28792],[8.48278,40.28524],[8.48421,40.27382],[8.47957,40.26797],[8.47779,40.26094],[8.47859,40.2587],[8.47677,40.25764],[8.47361,40.24838],[8.47377,40.24289],[8.47171,40.24201],[8.46722,40.23282],[8.46391,40.23201],[8.46448,40.22999],[8.4617,40.22979],[8.46276,40.22888],[8.46148,40.22752],[8.46314,40.22889],[8.4659,40.22745],[8.46616,40.2237],[8.46394,40.22133],[8.46316,40.21417],[8.46111,40.213],[8.46223,40.2097],[8.45969,40.20881],[8.46323,40.20802],[8.46792,40.19927],[8.46488,40.19644],[8.46606,40.1934],[8.46199,40.18573],[8.45841,40.18308],[8.45875,40.17914],[8.45605,40.17657],[8.46181,40.17248],[8.4617,40.16956],[8.45963,40.16767],[8.45917,40.15179],[8.46348,40.14671],[8.47186,40.13009],[8.48498,40.11746],[8.48626,40.11154],[8.48723,40.1123],[8.48624,40.10983],[8.48743,40.10993],[8.48567,40.10448],[8.48941,40.10503],[8.49114,40.10233],[8.48986,40.10047],[8.48616,40.09955],[8.48604,40.09567],[8.48763,40.09377],[8.48901,40.09517],[8.48895,40.09301],[8.49301,40.08724],[8.49034,40.08605],[8.48849,40.08716],[8.48863,40.08556],[8.49004,40.08553],[8.48946,40.07982],[8.48263,40.07316],[8.45394,40.05087],[8.44365,40.0477],[8.44141,40.0486],[8.4404,40.05147],[8.43428,40.05211],[8.42641,40.04467],[8.412,40.04125],[8.40646,40.04406],[8.4037,40.05127],[8.40217,40.052],[8.39858,40.05087],[8.39817,40.04829],[8.39982,40.04727],[8.39647,40.04385],[8.3949,40.04448],[8.39045,40.04215],[8.3885,40.04431],[8.38586,40.04409],[8.38391,40.04282],[8.38479,40.0407],[8.37939,40.03921],[8.37872,40.0358],[8.37657,40.03589]]],[[[8.37754,40.02914],[8.37769,40.02878],[8.37786,40.02894],[8.37754,40.02914]]],[[[8.37778,40.03016],[8.37781,40.02973],[8.37829,40.03017],[8.37778,40.03016]]],[[[8.37804,40.03725],[8.37786,40.03695],[8.37808,40.03705],[8.37804,40.03725]]],[[[8.38109,40.33765],[8.38113,40.33748],[8.38122,40.33754],[8.38109,40.33765]]],[[[8.38145,40.33771],[8.38153,40.33754],[8.3816,40.33762],[8.38145,40.33771]]],[[[8.38991,39.97328],[8.38965,39.97311],[8.39003,39.97312],[8.38991,39.97328]]],[[[8.39616,39.91045],[8.39608,39.91017],[8.39689,39.91],[8.39616,39.91045]]],[[[8.39683,40.04674],[8.39645,40.04578],[8.39716,40.04555],[8.39683,40.04674]]],[[[8.39764,39.90428],[8.39739,39.90392],[8.39782,39.90406],[8.39764,39.90428]]],[[[8.39891,39.9546],[8.3989,39.95409],[8.39933,39.95417],[8.39891,39.9546]]],[[[8.40049,39.95352],[8.40046,39.95335],[8.40061,39.95345],[8.40049,39.95352]]],[[[8.40266,40.05295],[8.40411,40.05321],[8.40439,40.05369],[8.40313,40.05432],[8.40266,40.05295]]],[[[8.42171,40.33623],[8.42128,40.33492],[8.42227,40.33528],[8.42171,40.33623]]],[[[8.45414,40.21009],[8.45598,40.2091],[8.45654,40.20947],[8.45565,40.21025],[8.45414,40.21009]]],[[[8.45932,40.21278],[8.45864,40.21233],[8.45932,40.21253],[8.45932,40.21278]]],[[[8.45882,40.20439],[8.45875,40.20382],[8.45925,40.2042],[8.45882,40.20439]]],[[[8.45927,40.21109],[8.45931,40.21103],[8.4595,40.21103],[8.45927,40.21109]]],[[[8.46008,40.21128],[8.46007,40.21114],[8.46031,40.21118],[8.46008,40.21128]]],[[[8.45995,40.21104],[8.4599,40.21094],[8.46001,40.21097],[8.45995,40.21104]]],[[[8.46288,40.23293],[8.46317,40.23223],[8.46337,40.23267],[8.46288,40.23293]]],[[[8.46525,40.19776],[8.4649,40.19748],[8.46548,40.19761],[8.46525,40.19776]]],[[[8.48577,40.09453],[8.48583,40.09423],[8.48596,40.09426],[8.48577,40.09453]]],[[[8.4867,40.09258],[8.48662,40.09229],[8.48722,40.09218],[8.4867,40.09258]]],[[[8.48767,40.09342],[8.48748,40.09276],[8.48785,40.09277],[8.48767,40.09342]]],[[[8.48758,40.1007],[8.48767,40.1003],[8.48814,40.1009],[8.48758,40.1007]]]]}}]}