{"type":"FeatureCollection","features":[{"type":"Feature","properties":{"name":"Vellinge","admin":"kommun","source":"© OpenStreetMap contributors, ODbL 1.0","osm_relation":935451},"geometry":{"type":"Polygon","coordinates":[[[12.980532,55.1629527],[12.963497,55.1578527],[12.9524562,55.1549209],[12.9412472,55.15221],[12.9229745,55.1483703],[12.7910119,55.2441602],[12.7187436,55.2963641],[12.715106,55.2991616],[12.7117281,55.3020636],[12.7086215,55.3050624],[12.7057929,55.3081507],[12.7032507,55.3113181],[12.7010035,55.3145575],[12.6990565,55.3178592],[12.6974134,55.3212151],[12.6960812,55.3246146],[12.695062,55.3280496],[12.6943612,55.3315104],[12.6939779,55.3349872],[12.6939142,55.3384708],[12.6941693,55.3419514],[12.6947453,55.3454202],[12.6953788,55.3479813],[12.694464,55.3497707],[12.6408,55.3366667],[12.6094167,55.4311167],[12.7141167,55.4886],[12.7171426,55.4996451],[12.8788927,55.4805867],[12.9031647,55.4905118],[12.9057016,55.4908668],[12.940603,55.5062745],[12.9433568,55.5067766],[12.9444164,55.506804],[12.9569547,55.5050012],[12.9631833,55.5052813],[12.9680501,55.5061137],[12.9762483,55.5068021],[12.9762979,55.5078436],[12.9914007,55.5082474],[12.9960487,55.5078471],[12.9995449,55.5071805],[13.0008642,55.5067592],[13.0086934,55.5060757],[13.0107069,55.5062831],[13.017584,55.50825],[13.0340588,55.5107274],[13.0330665,55.5124443],[13.0475526,55.5151569],[13.0511426,55.5182384],[13.0533069,55.5224365],[13.0565153,55.5220646],[13.0584128,55.5220419],[13.0584827,55.5223696],[13.0642025,55.5221651],[13.0723881,55.5226425],[13.0756632,55.5226725],[13.0781667,55.5230316],[13.0829344,55.5234059],[13.0861659,55.5231449],[13.0931158,55.5233662],[13.0973248,55.5227965],[13.1040614,55.5240587],[13.1050439,55.5239437],[13.1066483,55.5241032],[13.1063277,55.5227429],[13.1064525,55.5215059],[13.1062596,55.5205409],[13.1073077,55.5192239],[13.1087714,55.5178434],[13.113033,55.5124688],[13.1135586,55.5121009],[13.1133359,55.511924],[13.1138682,55.5117671],[13.1169358,55.5119568],[13.1179832,55.5105261],[13.1178085,55.5101971],[13.1180526,55.5100276],[13.1202001,55.5095176],[13.1221182,55.50974],[13.1245079,55.5094318],[13.1277238,55.5078807],[13.1297077,55.5074665],[13.1316137,55.5066259],[13.1319522,55.5060649],[13.1319815,55.5045964],[13.1310626,55.5025595],[13.1347479,55.4957714],[13.136992,55.4921172],[13.137692,55.4922082],[13.1402285,55.4897313],[13.1433234,55.4895715],[13.1451185,55.4892138],[13.1475707,55.4880791],[13.1473062,55.487853],[13.1499414,55.4875405],[13.1509622,55.4879144],[13.1526399,55.4876366],[13.1549702,55.4876859],[13.1556071,55.4874586],[13.1614461,55.4864911],[13.1629717,55.4866216],[13.1644124,55.4870826],[13.1673405,55.4863259],[13.1715418,55.4864129],[13.1761722,55.4867642],[13.1780328,55.485101],[13.1803552,55.4827057],[13.1750808,55.4816178],[13.1737179,55.4811764],[13.1714245,55.4799703],[13.1700658,55.4794661],[13.1736587,55.4777171],[13.1764814,55.4754327],[13.1723539,55.4756781],[13.165887,55.4737387],[13.1662537,55.4731472],[13.1611088,55.4723996],[13.1567024,55.4719973],[13.1529497,55.4701821],[13.1498712,55.4684291],[13.1468947,55.4656093],[13.1446556,55.4643163],[13.143109,55.4624143],[13.1427382,55.4616571],[13.1423442,55.4598192],[13.1395631,55.4574165],[13.1388736,55.4565803],[13.1366747,55.4552092],[13.1365557,55.4520544],[13.1360979,55.4517676],[13.1343831,55.4517026],[13.1327917,55.4519401],[13.1269024,55.4513012],[13.122303,55.4506091],[13.1188833,55.4509967],[13.1187471,55.4519842],[13.1182863,55.4529715],[13.1182142,55.4549665],[13.1166823,55.4555017],[13.1151671,55.4568653],[13.1139533,55.4576508],[13.1133785,55.4577569],[13.1130144,55.4583248],[13.1120821,55.4586038],[13.1122013,55.4587317],[13.1092577,55.4579769],[13.1071539,55.4610713],[13.1067801,55.4612529],[13.1059254,55.4626646],[13.099534,55.4625099],[13.0896862,55.4617128],[13.08237,55.4613809],[13.0820308,55.4617455],[13.0801026,55.4614678],[13.0802707,55.4612791],[13.0744956,55.4608222],[13.0712772,55.4608931],[13.0676032,55.4605554],[13.064117,55.4626184],[13.0619361,55.4619751],[13.0597982,55.4606867],[13.058076,55.4601334],[13.0531131,55.4590517],[13.0522933,55.4590182],[13.0512378,55.4592315],[13.0526966,55.4553448],[13.0538006,55.4518463],[13.0549877,55.4446617],[13.0556782,55.4444778],[13.0542448,55.4426174],[13.0534044,55.4419004],[13.0526593,55.4401524],[13.0525146,55.4373746],[13.0527609,55.4336346],[13.0523687,55.4311967],[13.0539551,55.4303983],[13.0550974,55.4295408],[13.0625473,55.4264998],[13.0654856,55.4238505],[13.0647498,55.4237951],[13.0653724,55.4211042],[13.064713,55.4210464],[13.0641191,55.4212053],[13.0610732,55.420327],[13.0611153,55.4201654],[13.0575724,55.4197182],[13.0511674,55.4184979],[13.0462639,55.4178871],[13.0459302,55.4129559],[13.0453435,55.4080009],[13.0450507,55.4073755],[13.042712,55.4048662],[13.0440317,55.4047753],[13.042981,55.4040924],[13.0425225,55.403956],[13.0375266,55.4036969],[13.0316573,55.4036544],[13.0315865,55.4016457],[13.031926,55.4000817],[13.0229196,55.4016031],[13.0184762,55.3972733],[13.0207625,55.3964132],[13.02013,55.3957039],[13.0257168,55.3940931],[13.0191146,55.3879971],[13.0139241,55.3838247],[12.9680711,55.3408918],[12.980532,55.1629527]]]}}]}