{"type": "FeatureCollection", "features": [{"type": "Feature", "properties": {"name": "Gvozd", "admin": "opština", "source": "© OpenStreetMap contributors, ODbL 1.0", "osm_relation": 7902050}, "geometry": {"type": "Polygon", "coordinates": [[[15.7660929, 45.3675478], [15.7662522, 45.3669829], [15.7667045, 45.3667237], [15.7671444, 45.3661179], [15.767376, 45.3642448], [15.7679974, 45.3629462], [15.7680904, 45.3624356], [15.7676696, 45.3611856], [15.7678123, 45.3605822], [15.7672177, 45.3574629], [15.7674849, 45.3561747], [15.7676215, 45.3560398], [15.768507, 45.3561134], [15.7704195, 45.355759], [15.7706109, 45.3558621], [15.7712809, 45.3554657], [15.7720168, 45.3559457], [15.7723937, 45.3567182], [15.7729343, 45.356647], [15.7730632, 45.3563695], [15.7742017, 45.3562478], [15.7744506, 45.3563783], [15.7743904, 45.3565612], [15.7749192, 45.3566596], [15.7750712, 45.3564955], [15.7748649, 45.3563555], [15.7757542, 45.3561375], [15.7758497, 45.3563771], [15.7775325, 45.3565805], [15.7784023, 45.3553137], [15.7777892, 45.3544617], [15.7778746, 45.3537836], [15.7771995, 45.3526459], [15.7775882, 45.3523038], [15.7777038, 45.3518187], [15.7782133, 45.3513439], [15.7784192, 45.3506357], [15.779233, 45.3494612], [15.7827516, 45.3483452], [15.78288, 45.3476746], [15.7831798, 45.3475054], [15.7836495, 45.3475193], [15.784092, 45.3472186], [15.7846321, 45.3460076], [15.785415, 45.3460235], [15.7880254, 45.3448058], [15.7883462, 45.3448705], [15.7894163, 45.3440865], [15.7896199, 45.3433449], [15.7889068, 45.3426841], [15.7880474, 45.3406779], [15.7876134, 45.3404163], [15.7872264, 45.3397229], [15.7856635, 45.3390297], [15.7853752, 45.3384701], [15.7872424, 45.3387163], [15.7880783, 45.3378881], [15.7883126, 45.3379527], [15.7898411, 45.3365142], [15.7911371, 45.334493], [15.7922915, 45.3341455], [15.7929705, 45.3334911], [15.79398, 45.3312851], [15.793921, 45.3302546], [15.7934125, 45.3287654], [15.7921622, 45.3272332], [15.7921516, 45.3261692], [15.7924295, 45.3250057], [15.7931485, 45.3243235], [15.7944589, 45.3226141], [15.7943288, 45.3208587], [15.7949293, 45.3200244], [15.7956746, 45.3200183], [15.8030115, 45.3176683], [15.8045589, 45.3166216], [15.8053491, 45.3143689], [15.8057332, 45.3141859], [15.806635, 45.3157081], [15.8072544, 45.3161927], [15.807329, 45.3164931], [15.8087585, 45.3173166], [15.8096207, 45.317349], [15.8106099, 45.3177948], [15.8126517, 45.3183685], [15.8147453, 45.3185967], [15.8167236, 45.3194589], [15.8195814, 45.3202793], [15.8191871, 45.3198035], [15.8236306, 45.3192138], [15.8258308, 45.3186041], [15.8272486, 45.317584], [15.8293376, 45.3168399], [15.8303237, 45.316176], [15.8310801, 45.3154167], [15.8338301, 45.3142183], [15.8350014, 45.3133375], [15.8367141, 45.3143305], [15.8395178, 45.3133151], [15.8413282, 45.3122807], [15.8411499, 45.3121823], [15.8419311, 45.3120017], [15.8446783, 45.3100244], [15.8452865, 45.3099288], [15.8464006, 45.3089798], [15.8487788, 45.3075593], [15.8489202, 45.3076826], [15.84934, 45.3075401], [15.8492357, 45.3073363], [15.8501321, 45.306696], [15.8503023, 45.3062368], [15.8507122, 45.3057956], [15.8526533, 45.3046213], [15.8533155, 45.3040536], [15.8532254, 45.3036931], [15.853551, 45.3034611], [15.8535261, 45.3030531], [15.8541199, 45.3030002], [15.8540735, 45.3028484], [15.8547411, 45.3028698], [15.8548785, 45.3027802], [15.8547492, 45.3025976], [15.855109, 45.3026051], [15.8550789, 45.3024201], [15.8558695, 45.3022192], [15.8569833, 45.302594], [15.857181, 45.3028693], [15.8588438, 45.3036915], [15.8614706, 45.3046416], [15.8631432, 45.3042143], [15.865335, 45.3045039], [15.8662094, 45.3043805], [15.8667572, 45.3041157], [15.8669297, 45.3038586], [15.8668345, 45.3033285], [15.8673332, 45.3027179], [15.8683758, 45.3021505], [15.8694999, 45.3017669], [15.8698652, 45.3012848], [15.8697596, 45.3004155], [15.8699832, 45.2997066], [15.8705019, 45.2987949], [15.8753465, 45.2981945], [15.8760819, 45.298223], [15.8778571, 45.2978351], [15.8787678, 45.2972963], [15.8802077, 45.2954726], [15.8810686, 45.2949548], [15.8830632, 45.2930608], [15.8861468, 45.2933439], [15.8874007, 45.2931657], [15.8878278, 45.2933259], [15.8875824, 45.2930744], [15.8883525, 45.2926098], [15.8882543, 45.2923957], [15.8879303, 45.2923416], [15.8880255, 45.2921783], [15.8889859, 45.2918798], [15.8905179, 45.2917201], [15.8905172, 45.2914139], [15.8903263, 45.2911822], [15.8908709, 45.2911265], [15.8911809, 45.2915724], [15.8918462, 45.2919675], [15.8919926, 45.2929153], [15.89305, 45.2939246], [15.8942518, 45.2958364], [15.8951909, 45.2965004], [15.8961344, 45.2977678], [15.8969371, 45.2983319], [15.8978752, 45.2985987], [15.9009062, 45.2988797], [15.9013637, 45.2990489], [15.9020011, 45.2999551], [15.9056689, 45.3009265], [15.9064592, 45.3019115], [15.9075854, 45.3023827], [15.9084801, 45.3025368], [15.9094339, 45.3030122], [15.9119956, 45.3047608], [15.9163953, 45.3063234], [15.9179933, 45.3073172], [15.9205367, 45.3080946], [15.9210459, 45.3084695], [15.9210467, 45.3094668], [15.921673, 45.3110472], [15.9239844, 45.3115603], [15.9262594, 45.3126036], [15.9260564, 45.3127334], [15.9241766, 45.3127418], [15.9236586, 45.3129042], [15.9232109, 45.3132831], [15.9236674, 45.3144177], [15.9241162, 45.3147403], [15.9236933, 45.3150681], [15.9252771, 45.316453], [15.9254389, 45.3172593], [15.9245212, 45.3170328], [15.9238894, 45.3172628], [15.9243484, 45.3173675], [15.9241429, 45.3177364], [15.9232141, 45.3178056], [15.923252, 45.3180505], [15.9230598, 45.3179073], [15.9204736, 45.3178835], [15.9181564, 45.3187878], [15.9179896, 45.3185308], [15.9175957, 45.3183866], [15.9167147, 45.3190603], [15.915556, 45.3187244], [15.9152926, 45.3184442], [15.9148162, 45.3184702], [15.9147989, 45.3185896], [15.9140185, 45.3183581], [15.9139649, 45.3188585], [15.9136575, 45.3189309], [15.9135157, 45.3193308], [15.9129971, 45.3195443], [15.9129219, 45.319783], [15.9135546, 45.3202641], [15.9134126, 45.3207242], [15.9129804, 45.3203692], [15.9127334, 45.3208459], [15.9119243, 45.3210409], [15.911653, 45.3215288], [15.9117451, 45.3219901], [15.911637, 45.3222911], [15.9120865, 45.3223399], [15.9121574, 45.3226115], [15.9123423, 45.3226865], [15.9127778, 45.3227058], [15.9128494, 45.3228142], [15.9125993, 45.3227959], [15.9127005, 45.3231606], [15.9130385, 45.3232534], [15.913003, 45.3235604], [15.9134855, 45.3237336], [15.913407, 45.3243021], [15.9127279, 45.3244124], [15.9128395, 45.3245495], [15.9126602, 45.3247136], [15.9126739, 45.3249584], [15.9129208, 45.3252782], [15.9131466, 45.3253021], [15.9132647, 45.3255815], [15.913675, 45.3257437], [15.9138777, 45.3256537], [15.9140684, 45.3259392], [15.914464, 45.3259298], [15.9148241, 45.3262332], [15.9151963, 45.3269769], [15.9158094, 45.3269971], [15.9161662, 45.327619], [15.914907, 45.3283442], [15.914069, 45.3282033], [15.9130817, 45.328496], [15.9113538, 45.3285114], [15.9119687, 45.3291884], [15.9110216, 45.3294515], [15.91088, 45.3297674], [15.9113072, 45.3297736], [15.9117158, 45.3299958], [15.9117474, 45.3301234], [15.9115006, 45.3301454], [15.911247, 45.3308276], [15.9108415, 45.3310378], [15.9103797, 45.3307802], [15.9100988, 45.3307571], [15.9099386, 45.3309113], [15.909644, 45.3307295], [15.9090448, 45.3308273], [15.9086163, 45.3307242], [15.908728, 45.3312906], [15.9080294, 45.3315933], [15.9075374, 45.3322035], [15.9077756, 45.3324066], [15.9077208, 45.3327683], [15.9071384, 45.332929], [15.9069206, 45.3332144], [15.9072847, 45.3339367], [15.906756, 45.3339626], [15.9067772, 45.3341551], [15.9065119, 45.3342699], [15.9058172, 45.3340575], [15.9055356, 45.3343344], [15.9051318, 45.3340785], [15.9045113, 45.3345378], [15.9043728, 45.3344594], [15.9045497, 45.3342024], [15.9038852, 45.3344405], [15.9039282, 45.3342197], [15.903634, 45.3340176], [15.9031486, 45.3343425], [15.9018146, 45.3339943], [15.901465, 45.3341029], [15.9012232, 45.3338929], [15.9008285, 45.3338826], [15.9010362, 45.3334581], [15.900534, 45.3331689], [15.900162, 45.3332078], [15.9001302, 45.3329089], [15.8999104, 45.3328259], [15.8980731, 45.3328337], [15.8981746, 45.3329827], [15.8979974, 45.3333482], [15.8974497, 45.3335568], [15.8976062, 45.3336834], [15.8975543, 45.3340361], [15.8973684, 45.3341029], [15.8974965, 45.3343115], [15.8969904, 45.3350487], [15.8970372, 45.3352491], [15.896788, 45.3352437], [15.8964786, 45.3361263], [15.8971023, 45.3363021], [15.8971799, 45.3366908], [15.8970418, 45.3368866], [15.8976248, 45.3370622], [15.8977147, 45.3374398], [15.897584, 45.3375877], [15.8977456, 45.3377372], [15.8975112, 45.338038], [15.8976109, 45.3382494], [15.8973047, 45.3382765], [15.8970687, 45.3387115], [15.8968033, 45.338734], [15.8969214, 45.3391373], [15.8958365, 45.3394671], [15.8951649, 45.3402759], [15.8927106, 45.3417368], [15.8906309, 45.343307], [15.8890918, 45.3441345], [15.8884642, 45.3446228], [15.8886012, 45.3451241], [15.8904367, 45.34431], [15.8932751, 45.3427226], [15.8953576, 45.3408795], [15.897164, 45.3397724], [15.9004068, 45.3385804], [15.9005345, 45.3385939], [15.9024361, 45.342828], [15.9024612, 45.3450991], [15.9047732, 45.3449131], [15.9046605, 45.3452255], [15.9048611, 45.345218], [15.9049857, 45.3443788], [15.9144674, 45.343845], [15.915234, 45.3441642], [15.9159217, 45.343651], [15.9163632, 45.3430743], [15.9180007, 45.3430242], [15.9183098, 45.3425642], [15.9189649, 45.3425741], [15.9191577, 45.3422144], [15.9188603, 45.3419951], [15.9190801, 45.3416842], [15.9191184, 45.3419834], [15.9202335, 45.343029], [15.923132, 45.3414964], [15.9245802, 45.3425862], [15.924601, 45.3419038], [15.9255825, 45.3419575], [15.9254194, 45.3412308], [15.9254632, 45.3405421], [15.9260895, 45.3410684], [15.9270985, 45.3413143], [15.9296703, 45.3414083], [15.9298736, 45.3413801], [15.9303125, 45.3408684], [15.9305524, 45.3408598], [15.9306055, 45.3406229], [15.9309828, 45.3403969], [15.9312703, 45.3399486], [15.931685, 45.3405906], [15.9319346, 45.3407268], [15.9329662, 45.340871], [15.9337138, 45.3404667], [15.9340623, 45.3404732], [15.935, 45.3414788], [15.936013, 45.3416421], [15.9365552, 45.3394585], [15.9383446, 45.3362596], [15.9384179, 45.3351381], [15.9387188, 45.3345164], [15.9396945, 45.3347572], [15.9410477, 45.3347355], [15.9443528, 45.3354765], [15.9450979, 45.3346208], [15.9501806, 45.3344613], [15.950273, 45.3366986], [15.9524162, 45.3366646], [15.9528059, 45.3361842], [15.9527957, 45.335574], [15.9549661, 45.3351917], [15.9546303, 45.3359879], [15.9551564, 45.3361167], [15.9555725, 45.3356138], [15.9563722, 45.3359868], [15.9575009, 45.3353228], [15.9579004, 45.3344574], [15.9585321, 45.3344535], [15.9590004, 45.3347644], [15.9590271, 45.3350778], [15.9606467, 45.3357617], [15.9637143, 45.3355479], [15.9638392, 45.335691], [15.9637346, 45.3358775], [15.9633979, 45.3360018], [15.9628948, 45.3365169], [15.9629515, 45.3368186], [15.9627282, 45.3375385], [15.9629542, 45.3376655], [15.9631501, 45.3381318], [15.9628245, 45.3382295], [15.9626959, 45.33866], [15.9624736, 45.3386971], [15.9622593, 45.3390407], [15.9624832, 45.339408], [15.9629987, 45.3392731], [15.9630812, 45.3396206], [15.9634954, 45.3393712], [15.9638036, 45.3397161], [15.9637863, 45.3399603], [15.9634154, 45.3398701], [15.962947, 45.3399988], [15.9632634, 45.3405385], [15.9634653, 45.3404403], [15.9634276, 45.3401746], [15.9640907, 45.3401777], [15.9639855, 45.3407032], [15.9634453, 45.3409945], [15.9642575, 45.3411611], [15.9642463, 45.341278], [15.9637633, 45.34135], [15.964241, 45.3418409], [15.9641195, 45.3419429], [15.963624, 45.3417424], [15.9636817, 45.3420188], [15.9633946, 45.3421024], [15.9634175, 45.3423397], [15.9631549, 45.3424695], [15.963627, 45.3425611], [15.9636814, 45.3432884], [15.9633146, 45.3433261], [15.9634334, 45.3431366], [15.9629313, 45.3429477], [15.9628187, 45.3430009], [15.9630411, 45.3431705], [15.9630644, 45.3434003], [15.9624008, 45.3430527], [15.9625609, 45.343362], [15.9622562, 45.3432709], [15.961791, 45.3434911], [15.9619306, 45.3437858], [15.9622905, 45.3439524], [15.9617435, 45.3441938], [15.961862, 45.3444154], [15.961779, 45.3446328], [15.9612051, 45.3446145], [15.9616658, 45.3449279], [15.9613678, 45.3453104], [15.9620754, 45.3451996], [15.9627626, 45.3457007], [15.9625097, 45.3459797], [15.9622891, 45.3459423], [15.9623572, 45.3457455], [15.9621303, 45.3456199], [15.9616573, 45.3458252], [15.9616028, 45.3461413], [15.9617768, 45.3464442], [15.9614944, 45.3466125], [15.962082, 45.3467002], [15.9617164, 45.3468449], [15.9613617, 45.34732], [15.9605593, 45.3468143], [15.9601893, 45.3470174], [15.9602109, 45.3472435], [15.9597959, 45.3471871], [15.9597751, 45.3474924], [15.9602588, 45.3478335], [15.9599, 45.3478085], [15.9598134, 45.3481679], [15.9595396, 45.3482544], [15.9592868, 45.3479981], [15.9591369, 45.3481521], [15.9588468, 45.3480671], [15.9588393, 45.3482343], [15.9582709, 45.3484603], [15.9570865, 45.3485404], [15.956875, 45.3483177], [15.9573097, 45.348165], [15.9567365, 45.3479029], [15.9563041, 45.3484196], [15.954831, 45.3485255], [15.9547011, 45.3484538], [15.9549078, 45.3482487], [15.9547624, 45.3479552], [15.9544188, 45.3478823], [15.9532702, 45.3481739], [15.9530448, 45.3475412], [15.9518477, 45.3479741], [15.9505117, 45.347723], [15.9500696, 45.3478999], [15.9495829, 45.34742], [15.9488499, 45.3478821], [15.9478326, 45.3480391], [15.9474429, 45.3479233], [15.9476355, 45.3475653], [15.9475482, 45.3470727], [15.9466865, 45.3468874], [15.945655, 45.3472344], [15.9458766, 45.347379], [15.9458218, 45.3475325], [15.9453659, 45.3475236], [15.94495, 45.347711], [15.9448598, 45.348001], [15.9446122, 45.3480374], [15.9445228, 45.3477534], [15.9439156, 45.3478461], [15.943241, 45.3483828], [15.9423923, 45.3483616], [15.9414754, 45.3478923], [15.9403928, 45.3482677], [15.9400555, 45.348044], [15.939786, 45.3483229], [15.9392059, 45.3485084], [15.9384352, 45.3497444], [15.9381116, 45.3496129], [15.9376154, 45.3497506], [15.9374527, 45.3495345], [15.936158, 45.3494973], [15.9359985, 45.3496728], [15.9360519, 45.3501585], [15.9353759, 45.3503329], [15.935626, 45.3505494], [15.9356431, 45.3507785], [15.9351866, 45.3508242], [15.9348197, 45.3506616], [15.934337, 45.3509019], [15.9341941, 45.3511371], [15.9336716, 45.350991], [15.9333691, 45.3510865], [15.9338414, 45.3513965], [15.9339877, 45.3517971], [15.933383, 45.3521222], [15.9334327, 45.3524881], [15.933024, 45.3526195], [15.9332048, 45.3529724], [15.932907, 45.3535335], [15.9323504, 45.3533045], [15.9320635, 45.3534805], [15.931953, 45.3538594], [15.9316938, 45.3540632], [15.9318181, 45.3542347], [15.9316848, 45.3544699], [15.9318518, 45.3547442], [15.9325404, 45.3548383], [15.932882, 45.3551099], [15.9330169, 45.3560563], [15.9315615, 45.3575221], [15.9313027, 45.3571996], [15.9307816, 45.3573952], [15.9306725, 45.3571486], [15.9299321, 45.3569706], [15.9298129, 45.3567717], [15.9295358, 45.3568217], [15.9294184, 45.3563811], [15.9290125, 45.3562253], [15.9289367, 45.3560438], [15.9291238, 45.3557644], [15.9290446, 45.3554393], [15.9293174, 45.3553382], [15.9292417, 45.3551293], [15.9294073, 45.355072], [15.9291629, 45.3547734], [15.928422, 45.3546433], [15.9285596, 45.3544697], [15.9283632, 45.3542191], [15.9280146, 45.3541617], [15.9279066, 45.3543385], [15.9272486, 45.3540296], [15.9272292, 45.3542704], [15.9267222, 45.3543331], [15.9267247, 45.3540808], [15.925943, 45.3538288], [15.9255255, 45.3541965], [15.925218, 45.3540558], [15.9245296, 45.3543482], [15.9239116, 45.3543842], [15.9234377, 45.3548431], [15.9234524, 45.3552174], [15.9230255, 45.3552848], [15.923184, 45.3554902], [15.9224618, 45.3554517], [15.9223728, 45.355708], [15.9226474, 45.356027], [15.9223211, 45.356264], [15.9226976, 45.3563786], [15.9226692, 45.3566588], [15.9224101, 45.3567916], [15.9227355, 45.3571536], [15.922377, 45.3573109], [15.9228851, 45.3580285], [15.9224772, 45.3579928], [15.9226074, 45.3584507], [15.9228951, 45.3586197], [15.9225276, 45.3588804], [15.922963, 45.3589581], [15.9226192, 45.3592411], [15.9229198, 45.3594244], [15.9223194, 45.3597228], [15.9226117, 45.3603647], [15.9224215, 45.3608074], [15.921868, 45.3612596], [15.922024, 45.3618255], [15.921564, 45.3624683], [15.9201414, 45.363013], [15.9192677, 45.3639458], [15.9192416, 45.3642459], [15.9196199, 45.3644346], [15.9195829, 45.3646697], [15.9203859, 45.3650065], [15.9204443, 45.3664626], [15.9206874, 45.3677227], [15.9205816, 45.3684319], [15.9210271, 45.36867], [15.9203019, 45.3688258], [15.9200142, 45.3699399], [15.9203384, 45.3704999], [15.9208629, 45.3707349], [15.9221374, 45.3703182], [15.925886, 45.3700883], [15.9272664, 45.3697999], [15.9292552, 45.3685654], [15.9338167, 45.3719588], [15.9347816, 45.3742908], [15.935995, 45.3741656], [15.9364069, 45.3737368], [15.9378734, 45.3728455], [15.9418478, 45.375492], [15.9422255, 45.3753613], [15.942548, 45.3744517], [15.9441263, 45.3736599], [15.9441385, 45.3731128], [15.9444012, 45.3727302], [15.9456114, 45.3722994], [15.9464774, 45.372222], [15.9473326, 45.3718311], [15.9565111, 45.3741877], [15.9569155, 45.3745331], [15.9570487, 45.3751652], [15.9573087, 45.3752584], [15.9573333, 45.3759368], [15.9568516, 45.3762594], [15.9567932, 45.3765261], [15.9562449, 45.3766898], [15.9562356, 45.3770004], [15.9551963, 45.3771924], [15.9552932, 45.3774336], [15.9551432, 45.3775291], [15.9563513, 45.3772548], [15.9571486, 45.376414], [15.9575231, 45.3762232], [15.958097, 45.3746724], [15.9585902, 45.373885], [15.9591293, 45.373393], [15.9593918, 45.3732236], [15.9602559, 45.3731839], [15.9609852, 45.3729379], [15.9637086, 45.3733796], [15.9634511, 45.3743149], [15.963441, 45.3753871], [15.9628905, 45.3764904], [15.9624144, 45.3768863], [15.9621405, 45.3775897], [15.9623506, 45.3777175], [15.9632113, 45.3773847], [15.9641496, 45.3767238], [15.9644529, 45.3761957], [15.9642889, 45.3757792], [15.9667825, 45.3759561], [15.9685551, 45.3757544], [15.9697982, 45.3770423], [15.9703692, 45.3771238], [15.9711589, 45.3777051], [15.9706906, 45.3779568], [15.9711732, 45.378219], [15.971125, 45.3784919], [15.9714647, 45.3787505], [15.9711563, 45.3792258], [15.9711724, 45.3796901], [15.9715474, 45.3799207], [15.9712924, 45.380426], [15.9713443, 45.3808891], [15.9715106, 45.3810661], [15.973606, 45.3811892], [15.974282, 45.3814279], [15.9745262, 45.3811606], [15.9748229, 45.3811014], [15.9792067, 45.3823461], [15.9794001, 45.3829319], [15.9789621, 45.3835367], [15.978429, 45.3837686], [15.978437, 45.3842808], [15.9769469, 45.3851706], [15.9773491, 45.3869609], [15.9789141, 45.3899548], [15.979112, 45.3907985], [15.9792137, 45.3932483], [15.9794598, 45.3937794], [15.9793506, 45.3969351], [15.9783813, 45.39863], [15.977543, 45.3992127], [15.9779553, 45.4002181], [15.9779556, 45.4010176], [15.9781819, 45.4014456], [15.978989, 45.4022004], [15.9803356, 45.4028359], [15.9814057, 45.4038655], [15.9815689, 45.4043398], [15.9813332, 45.4046274], [15.9808979, 45.4047556], [15.9808316, 45.4049873], [15.9816893, 45.4061232], [15.982009, 45.4063284], [15.9820922, 45.4071661], [15.9826681, 45.4080312], [15.9826515, 45.4085954], [15.9817229, 45.4099777], [15.981762, 45.410355], [15.9823822, 45.4112458], [15.9831159, 45.4111091], [15.9832917, 45.411164], [15.9831847, 45.4114849], [15.98332, 45.4115174], [15.9839246, 45.4111573], [15.9849392, 45.4113249], [15.9851069, 45.4110287], [15.984679, 45.4106846], [15.9850752, 45.4104862], [15.9851922, 45.4107256], [15.985404, 45.4106362], [15.9850036, 45.4102793], [15.9851148, 45.4101636], [15.9861748, 45.4100404], [15.9862176, 45.4103763], [15.986483, 45.410442], [15.986852, 45.4101919], [15.986873, 45.4098886], [15.9871203, 45.409922], [15.9871365, 45.410506], [15.987538, 45.4103823], [15.9876222, 45.4101954], [15.9878375, 45.4107322], [15.9886851, 45.4102841], [15.9886902, 45.410736], [15.9889007, 45.4107886], [15.9894729, 45.4103844], [15.9901803, 45.4102391], [15.9904609, 45.4106406], [15.991083, 45.4108048], [15.9917588, 45.4113924], [15.9922808, 45.4114657], [15.9922793, 45.4116335], [15.9917634, 45.4118895], [15.9919531, 45.4122261], [15.9923863, 45.4119697], [15.9924865, 45.4120542], [15.9923719, 45.4125572], [15.99283, 45.4126044], [15.9929019, 45.4127662], [15.992626, 45.4128488], [15.992686, 45.4133269], [15.9930438, 45.413309], [15.9933631, 45.4134912], [15.9936429, 45.413996], [15.9932842, 45.4141107], [15.9927721, 45.4139405], [15.9924835, 45.4144235], [15.993271, 45.4145626], [15.9936804, 45.4149323], [15.9935406, 45.4151771], [15.9932097, 45.415253], [15.9927433, 45.4151154], [15.9925689, 45.4156485], [15.9922306, 45.4156831], [15.9921265, 45.4158378], [15.99224, 45.416283], [15.9919678, 45.4163231], [15.991838, 45.4160692], [15.9915079, 45.4160212], [15.9914219, 45.4157778], [15.9910916, 45.4157556], [15.9907726, 45.415294], [15.9901987, 45.4154001], [15.9895325, 45.4151644], [15.9894284, 45.4153087], [15.9896104, 45.4154801], [15.9890665, 45.4155242], [15.9887153, 45.415378], [15.9885922, 45.415627], [15.98821, 45.4156563], [15.9885907, 45.4157873], [15.9884269, 45.4160296], [15.9878766, 45.4159754], [15.9879046, 45.4161254], [15.9882851, 45.4162823], [15.9878789, 45.4165286], [15.9876827, 45.4162899], [15.9874771, 45.4162942], [15.9872732, 45.4168982], [15.9869054, 45.416969], [15.9871933, 45.4176269], [15.9867424, 45.4179351], [15.9864058, 45.4178043], [15.984646, 45.4186265], [15.9842197, 45.4186556], [15.9842101, 45.4188986], [15.9838123, 45.4190312], [15.9837777, 45.4187983], [15.9836456, 45.4187823], [15.9832962, 45.4192461], [15.9828628, 45.4192441], [15.9829768, 45.4188258], [15.9828302, 45.4187889], [15.9825644, 45.4189376], [15.9821334, 45.4186824], [15.9820863, 45.4190183], [15.9815508, 45.418933], [15.9816148, 45.419166], [15.9807887, 45.4195346], [15.9809453, 45.4197552], [15.9804741, 45.4198771], [15.9801522, 45.4197412], [15.9798337, 45.420019], [15.9799342, 45.4202832], [15.9801904, 45.4203826], [15.9801885, 45.4205894], [15.9800058, 45.4204852], [15.9794537, 45.4206016], [15.9795178, 45.4208242], [15.9788584, 45.4214313], [15.9784184, 45.4213621], [15.9782336, 45.4214905], [15.9783123, 45.4217132], [15.9778086, 45.4221608], [15.977889, 45.422624], [15.976593, 45.4229697], [15.9762482, 45.4229164], [15.9764764, 45.4236568], [15.9756862, 45.4241031], [15.9756991, 45.4242996], [15.9748184, 45.4242129], [15.9747906, 45.4240473], [15.9750785, 45.4238883], [15.9744043, 45.4237145], [15.974117, 45.423796], [15.9740035, 45.4240057], [15.9736375, 45.4239966], [15.9735034, 45.4237824], [15.9727936, 45.4238698], [15.972567, 45.4243189], [15.9721579, 45.4244735], [15.9720298, 45.4242838], [15.9716773, 45.4243147], [15.9714575, 45.4240463], [15.9712878, 45.4243586], [15.9709536, 45.4244223], [15.9710025, 45.4241355], [15.9708356, 45.4241478], [15.9703592, 45.42455], [15.9698599, 45.4244302], [15.9698761, 45.4246782], [15.9676326, 45.4257571], [15.9676899, 45.4260214], [15.9669494, 45.4259397], [15.9667332, 45.4262583], [15.9664944, 45.4260224], [15.9663815, 45.426211], [15.966104, 45.4261445], [15.9659172, 45.4263067], [15.9656509, 45.4260511], [15.9654934, 45.4260373], [15.9654546, 45.4262198], [15.9648331, 45.4262821], [15.9643801, 45.4261625], [15.9642652, 45.4265533], [15.9636743, 45.4263223], [15.9636175, 45.4264329], [15.9639394, 45.4267018], [15.9638451, 45.426884], [15.9636889, 45.4267398], [15.9632347, 45.4267377], [15.9632873, 45.4270575], [15.9627407, 45.4270354], [15.9629422, 45.4272908], [15.962764, 45.4275117], [15.9619189, 45.4277034], [15.9620563, 45.4279534], [15.9613244, 45.4281718], [15.9610189, 45.4280302], [15.9608994, 45.42838], [15.9601509, 45.4285924], [15.9597081, 45.4289231], [15.9596224, 45.4292086], [15.9599036, 45.4293034], [15.9599917, 45.4296307], [15.9603769, 45.4299043], [15.9601007, 45.430154], [15.9598354, 45.4301411], [15.9597834, 45.4303802], [15.9595668, 45.4304726], [15.9595674, 45.431284], [15.9592893, 45.431738], [15.958865, 45.4318702], [15.9586176, 45.4317231], [15.9584865, 45.4320766], [15.9582114, 45.4322154], [15.9574561, 45.4322702], [15.9569646, 45.4324897], [15.9565878, 45.4328557], [15.9566515, 45.4331362], [15.9563329, 45.433479], [15.9547715, 45.4345516], [15.9535394, 45.4346648], [15.9515138, 45.4356825], [15.9499776, 45.4358444], [15.9483632, 45.4363679], [15.9461881, 45.4363304], [15.9464742, 45.4367697], [15.9464327, 45.4384682], [15.9461982, 45.4394937], [15.9460638, 45.4413728], [15.9458559, 45.4418159], [15.9435998, 45.4436073], [15.9409816, 45.444299], [15.9399297, 45.444276], [15.9394886, 45.4440064], [15.9385322, 45.4445902], [15.9382856, 45.4451687], [15.9378021, 45.4453358], [15.9366621, 45.4452409], [15.9365747, 45.4451157], [15.9364464, 45.4452756], [15.9358498, 45.4453529], [15.935389, 45.4460608], [15.9356811, 45.4461794], [15.9355357, 45.4464519], [15.9357463, 45.4466951], [15.9354579, 45.4473211], [15.9352875, 45.4485512], [15.9350319, 45.4489598], [15.9348518, 45.4489034], [15.9349886, 45.4499046], [15.9343516, 45.4503859], [15.933358, 45.4503968], [15.9331409, 45.45065], [15.9327001, 45.4507033], [15.9323131, 45.4510111], [15.9319067, 45.4510091], [15.9318257, 45.4512072], [15.9312152, 45.4512915], [15.9313378, 45.4514509], [15.9310221, 45.4525374], [15.9307294, 45.4524486], [15.9305187, 45.4530622], [15.9302695, 45.4531483], [15.9300678, 45.4529885], [15.9299749, 45.4532501], [15.9295083, 45.4536131], [15.9292489, 45.4535879], [15.9292469, 45.4537864], [15.92894, 45.4539914], [15.9286071, 45.4545377], [15.9283475, 45.4545284], [15.9280925, 45.4551784], [15.9282607, 45.4552983], [15.9279533, 45.4555429], [15.928631, 45.4557142], [15.9284966, 45.4569337], [15.9286657, 45.4571411], [15.928499, 45.45759], [15.928983, 45.4578141], [15.9296233, 45.4586217], [15.9296102, 45.4590333], [15.9293477, 45.4591523], [15.9295251, 45.4594319], [15.9290698, 45.4599236], [15.9292491, 45.4600068], [15.929139, 45.4601383], [15.9298725, 45.4605499], [15.9302654, 45.4612409], [15.929853, 45.4613695], [15.9299362, 45.4614848], [15.9296788, 45.4618953], [15.9293466, 45.4618937], [15.929055, 45.4621126], [15.9290963, 45.4624565], [15.9289216, 45.4626735], [15.9282394, 45.4625785], [15.9273255, 45.4627795], [15.9272111, 45.4629571], [15.926898, 45.4629333], [15.9270969, 45.4634567], [15.9267716, 45.4635838], [15.9268562, 45.4639334], [15.9266768, 45.4641288], [15.9249212, 45.4642288], [15.9248221, 45.4643263], [15.9250326, 45.4649407], [15.9256923, 45.4650347], [15.9258593, 45.4653425], [15.9255481, 45.465497], [15.9246719, 45.4653947], [15.9239833, 45.4661133], [15.9252304, 45.4657785], [15.9256836, 45.4658752], [15.9258785, 45.4659959], [15.9259111, 45.4663408], [15.9250336, 45.4668735], [15.9261934, 45.4669918], [15.9262736, 45.4676433], [15.9275001, 45.4677373], [15.9278183, 45.4682609], [15.9272953, 45.4683617], [15.9269524, 45.4681119], [15.9264598, 45.4681249], [15.9260567, 45.4687276], [15.9260622, 45.4689189], [15.9265792, 45.4694022], [15.9261241, 45.4701267], [15.9265089, 45.470599], [15.9263638, 45.471141], [15.9274323, 45.4716063], [15.9281602, 45.4715893], [15.9284816, 45.4717821], [15.9285071, 45.4721215], [15.9282106, 45.4723578], [15.9266396, 45.4721483], [15.925984, 45.4722949], [15.9257388, 45.472547], [15.9257053, 45.4729448], [15.9266589, 45.4744201], [15.9256366, 45.4749164], [15.9235819, 45.4766547], [15.9221119, 45.4785873], [15.9215294, 45.4778008], [15.9205566, 45.4774001], [15.9189214, 45.4774279], [15.9175865, 45.4777801], [15.9164477, 45.4785563], [15.9157712, 45.4787324], [15.9160164, 45.4791012], [15.9156674, 45.479343], [15.9153033, 45.4792898], [15.915154, 45.4796096], [15.9148441, 45.479608], [15.9145607, 45.4805553], [15.9140504, 45.4805271], [15.9129157, 45.4809059], [15.9111076, 45.4811531], [15.9097162, 45.4816588], [15.9096558, 45.4822098], [15.908781, 45.4821411], [15.9084687, 45.4823576], [15.9076478, 45.4823789], [15.9076621, 45.4827508], [15.9072595, 45.482877], [15.9076576, 45.4831867], [15.9066456, 45.4840278], [15.9069538, 45.4842088], [15.9067141, 45.4844512], [15.906637, 45.4848483], [15.9062536, 45.4848847], [15.9059196, 45.4854344], [15.9048521, 45.4859752], [15.9047381, 45.4864106], [15.9040948, 45.4868817], [15.9042897, 45.4874211], [15.9037971, 45.4874442], [15.9038852, 45.4877268], [15.9036113, 45.4877638], [15.9030401, 45.4882993], [15.9026754, 45.4882847], [15.9026704, 45.488759], [15.9020464, 45.4891276], [15.9022013, 45.4900003], [15.9015209, 45.4905224], [15.9013786, 45.4919064], [15.901012, 45.4920712], [15.9005234, 45.4934149], [15.8997841, 45.4943214], [15.8992253, 45.4943291], [15.8987485, 45.4945702], [15.8980392, 45.4943613], [15.8969405, 45.494753], [15.8960037, 45.4953635], [15.8946914, 45.495254], [15.8946339, 45.4955101], [15.8920246, 45.4955732], [15.8920094, 45.4952782], [15.8881133, 45.494565], [15.8880175, 45.4949876], [15.8877062, 45.4951014], [15.8844872, 45.5008924], [15.8844284, 45.5012639], [15.8826942, 45.5025703], [15.8813564, 45.5031144], [15.8784857, 45.5036758], [15.8724101, 45.503747], [15.870515, 45.5035315], [15.8696249, 45.5031804], [15.8691506, 45.5031777], [15.8684033, 45.5024527], [15.8673637, 45.502195], [15.8669699, 45.5024447], [15.8645714, 45.5006472], [15.8628864, 45.4988401], [15.8615036, 45.4992616], [15.8605445, 45.498947], [15.859057, 45.4990414], [15.857974, 45.4994315], [15.8574549, 45.4998248], [15.8566715, 45.4997343], [15.8534822, 45.4999919], [15.8536101, 45.4973741], [15.8531279, 45.4966824], [15.8536194, 45.4965645], [15.8539061, 45.4950674], [15.8540802, 45.4948445], [15.8547184, 45.4947619], [15.8546011, 45.4942962], [15.8543811, 45.4942605], [15.8542547, 45.4945871], [15.853936, 45.4946025], [15.853694, 45.4943255], [15.8534734, 45.4943242], [15.8533693, 45.4948577], [15.853147, 45.4950115], [15.8533658, 45.4951678], [15.8532885, 45.4954946], [15.8525911, 45.4964726], [15.8528331, 45.4967324], [15.8530328, 45.4985595], [15.8526863, 45.4988504], [15.8520228, 45.4990017], [15.8509694, 45.4989441], [15.8498691, 45.4987138], [15.8482101, 45.4980497], [15.8480174, 45.4977558], [15.8484375, 45.4974653], [15.8483443, 45.4970341], [15.847102, 45.4963724], [15.8467406, 45.4958364], [15.8468216, 45.4951822], [15.84568, 45.4932565], [15.8438719, 45.492781], [15.8437791, 45.4923325], [15.8450966, 45.4907208], [15.8459312, 45.490605], [15.8447867, 45.4899782], [15.8440646, 45.490956], [15.8432996, 45.4914168], [15.8419711, 45.491857], [15.8414562, 45.4918713], [15.8406808, 45.4911088], [15.8401659, 45.4911231], [15.8405224, 45.4920899], [15.8399541, 45.4924828], [15.839752, 45.4929984], [15.8391065, 45.4937009], [15.83822, 45.4940575], [15.8379291, 45.4937802], [15.8369237, 45.4938433], [15.8363858, 45.4937196], [15.8363411, 45.4933575], [15.8358609, 45.4925107], [15.8354472, 45.4922671], [15.8353, 45.4922663], [15.8358505, 45.4933892], [15.8357258, 45.4935779], [15.8340584, 45.4936543], [15.8334479, 45.4934614], [15.8324139, 45.4938515], [15.8315318, 45.4938291], [15.8309374, 45.4943597], [15.8303025, 45.4941664], [15.8296716, 45.4936287], [15.8299218, 45.4931995], [15.8294981, 45.4917328], [15.8295307, 45.491044], [15.8300576, 45.4900134], [15.8290613, 45.4893013], [15.8292342, 45.4886328], [15.8285087, 45.4882338], [15.8299069, 45.4871478], [15.8288196, 45.4848909], [15.8288478, 45.4817747], [15.8301776, 45.478522], [15.8306034, 45.4766232], [15.8310867, 45.4753231], [15.8310622, 45.4712929], [15.8316014, 45.4697867], [15.8310444, 45.4686109], [15.8313953, 45.4676135], [15.8311599, 45.4673525], [15.8312228, 45.4665903], [15.8316066, 45.4656435], [15.831102, 45.4647391], [15.8311325, 45.4631803], [15.8308837, 45.4619062], [15.830537, 45.4614821], [15.8295954, 45.4609869], [15.8355969, 45.4601909], [15.8372561, 45.4606748], [15.8373645, 45.460932], [15.8377285, 45.4610018], [15.8379175, 45.4613129], [15.8382519, 45.461322], [15.8383299, 45.4615826], [15.8387835, 45.4617884], [15.8391842, 45.4617551], [15.8392219, 45.4615593], [15.8398781, 45.4613599], [15.8405803, 45.4615386], [15.841137, 45.4613289], [15.8413237, 45.4611034], [15.8415598, 45.4613767], [15.8426137, 45.4617971], [15.8427848, 45.4621218], [15.8432235, 45.4622159], [15.8438727, 45.4628146], [15.8443689, 45.4627041], [15.84862, 45.4631175], [15.8489623, 45.4633744], [15.8489354, 45.4637062], [15.849079, 45.4637352], [15.8495662, 45.4629124], [15.8495621, 45.4618247], [15.8498019, 45.4614821], [15.8510672, 45.4605583], [15.8525519, 45.4602902], [15.8535988, 45.4596106], [15.8538526, 45.4593601], [15.8541978, 45.4583549], [15.8537933, 45.4581821], [15.8532986, 45.457462], [15.8530369, 45.4566305], [15.8513096, 45.4563584], [15.8514201, 45.4557542], [15.8504383, 45.4551055], [15.8499698, 45.4549939], [15.8488233, 45.455183], [15.847792, 45.4540472], [15.8476878, 45.4512717], [15.8474385, 45.4508089], [15.847078, 45.450606], [15.846884, 45.4500239], [15.8470115, 45.4496772], [15.846446, 45.4492417], [15.8456202, 45.4491806], [15.8450054, 45.4489546], [15.8441271, 45.44649], [15.8433227, 45.4454401], [15.8417743, 45.4423798], [15.8412097, 45.4402456], [15.8405206, 45.4387094], [15.8396696, 45.4376342], [15.8383279, 45.4350874], [15.8378353, 45.4337352], [15.8368473, 45.4320757], [15.8364334, 45.4316433], [15.8367342, 45.4305253], [15.8404602, 45.4277795], [15.8434336, 45.4266459], [15.8428918, 45.4262638], [15.8427406, 45.4257628], [15.8414729, 45.4246366], [15.8414645, 45.4240785], [15.8410944, 45.4237395], [15.841267, 45.4236878], [15.8411152, 45.4232396], [15.8401258, 45.4225986], [15.8387983, 45.422254], [15.8385368, 45.4215939], [15.8380709, 45.421128], [15.8362119, 45.4202012], [15.8348693, 45.4192354], [15.8331669, 45.4187282], [15.8324702, 45.4178534], [15.8316745, 45.4174463], [15.8308155, 45.4162413], [15.8303395, 45.4159059], [15.8299134, 45.4150108], [15.8298414, 45.4140592], [15.8293498, 45.4135532], [15.8294204, 45.4131673], [15.8291561, 45.4126448], [15.8301412, 45.410926], [15.8301319, 45.4104594], [15.8296355, 45.4096949], [15.8290516, 45.4094291], [15.82772, 45.4092368], [15.825738, 45.4098], [15.8243313, 45.4095088], [15.8223929, 45.4097235], [15.8220669, 45.4083813], [15.8216504, 45.4077003], [15.8193454, 45.4070974], [15.8171454, 45.4061164], [15.8160314, 45.4053803], [15.8160386, 45.4052043], [15.8169256, 45.4048719], [15.8212311, 45.4037965], [15.8218326, 45.4034319], [15.8239474, 45.4041213], [15.8243164, 45.4039941], [15.8255184, 45.4029305], [15.8243585, 45.4025447], [15.8256044, 45.4012638], [15.8252035, 45.3993016], [15.8247583, 45.3989791], [15.825105, 45.3981489], [15.8244698, 45.397908], [15.8231774, 45.396664], [15.8230337, 45.396813], [15.8228999, 45.3967323], [15.8229872, 45.396558], [15.8214637, 45.3952355], [15.8219858, 45.394874], [15.8250726, 45.3971546], [15.8270978, 45.3968569], [15.8265621, 45.3947712], [15.8278059, 45.3943391], [15.8283063, 45.3909278], [15.8277039, 45.3900896], [15.8270492, 45.3895841], [15.8277318, 45.389479], [15.8276819, 45.3893406], [15.8253043, 45.3886549], [15.8235417, 45.3884191], [15.8224332, 45.3887397], [15.8220886, 45.3890721], [15.8217679, 45.389121], [15.8219196, 45.3893837], [15.8214828, 45.3896573], [15.8211111, 45.3896478], [15.820254, 45.388814], [15.819472, 45.3885912], [15.817994, 45.387438], [15.8162383, 45.3866352], [15.8151957, 45.3866289], [15.8145931, 45.3860873], [15.8140757, 45.3853354], [15.8131838, 45.3845984], [15.8133226, 45.3844421], [15.811039, 45.3838942], [15.8083857, 45.382614], [15.8063266, 45.3820029], [15.8052743, 45.3820272], [15.801898, 45.3812528], [15.8004257, 45.3817765], [15.7996502, 45.3828339], [15.7966172, 45.3814977], [15.7952337, 45.3804942], [15.7947186, 45.3804058], [15.7899254, 45.3818081], [15.7894443, 45.3828052], [15.7877446, 45.3831087], [15.7868025, 45.3834636], [15.7862128, 45.3834736], [15.7859048, 45.3840062], [15.7851631, 45.3845665], [15.7847382, 45.3862119], [15.7853497, 45.3887832], [15.7849609, 45.3890712], [15.7809529, 45.3879667], [15.779072, 45.3877903], [15.7758462, 45.3879934], [15.7756469, 45.3873635], [15.7757643, 45.3854169], [15.7756736, 45.3841798], [15.7772979, 45.382877], [15.7756431, 45.3820382], [15.7749961, 45.3814485], [15.773887, 45.3799499], [15.7740127, 45.3792546], [15.7737603, 45.3792765], [15.7726651, 45.3777622], [15.7724747, 45.3765145], [15.772506, 45.3755164], [15.7731666, 45.3737988], [15.7731935, 45.3732682], [15.7710454, 45.3708175], [15.7679003, 45.3708753], [15.7675132, 45.3702181], [15.7675199, 45.3696982], [15.7672418, 45.3693752], [15.7671836, 45.3688395], [15.7661954, 45.3680226], [15.7660929, 45.3675478]]]}}]}