{"type":"FeatureCollection","features":[{"type":"Feature","properties":{"name":"Bovec","admin":"ob\u010dina","source":"\u00a9 OpenStreetMap contributors, ODbL 1.0","osm_relation":1675776},"geometry":{"type":"Polygon","coordinates":[[[13.4824428,46.368999],[13.483289,46.3690988],[13.4834676,46.3692178],[13.4838603,46.3693957],[13.483933,46.3694572],[13.4840001,46.3694535],[13.4841459,46.3695394],[13.4843831,46.3697477],[13.4850089,46.3700172],[13.4854932,46.3700564],[13.4855764,46.3702207],[13.4857907,46.3702608],[13.4860361,46.3703994],[13.4861368,46.3704147],[13.4862494,46.3704908],[13.4866407,46.3704404],[13.4869762,46.3702952],[13.4874696,46.3702365],[13.4883282,46.3698839],[13.4884051,46.3697917],[13.4889073,46.3697403],[13.4892468,46.3698167],[13.4893633,46.3699862],[13.48936,46.3701075],[13.489521,46.3701281],[13.4897318,46.3700704],[13.4899527,46.3701153],[13.4904739,46.3701036],[13.490749,46.3700791],[13.4914217,46.3701206],[13.4915754,46.3701739],[13.4916498,46.3701611],[13.49185,46.3699816],[13.4921645,46.3700652],[13.4925683,46.3700937],[13.4928919,46.370084],[13.4931352,46.3701364],[13.4936463,46.3702011],[13.4937709,46.3702169],[13.4940421,46.3702707],[13.494066,46.3702755],[13.4942739,46.3703167],[13.4946653,46.3702939],[13.4950182,46.3703622],[13.4953198,46.3703608],[13.4954672,46.3704712],[13.4955685,46.3705344],[13.497059,46.3707359],[13.4973168,46.3706787],[13.4977124,46.3707398],[13.4981294,46.3707779],[13.4986621,46.3709414],[13.4991608,46.3710107],[13.4995666,46.3712026],[13.4999672,46.3713479],[13.5000823,46.3715685],[13.5007092,46.3718147],[13.501386,46.3719588],[13.5016033,46.372139],[13.5018967,46.3722548],[13.5023097,46.3726706],[13.5028886,46.3730062],[13.5040135,46.3734672],[13.5042118,46.3736052],[13.5046106,46.3740676],[13.5052489,46.3743744],[13.5054057,46.3745537],[13.5056491,46.3746683],[13.506218,46.374933],[13.5073333,46.3752972],[13.5076583,46.3757448],[13.508656,46.376728],[13.5089017,46.3768418],[13.5091698,46.376912],[13.5093856,46.3768623],[13.5094003,46.3768589],[13.510337,46.3768806],[13.5108722,46.3767708],[13.5112745,46.3765987],[13.5122666,46.3762992],[13.5124064,46.3763664],[13.5126936,46.3764586],[13.5129627,46.3764809],[13.5134162,46.3764286],[13.5134359,46.3764263],[13.5137656,46.3764446],[13.5138543,46.3764435],[13.5145007,46.3764354],[13.5156621,46.3765692],[13.5161043,46.3766989],[13.5164679,46.3767129],[13.5169514,46.3767845],[13.5171298,46.3769034],[13.5171663,46.3770578],[13.5172417,46.3772594],[13.5174251,46.3774623],[13.5180017,46.3777529],[13.5179152,46.3780239],[13.5177507,46.378129],[13.5176409,46.3784493],[13.5174029,46.3785256],[13.5173711,46.3787072],[13.5173073,46.3788276],[13.5173194,46.3789281],[13.5173995,46.3791461],[13.5173738,46.3793603],[13.5171635,46.3796515],[13.5169247,46.3800122],[13.5168512,46.3802352],[13.5168848,46.3804828],[13.5170112,46.3808236],[13.516922,46.382973],[13.5186769,46.3831522],[13.5218441,46.3845622],[13.5235529,46.3855683],[13.5252555,46.3865787],[13.5274927,46.3881424],[13.527748,46.3878582],[13.5279401,46.3877254],[13.5284313,46.3875125],[13.5285959,46.3874073],[13.5293324,46.3870948],[13.5297576,46.3868158],[13.5300435,46.3869734],[13.5305932,46.3867008],[13.5316774,46.3862051],[13.5328429,46.3856722],[13.5335042,46.3853698],[13.5362359,46.3856715],[13.5366669,46.3858221],[13.5366912,46.3859157],[13.5365088,46.3864499],[13.5368321,46.386454],[13.5371263,46.3862851],[13.5377474,46.3862605],[13.5381616,46.3863917],[13.53841,46.3861848],[13.5386887,46.3860952],[13.5388888,46.3861817],[13.5391664,46.3865769],[13.5398627,46.3870618],[13.5398608,46.3871364],[13.5396544,46.3872877],[13.5395756,46.3874686],[13.5395791,46.3878465],[13.5396621,46.3880249],[13.5397214,46.3881792],[13.539749,46.3883011],[13.539929,46.388378],[13.5401739,46.3885445],[13.5402213,46.3887971],[13.5403708,46.3888704],[13.5406507,46.388877],[13.5406495,46.3891664],[13.5407208,46.3892838],[13.5410441,46.3892832],[13.541142,46.3894059],[13.5411367,46.3896063],[13.541233,46.3897279],[13.5412673,46.3897712],[13.5412084,46.38983],[13.5411938,46.3898445],[13.5411638,46.3898745],[13.5411548,46.3898835],[13.5411996,46.3900223],[13.5413686,46.3902078],[13.5412339,46.3905218],[13.5413031,46.3906953],[13.5411808,46.3908955],[13.541368,46.391298],[13.5415523,46.391473],[13.5417602,46.3915129],[13.5420515,46.3914512],[13.5423532,46.3915204],[13.542621,46.3914997],[13.5429141,46.391467],[13.5433349,46.3913697],[13.5435695,46.3914053],[13.5436877,46.3915327],[13.543827,46.3916092],[13.5442691,46.3919787],[13.5445669,46.3920875],[13.5447841,46.3921392],[13.5450146,46.3920907],[13.5455185,46.3918919],[13.5458957,46.3919154],[13.5460142,46.3920148],[13.5461216,46.3922867],[13.5462271,46.392386],[13.5468138,46.392398],[13.5478379,46.3928065],[13.5493248,46.3925112],[13.5517593,46.3923696],[13.5522179,46.392571],[13.5524081,46.3926789],[13.5527363,46.3927577],[13.5530812,46.3929767],[13.5535322,46.3930104],[13.5536456,46.3930537],[13.5539176,46.3932159],[13.5541102,46.3933256],[13.5541501,46.3934695],[13.5544336,46.3935908],[13.5545758,46.3938259],[13.5548408,46.3940065],[13.55481,46.3941414],[13.5549418,46.3942597],[13.5550131,46.3943771],[13.5552387,46.3945107],[13.5552691,46.3946417],[13.5555878,46.3948182],[13.5560454,46.3948473],[13.5563642,46.3950841],[13.5564123,46.3952673],[13.5562503,46.3957876],[13.5562669,46.396175],[13.5561553,46.3963267],[13.5563433,46.396344],[13.5565887,46.396501],[13.5569041,46.3965609],[13.5572243,46.3966863],[13.5576611,46.3969949],[13.5578069,46.3972793],[13.5580548,46.3974151],[13.5585633,46.3980792],[13.5593473,46.3985043],[13.5594248,46.3986276],[13.5597902,46.3985845],[13.5610299,46.3986281],[13.5614639,46.3987968],[13.5615981,46.3988077],[13.5620456,46.3989767],[13.5621936,46.3989924],[13.5625675,46.3988806],[13.5628081,46.3986923],[13.562916,46.3987031],[13.5630472,46.3988446],[13.5631817,46.3988416],[13.5632819,46.3988849],[13.5634236,46.3988867],[13.5635776,46.3989213],[13.5637949,46.3988633],[13.5639936,46.3988565],[13.5640812,46.3987457],[13.5642253,46.3986448],[13.5643513,46.3984738],[13.5644682,46.3983819],[13.564778,46.3983952],[13.5650368,46.3983128],[13.565352,46.3981085],[13.5653417,46.3979918],[13.5655372,46.3979705],[13.5681633,46.4000239],[13.568218,46.4002532],[13.5687859,46.4008608],[13.5702029,46.4024072],[13.5702213,46.402425],[13.5710969,46.4032694],[13.5713842,46.4035465],[13.5717054,46.4039458],[13.572185,46.4045425],[13.5725429,46.4044347],[13.5733542,46.4047738],[13.5739122,46.4057879],[13.573943,46.405994],[13.574037,46.4065644],[13.5742948,46.4070729],[13.5745722,46.4079301],[13.5747653,46.408517],[13.5747645,46.4085462],[13.5750437,46.4084098],[13.575476,46.4085582],[13.5756681,46.4087434],[13.5758395,46.408894],[13.5759535,46.408918],[13.5760407,46.4089384],[13.576627,46.4088605],[13.5770476,46.4087547],[13.5771857,46.4087237],[13.5779211,46.4087142],[13.5776954,46.4094279],[13.5775566,46.4095456],[13.5776428,46.4101363],[13.5777232,46.4106724],[13.5775287,46.4113604],[13.5774327,46.4116899],[13.577377,46.4118869],[13.5769387,46.4134528],[13.5767293,46.4141849],[13.5768446,46.4146238],[13.5770683,46.4148761],[13.5773665,46.4152071],[13.5775098,46.4155288],[13.5776762,46.4159021],[13.5777767,46.4161253],[13.5780279,46.4166892],[13.5779533,46.4170304],[13.5779983,46.4171775],[13.578114,46.4173931],[13.5781559,46.417856],[13.5781764,46.4180812],[13.5782052,46.4183982],[13.5781717,46.418553],[13.5781666,46.4185766],[13.5781662,46.4188452],[13.5781691,46.4191013],[13.5781722,46.4193614],[13.5782338,46.4201102],[13.5782912,46.4210408],[13.5783101,46.4213486],[13.5783241,46.421578],[13.5783453,46.4220153],[13.5783989,46.4225161],[13.5784528,46.423227],[13.5785301,46.4241882],[13.578555,46.4244872],[13.5785866,46.4247761],[13.5788236,46.4252314],[13.5790425,46.4256087],[13.5790641,46.4256461],[13.5792366,46.4260241],[13.5793617,46.4262993],[13.5793964,46.4264685],[13.5794473,46.4265905],[13.5794134,46.4268466],[13.5794873,46.4268662],[13.579591,46.4267695],[13.5795861,46.4269607],[13.5796643,46.4270643],[13.5797814,46.4272197],[13.5799912,46.4272083],[13.5800313,46.4274793],[13.5802005,46.4276314],[13.5802798,46.4277763],[13.5803993,46.4278525],[13.5805302,46.4280126],[13.5806806,46.4281918],[13.5806582,46.4280142],[13.5809731,46.4281587],[13.5811826,46.428352],[13.5815688,46.4285387],[13.5817497,46.4286808],[13.5819583,46.4288747],[13.58224,46.4290499],[13.5821966,46.4293161],[13.5821676,46.4293811],[13.5824326,46.4295709],[13.5822476,46.4299465],[13.5820451,46.4304324],[13.5821909,46.430756],[13.5823664,46.4311457],[13.5829789,46.4311404],[13.5833862,46.4309488],[13.5837491,46.4307223],[13.5840746,46.4305149],[13.584552,46.4305537],[13.5848965,46.4305576],[13.585826,46.4307326],[13.585861,46.4308261],[13.5859375,46.4309997],[13.5864204,46.4310903],[13.5869528,46.4311592],[13.5875447,46.4314675],[13.5877284,46.431675],[13.5878646,46.4316254],[13.5879342,46.4317989],[13.5880885,46.431838],[13.5880981,46.4322533],[13.5885942,46.4324352],[13.5890218,46.4325306],[13.5890099,46.4327404],[13.5891997,46.432696],[13.589253,46.4327292],[13.5892849,46.4330516],[13.5894339,46.4330301],[13.5898439,46.4337142],[13.59,46.4339341],[13.5906128,46.4348105],[13.5905842,46.4350082],[13.5907894,46.4351553],[13.5907363,46.4353878],[13.5907658,46.4355515],[13.5911055,46.4354531],[13.5913456,46.4353021],[13.5915015,46.435335],[13.5917059,46.4359328],[13.5915796,46.4361632],[13.5916335,46.4364438],[13.5918363,46.4364136],[13.5921883,46.4364918],[13.5930603,46.4364722],[13.5932695,46.4365713],[13.5931862,46.4366635],[13.5932039,46.4367663],[13.5934092,46.4369789],[13.5935835,46.4369623],[13.5938503,46.4370123],[13.5940611,46.4370242],[13.5943405,46.4371815],[13.5947674,46.4372093],[13.5950922,46.4373306],[13.5952805,46.4373469],[13.5953907,46.4374156],[13.5954466,46.4376744],[13.5954897,46.4378813],[13.5960711,46.4380268],[13.5964479,46.4384016],[13.596768,46.4385454],[13.597065,46.4388102],[13.5970259,46.4390197],[13.5972087,46.4389939],[13.5973009,46.4390791],[13.5973902,46.4392137],[13.5975744,46.4392131],[13.5976672,46.4392748],[13.5977455,46.4393784],[13.5979648,46.4392458],[13.5979786,46.4392446],[13.5981985,46.4392254],[13.5982111,46.4392243],[13.5986012,46.4391556],[13.5990131,46.4388854],[13.5989955,46.4387779],[13.5991489,46.4386034],[13.5999592,46.4382953],[13.6003393,46.4382417],[13.6004148,46.4384361],[13.6003376,46.4386835],[13.6009347,46.4386803],[13.6015797,46.4387956],[13.6019516,46.4387581],[13.6022325,46.4388549],[13.6023217,46.4388046],[13.602494,46.438945],[13.6030362,46.4390931],[13.6034416,46.4393314],[13.6037753,46.4394707],[13.6039815,46.4395946],[13.6041711,46.4398203],[13.6046042,46.4399693],[13.6049549,46.4401226],[13.6051304,46.440047],[13.6054628,46.4399718],[13.6056774,46.4400304],[13.6058008,46.4399572],[13.6059762,46.4399547],[13.606059,46.4398811],[13.6062554,46.4398647],[13.6064225,46.4396616],[13.6066855,46.4396307],[13.6068492,46.4395921],[13.6071308,46.439395],[13.6071614,46.4395213],[13.607279,46.4396767],[13.6075342,46.4396673],[13.6080483,46.4396721],[13.6081414,46.4397337],[13.6081873,46.4400376],[13.6083131,46.4401324],[13.6084886,46.4401392],[13.6090367,46.4408566],[13.6090657,46.4408946],[13.6090892,46.4409254],[13.6092624,46.440921],[13.6094414,46.4408784],[13.6095891,46.4409082],[13.6096594,46.4409587],[13.6096949,46.4409842],[13.6100526,46.4409931],[13.610153,46.4410271],[13.6101617,46.4412138],[13.610224,46.4414197],[13.6104548,46.4416185],[13.610636,46.4416579],[13.6107613,46.4416085],[13.6112717,46.4413392],[13.6115314,46.4412206],[13.6117006,46.4410695],[13.6118245,46.4408373],[13.6120672,46.440845],[13.6123718,46.4408114],[13.612562,46.4407531],[13.6129344,46.4403992],[13.612912,46.4402629],[13.6129952,46.4401752],[13.6134308,46.4400311],[13.6146695,46.4393418],[13.6148285,46.4394557],[13.6150571,46.4394864],[13.6152172,46.4395538],[13.6154427,46.4394538],[13.6157831,46.439492],[13.616196,46.4392716],[13.616318,46.4392544],[13.6171428,46.4397215],[13.6173035,46.4397702],[13.6174757,46.4396323],[13.6175577,46.4395913],[13.6176976,46.4396676],[13.6179666,46.4396942],[13.61826,46.4400885],[13.6182852,46.4401737],[13.6183694,46.4403194],[13.6185825,46.4404293],[13.618728,46.4405477],[13.6188119,46.4407073],[13.6189101,46.4408111],[13.6192711,46.4409461],[13.6195038,46.4410843],[13.6198043,46.4414797],[13.6203269,46.4419011],[13.6206259,46.4420786],[13.6211072,46.4422604],[13.6212391,46.4423879],[13.6215131,46.4424891],[13.6219181,46.4427459],[13.6219288,46.4425969],[13.621945,46.4424896],[13.6221017,46.4424356],[13.6224373,46.4425002],[13.6230493,46.4421438],[13.6233662,46.4420636],[13.6234793,46.4421256],[13.6235229,46.4422708],[13.6237279,46.4424318],[13.6239922,46.4424594],[13.6241819,46.4423626],[13.6243294,46.4424018],[13.6245434,46.4427356],[13.6247298,46.442845],[13.6251091,46.4429618],[13.6253246,46.4430668],[13.6257927,46.443245],[13.6259466,46.4432889],[13.6261089,46.4432604],[13.6266952,46.4430365],[13.62685,46.4427818],[13.6270182,46.4428072],[13.627155,46.4427389],[13.627356,46.4425221],[13.6275128,46.442468],[13.6276357,46.4423995],[13.6280785,46.4422916],[13.6284887,46.4422931],[13.6286968,46.4421868],[13.6298249,46.4420151],[13.6301445,46.4419785],[13.6304646,46.4418083],[13.6308303,46.44174],[13.631189,46.4417095],[13.631484,46.441783],[13.6319855,46.4419757],[13.6328727,46.4419404],[13.633374,46.4420296],[13.6338218,46.4419913],[13.6341766,46.4420533],[13.6344204,46.4420141],[13.6347109,46.4419942],[13.6349055,46.4420478],[13.6352012,46.4423639],[13.6355792,46.4428956],[13.6357285,46.4431398],[13.6359626,46.443222],[13.6361937,46.4434207],[13.6364946,46.4435362],[13.6369435,46.4437897],[13.6383539,46.443867],[13.6391705,46.4437997],[13.6393664,46.4439185],[13.6395542,46.4439691],[13.6399795,46.4439555],[13.6401271,46.4439946],[13.6403652,46.4441797],[13.6411089,46.4442131],[13.6414609,46.444026],[13.6416802,46.4440057],[13.641901,46.444039],[13.6423877,46.4442733],[13.642549,46.4442985],[13.6427427,46.4443754],[13.6431212,46.4446272],[13.6436829,46.4448241],[13.6444126,46.445067],[13.6446822,46.4450888],[13.6451427,46.4452809],[13.6457691,46.4454718],[13.6459661,46.4460879],[13.6464237,46.4461683],[13.6466541,46.4461244],[13.6468929,46.4460106],[13.6472333,46.4458934],[13.647804,46.4458516],[13.649123,46.446333],[13.6490386,46.4467062],[13.649335,46.4463239],[13.6492757,46.4460631],[13.6494043,46.4456411],[13.6495358,46.4455707],[13.6496578,46.4455534],[13.6497897,46.4456622],[13.6498983,46.4456496],[13.6504726,46.4453531],[13.6506445,46.4452105],[13.6507929,46.4452122],[13.6509616,46.4452685],[13.6512527,46.4449051],[13.6518497,46.4447815],[13.652107,46.4447096],[13.6521216,46.4447055],[13.6524512,46.4444667],[13.6527072,46.4445114],[13.6529902,46.4442352],[13.6531391,46.4442183],[13.6533828,46.4441792],[13.6538049,46.4440349],[13.6540685,46.4437488],[13.6541115,46.4434765],[13.6541387,46.4433043],[13.6541413,46.4425425],[13.6541413,46.4425351],[13.6541942,46.4421969],[13.6537697,46.4418933],[13.6537322,46.4417623],[13.6535753,46.4415645],[13.6535005,46.4413367],[13.6537127,46.4404401],[13.6544273,46.4397994],[13.6544506,46.4397785],[13.6546659,46.4394708],[13.6555553,46.4398059],[13.6560871,46.4398634],[13.6562936,46.4399638],[13.6565567,46.4399669],[13.656719,46.4400156],[13.6570961,46.4399779],[13.6572719,46.4399753],[13.657808,46.4398415],[13.6582137,46.4398696],[13.658854,46.4398399],[13.6590389,46.4399376],[13.6592512,46.4398772],[13.6597086,46.4399338],[13.66031,46.4399463],[13.6607083,46.4398988],[13.6611825,46.4400863],[13.6616079,46.4400815],[13.6619133,46.4400063],[13.662576,46.4402285],[13.6627804,46.4401516],[13.6628875,46.4401762],[13.6631806,46.4403382],[13.6633284,46.4402181],[13.6636593,46.4403531],[13.6638003,46.4403734],[13.6639371,46.4403004],[13.6642746,46.4403043],[13.6644571,46.4402926],[13.6644799,46.4404561],[13.6651452,46.4407602],[13.6656742,46.4407312],[13.6659507,46.4407484],[13.666459,46.4406564],[13.6667149,46.4406639],[13.6671044,46.4407572],[13.6675356,46.4407856],[13.6676857,46.4407173],[13.667862,46.4406773],[13.6678852,46.4405563],[13.6680012,46.4405425],[13.6681537,46.4405294],[13.6685293,46.4404998],[13.6689006,46.4404589],[13.6692317,46.4403787],[13.6695927,46.4403076],[13.6698412,46.4402173],[13.6701129,46.4399794],[13.6703448,46.4398618],[13.670604,46.4397436],[13.6713227,46.4396114],[13.6715115,46.4396002],[13.6715715,46.4396382],[13.6716999,46.4396304],[13.6717533,46.4396542],[13.6717855,46.4397246],[13.6720322,46.4398442],[13.6722537,46.4398887],[13.6725115,46.4398403],[13.6726956,46.4397446],[13.6728507,46.439751],[13.6728356,46.4398207],[13.6728956,46.4398495],[13.6729073,46.4399195],[13.6730286,46.4399304],[13.6731353,46.4399922],[13.6732292,46.440012],[13.6732881,46.4400779],[13.6734826,46.4401268],[13.6737634,46.4401431],[13.6739092,46.4400618],[13.6741797,46.4400415],[13.6744138,46.4401376],[13.6749189,46.4401668],[13.6754171,46.4402599],[13.6755509,46.4402675],[13.6756969,46.4403717],[13.6760948,46.4404078],[13.6763642,46.4403934],[13.6765703,46.4402418],[13.6768587,46.4400399],[13.676901,46.4399565],[13.6769987,46.4398362],[13.6773775,46.4396429],[13.6777551,46.4395185],[13.677896,46.4395621],[13.6779363,46.4395579],[13.6780357,46.4394173],[13.6780834,46.4393498],[13.678306,46.4393382],[13.6787036,46.4392258],[13.6793162,46.4388694],[13.6794748,46.4387219],[13.6800058,46.4385965],[13.6802947,46.4385869],[13.6804097,46.4385695],[13.6805996,46.4385204],[13.6808002,46.4383315],[13.6810051,46.4382126],[13.681331,46.4381417],[13.6815494,46.4380415],[13.6817312,46.4380576],[13.6819003,46.4380268],[13.6823465,46.4379901],[13.6827685,46.4378411],[13.6829719,46.4378106],[13.6830383,46.4378534],[13.6831396,46.4378546],[13.683439,46.4377508],[13.6835516,46.4375469],[13.6838645,46.4374904],[13.6840421,46.437466],[13.6838591,46.4372072],[13.6840358,46.4366244],[13.6836664,46.4357475],[13.6836242,46.4345279],[13.6834952,46.4342115],[13.6822987,46.43337],[13.6813758,46.4322482],[13.6809372,46.4323601],[13.6807714,46.4319488],[13.6806972,46.4309763],[13.6806059,46.4309887],[13.6804237,46.4304468],[13.6819271,46.4296184],[13.6818191,46.4289693],[13.6806023,46.4276282],[13.6801997,46.4273267],[13.6797141,46.4261515],[13.6794069,46.425941],[13.677876,46.4244073],[13.6774183,46.4236957],[13.677524,46.4233596],[13.6784062,46.4229244],[13.6784146,46.4225781],[13.6787837,46.42211],[13.6799638,46.4213863],[13.6802165,46.4212313],[13.6811258,46.4196673],[13.6818555,46.4196172],[13.6826951,46.4198698],[13.6828781,46.4201058],[13.6837654,46.4202645],[13.6847467,46.4205771],[13.6853879,46.4212323],[13.6858101,46.4215296],[13.686531,46.4218482],[13.6873138,46.4223026],[13.687695,46.4226803],[13.6885828,46.4230954],[13.6896476,46.4231795],[13.6901054,46.4233512],[13.6909708,46.4230732],[13.6914264,46.4230604],[13.6925472,46.4232532],[13.6927132,46.4232517],[13.6929897,46.4232492],[13.6933654,46.4235864],[13.6941573,46.4239328],[13.6942892,46.4244067],[13.6945194,46.4244561],[13.6945883,46.4244948],[13.6947098,46.4244969],[13.6948124,46.4245719],[13.6949912,46.4247026],[13.6951687,46.4247234],[13.6956156,46.4247756],[13.6959708,46.4248172],[13.6962585,46.4250248],[13.6963142,46.425065],[13.6964605,46.4251705],[13.6966423,46.4253017],[13.6974949,46.4255588],[13.6977166,46.4255854],[13.6981566,46.4256383],[13.6983437,46.425779],[13.6983995,46.425821],[13.6988224,46.4258597],[13.6989058,46.4258673],[13.6993931,46.4261652],[13.6999682,46.4261513],[13.7000124,46.4261502],[13.7011637,46.4261223],[13.7014821,46.4261938],[13.7023323,46.4263847],[13.7025765,46.4264395],[13.7026197,46.4264492],[13.7026618,46.4264307],[13.7029484,46.4263045],[13.7035876,46.4262353],[13.7044572,46.4263261],[13.7055312,46.4260278],[13.7062323,46.4263595],[13.7063123,46.4263973],[13.706354,46.426417],[13.7063962,46.426437],[13.7064985,46.4264853],[13.7075578,46.4269864],[13.7079771,46.427414],[13.7086642,46.4275208],[13.7091331,46.427499],[13.7098654,46.4278942],[13.7100299,46.428094],[13.7106076,46.4284244],[13.7114801,46.4283642],[13.7117285,46.428347],[13.7118023,46.4285278],[13.71219,46.4286401],[13.7122122,46.4288023],[13.7129782,46.4289213],[13.7131115,46.4289636],[13.7133901,46.4290135],[13.7143884,46.4297715],[13.7145383,46.4294852],[13.7150144,46.4291577],[13.7156067,46.4290552],[13.715942,46.4289972],[13.7162007,46.429063],[13.7164374,46.4289577],[13.7167529,46.4291323],[13.7169873,46.4292621],[13.717632,46.4296189],[13.7178579,46.4297111],[13.7182893,46.4298872],[13.7190017,46.4300301],[13.7196244,46.4306669],[13.7197185,46.4307911],[13.7197733,46.4308634],[13.7198256,46.4309323],[13.7198995,46.4310298],[13.7200413,46.4312168],[13.7201406,46.4313478],[13.7205723,46.4319172],[13.7206091,46.4319771],[13.720673,46.4320501],[13.7208488,46.432282],[13.7215021,46.4327823],[13.7220889,46.4332316],[13.7227131,46.4334926],[13.7228877,46.4335734],[13.7231256,46.4339719],[13.7238064,46.4343574],[13.7269313,46.4359577],[13.7312711,46.4373734],[13.7352089,46.4376059],[13.7358242,46.4385754],[13.7360823,46.4386682],[13.7365914,46.4386019],[13.7364193,46.4387259],[13.7364953,46.4388167],[13.7369113,46.4388393],[13.7370903,46.4389762],[13.7377406,46.4389924],[13.7381921,46.4391683],[13.7391828,46.4390983],[13.7394336,46.4383813],[13.7392273,46.4377312],[13.7403516,46.436376],[13.7436542,46.4348018],[13.7451396,46.4347191],[13.7463994,46.4340551],[13.7465482,46.432819],[13.7468923,46.4326256],[13.7472113,46.4323305],[13.7479168,46.4315778],[13.7480586,46.4313436],[13.7478343,46.4309627],[13.7482862,46.4308403],[13.7485882,46.4301593],[13.74934,46.428745],[13.7501843,46.4280143],[13.7504698,46.4275347],[13.7519687,46.4268492],[13.7521956,46.4265998],[13.7536295,46.4259136],[13.7559521,46.4250481],[13.7570124,46.4247628],[13.7591521,46.4239312],[13.7597116,46.4239283],[13.760641,46.4236774],[13.7620359,46.4235576],[13.7632691,46.4242547],[13.7636703,46.424349],[13.7640244,46.4242268],[13.7647002,46.4242611],[13.7656802,46.4240737],[13.7665753,46.4241914],[13.7674084,46.4241733],[13.7691413,46.4246418],[13.769701,46.4246298],[13.7699278,46.4243804],[13.7700086,46.4236794],[13.7709531,46.4227539],[13.7718172,46.4225112],[13.7722527,46.422237],[13.7733338,46.4227614],[13.7739411,46.4229479],[13.775131,46.4226817],[13.7755217,46.4226679],[13.7758145,46.4223741],[13.7769239,46.422215],[13.7776764,46.4228888],[13.7781467,46.4228039],[13.7795873,46.4223784],[13.7800434,46.4217624],[13.7813355,46.4209934],[13.7826888,46.4198112],[13.7839172,46.4195633],[13.7867561,46.4182618],[13.7871739,46.4181943],[13.7896768,46.417375],[13.7896715,46.4170241],[13.7914603,46.4167281],[13.7926419,46.4162367],[13.7930063,46.4156377],[13.7928882,46.4150966],[13.7926697,46.4143836],[13.7920914,46.4140626],[13.7927597,46.4138447],[13.7938292,46.413712],[13.7959089,46.4143817],[13.7960076,46.4146256],[13.7968687,46.4145087],[13.7977736,46.4141763],[13.7982167,46.414136],[13.798641,46.4137716],[13.7991243,46.4136777],[13.7994753,46.4130965],[13.7995506,46.4114418],[13.7999553,46.4107803],[13.8008664,46.41016],[13.8021615,46.4098227],[13.8034611,46.4098723],[13.8052922,46.4106022],[13.8070826,46.4108188],[13.8077654,46.41052],[13.8093817,46.4103658],[13.8101704,46.4099871],[13.8114611,46.4098476],[13.8119759,46.409502],[13.813029,46.4083253],[13.8138898,46.4076145],[13.8139817,46.4073187],[13.8134966,46.4071515],[13.8135322,46.4067111],[13.8129146,46.4063988],[13.8124543,46.4060341],[13.8117235,46.4049468],[13.8115316,46.4041981],[13.8121636,46.4032419],[13.8123431,46.4015613],[13.8124301,46.4011484],[13.8127383,46.4007287],[13.8127177,46.4004766],[13.813311,46.4001048],[13.8130538,46.3987706],[13.8126747,46.3982628],[13.8126669,46.3980198],[13.8132703,46.3971803],[13.8144379,46.3967066],[13.8153866,46.3961316],[13.8150339,46.3956061],[13.8158262,46.3950474],[13.8158019,46.3949662],[13.8162552,46.3944491],[13.8163542,46.3940812],[13.8162308,46.393774],[13.8160354,46.39379],[13.8158961,46.3936176],[13.8160791,46.3929717],[13.8158893,46.392124],[13.8152614,46.3916946],[13.8154411,46.3905988],[13.815186,46.3903713],[13.8148236,46.3902955],[13.8141598,46.3903247],[13.8140989,46.3895323],[13.8143483,46.3894269],[13.8144705,46.3885824],[13.8149201,46.3882362],[13.8150631,46.3876348],[13.8155734,46.3874872],[13.8158456,46.387526],[13.8163609,46.3871444],[13.8166612,46.3870845],[13.8168989,46.386916],[13.8170809,46.3863151],[13.8178889,46.3862245],[13.8187511,46.3854326],[13.8191975,46.3852303],[13.8198313,46.384778],[13.8199487,46.3847612],[13.8200606,46.3849963],[13.8201772,46.3850155],[13.8203805,46.3846307],[13.8211852,46.3840901],[13.8214512,46.3838139],[13.8215794,46.3832934],[13.821952,46.3828924],[13.8222411,46.3827514],[13.8227706,46.382307],[13.8231184,46.3818517],[13.8236146,46.3817488],[13.8240133,46.3813481],[13.8244303,46.3812984],[13.8249231,46.3813574],[13.8251613,46.3811619],[13.8271695,46.3808766],[13.8298461,46.3815518],[13.8317845,46.3826875],[13.8327802,46.3817436],[13.834467,46.3818958],[13.8358308,46.3813428],[13.8359692,46.3809484],[13.8359518,46.3799315],[13.8362795,46.3791881],[13.836154,46.3789798],[13.8364403,46.3783529],[13.8365548,46.3760148],[13.8317921,46.3701451],[13.8304596,46.368629],[13.8270296,46.3643112],[13.8212124,46.3628569],[13.8203692,46.3621824],[13.8200176,46.3622148],[13.8196939,46.3621575],[13.8196012,46.3622375],[13.8192446,46.3619009],[13.8186811,46.3621201],[13.8182839,46.361855],[13.817404,46.361675],[13.8173552,46.3615305],[13.8171614,46.3614746],[13.8167534,46.3611105],[13.8163757,46.3605487],[13.816014,46.360446],[13.8157038,46.3591652],[13.8155203,46.3592353],[13.8151327,46.3591323],[13.8149628,46.3591755],[13.8147834,46.3590567],[13.8137993,46.3588936],[13.8131543,46.3592738],[13.8127888,46.3593509],[13.8123273,46.3596611],[13.8112436,46.3598927],[13.8104897,46.3599029],[13.8101241,46.3599801],[13.8098911,46.3600916],[13.8096775,46.3602004],[13.8094568,46.3601891],[13.8090849,46.3599603],[13.8086833,46.3599021],[13.8080343,46.3598684],[13.8074689,46.3600425],[13.8070007,46.3589939],[13.8068863,46.3588757],[13.8062555,46.3585992],[13.8059759,46.3577146],[13.8051162,46.3572108],[13.8048438,46.3571899],[13.8043196,46.3573914],[13.8037717,46.3568908],[13.8037609,46.3567917],[13.8034625,46.3567706],[13.8031855,46.3563629],[13.803005,46.356298],[13.8029185,46.3560902],[13.8027138,46.3559441],[13.8026921,46.3557459],[13.7960119,46.3569805],[13.7941643,46.357087],[13.7917973,46.3565852],[13.7888551,46.3556544],[13.7883101,46.3550278],[13.7882901,46.3547577],[13.7884624,46.3546065],[13.7868629,46.3528981],[13.7857856,46.3540204],[13.7850816,46.3541209],[13.7848486,46.3540824],[13.784814,46.3538841],[13.7849333,46.3537774],[13.7850614,46.3532749],[13.7847266,46.3525516],[13.7844426,46.3524676],[13.7838208,46.3517952],[13.7829118,46.3517675],[13.7827262,46.3519365],[13.7825705,46.3519258],[13.7825867,46.3517821],[13.7822665,46.3515717],[13.782324,46.3513204],[13.782603,46.3510445],[13.7826328,46.3508738],[13.7823706,46.3503942],[13.781779,46.350118],[13.7802386,46.3498586],[13.779995,46.3497121],[13.7801944,46.3495073],[13.7796135,46.3493391],[13.779486,46.3492298],[13.7793521,46.3488235],[13.7787776,46.3483675],[13.7787602,46.3479804],[13.7781033,46.3477215],[13.7775604,46.3475988],[13.777316,46.3474882],[13.7773056,46.3473711],[13.77684,46.3472762],[13.7766222,46.3471389],[13.7764001,46.3471905],[13.7760299,46.3468986],[13.7745153,46.3466485],[13.7742935,46.3466911],[13.7738177,46.3464701],[13.7729479,46.3464428],[13.7728032,46.3465222],[13.7725432,46.3465284],[13.7724707,46.3462847],[13.7723034,46.3462109],[13.7720544,46.3463072],[13.7717197,46.3461687],[13.7710823,46.3462068],[13.7704904,46.3459485],[13.7702035,46.3459994],[13.770091,46.3458003],[13.7696804,46.345571],[13.7694011,46.34528],[13.7689596,46.3452663],[13.7689127,46.3450409],[13.7685074,46.3445776],[13.7673767,46.3440166],[13.7671609,46.3437894],[13.7668234,46.3437768],[13.7666316,46.3436397],[13.7663205,46.3436094],[13.7662618,46.3433298],[13.7659558,46.3430746],[13.7650167,46.3426596],[13.7643819,46.3425808],[13.7636231,46.3422397],[13.7633875,46.3423181],[13.7631428,46.3422255],[13.7627272,46.342221],[13.7623006,46.3421264],[13.7619799,46.341943],[13.7615249,46.3419561],[13.760934,46.3422376],[13.7602994,46.3421498],[13.7601551,46.3422112],[13.7595323,46.3421775],[13.7593129,46.3421121],[13.7581949,46.342145],[13.7577554,46.3420502],[13.7571025,46.3421961],[13.7566155,46.3419029],[13.7557838,46.3419119],[13.7555458,46.3420982],[13.7550774,46.3421291],[13.7544215,46.3418341],[13.7538267,46.3417106],[13.7529399,46.3407203],[13.7523626,46.3403991],[13.7519868,46.3397832],[13.7516498,46.3397525],[13.7511774,46.3393875],[13.750939,46.339016],[13.7506964,46.3388334],[13.7503753,46.3381011],[13.7507333,46.3377811],[13.7495963,46.3380836],[13.7488688,46.3380846],[13.7476369,46.3379902],[13.7471864,46.3378053],[13.7462538,46.3376871],[13.7460324,46.337496],[13.7458844,46.3373682],[13.7450031,46.3372776],[13.7448059,46.3373834],[13.7446766,46.337355],[13.7445764,46.3366251],[13.744441,46.3363597],[13.7444148,46.3363084],[13.744415,46.3362385],[13.7444154,46.3360748],[13.7444166,46.3356606],[13.7445823,46.3353686],[13.7446196,46.3353029],[13.7442903,46.3343636],[13.7438573,46.33399],[13.7433813,46.3337868],[13.7433065,46.333651],[13.7427559,46.3333031],[13.7425224,46.3332915],[13.7419953,46.3330518],[13.7417609,46.3330762],[13.7413907,46.3328331],[13.7412926,46.3327687],[13.7411339,46.3326645],[13.7409136,46.332644],[13.7409539,46.3325855],[13.7417063,46.3314921],[13.7416032,46.331455],[13.7415232,46.3307601],[13.7414701,46.3302987],[13.7414606,46.3302167],[13.74145,46.330124],[13.7414447,46.3300787],[13.7414119,46.3297935],[13.7414082,46.3297613],[13.7411374,46.3291106],[13.7413221,46.3289496],[13.7418,46.328533],[13.7417568,46.3283208],[13.7416716,46.3279018],[13.7417585,46.3278311],[13.7418369,46.3277672],[13.7418569,46.3277509],[13.7418401,46.3277182],[13.7415211,46.3270994],[13.7415277,46.327055],[13.7416901,46.3259586],[13.7415053,46.3255247],[13.7416485,46.3249414],[13.7415597,46.3248505],[13.7419191,46.3239007],[13.7419916,46.3224349],[13.7421294,46.3220855],[13.7424907,46.3216217],[13.7432025,46.3217284],[13.7439489,46.3214577],[13.7439027,46.3212053],[13.744436,46.3205993],[13.7445178,46.3198624],[13.7444316,46.3196545],[13.744756,46.3196671],[13.7450049,46.3195709],[13.7447795,46.3192085],[13.7449383,46.3190753],[13.7448677,46.3176169],[13.7453594,46.3171275],[13.7462827,46.3164988],[13.7460572,46.3161364],[13.7465604,46.31571],[13.7465906,46.3155214],[13.7462205,46.3146716],[13.7463919,46.3145565],[13.7463708,46.3137735],[13.7463265,46.3136063],[13.7460958,46.3127358],[13.7461559,46.3123766],[13.7459779,46.3122127],[13.7458862,46.3116808],[13.7455287,46.311416],[13.7450607,46.3114379],[13.7449097,46.3112293],[13.7438827,46.3107142],[13.7437171,46.3105774],[13.7433859,46.309728],[13.7426685,46.3093062],[13.7414142,46.3090855],[13.7404149,46.3084987],[13.7401549,46.307947],[13.7399004,46.3077193],[13.7392972,46.3074157],[13.7386394,46.3066617],[13.7383413,46.3066404],[13.7380349,46.3064121],[13.737777,46.3063373],[13.7377401,46.3062469],[13.7373124,46.3062152],[13.7370841,46.3059787],[13.7362683,46.3058888],[13.7361676,46.3057527],[13.735882,46.3057495],[13.7357359,46.3058919],[13.7352718,46.3057518],[13.7350866,46.3059027],[13.7346875,46.3057543],[13.734627,46.3055647],[13.734189,46.3054159],[13.7340882,46.3052799],[13.7342082,46.3051462],[13.7341861,46.304975],[13.733502,46.3048055],[13.7335605,46.3045182],[13.7333875,46.3041384],[13.7328263,46.3042672],[13.7325378,46.3038321],[13.7324598,46.3032734],[13.7322941,46.3031366],[13.7319194,46.3030605],[13.7318991,46.3028173],[13.7313516,46.3023524],[13.7313281,46.3022442],[13.7314332,46.3021914],[13.7311463,46.3016843],[13.7308729,46.3017173],[13.7309154,46.3015648],[13.7307607,46.3015181],[13.7308169,46.3013298],[13.7306507,46.30122],[13.7306153,46.3010666],[13.728936,46.3007061],[13.7285193,46.3007645],[13.7283646,46.3007178],[13.7277443,46.3000361],[13.7273737,46.29978],[13.726854,46.2998012],[13.7258946,46.2991877],[13.7255193,46.2991386],[13.7257052,46.2989607],[13.7251079,46.2984052],[13.7246727,46.2975816],[13.7247673,46.2974207],[13.7249245,46.2973595],[13.7249151,46.2972064],[13.7247869,46.297133],[13.7247645,46.2967658],[13.7114478,46.2942583],[13.7101967,46.2943279],[13.6982512,46.296694],[13.689816,46.2942387],[13.6832372,46.2922072],[13.6728493,46.2883059],[13.6719862,46.2880951],[13.6640516,46.2842354],[13.6634113,46.284237],[13.6519698,46.2878673],[13.6506373,46.2879596],[13.6498544,46.288761],[13.6490185,46.2892019],[13.6474687,46.2897208],[13.6454788,46.2908417],[13.6423776,46.293901],[13.6402114,46.2955353],[13.6381555,46.2957853],[13.6349366,46.297048],[13.6330615,46.2972217],[13.6309543,46.297785],[13.6307604,46.2978393],[13.6299371,46.2980603],[13.6296455,46.2981385],[13.6286767,46.2983986],[13.627766,46.298643],[13.6265329,46.2990142],[13.6245527,46.3000773],[13.6224485,46.3006944],[13.6174007,46.296178],[13.6114256,46.2942225],[13.6053509,46.2920352],[13.6005458,46.2914682],[13.5976869,46.2901889],[13.5934768,46.2894156],[13.5925171,46.2893355],[13.5923347,46.2893851],[13.5911997,46.2896937],[13.5828713,46.291958],[13.5789171,46.2932882],[13.5721168,46.2947759],[13.5711068,46.2949968],[13.5651741,46.2982199],[13.5645472,46.2986127],[13.5610181,46.2995842],[13.5564479,46.2982265],[13.5520488,46.2996024],[13.5516523,46.2996917],[13.5502561,46.3000062],[13.5455821,46.3014486],[13.5429494,46.3020854],[13.5389627,46.3004807],[13.5379061,46.3008737],[13.5377807,46.3009203],[13.5354964,46.3017699],[13.5346981,46.3016508],[13.5327337,46.3011838],[13.5253851,46.2955488],[13.5206758,46.2927078],[13.5192198,46.2896605],[13.5195008,46.2890136],[13.5197689,46.2887453],[13.5199579,46.2882313],[13.5204579,46.2878239],[13.5202081,46.2875652],[13.5199587,46.2869394],[13.519892,46.286772],[13.5198799,46.2866526],[13.5198278,46.2861411],[13.5197894,46.285763],[13.5199946,46.2856127],[13.5200411,46.2845489],[13.5204464,46.2841042],[13.5207133,46.2840753],[13.5213306,46.2838017],[13.522373,46.2831169],[13.5226287,46.283212],[13.5230092,46.2835894],[13.5231701,46.2839658],[13.5228366,46.2844599],[13.5225404,46.2846594],[13.5220699,46.2852643],[13.5221191,46.2854098],[13.5226689,46.2855824],[13.5233374,46.2859528],[13.5235996,46.2862953],[13.5236976,46.2867096],[13.5239235,46.2867971],[13.5244872,46.2868322],[13.5249116,46.2867783],[13.5251986,46.2868783],[13.5258081,46.2868466],[13.5265595,46.2864702],[13.5272559,46.2865746],[13.52844,46.2864027],[13.5296311,46.2866591],[13.5295419,46.2833991],[13.5303962,46.2797904],[13.5298611,46.2764464],[13.5294506,46.2748117],[13.5287563,46.2743304],[13.5282655,46.2736699],[13.5280571,46.2736052],[13.5274265,46.2727342],[13.5274381,46.2725868],[13.5266782,46.2714065],[13.5257811,46.2709001],[13.5242493,46.2698114],[13.522009,46.2685958],[13.5209721,46.2676421],[13.5196384,46.2659927],[13.5195699,46.26652],[13.5185905,46.2667143],[13.5177111,46.2671006],[13.5128622,46.2683081],[13.5123845,46.2685206],[13.5110679,46.2688822],[13.509873,46.2690835],[13.5085505,46.2691878],[13.5064629,46.2697256],[13.5061753,46.2698919],[13.5056876,46.2698936],[13.5044357,46.2702192],[13.5030274,46.270387],[13.501888,46.2707788],[13.5024396,46.2710991],[13.501895,46.2712368],[13.5008151,46.2713451],[13.4990895,46.2717795],[13.4963618,46.2728405],[13.4955865,46.273389],[13.4948018,46.2734246],[13.4913958,46.2741356],[13.4906715,46.2738147],[13.4895602,46.2727122],[13.4878491,46.2733987],[13.4873878,46.2733332],[13.4862701,46.2728712],[13.485724,46.2732068],[13.4841011,46.2732888],[13.4830786,46.2734768],[13.4815073,46.273994],[13.4799229,46.2741367],[13.4790163,46.274077],[13.4786087,46.2743244],[13.4770262,46.2743546],[13.4752769,46.2746346],[13.4734008,46.2747913],[13.4732762,46.2747815],[13.4727988,46.2743937],[13.4724642,46.274248],[13.4717137,46.2742793],[13.471102,46.2741587],[13.4706189,46.2741648],[13.4708263,46.2748244],[13.4704855,46.2749062],[13.4701984,46.2749021],[13.4687204,46.2748808],[13.4683032,46.2749517],[13.4680615,46.2750547],[13.4677585,46.2753619],[13.4659847,46.2758672],[13.4653581,46.2762331],[13.4634041,46.2768529],[13.4628587,46.2771308],[13.4614995,46.2775687],[13.4611556,46.277753],[13.4604274,46.2779565],[13.4598361,46.2780459],[13.4592354,46.2782553],[13.4573144,46.2780414],[13.4564165,46.2777729],[13.4555964,46.2779958],[13.453365,46.278088],[13.4516926,46.2789543],[13.4504962,46.2797722],[13.4501046,46.2798119],[13.4495331,46.2800588],[13.4490556,46.2801513],[13.4487029,46.2804092],[13.447722,46.2805039],[13.4468733,46.2807767],[13.4447441,46.281589],[13.4445135,46.2817659],[13.443847,46.2818333],[13.4435314,46.2820782],[13.443347,46.282073],[13.4423776,46.2824953],[13.4417461,46.2825155],[13.4408911,46.2827486],[13.4404369,46.2826038],[13.4398234,46.2827295],[13.4389723,46.2830841],[13.4382165,46.2831944],[13.4378995,46.2833448],[13.4371054,46.2835319],[13.4367735,46.2835121],[13.4353468,46.2840801],[13.4347968,46.2842139],[13.4336927,46.28425],[13.432902,46.2845721],[13.4326488,46.2848593],[13.4324167,46.2849803],[13.4321178,46.2849474],[13.4318774,46.2851852],[13.4311533,46.2852491],[13.4307294,46.2854961],[13.4289702,46.2858012],[13.4281659,46.2856346],[13.4276184,46.2858736],[13.426646,46.2861418],[13.4251422,46.2864091],[13.4240873,46.2863657],[13.4220443,46.2868136],[13.4210344,46.2869139],[13.4198824,46.2871598],[13.4197795,46.2872367],[13.419023,46.2873117],[13.418571,46.2874593],[13.4177103,46.287281],[13.4152908,46.2875714],[13.4142813,46.2875574],[13.4135468,46.2876876],[13.4116839,46.2886029],[13.4107669,46.2888952],[13.4122606,46.2925527],[13.3996666,46.2962938],[13.4019578,46.2982126],[13.4028787,46.3001374],[13.4029764,46.3002905],[13.4031149,46.3005057],[13.4040553,46.3019615],[13.4043274,46.3023869],[13.4050953,46.303573],[13.4053313,46.3039399],[13.40555,46.3042817],[13.405662,46.3044574],[13.4057392,46.304578],[13.4058516,46.3048489],[13.405747,46.3049569],[13.4060195,46.3050727],[13.4062174,46.3052153],[13.4063542,46.3053666],[13.4063766,46.3055301],[13.4064655,46.3057133],[13.4067933,46.3057832],[13.407102,46.3058109],[13.4075418,46.3057423],[13.4078593,46.3057094],[13.4082552,46.3057382],[13.4087542,46.3057079],[13.4090479,46.305572],[13.4092723,46.3054865],[13.4096644,46.3054219],[13.4098864,46.3054344],[13.4103935,46.305586],[13.4109225,46.3056866],[13.4116069,46.3057615],[13.4121262,46.3057174],[13.4126854,46.3056972],[13.4130489,46.3056974],[13.4134294,46.3058147],[13.4139721,46.3059063],[13.4144421,46.3059407],[13.4149684,46.3058967],[13.4152194,46.3058255],[13.4154263,46.3056605],[13.4156871,46.3054775],[13.4161365,46.3053111],[13.416768,46.3053478],[13.417665,46.3055188],[13.4180027,46.3057101],[13.4183159,46.3058217],[13.4182966,46.3060267],[13.4181718,46.3061509],[13.4177702,46.3065466],[13.4178192,46.3069391],[13.4179084,46.3073509],[13.4178622,46.3075601],[13.4177379,46.3076657],[13.4173523,46.3077257],[13.4173179,46.3079911],[13.4169471,46.3082425],[13.4168123,46.3084879],[13.4166393,46.3086488],[13.4165581,46.3089042],[13.4163039,46.3090779],[13.4158539,46.309501],[13.4156942,46.3096807],[13.4156709,46.3097876],[13.4162333,46.3103598],[13.4162601,46.3105982],[13.416155,46.3109652],[13.4160061,46.3112337],[13.4160596,46.3114724],[13.4161247,46.3117904],[13.4162606,46.3122169],[13.4163363,46.3123905],[13.4163919,46.3125593],[13.416189,46.312827],[13.4161567,46.3130178],[13.4160462,46.3131096],[13.4160288,46.3132493],[13.4159663,46.3133184],[13.4158603,46.3134895],[13.4159042,46.3136767],[13.4159313,46.314069],[13.4156393,46.3143868],[13.4155043,46.3143942],[13.4154143,46.314477],[13.4153664,46.3147468],[13.4155989,46.3150813],[13.4159542,46.3151283],[13.4160382,46.3152554],[13.4161087,46.3153869],[13.416234,46.3154773],[13.4163169,46.3156231],[13.4164827,46.3157139],[13.4165065,46.3158355],[13.4164816,46.3159938],[13.4163262,46.3162483],[13.4161201,46.31639],[13.4159519,46.3166274],[13.4166448,46.3167082],[13.4169911,46.3167401],[13.4170703,46.3168427],[13.4174385,46.3173129],[13.4180085,46.3180307],[13.4181587,46.3182196],[13.4191439,46.3184567],[13.4206532,46.3193258],[13.4214459,46.3197332],[13.422042,46.3200777],[13.4237522,46.3211986],[13.4248016,46.3217807],[13.4255163,46.322522],[13.4256805,46.3224884],[13.4264263,46.322312],[13.4267383,46.3224574],[13.4270279,46.3224602],[13.4273939,46.3223767],[13.4276951,46.3224461],[13.4281801,46.3224295],[13.4286145,46.322552],[13.4289901,46.3226038],[13.4291412,46.3226904],[13.4295075,46.3226297],[13.4298658,46.3225879],[13.4305267,46.3225549],[13.4316486,46.3226356],[13.4321019,46.3225626],[13.4326782,46.3224601],[13.4337623,46.3221887],[13.4340493,46.3220433],[13.4348433,46.3218106],[13.4351906,46.3216858],[13.435642,46.3216826],[13.4359963,46.3215196],[13.4366971,46.3215105],[13.4371001,46.321733],[13.4376678,46.3219389],[13.4384782,46.3220992],[13.4389903,46.3223215],[13.439627,46.3226608],[13.4398406,46.3231954],[13.4399404,46.3234674],[13.439908,46.3236675],[13.4399635,46.3238456],[13.4398782,46.3241162],[13.4401886,46.3242171],[13.4403108,46.3244194],[13.4404505,46.3244866],[13.4407611,46.3246962],[13.4410336,46.3250496],[13.4411522,46.3251446],[13.4413635,46.3252921],[13.441404,46.3255259],[13.441639,46.3257857],[13.4417529,46.3260438],[13.4418958,46.3268177],[13.4426141,46.3277348],[13.4433425,46.3283978],[13.4434098,46.3285546],[13.443685,46.3291442],[13.4439738,46.3298356],[13.4437645,46.3299057],[13.4437288,46.3299799],[13.4438197,46.330107],[13.4439492,46.3302767],[13.4442815,46.3304398],[13.4445027,46.3304662],[13.444656,46.330529],[13.4447878,46.330638],[13.4452265,46.3305927],[13.4454295,46.3306546],[13.4457679,46.3307399],[13.4460812,46.3306136],[13.4466255,46.3306583],[13.4471094,46.3305161],[13.4476012,46.3307417],[13.4482616,46.3311323],[13.4481817,46.331589],[13.4480795,46.3318722],[13.4480795,46.3319745],[13.448239,46.3321917],[13.4485399,46.3323207],[13.4487149,46.3323622],[13.4487612,46.3325299],[13.4490241,46.3328838],[13.4484585,46.3330015],[13.4480961,46.3331838],[13.4487142,46.3338847],[13.4490198,46.3342544],[13.4490739,46.3343347],[13.4493385,46.334511],[13.4493282,46.334632],[13.4493529,46.3347193],[13.4494466,46.3348316],[13.4493616,46.3349938],[13.4492535,46.3350963],[13.449267,46.3351344],[13.4491073,46.3351942],[13.4488578,46.3353161],[13.4485475,46.3355638],[13.4480741,46.3358701],[13.4477146,46.3362149],[13.4472397,46.3365676],[13.4470284,46.3368914],[13.4469142,46.3375989],[13.4467593,46.3378393],[13.4467173,46.3379791],[13.4466906,46.3381277],[13.4464959,46.3383396],[13.4463413,46.3388086],[13.4461286,46.3391733],[13.4459899,46.3393218],[13.4453452,46.3397235],[13.445151,46.3396835],[13.4449916,46.3398539],[13.4445222,46.3402441],[13.4444918,46.3403696],[13.4445372,46.3405049],[13.4445154,46.3412003],[13.4444406,46.3414605],[13.4444689,46.3416522],[13.4442894,46.3420555],[13.4443972,46.3422903],[13.4443768,46.3425233],[13.444164,46.3429122],[13.444088,46.3430982],[13.4442245,46.3436314],[13.4442221,46.3439439],[13.4442505,46.3440831],[13.4441844,46.3443259],[13.4439619,46.3445702],[13.4436367,46.344869],[13.4431337,46.3452727],[13.4426422,46.3455085],[13.4422728,46.3454662],[13.4420201,46.3458266],[13.4418391,46.3459023],[13.4415176,46.3462115],[13.4413879,46.3464991],[13.4413057,46.3470251],[13.4413903,46.3471335],[13.4415359,46.3472942],[13.4418729,46.3474527],[13.4420493,46.3476463],[13.4425773,46.3482692],[13.4425458,46.3483627],[13.4423918,46.3486259],[13.4421989,46.348782],[13.4419418,46.3488157],[13.4418039,46.3489398],[13.4416074,46.3489651],[13.441513,46.3491808],[13.4413289,46.3492972],[13.4412852,46.3494039],[13.4412787,46.3496323],[13.4410608,46.3499559],[13.4410419,46.3501516],[13.4407875,46.3505587],[13.4406111,46.3506076],[13.4405549,46.3506815],[13.4405264,46.3509843],[13.4404496,46.3510718],[13.4403717,46.3512014],[13.4398955,46.3513676],[13.4396617,46.3515371],[13.4394478,46.3517207],[13.4392702,46.3520401],[13.4384035,46.3526407],[13.4383769,46.3528955],[13.4379218,46.3532626],[13.4378102,46.3536295],[13.4375813,46.353855],[13.4369881,46.354308],[13.4369795,46.3544112],[13.4371699,46.3548291],[13.4373842,46.3553451],[13.4374295,46.3555465],[13.4373755,46.3556482],[13.437424,46.3558308],[13.4375952,46.3559777],[13.4378146,46.3563165],[13.4378218,46.3565313],[13.437606,46.3567803],[13.4375742,46.3571666],[13.437433,46.3574076],[13.4375811,46.3578855],[13.4375536,46.3583904],[13.4377965,46.3586068],[13.4377562,46.3588349],[13.4378882,46.3591679],[13.4380534,46.3592804],[13.4385323,46.3597365],[13.4387472,46.3600052],[13.4390357,46.3601481],[13.4395721,46.3601471],[13.440062,46.3602097],[13.4402914,46.3601989],[13.4406394,46.3602829],[13.4408269,46.3603181],[13.4412405,46.3602223],[13.4414752,46.360271],[13.4417402,46.3601907],[13.4422712,46.3602485],[13.4427814,46.360536],[13.4431733,46.3607372],[13.4433282,46.3607441],[13.4435619,46.3608125],[13.4441579,46.3609365],[13.4444575,46.3608341],[13.4447531,46.3608661],[13.4450732,46.3609777],[13.4453682,46.3610284],[13.4458621,46.3609697],[13.4461153,46.3610782],[13.4462949,46.3611483],[13.4465732,46.3615439],[13.446691,46.3616714],[13.446766,46.3618777],[13.4470514,46.3622687],[13.4475606,46.3626162],[13.4478714,46.3628043],[13.44802,46.3627997],[13.4483019,46.3628408],[13.4486834,46.3629346],[13.4490869,46.3629587],[13.4496637,46.3628267],[13.4499048,46.3628765],[13.4501204,46.3628747],[13.4504702,46.3629028],[13.450916,46.3628622],[13.4514274,46.3628924],[13.4516756,46.3629145],[13.4519955,46.3630494],[13.4522396,46.3630849],[13.4532537,46.3628798],[13.4534558,46.3628826],[13.4539694,46.3628289],[13.4544873,46.3628545],[13.4556765,46.36274],[13.455971,46.3628093],[13.4574815,46.3627783],[13.4575674,46.3628429],[13.4576609,46.3628554],[13.4576503,46.3629998],[13.4579505,46.3630971],[13.4583236,46.3630135],[13.4586695,46.3629342],[13.4593239,46.3629151],[13.4594708,46.3629637],[13.4596271,46.3629052],[13.4600303,46.3629525],[13.460503,46.3629122],[13.4608177,46.3627391],[13.4609814,46.3626667],[13.4611597,46.3627951],[13.4614009,46.3626117],[13.4617086,46.3624527],[13.4620697,46.3623083],[13.4624362,46.3622152],[13.4626272,46.3621244],[13.4627824,46.3621219],[13.4629318,46.3620772],[13.4630933,46.3620841],[13.4633295,46.3620367],[13.463752,46.3619109],[13.464034,46.3619333],[13.464136,46.3619068],[13.464482,46.3618181],[13.4647715,46.361836],[13.4649078,46.3617819],[13.4652473,46.3616838],[13.4654349,46.3616071],[13.4663068,46.3611475],[13.4670545,46.3609104],[13.4671368,46.3608602],[13.4671399,46.3607482],[13.4671963,46.360665],[13.4673331,46.3605922],[13.467454,46.3605985],[13.4675871,46.360661],[13.4676953,46.360639],[13.4677622,46.3606585],[13.4677199,46.3607326],[13.4677658,46.3607752],[13.4679685,46.3607593],[13.4683328,46.3606207],[13.4689694,46.3609076],[13.4693091,46.3610058],[13.4697533,46.3610257],[13.4698815,46.3612358],[13.4702459,46.3612422],[13.4707252,46.3614446],[13.4711598,46.3617212],[13.4724088,46.3621293],[13.4728748,46.3621776],[13.4731504,46.3626758],[13.4730805,46.362873],[13.4738268,46.3628295],[13.4746032,46.3630124],[13.4751876,46.3630808],[13.4760333,46.3634466],[13.4766563,46.3638094],[13.4769526,46.3640653],[13.4770526,46.3643419],[13.4772382,46.3644563],[13.47732,46.3646719],[13.4776039,46.3651007],[13.477764,46.3651817],[13.4778994,46.365398],[13.4780637,46.3657279],[13.4786952,46.3661084],[13.4794399,46.3664157],[13.4802466,46.3667866],[13.4808678,46.3671304],[13.4814028,46.3676137],[13.4816378,46.3681299],[13.4816881,46.3684992],[13.4817523,46.3686288],[13.4819207,46.3686235],[13.482355,46.3687506],[13.4823645,46.3689093],[13.4824428,46.368999]]]}}]}