{"type":"FeatureCollection","features":[{"type":"Feature","properties":{"name":"Fafan","admin":"zone","source":"\u00a9 OpenStreetMap contributors, ODbL 1.0","osm_relation":3293963},"geometry":{"type":"Polygon","coordinates":[[[42.5383951,9.3739969],[42.5525225,9.3462588],[42.5572324,9.322071],[42.5478921,9.3062525],[42.5523021,9.2875941],[42.5620223,9.2713256],[42.5719324,9.2592066],[42.5805525,9.2385284],[42.5845325,9.2164104],[42.5964226,9.1946223],[42.615243,9.174994],[42.6356434,9.1595553],[42.6360533,9.1450066],[42.626903,9.1331178],[42.6103725,9.1194991],[42.6002879,9.1072132],[42.6202426,9.0903217],[42.6452931,9.0740231],[42.6632334,9.0500052],[42.6810736,9.0160682],[42.7040139,8.9819611],[42.7315844,8.949074],[42.762125,8.9187666],[42.8061057,8.8710907],[42.8504966,8.8453528],[42.8662769,8.8261744],[42.8663068,8.8054163],[42.8584905,8.7861901],[42.8826571,8.7847081],[42.8915372,8.7801785],[42.8927472,8.7726592],[42.9092976,8.7711292],[42.9396283,8.7572203],[42.9478784,8.7453414],[42.9487783,8.7341524],[42.9646485,8.7030651],[42.9767388,8.692696],[42.991869,8.6746276],[43.0011791,8.6533995],[43.0307097,8.6303114],[43.1166219,8.6593882],[43.1269122,8.6713971],[43.1368925,8.6797263],[43.1504028,8.6858856],[43.1691033,8.6878553],[43.1790836,8.6961945],[43.2037842,8.7031637],[43.2155345,8.710288],[43.2269548,8.7139726],[43.2416652,8.7126126],[43.2532853,8.696734],[43.2620055,8.6903746],[43.2612154,8.6811854],[43.2637954,8.6679866],[43.2740456,8.6577875],[43.293956,8.6522379],[43.3149666,8.6595571],[43.3251069,8.6697261],[43.3298871,8.6822349],[43.3331372,8.6986034],[43.3351874,8.7224812],[43.3347675,8.7391797],[43.3271374,8.7583979],[43.3152072,8.7706069],[43.3087971,8.7823058],[43.2943371,8.8299316],[43.3004873,8.8367709],[43.3075776,8.8546192],[43.3187678,8.8554391],[43.3310582,8.8691077],[43.3479286,8.8712575],[43.363589,8.8809165],[43.3827595,8.8883957],[43.3995201,8.9109135],[43.434821,8.9335712],[43.4500615,8.9599287],[43.4623519,8.9735974],[43.4751223,8.9927855],[43.4874127,9.0064542],[43.5034333,9.0420008],[43.5224939,9.0698582],[43.5366344,9.0833568],[43.5498648,9.1080545],[43.5687252,9.0968854],[43.5901256,9.0790469],[43.611836,9.0647081],[43.6287463,9.0560988],[43.6557968,9.0218817],[43.668757,9.0083529],[43.6795071,8.9897346],[43.6926173,8.9779556],[43.7065675,8.9555175],[43.7306782,8.9691461],[43.7486086,8.9727757],[43.7799693,8.9681059],[43.8602313,8.9783045],[43.8783317,8.9836739],[43.8930821,8.9911231],[43.9346832,9.0031317],[43.9549837,9.0135906],[43.971644,9.026278],[43.9148855,9.0796374],[43.8805992,9.1170622],[43.8702942,9.1235529],[43.8405811,9.1583358],[43.6429276,9.3567568],[43.61538,9.3567242],[43.6083174,9.358622],[43.5999138,9.3577062],[43.5931809,9.3588813],[43.5634661,9.3705978],[43.551497,9.3724717],[43.5436577,9.3766773],[43.5156989,9.3815052],[43.4944735,9.396336],[43.4863323,9.3990225],[43.4805029,9.4058824],[43.4635587,9.4157664],[43.4500666,9.4355116],[43.4392087,9.447098],[43.4347454,9.4586167],[43.432245,9.4718043],[43.4139945,9.5125862],[43.4101642,9.5324139],[43.4056579,9.5450315],[43.3997997,9.5520162],[43.3786606,9.5647246],[43.3667637,9.5767746],[43.3301664,9.6017074],[43.2982271,9.6060745],[43.2569505,9.8428969],[43.1825041,9.8824411],[43.1623616,9.890751],[43.1500369,9.8992399],[43.1453208,9.8989255],[43.1445662,9.8928889],[43.138341,9.8862864],[43.1291604,9.8862864],[43.1161824,9.8886598],[43.1022698,9.8951363],[43.0902762,9.9042515],[43.0861984,9.9080894],[43.0358252,10.0337825],[43.0293487,10.0404989],[43.0247911,10.0510533],[43.0161557,10.0601684],[43.0084798,10.0721621],[42.9974456,10.0836759],[42.9736983,10.0932708],[42.9698603,10.1021461],[42.8873443,10.1896995],[42.8307344,10.1501638],[42.8031836,10.1245763],[42.7709927,10.1106578],[42.7479221,10.1043485],[42.7152612,10.0848705],[42.7212211,10.0588628],[42.7291612,10.0433042],[42.7473615,10.0175364],[42.7585116,9.9961283],[42.7596715,9.966381],[42.7466909,9.923115],[42.7374405,9.901737],[42.7307701,9.8671602],[42.7026393,9.8419727],[42.6883488,9.8266142],[42.6772584,9.8054162],[42.663128,9.7918975],[42.6647401,9.7775277],[42.6819887,9.775257],[42.6950617,9.7696549],[42.7043994,9.7593844],[42.714671,9.7416444],[42.731479,9.7220371],[42.791241,9.6940264],[42.8239233,9.6753527],[42.8547381,9.6632147],[42.8986259,9.6510766],[42.9088975,9.6510766],[42.9182354,9.6585459],[42.9266396,9.6734847],[42.9359775,9.680954],[42.9518518,9.6734845],[42.9649246,9.6566783],[42.9789312,9.6296016],[42.9807986,9.608127],[42.9695931,9.5931882],[42.9443809,9.58852],[42.92197,9.5661119],[42.9098308,9.5642446],[42.8930227,9.5754489],[42.8808836,9.5857194],[42.8650093,9.5875868],[42.8416646,9.5838523],[42.8145848,9.573582],[42.7884385,9.5240973],[42.7772331,9.5128932],[42.7482857,9.502623],[42.7370802,9.4960873],[42.7296099,9.4839496],[42.7156031,9.4755466],[42.6829206,9.4708784],[42.6670462,9.4596744],[42.6567745,9.4568734],[42.6418339,9.4484704],[42.6044823,9.4176593],[42.5858066,9.41019],[42.5680646,9.3971186],[42.553124,9.3831136],[42.5383951,9.3739969]]]}}]}