{"type":"FeatureCollection","features":[{"type":"Feature","properties":{"name":"Böblingen","admin":"landkreis","source":"© OpenStreetMap contributors, ODbL 1.0","osm_relation":62721},"geometry":{"type":"Polygon","coordinates":[[[8.8045361,48.7778866],[8.80575,48.778995],[8.8061296,48.7791307],[8.8069662,48.7798317],[8.8073793,48.7806702],[8.8076625,48.7808988],[8.8113133,48.7809998],[8.8125864,48.7819715],[8.8128978,48.7827869],[8.8139021,48.7841088],[8.8155572,48.7851089],[8.8160565,48.785622],[8.8165671,48.7866722],[8.8186019,48.7883379],[8.8208482,48.7891266],[8.8261519,48.791763],[8.8267584,48.7925726],[8.8276331,48.7946001],[8.8287095,48.7954296],[8.8298233,48.7957427],[8.8308766,48.7971026],[8.830611,48.7971925],[8.8306683,48.7973666],[8.8343296,48.7980981],[8.8342911,48.7984188],[8.842613,48.7994333],[8.8423584,48.7988541],[8.8428239,48.7980655],[8.843737,48.7981445],[8.8449022,48.7952614],[8.8452995,48.7953021],[8.8454616,48.7946792],[8.8463049,48.7948009],[8.8463033,48.7944831],[8.8459409,48.7944616],[8.8462958,48.7939583],[8.8474482,48.7929356],[8.847614,48.7930152],[8.8478269,48.7928575],[8.8491615,48.7932404],[8.849427,48.7930005],[8.8529545,48.792777],[8.8530541,48.7925074],[8.8624602,48.7926934],[8.8676259,48.7922826],[8.8688122,48.7944934],[8.869685,48.7952397],[8.8717217,48.7964448],[8.8768118,48.797792],[8.8789439,48.7985366],[8.8796113,48.7984946],[8.8813361,48.7987709],[8.8818473,48.7990818],[8.883813,48.8009474],[8.8856218,48.8017824],[8.887425,48.8030491],[8.8887575,48.802073],[8.8890217,48.8015216],[8.8895196,48.8011473],[8.8894483,48.8009467],[8.8921938,48.7997202],[8.8933583,48.7988143],[8.8946542,48.798541],[8.8955507,48.7980114],[8.8972426,48.7979201],[8.8979802,48.7989096],[8.8992092,48.7992861],[8.9000204,48.8000727],[8.9003331,48.8005075],[8.9007967,48.8017408],[8.8985873,48.8016499],[8.894288,48.8029333],[8.8918429,48.8031355],[8.8915585,48.8034084],[8.8914084,48.8055509],[8.8918148,48.8056793],[8.8909278,48.8072222],[8.8918095,48.8077619],[8.8913635,48.8081428],[8.8910463,48.8079386],[8.8908165,48.8081337],[8.891614,48.8089022],[8.8913631,48.8103555],[8.8905588,48.8102561],[8.8904651,48.8105602],[8.8913043,48.8106937],[8.8909872,48.8130812],[8.893572,48.8132484],[8.8942355,48.8131429],[8.8966811,48.8141531],[8.8991482,48.8149457],[8.900429,48.8164044],[8.9021871,48.8164154],[8.9018017,48.8182005],[8.9010237,48.8180999],[8.9005663,48.8198268],[8.9010559,48.8200746],[8.9012778,48.8206031],[8.8972762,48.8216834],[8.891243,48.8229173],[8.8915805,48.8223476],[8.8901594,48.8217687],[8.8904194,48.8214776],[8.8890246,48.8209012],[8.8894399,48.8205477],[8.888726,48.8198475],[8.8888997,48.8195933],[8.8864258,48.8187901],[8.885643,48.8191023],[8.8860304,48.8193747],[8.8847903,48.8199919],[8.8851565,48.8202323],[8.884715,48.8204054],[8.8838352,48.8197149],[8.8784116,48.8206257],[8.8771954,48.8205531],[8.8772561,48.8194065],[8.8779496,48.8181751],[8.8749915,48.8167425],[8.8752061,48.8166832],[8.8738074,48.8158285],[8.8724443,48.8166894],[8.8732562,48.8171663],[8.872709,48.8173048],[8.8725818,48.8171059],[8.8724638,48.817197],[8.8722714,48.8170754],[8.8716936,48.8173014],[8.8725177,48.8178498],[8.8724139,48.8179731],[8.873682,48.8189459],[8.8733288,48.8190619],[8.8741321,48.8198235],[8.8734412,48.820494],[8.8726959,48.821806],[8.8727343,48.8226671],[8.8765372,48.8216015],[8.8773883,48.823537],[8.8755391,48.8236511],[8.875681,48.8239608],[8.8746382,48.8242557],[8.8751979,48.82504],[8.8748426,48.8249423],[8.8754206,48.8258704],[8.879142,48.826542],[8.8791014,48.8266922],[8.8797101,48.8268519],[8.8792972,48.8276503],[8.8815,48.828449],[8.8828954,48.8293004],[8.882943,48.8294563],[8.8835785,48.8297298],[8.8856899,48.8302669],[8.8836694,48.8313255],[8.8828816,48.8315717],[8.881078,48.8328739],[8.8779092,48.8343333],[8.8779985,48.8344159],[8.8737708,48.8352312],[8.8719731,48.8353665],[8.8714833,48.8362634],[8.8762216,48.8384277],[8.8817357,48.8414911],[8.8833537,48.8422096],[8.8845164,48.8414349],[8.8879578,48.8431988],[8.8878837,48.8433721],[8.8899678,48.8441866],[8.894638,48.8466],[8.8951799,48.8472278],[8.8956218,48.8482306],[8.8967759,48.849788],[8.8980916,48.8511527],[8.8985665,48.8520694],[8.8988036,48.8558555],[8.8990584,48.8569258],[8.9000463,48.8577867],[8.9001707,48.8584189],[8.9018922,48.8598534],[8.9023282,48.860469],[8.9037703,48.8614292],[8.9066241,48.8627925],[8.9094428,48.8634046],[8.9130312,48.8634987],[8.9153347,48.8648814],[8.9173609,48.8655387],[8.9195516,48.8665047],[8.9226822,48.8665662],[8.9233171,48.8664578],[8.9251202,48.8655298],[8.9276139,48.8653111],[8.9292566,48.865479],[8.9286841,48.8664827],[8.9307721,48.8671585],[8.9341993,48.8676472],[8.9366809,48.8667606],[8.9400198,48.8650871],[8.940479,48.8646563],[8.9424658,48.8636255],[8.9425718,48.8621504],[8.9457536,48.8614074],[8.9463335,48.8611344],[8.9487344,48.8596247],[8.9485962,48.8594668],[8.9502708,48.8584102],[8.9517731,48.8570473],[8.9531548,48.8564492],[8.9556035,48.8561225],[8.9573274,48.8557069],[8.9580679,48.855259],[8.958179,48.8535647],[8.958402,48.8533597],[8.958726,48.8525064],[8.9586476,48.8523235],[8.9588732,48.8516869],[8.9598456,48.85179],[8.9603314,48.8510811],[8.9604779,48.8503574],[8.9603611,48.8496491],[8.9605575,48.849266],[8.9623153,48.8477998],[8.9594637,48.8439512],[8.9588187,48.8425628],[8.9569619,48.8410607],[8.9587864,48.8400648],[8.9569015,48.8386791],[8.9604882,48.8385667],[8.9618547,48.8367945],[8.9638402,48.8346592],[8.9636534,48.8346221],[8.9638624,48.8334424],[8.9647962,48.8311555],[8.9660009,48.8298536],[8.9672702,48.8293137],[8.9685873,48.8312338],[8.9694836,48.8321185],[8.9697786,48.8328593],[8.9712297,48.8325132],[8.9721144,48.8318087],[8.9729797,48.831472],[8.9753282,48.8308543],[8.9801211,48.8301769],[8.9840965,48.8310114],[8.9882417,48.833347],[8.9901447,48.8329333],[8.9920872,48.8335538],[8.9948077,48.8328213],[9.00002,48.82777],[9.0000001,48.8276371],[9.0039811,48.8282],[9.0043714,48.8273692],[9.0048662,48.8269464],[9.013682,48.8286857],[9.0192287,48.8290905],[9.0213034,48.8293827],[9.0216068,48.8285935],[9.0240941,48.8291765],[9.0249838,48.8280123],[9.0244609,48.8275573],[9.0235513,48.8272576],[9.0308013,48.8278192],[9.0310233,48.82643],[9.0366192,48.8257338],[9.0363436,48.8241249],[9.0383232,48.8236195],[9.0371637,48.8215706],[9.0386991,48.8211545],[9.0409924,48.8209187],[9.0429116,48.8211972],[9.0434498,48.8197744],[9.0438045,48.819683],[9.0435273,48.8191379],[9.043402,48.8183022],[9.0437898,48.8174229],[9.0445949,48.816012],[9.0450761,48.8156251],[9.0458054,48.8154661],[9.0462586,48.8150755],[9.0460166,48.8147261],[9.0454279,48.8148539],[9.045347,48.8140964],[9.0446916,48.813973],[9.0434119,48.814046],[9.0429295,48.8142354],[9.0415156,48.814162],[9.0411745,48.8136048],[9.0417347,48.8135684],[9.041664,48.8133869],[9.040398,48.8134771],[9.041232,48.8109553],[9.0425608,48.8092775],[9.0371561,48.8082085],[9.0381532,48.8058831],[9.0383159,48.8051675],[9.0382283,48.8046759],[9.038727,48.8048238],[9.0388554,48.803009],[9.0363095,48.8027526],[9.0352712,48.8023079],[9.0353422,48.802013],[9.0338402,48.801506],[9.0334745,48.8011665],[9.0331007,48.8012011],[9.0320136,48.7998874],[9.0319418,48.7994699],[9.0314634,48.7992295],[9.0316928,48.7988563],[9.0311518,48.7987094],[9.0314931,48.7986282],[9.0312802,48.7982763],[9.0322113,48.7975233],[9.0335004,48.795934],[9.0387038,48.7939552],[9.0393989,48.7932778],[9.041682,48.7917065],[9.0430667,48.7897114],[9.0434822,48.7880652],[9.0435097,48.7872605],[9.0422557,48.7857982],[9.0424739,48.7847912],[9.0420701,48.783518],[9.0443353,48.7802589],[9.0457496,48.7769323],[9.0477815,48.7746086],[9.0487312,48.7726317],[9.0496953,48.7716007],[9.0503856,48.7712455],[9.0504871,48.7707789],[9.0500962,48.7677592],[9.0507865,48.7674219],[9.0506984,48.7668229],[9.0514328,48.7662374],[9.052004,48.7653724],[9.0519849,48.7646898],[9.0510936,48.7645073],[9.0511835,48.7641691],[9.0528866,48.7634244],[9.0553209,48.7631243],[9.056253,48.7625214],[9.0560848,48.7623204],[9.0561739,48.7621094],[9.0566619,48.7617375],[9.0581556,48.7616948],[9.0584613,48.7618294],[9.0592882,48.7613198],[9.0620432,48.7604194],[9.0626935,48.7599315],[9.0636917,48.7597337],[9.066503,48.7576869],[9.0660234,48.7572506],[9.0663535,48.7568811],[9.0676757,48.7566633],[9.065236,48.755386],[9.0642228,48.7544327],[9.0628913,48.7526085],[9.0626894,48.7512763],[9.0622861,48.7501188],[9.0635775,48.7479571],[9.0678657,48.7483421],[9.0688878,48.7485591],[9.0675054,48.7476591],[9.0673367,48.7473036],[9.0661495,48.7474162],[9.066111,48.7476278],[9.0656224,48.7477606],[9.0652825,48.7475718],[9.061586,48.7474807],[9.0599397,48.7471622],[9.0598915,48.7470271],[9.0584672,48.7468714],[9.0560427,48.7472143],[9.054799,48.7478574],[9.0526923,48.7481374],[9.0490384,48.7478889],[9.047171,48.7474951],[9.0465507,48.7475003],[9.0457274,48.7470999],[9.0446585,48.7458856],[9.0426778,48.7447232],[9.0398319,48.7434579],[9.0397133,48.7429422],[9.0389852,48.7424076],[9.0386007,48.741318],[9.0398982,48.7407586],[9.0416068,48.7405906],[9.0424422,48.740629],[9.0442756,48.7411783],[9.0457083,48.7412642],[9.0483453,48.7404656],[9.0503166,48.7406424],[9.0516284,48.7405159],[9.0529949,48.7397317],[9.0547898,48.7381375],[9.0548882,48.7379795],[9.054066,48.737929],[9.0540227,48.7374293],[9.0551607,48.7350497],[9.0565347,48.733123],[9.0579947,48.733426],[9.0609766,48.7336753],[9.0625792,48.7340573],[9.0666221,48.7341538],[9.0673619,48.7330975],[9.067602,48.7323617],[9.067517,48.7313796],[9.0672598,48.7305667],[9.0652006,48.7294934],[9.0635292,48.7289929],[9.062808,48.7273789],[9.0679315,48.7264924],[9.0712601,48.7252753],[9.0744001,48.7234939],[9.0738714,48.7230892],[9.0839033,48.7169305],[9.0869266,48.715235],[9.0905447,48.7141398],[9.0996805,48.7118233],[9.1064104,48.7105066],[9.1030854,48.7092641],[9.1024573,48.709181],[9.0939492,48.705814],[9.0970834,48.7038575],[9.0997773,48.7025327],[9.0999774,48.7025252],[9.1006327,48.7033513],[9.1021079,48.7042962],[9.1044762,48.7026246],[9.1053875,48.7022632],[9.1057826,48.7015545],[9.106433,48.701331],[9.1067853,48.7004238],[9.10738,48.6996665],[9.1082102,48.6990521],[9.1085039,48.698077],[9.1078467,48.6978437],[9.107238,48.6971443],[9.1068002,48.6970503],[9.1060757,48.6971292],[9.1039814,48.697983],[9.1034006,48.6980107],[9.1042987,48.6973321],[9.10459,48.6968242],[9.1064744,48.696496],[9.107041,48.6950905],[9.111787,48.6915976],[9.1140545,48.6904119],[9.1117871,48.6895322],[9.1098833,48.6889913],[9.1074908,48.6871355],[9.1048532,48.6876461],[9.1001354,48.6877221],[9.099234,48.6868281],[9.0958158,48.6858517],[9.092422,48.685418],[9.0918926,48.6851702],[9.0901739,48.684853],[9.0896882,48.6842313],[9.087685,48.6836372],[9.0866287,48.6827426],[9.0866142,48.682307],[9.0860342,48.6818971],[9.085977,48.6816643],[9.0855341,48.6813757],[9.0851548,48.6808365],[9.0859395,48.6794249],[9.0849421,48.6781246],[9.0848837,48.6768472],[9.0851987,48.6761093],[9.0852684,48.6753626],[9.0859221,48.6745698],[9.0872828,48.6741929],[9.0881753,48.6735918],[9.0900998,48.6746867],[9.0910155,48.6743267],[9.091559,48.6745174],[9.0930465,48.6737075],[9.0942326,48.6747827],[9.0935632,48.6760008],[9.0909901,48.6767875],[9.0902154,48.6767059],[9.089115,48.6768618],[9.0915076,48.677231],[9.093127,48.6779539],[9.0935232,48.6779938],[9.09454,48.6797229],[9.0960517,48.6805846],[9.0969666,48.6798231],[9.0982814,48.6790743],[9.0990206,48.6788345],[9.1013216,48.6786151],[9.1067369,48.6776196],[9.1152068,48.6773199],[9.1152233,48.6786316],[9.1175419,48.6787937],[9.1211018,48.677335],[9.1212734,48.6770168],[9.1225089,48.6766741],[9.1238574,48.6769819],[9.1270017,48.67724],[9.1276947,48.6770948],[9.1280484,48.6768679],[9.1270177,48.6757877],[9.1257433,48.67536],[9.1252366,48.6758423],[9.1247294,48.6760688],[9.1230675,48.6753252],[9.1229376,48.6748736],[9.1235775,48.6746545],[9.1238558,48.6726496],[9.1260587,48.6723362],[9.1271304,48.6706157],[9.1276273,48.67057],[9.1285723,48.6713613],[9.1288495,48.6704133],[9.1321369,48.6699257],[9.1349472,48.6675513],[9.1378659,48.666188],[9.1400609,48.6647668],[9.1418037,48.6658146],[9.1436109,48.6645492],[9.1440796,48.6645946],[9.1453798,48.6641552],[9.1459093,48.6644746],[9.1472683,48.6630186],[9.1484556,48.6624516],[9.1496762,48.662151],[9.1481598,48.6615674],[9.149969,48.6612733],[9.150458,48.6601811],[9.1526079,48.6591628],[9.1537093,48.6582918],[9.1543823,48.657452],[9.1548479,48.6572509],[9.1546734,48.6569494],[9.1548067,48.6566856],[9.1556438,48.6559204],[9.1554695,48.6549044],[9.1561138,48.6541107],[9.1565119,48.6538521],[9.1565399,48.6536511],[9.1571796,48.6532427],[9.1571046,48.6530789],[9.1572842,48.6528672],[9.156425,48.6525916],[9.1583461,48.6511433],[9.1581987,48.6503376],[9.1596793,48.6483625],[9.1599893,48.6476306],[9.1608157,48.6472494],[9.1625421,48.6457731],[9.1629755,48.6458051],[9.1650897,48.6444219],[9.1657468,48.6438149],[9.1669117,48.6421144],[9.1673089,48.6407224],[9.1685053,48.6393366],[9.1671201,48.6392415],[9.1685301,48.6379265],[9.1695143,48.6372849],[9.1703851,48.6369375],[9.1703651,48.6372387],[9.1704996,48.6373186],[9.1710179,48.6363781],[9.1707795,48.6360018],[9.1716393,48.6353008],[9.1715488,48.6347349],[9.1717824,48.6344428],[9.1734219,48.6345003],[9.1734511,48.6335094],[9.1736194,48.6335562],[9.1737911,48.6332572],[9.1717822,48.6330178],[9.1699491,48.6332229],[9.1680794,48.634378],[9.165671,48.6334531],[9.1652604,48.6328808],[9.1650567,48.6320885],[9.1656582,48.6302266],[9.1678674,48.6256684],[9.1678173,48.6250632],[9.1673847,48.6245267],[9.1665804,48.6242957],[9.1628116,48.6225199],[9.1609197,48.6219605],[9.1581931,48.6215437],[9.1560281,48.621414],[9.1533693,48.6207954],[9.1510759,48.6198901],[9.1453559,48.6187359],[9.1441187,48.6179648],[9.1459543,48.6160604],[9.1475345,48.6147342],[9.1491278,48.6124926],[9.1495269,48.6115173],[9.1501257,48.6085707],[9.1497819,48.6073598],[9.1499534,48.6063715],[9.1506475,48.6053824],[9.1506555,48.6050556],[9.1511239,48.604812],[9.1497892,48.6040958],[9.1498495,48.6034327],[9.1491926,48.6037512],[9.147969,48.6039811],[9.1463785,48.6036153],[9.1463912,48.603439],[9.1470252,48.6030358],[9.1467234,48.6029678],[9.1456231,48.6035543],[9.1446982,48.6038226],[9.1445459,48.6036807],[9.1447961,48.6034485],[9.1440146,48.6030981],[9.1421498,48.6031384],[9.1404082,48.6027669],[9.1399726,48.6019751],[9.1395793,48.6017541],[9.1390131,48.6015697],[9.1381995,48.6017224],[9.137657,48.601345],[9.1368637,48.6011797],[9.1346066,48.601141],[9.1327894,48.6018695],[9.1316584,48.6018113],[9.1312021,48.6014175],[9.1309369,48.601719],[9.1303844,48.6015817],[9.129842,48.6017532],[9.1296936,48.6016954],[9.1297257,48.6014442],[9.129048,48.6015052],[9.1287167,48.601378],[9.1288935,48.6010606],[9.1285977,48.6008119],[9.1273472,48.6003668],[9.1264884,48.600806],[9.1262439,48.6004828],[9.1254972,48.6005229],[9.1232632,48.6001418],[9.1221995,48.6001602],[9.1198298,48.6007366],[9.1168879,48.6022231],[9.1135068,48.6028859],[9.1122761,48.6034091],[9.1101596,48.6050964],[9.1102914,48.6056446],[9.1110853,48.6064223],[9.1129921,48.6071444],[9.1123335,48.6073494],[9.1121319,48.6084824],[9.1125238,48.6089203],[9.1132221,48.6105141],[9.1129751,48.6105128],[9.1138284,48.6115682],[9.114606,48.6117723],[9.1154286,48.6124413],[9.1154978,48.6130232],[9.1150593,48.6140026],[9.1155919,48.614437],[9.1156121,48.614713],[9.1154016,48.6149991],[9.1149542,48.6154288],[9.1143379,48.6156356],[9.1135048,48.6165253],[9.111432,48.6164916],[9.1085475,48.6161364],[9.1076461,48.6165419],[9.1072817,48.6173216],[9.1076763,48.6190132],[9.1073886,48.6206256],[9.1075526,48.6215879],[9.107437,48.6227917],[9.0970968,48.6216912],[9.0964224,48.6217791],[9.095653,48.6215563],[9.0956269,48.6211152],[9.0964943,48.6173622],[9.0954572,48.6172524],[9.0953413,48.6170065],[9.0957548,48.6159413],[9.0923647,48.6143989],[9.0911773,48.6125066],[9.0882521,48.6131896],[9.0869767,48.6120224],[9.0830269,48.6121981],[9.0838336,48.6115719],[9.083468,48.6114706],[9.0855518,48.610109],[9.0863814,48.608222],[9.0871974,48.605717],[9.0892332,48.6040336],[9.0893439,48.6033779],[9.0891437,48.6029747],[9.0882973,48.6023114],[9.0864299,48.601442],[9.0853701,48.6022222],[9.0847398,48.6018434],[9.0832385,48.6000184],[9.0857417,48.6000544],[9.085378,48.5994714],[9.0824653,48.5978127],[9.0812035,48.5974786],[9.0804397,48.5977438],[9.0779413,48.5980707],[9.0777752,48.597549],[9.0784786,48.5961057],[9.0780869,48.595112],[9.078738,48.5941013],[9.0787142,48.5939118],[9.0790363,48.593827],[9.0789429,48.5935969],[9.0791101,48.5930904],[9.0784963,48.5919571],[9.0787128,48.5899961],[9.0770848,48.5899615],[9.0761977,48.5901002],[9.0708532,48.5936586],[9.0688187,48.5937194],[9.0656058,48.5933395],[9.0636454,48.5925324],[9.0621411,48.5921702],[9.0582377,48.5918204],[9.0569175,48.5914498],[9.0564796,48.5936623],[9.0558955,48.5937717],[9.0530853,48.5931625],[9.0528533,48.593269],[9.0524537,48.5931463],[9.0520587,48.5934073],[9.0518787,48.5928961],[9.0514379,48.592697],[9.0511897,48.5928114],[9.0508632,48.5922872],[9.0500979,48.5920512],[9.0499176,48.5916863],[9.0492963,48.5916668],[9.0489072,48.5913627],[9.0483187,48.5914531],[9.0469461,48.5907245],[9.0469659,48.590598],[9.0463217,48.5906915],[9.0452417,48.5902759],[9.044977,48.5897677],[9.0452488,48.5895752],[9.0450758,48.5887232],[9.0444455,48.5887051],[9.0441882,48.5885125],[9.0443742,48.5883542],[9.0441755,48.5882292],[9.0436461,48.5883781],[9.0436282,48.5881113],[9.0432296,48.5878091],[9.0421488,48.5880626],[9.0421745,48.587882],[9.0410933,48.5878166],[9.040901,48.5874845],[9.0406452,48.5874741],[9.040375,48.5871887],[9.0403761,48.5870334],[9.0401752,48.5870934],[9.039923,48.5868819],[9.0401158,48.5860998],[9.0395546,48.5856287],[9.039202,48.5855489],[9.0396824,48.5849277],[9.0381266,48.5846948],[9.0381125,48.5844874],[9.038392,48.5842156],[9.0381593,48.5841699],[9.0380194,48.5838752],[9.0384925,48.5838635],[9.0382338,48.5835408],[9.0383012,48.5817504],[9.0377263,48.5814638],[9.0379283,48.5811667],[9.0370429,48.5808519],[9.037062,48.580569],[9.0374759,48.5804574],[9.0372197,48.5803262],[9.0372324,48.5801235],[9.0359647,48.579901],[9.036032,48.5790647],[9.035705,48.578085],[9.0352789,48.5779503],[9.0351988,48.5777184],[9.0349707,48.5765236],[9.0352945,48.5763279],[9.0350575,48.5759963],[9.0348389,48.5759591],[9.0341373,48.5764107],[9.0331615,48.5767273],[9.0330537,48.5775069],[9.0311037,48.5784039],[9.0290093,48.5784813],[9.0274125,48.5787854],[9.0257419,48.5786647],[9.0238622,48.5790991],[9.0237227,48.5789122],[9.0234556,48.5794326],[9.0231671,48.579565],[9.0224818,48.5793451],[9.02139,48.5794568],[9.0211528,48.5802382],[9.0203723,48.5804369],[9.0205117,48.5807113],[9.0190901,48.5811679],[9.0184488,48.5815437],[9.0176541,48.5826012],[9.0167871,48.5832421],[9.0163367,48.5833734],[9.0142936,48.5857726],[9.0134348,48.5862173],[9.0091307,48.5868933],[9.0084726,48.587292],[9.00598,48.5881999],[9.0058712,48.5884587],[9.0045338,48.5882061],[9.0023089,48.5872976],[9.0011635,48.5870689],[8.9981533,48.5866253],[8.9978281,48.587124],[8.9968851,48.5864702],[8.9966508,48.5860055],[8.9962366,48.5857837],[8.9950767,48.5844137],[8.9929945,48.5841827],[8.9919353,48.5849852],[8.9916525,48.5854382],[8.9891377,48.5857822],[8.9872551,48.5867504],[8.9845761,48.5876193],[8.9840529,48.5875826],[8.9838114,48.5881512],[8.9841062,48.58935],[8.9839437,48.5895536],[8.983968,48.5902702],[8.9846522,48.5910639],[8.9852279,48.5913146],[8.9849241,48.5913506],[8.9843516,48.5911004],[8.9836385,48.5902193],[8.9834859,48.5894553],[8.9837681,48.5890474],[8.9836743,48.5884367],[8.9834305,48.58812],[8.9834589,48.5876602],[8.9830492,48.5874134],[8.9823624,48.5877065],[8.981618,48.5885253],[8.9795615,48.5891678],[8.9792041,48.5897435],[8.9780983,48.5901694],[8.9775666,48.5905445],[8.9771771,48.5903753],[8.9769059,48.5906529],[8.9754044,48.5897545],[8.9749942,48.5892647],[8.9717727,48.5886873],[8.9707795,48.5880653],[8.9697805,48.5877839],[8.9677007,48.5875328],[8.9661557,48.5871377],[8.9652612,48.5872783],[8.9649481,48.5875134],[8.9643013,48.5870083],[8.9614927,48.5869378],[8.9586373,48.586464],[8.9580368,48.5865806],[8.9588812,48.5874657],[8.9596813,48.5876227],[8.9612255,48.587368],[8.9609821,48.5878771],[8.9603285,48.5881563],[8.9590154,48.5880818],[8.9589859,48.5877755],[8.9574005,48.5872156],[8.9573916,48.5870673],[8.9558966,48.5864123],[8.9549428,48.5853485],[8.9545577,48.5845965],[8.9538823,48.5839272],[8.9543727,48.5846474],[8.9543957,48.5849749],[8.9556848,48.5865169],[8.9555494,48.5870799],[8.9559081,48.5875023],[8.9573554,48.5876683],[8.9575301,48.5874576],[8.9586237,48.587854],[8.958072,48.5880087],[8.9577539,48.5878724],[8.9574208,48.5879963],[8.9568529,48.587933],[8.9551648,48.5883168],[8.9539916,48.5883311],[8.9502488,48.587445],[8.9496179,48.5869218],[8.9477858,48.5860193],[8.9477154,48.5851129],[8.9491919,48.5799841],[8.9476095,48.580149],[8.9460243,48.5801062],[8.9461293,48.57991],[8.944511,48.5790619],[8.9441485,48.5785263],[8.9441994,48.5779232],[8.9434076,48.5778187],[8.9434092,48.577952],[8.9423668,48.5783028],[8.9412255,48.5775006],[8.9410177,48.5778211],[8.9401843,48.5782821],[8.940635,48.5789121],[8.9393438,48.5790667],[8.9388601,48.5793202],[8.9369896,48.5783285],[8.9359224,48.5775044],[8.9375043,48.5766277],[8.9371955,48.5764953],[8.9373241,48.5762837],[8.9365897,48.5762173],[8.936544,48.5760393],[8.9367722,48.5751282],[8.9372535,48.5744709],[8.9386899,48.5742887],[8.9390048,48.5741658],[8.939154,48.57363],[8.9395031,48.5736641],[8.9395623,48.5731095],[8.9391517,48.5719829],[8.939495,48.5711529],[8.9403661,48.5705568],[8.9414938,48.5702118],[8.9418803,48.5696142],[8.942859,48.5692645],[8.9434026,48.5686961],[8.9420426,48.5686366],[8.9415839,48.5683595],[8.9454656,48.567441],[8.9445244,48.5671299],[8.9405345,48.5665654],[8.9382687,48.5660475],[8.9324474,48.5644082],[8.9318106,48.5658516],[8.9319634,48.567438],[8.929652,48.5674495],[8.9297837,48.5676637],[8.9285886,48.5691883],[8.9259152,48.5690829],[8.926008,48.5698639],[8.9250975,48.5698489],[8.9241754,48.5709813],[8.9193622,48.5700455],[8.9191643,48.5705449],[8.9191969,48.5710231],[8.9178049,48.5721541],[8.9173707,48.5723217],[8.9166104,48.5722064],[8.9144114,48.5709464],[8.9132359,48.5716338],[8.9131062,48.5717738],[8.9133482,48.5723027],[8.9127298,48.572686],[8.9112131,48.5715345],[8.9104711,48.5720505],[8.9096039,48.5714351],[8.9087835,48.5705432],[8.9095017,48.5699684],[8.9058354,48.5680169],[8.9038087,48.5666866],[8.9035973,48.5664056],[8.9012742,48.5652404],[8.9008004,48.564243],[8.8996747,48.565115],[8.8993639,48.5644581],[8.8991686,48.5642983],[8.8987674,48.5645939],[8.8978161,48.5633373],[8.8955235,48.5645028],[8.8949713,48.5636513],[8.893989,48.5626114],[8.8900387,48.5643127],[8.8885529,48.5607023],[8.8901508,48.5600898],[8.8895131,48.5588486],[8.8908286,48.5584639],[8.890715,48.5582447],[8.8908352,48.5581997],[8.8898871,48.5563738],[8.8889875,48.5535058],[8.8886654,48.55176],[8.8886772,48.5466834],[8.8891439,48.5446955],[8.8857148,48.5439802],[8.8869494,48.5417619],[8.8837588,48.5411143],[8.8829966,48.5408308],[8.8828625,48.5405864],[8.8826287,48.5405886],[8.8825804,48.5409767],[8.8804334,48.5424393],[8.87922,48.541772],[8.8803078,48.5401765],[8.8772151,48.5394093],[8.8738643,48.5402317],[8.8695152,48.5396332],[8.8686409,48.5398506],[8.866773,48.5397321],[8.8664952,48.5401874],[8.8513279,48.5370839],[8.8517848,48.5366601],[8.852407,48.5346097],[8.8532194,48.5329199],[8.8512739,48.5329719],[8.8512082,48.5320543],[8.8522604,48.5320622],[8.8522203,48.5315623],[8.8529539,48.5313756],[8.8568977,48.5293282],[8.8585931,48.5293666],[8.8594081,48.5271826],[8.8607917,48.5273489],[8.8608112,48.527225],[8.8571801,48.5250014],[8.8573411,48.5248435],[8.8551587,48.5235132],[8.8552336,48.5232618],[8.854679,48.5227328],[8.8574421,48.520283],[8.8558199,48.5189673],[8.8583144,48.5167427],[8.8624289,48.517337],[8.8638271,48.5172845],[8.8639694,48.5166789],[8.8645779,48.5167762],[8.8659295,48.5147889],[8.8585426,48.5122284],[8.8533634,48.5099272],[8.8494639,48.5097421],[8.8441883,48.5075379],[8.8454229,48.5064507],[8.8458168,48.505812],[8.8465475,48.5041487],[8.8466803,48.503457],[8.846655,48.5027263],[8.8462383,48.5017621],[8.8451043,48.5005516],[8.8446526,48.4996179],[8.8445301,48.4992045],[8.8447008,48.4984672],[8.839865,48.4976065],[8.8369816,48.4974958],[8.8383367,48.498849],[8.833777,48.5000524],[8.8361588,48.504223],[8.8290019,48.505796],[8.8231874,48.5066984],[8.8179004,48.5070337],[8.8177614,48.50706],[8.8177362,48.5072821],[8.8159068,48.5073727],[8.80969,48.5071364],[8.8055638,48.5066595],[8.8035759,48.506278],[8.8035243,48.5066419],[8.8039919,48.5086298],[8.800872,48.5092914],[8.8000412,48.508643],[8.7992518,48.5094925],[8.7990282,48.5094059],[8.798036,48.5103924],[8.7965784,48.5105322],[8.7964982,48.5125115],[8.793748,48.5128641],[8.792896,48.5133895],[8.792728,48.5137982],[8.7925007,48.5161156],[8.791241,48.5177347],[8.7908332,48.5187759],[8.7902297,48.519448],[8.7900327,48.5202589],[8.7866035,48.5208879],[8.7808544,48.5214207],[8.7736608,48.523733],[8.7715621,48.5241025],[8.7709844,48.5230548],[8.7692226,48.5232595],[8.7691115,48.5223933],[8.7673628,48.5224674],[8.7673399,48.5222274],[8.7650756,48.5222458],[8.7651672,48.5231974],[8.7626902,48.5233083],[8.7642566,48.5250752],[8.7601679,48.5256724],[8.7561073,48.5251134],[8.755481,48.5260739],[8.7600544,48.5273293],[8.7589656,48.529348],[8.7584521,48.5309942],[8.7632095,48.5319228],[8.7626027,48.5341426],[8.763865,48.53417],[8.7626833,48.5380679],[8.7580711,48.538083],[8.7580526,48.5413331],[8.7568629,48.5416765],[8.7578833,48.5428289],[8.7584153,48.5445763],[8.7635473,48.5448786],[8.7636335,48.5456855],[8.7660257,48.5461613],[8.769673,48.546489],[8.7697686,48.5453391],[8.7711504,48.5452991],[8.7720875,48.5471865],[8.7721168,48.5476541],[8.7729516,48.5488969],[8.7732814,48.5498245],[8.7698972,48.5485289],[8.7684363,48.5484066],[8.7655897,48.5485629],[8.7653548,48.550567],[8.7657456,48.5521184],[8.765807,48.5530386],[8.7663304,48.5547696],[8.7661298,48.5553217],[8.7649102,48.5557524],[8.7636163,48.5557672],[8.7612291,48.555239],[8.7613134,48.5559949],[8.7585072,48.5559936],[8.7577413,48.5575333],[8.7573902,48.5596442],[8.7575388,48.5606102],[8.7570956,48.5614482],[8.7583771,48.5648024],[8.7572582,48.5648347],[8.7570157,48.5655798],[8.7562176,48.566781],[8.7568402,48.5687866],[8.7563643,48.570784],[8.7503585,48.5706807],[8.7511863,48.5732544],[8.7523988,48.5753228],[8.7548218,48.5754322],[8.7549265,48.5792248],[8.7554462,48.5828343],[8.7551855,48.5831638],[8.754716,48.5860665],[8.7542512,48.5873154],[8.7534871,48.5884346],[8.7520156,48.5900473],[8.7514226,48.5911837],[8.7511132,48.5925075],[8.7514478,48.5932063],[8.7501381,48.5940866],[8.7490544,48.594247],[8.7485953,48.5953466],[8.7482569,48.5956386],[8.7478317,48.5957533],[8.7476668,48.5953768],[8.7467733,48.5956209],[8.7469448,48.5959983],[8.7463717,48.5961362],[8.7472646,48.5982223],[8.7481039,48.5988588],[8.7480273,48.6008138],[8.7482175,48.6033189],[8.7486485,48.6049339],[8.751503,48.6022675],[8.7541259,48.6027783],[8.7541741,48.6018409],[8.7543202,48.6017903],[8.759325,48.6037042],[8.759622,48.6029101],[8.7622541,48.6034136],[8.7620183,48.6030814],[8.7780813,48.5990005],[8.7897214,48.5966494],[8.7904735,48.5959635],[8.7910595,48.5959804],[8.7918659,48.595453],[8.7949848,48.5940545],[8.7947117,48.5959815],[8.7939172,48.5970174],[8.7938062,48.5973956],[8.7942768,48.5981392],[8.7940804,48.5997775],[8.7932767,48.6009175],[8.7932617,48.6013478],[8.7934574,48.6025812],[8.7943949,48.6027104],[8.7934573,48.6043368],[8.7945553,48.6048907],[8.7947788,48.6052787],[8.7945432,48.6070963],[8.7949016,48.6078653],[8.794732,48.6088204],[8.795609,48.6096126],[8.7981527,48.6098323],[8.7995663,48.6102882],[8.8003827,48.6108081],[8.8011513,48.611693],[8.8005104,48.6147133],[8.7998101,48.6156929],[8.7997008,48.6160893],[8.7997924,48.6171907],[8.7993354,48.6179916],[8.798762,48.6184187],[8.7985836,48.6190961],[8.7978525,48.6199283],[8.7973185,48.6209573],[8.7986298,48.621449],[8.7984122,48.6216732],[8.7984046,48.6222159],[8.797986,48.6229421],[8.7981705,48.6236914],[8.7966141,48.6255539],[8.7928829,48.6260507],[8.7912919,48.6265967],[8.790353,48.6271645],[8.7903107,48.6279427],[8.7897396,48.6290914],[8.7909583,48.6297328],[8.7912356,48.6304872],[8.7917657,48.6311478],[8.7920509,48.6320116],[8.7939925,48.6333297],[8.7956948,48.6349423],[8.7951238,48.6354273],[8.7926363,48.6367732],[8.7906775,48.6382354],[8.7934174,48.6394323],[8.7957499,48.6411917],[8.7960865,48.6416806],[8.7970444,48.6423685],[8.7973165,48.6428981],[8.7979498,48.6432339],[8.8006994,48.6435184],[8.8016667,48.6437558],[8.801646,48.6439573],[8.8006772,48.6444863],[8.8006514,48.6449674],[8.8004807,48.645138],[8.7983288,48.6457157],[8.7968865,48.6470372],[8.7968906,48.6477406],[8.7982672,48.6481749],[8.7992879,48.6488107],[8.7987746,48.6500761],[8.799243,48.6514374],[8.7991406,48.6523619],[8.7995594,48.6541748],[8.7991374,48.6575951],[8.7989343,48.6583909],[8.7985368,48.6587496],[8.8005774,48.6597724],[8.8048864,48.6610915],[8.8066476,48.6613899],[8.8078577,48.6623189],[8.8111129,48.6633327],[8.8116802,48.6636555],[8.8160891,48.6645006],[8.8178714,48.6645303],[8.8191786,48.6647869],[8.8194038,48.6657909],[8.8193266,48.6665734],[8.8183281,48.6680456],[8.8179162,48.6689363],[8.8189852,48.6689007],[8.8191701,48.6693918],[8.8215511,48.6695762],[8.8257172,48.6695283],[8.8255864,48.6705745],[8.8257518,48.6706547],[8.8259792,48.673015],[8.8255807,48.6736723],[8.8270074,48.675737],[8.8272439,48.6767407],[8.830161,48.6777028],[8.832315,48.6780276],[8.8339705,48.6786475],[8.8343287,48.6802492],[8.8364466,48.6830465],[8.8401233,48.682789],[8.84219,48.6851138],[8.8439333,48.6840463],[8.8443628,48.6844784],[8.8459605,48.6851749],[8.8465295,48.6852375],[8.8479513,48.6851577],[8.849039,48.6849129],[8.8490832,48.6850705],[8.8510784,48.6845209],[8.8522104,48.6872166],[8.8527972,48.687989],[8.8532129,48.6884005],[8.8558717,48.6898036],[8.8548898,48.6906028],[8.8587709,48.693279],[8.8592647,48.6944336],[8.8601711,48.6955488],[8.8631516,48.6973651],[8.8620249,48.698995],[8.8618945,48.7000232],[8.8623381,48.7002196],[8.8607203,48.7035556],[8.8592395,48.7037542],[8.8574323,48.7046774],[8.8551281,48.7068256],[8.8570863,48.7079713],[8.8605225,48.7090937],[8.8625801,48.7096192],[8.8626581,48.7094797],[8.8644811,48.7100454],[8.8637436,48.710796],[8.864955,48.7110197],[8.865518,48.7112813],[8.8661916,48.7120369],[8.8667324,48.7130022],[8.8672945,48.7147229],[8.8649839,48.7155106],[8.8639998,48.7160145],[8.8635074,48.717495],[8.8644931,48.7188992],[8.868012,48.7206098],[8.8697345,48.7210385],[8.8718409,48.721203],[8.8736275,48.7225168],[8.8732872,48.7226324],[8.8737392,48.722975],[8.8753215,48.7223132],[8.8762537,48.7217275],[8.8765811,48.7219059],[8.8763774,48.7220586],[8.8769596,48.7224791],[8.8772745,48.7229877],[8.8775066,48.7249942],[8.8759647,48.7258165],[8.8737665,48.7263949],[8.8722522,48.7274737],[8.8715863,48.7272556],[8.8704691,48.7273551],[8.8672733,48.7289385],[8.8655959,48.7294581],[8.8646938,48.7299132],[8.863941,48.7307218],[8.8614907,48.7324154],[8.8576609,48.7331546],[8.8567141,48.7337215],[8.8547914,48.7343763],[8.8548815,48.7345177],[8.8496474,48.7352812],[8.8482532,48.73505],[8.8481165,48.7355133],[8.8426399,48.7356946],[8.8399616,48.7354478],[8.8350505,48.7361889],[8.8293821,48.7364374],[8.829467,48.7380064],[8.8300638,48.7394925],[8.8310198,48.7405369],[8.8321274,48.7421024],[8.8313623,48.7422962],[8.8317216,48.7432381],[8.8332705,48.7431588],[8.8339053,48.744232],[8.8331887,48.7443678],[8.83354,48.7449687],[8.83412,48.7453978],[8.8340268,48.7455371],[8.8347072,48.7480135],[8.8344725,48.7483056],[8.8350461,48.7503684],[8.8351196,48.7512827],[8.8354783,48.7512735],[8.835559,48.7524683],[8.8352438,48.7543451],[8.8343338,48.7550866],[8.8326478,48.7560109],[8.8323923,48.7558742],[8.8314566,48.7564757],[8.8266687,48.758504],[8.8211951,48.762209],[8.8196992,48.7626435],[8.8175695,48.766091],[8.8139103,48.7652895],[8.8120177,48.7656484],[8.8061263,48.7698788],[8.8044689,48.7707152],[8.801109,48.7720607],[8.8000287,48.7734985],[8.7998756,48.7739972],[8.802026,48.776294],[8.8045361,48.7778866]]]}}]}