{"type": "FeatureCollection", "features": [{"type": "Feature", "properties": {"name": "Lugongolweni", "admin": "inkhundla", "source": "© OpenStreetMap contributors, ODbL 1.0", "osm_relation": 1253005}, "geometry": {"type": "MultiPolygon", "coordinates": [[[[31.9321373, -26.4449875], [31.9343059, -26.4449763], [31.9347016, -26.4450359], [31.935253, -26.4452749], [31.9363671, -26.4458969], [31.9368709, -26.4451987], [31.9375325, -26.4440008], [31.9376294, -26.443775], [31.9375092, -26.4434196], [31.9375284, -26.44325], [31.9381693, -26.4426318], [31.9386319, -26.4419369], [31.9388525, -26.4415803], [31.9392741, -26.4404684], [31.9394207, -26.4397391], [31.9395304, -26.4379825], [31.9393343, -26.4366617], [31.9392633, -26.4343469], [31.9390535, -26.4334326], [31.9385655, -26.4325331], [31.9380348, -26.4316337], [31.9380222, -26.4300322], [31.9381067, -26.4293993], [31.9384984, -26.4287462], [31.939816, -26.4249631], [31.9408241, -26.423538], [31.94246, -26.4219383], [31.943927, -26.4208719], [31.9444207, -26.420354], [31.9449777, -26.419597], [31.9467716, -26.4163572], [31.9478633, -26.414324], [31.9481705, -26.4135462], [31.9482541, -26.4130812], [31.9481929, -26.4116928], [31.9482023, -26.4109593], [31.9488896, -26.4085232], [31.9495008, -26.4070963], [31.9497746, -26.4061728], [31.9497687, -26.4040825], [31.9499344, -26.4033971], [31.9503804, -26.4025902], [31.9519991, -26.4010013], [31.9525324, -26.4002158], [31.9529438, -26.3990937], [31.9530578, -26.3982379], [31.9529859, -26.3974338], [31.9525849, -26.3955637], [31.952532, -26.3943395], [31.9536305, -26.3885129], [31.9528725, -26.3877116], [31.9243614, -26.3867971], [31.9256459, -26.3746597], [31.9233465, -26.3742786], [31.9224259, -26.3738248], [31.9214227, -26.3730625], [31.920493, -26.3723468], [31.9203598, -26.3719688], [31.920389, -26.3715459], [31.92094, -26.3713158], [31.9224927, -26.3711328], [31.9236768, -26.3707012], [31.9245734, -26.3694783], [31.925313, -26.3677912], [31.9254038, -26.366201], [31.924728, -26.3660503], [31.9240841, -26.3661995], [31.9231601, -26.3660484], [31.9223354, -26.3651696], [31.9217706, -26.3643568], [31.9214463, -26.3635808], [31.9214128, -26.3627801], [31.9212214, -26.3620915], [31.9212238, -26.3611846], [31.9210614, -26.3602332], [31.9207122, -26.3596641], [31.9201837, -26.3591737], [31.919277, -26.35866], [31.9185377, -26.3580503], [31.9181588, -26.357419], [31.9191671, -26.3565682], [31.9192071, -26.355798], [31.9190549, -26.35502], [31.9207893, -26.3510475], [31.9262616, -26.3381427], [31.9334312, -26.3216435], [31.9425136, -26.3002734], [31.9444439, -26.2947443], [31.9464966, -26.2877639], [31.9475307, -26.2844013], [31.9472832, -26.2838466], [31.9469413, -26.2832521], [31.9466333, -26.2826703], [31.9463499, -26.2821757], [31.9460824, -26.2816995], [31.9458792, -26.2812761], [31.95019, -26.27527], [31.95389, -26.27156], [31.95709, -26.26642], [31.9586, -26.26392], [31.96093, -26.26317], [31.96729, -26.2633], [31.97036, -26.26201], [31.97304, -26.25833], [31.97593, -26.25343], [31.97784, -26.24959], [31.97994, -26.2458], [31.9806857, -26.2453184], [31.98299, -26.24383], [31.98894, -26.24104], [31.99474, -26.22975], [31.99631, -26.22511], [31.99701, -26.22119], [31.99661, -26.21872], [31.99755, -26.21433], [32.00295, -26.21035], [32.00248, -26.20772], [32.00142, -26.2024], [32.00139, -26.19757], [32.00453, -26.19451], [32.00764, -26.19443], [32.01437, -26.19386], [32.01691, -26.1938], [32.0340587, -26.1742957], [32.0368997, -26.1756052], [32.040805, -26.1765449], [32.046075, -26.1775463], [32.0518428, -26.1792023], [32.0564348, -26.1782472], [32.0613786, -26.1755127], [32.0616447, -26.175228], [32.0658933, -26.1706829], [32.071438, -26.1670855], [32.0802442, -26.1669314], [32.0876514, -26.1702439], [32.0904666, -26.1734792], [32.0921146, -26.1761289], [32.0931445, -26.1800342], [32.0930072, -26.1848174], [32.0937282, -26.1901703], [32.0984403, -26.1941367], [32.0969373, -26.2008092], [32.0846575, -26.2573377], [32.0841397, -26.2598635], [32.0811889, -26.2740551], [32.0774883, -26.2912666], [32.0743831, -26.305709], [32.0753808, -26.3385584], [32.0759813, -26.3583282], [32.076803, -26.3853817], [32.0774184, -26.4056457], [32.0863244, -26.4244563], [32.090691, -26.4336793], [32.1045962, -26.4630364], [32.1040924, -26.4628101], [32.1035323, -26.4625524], [32.1026437, -26.4621436], [32.1015465, -26.4616889], [32.1005722, -26.4615525], [32.1001411, -26.4614921], [32.099309, -26.4617017], [32.0974232, -26.4621765], [32.0964692, -26.4637723], [32.0961905, -26.4642385], [32.0954953, -26.4648739], [32.0930032, -26.4648755], [32.0900845, -26.4639767], [32.0869371, -26.4637594], [32.08138, -26.4657835], [32.07714, -26.4675951], [32.0765618, -26.470528], [32.0782, -26.4732021], [32.0774291, -26.4740646], [32.0749237, -26.4746685], [32.0721291, -26.4744959], [32.069431, -26.4757035], [32.0685658, -26.4763447], [32.0689486, -26.477664], [32.0708764, -26.4779462], [32.0729, -26.4789813], [32.0708764, -26.4813101], [32.0700656, -26.4821578], [32.06734, -26.4830117], [32.0610712, -26.4843535], [32.0581977, -26.4831836], [32.0572554, -26.4809381], [32.0579368, -26.4766687], [32.0578938, -26.4753189], [32.0572915, -26.4753836], [32.0559665, -26.4751032], [32.0548342, -26.4745426], [32.0540392, -26.4746935], [32.0522338, -26.476325], [32.0510052, -26.4780717], [32.0501379, -26.4772738], [32.0493068, -26.4767779], [32.0481384, -26.4771229], [32.04697, -26.4783412], [32.045922, -26.4795704], [32.0445488, -26.4793547], [32.0437539, -26.4789558], [32.0433925, -26.4784383], [32.0428143, -26.4772738], [32.0428143, -26.4762388], [32.0428625, -26.4752252], [32.043802, -26.474492], [32.0447898, -26.4741039], [32.0451632, -26.4733922], [32.0450066, -26.472659], [32.0443682, -26.4725728], [32.0436454, -26.4727022], [32.0429468, -26.4730364], [32.0426577, -26.4736618], [32.0418989, -26.4739421], [32.0407907, -26.4738128], [32.0398752, -26.4730149], [32.0394175, -26.4719151], [32.0388152, -26.4710093], [32.0375625, -26.4703839], [32.0353702, -26.4701898], [32.0340934, -26.4708799], [32.0338525, -26.4716778], [32.0331298, -26.4716994], [32.0323107, -26.4707505], [32.0319012, -26.4696291], [32.0316121, -26.4675804], [32.0318048, -26.4659414], [32.0322384, -26.4645827], [32.0341416, -26.4630731], [32.0344548, -26.4619732], [32.0339971, -26.4608085], [32.0333707, -26.4605929], [32.0319734, -26.4605066], [32.030528, -26.4605929], [32.0290584, -26.4604203], [32.028408, -26.4614124], [32.0274684, -26.4626202], [32.0266253, -26.4629437], [32.0258303, -26.4623398], [32.0255653, -26.4616928], [32.0250834, -26.4607654], [32.0249148, -26.4592341], [32.0248666, -26.457746], [32.0245294, -26.4568401], [32.0235898, -26.4559343], [32.0226744, -26.4547049], [32.0223612, -26.4531735], [32.0224094, -26.4518579], [32.0232044, -26.450952], [32.0241198, -26.450952], [32.0249148, -26.4512324], [32.0258303, -26.4519441], [32.0266975, -26.4525696], [32.0272275, -26.4531088], [32.0277816, -26.4539932], [32.0285043, -26.4547049], [32.0291789, -26.4549206], [32.0295162, -26.4556108], [32.0299739, -26.4560421], [32.0306243, -26.455999], [32.0315157, -26.4553519], [32.0323589, -26.4545971], [32.0337802, -26.4534108], [32.0349366, -26.4528716], [32.0361411, -26.4521814], [32.0369121, -26.4513618], [32.0368398, -26.4507794], [32.0363339, -26.4504127], [32.0349125, -26.4500461], [32.0336598, -26.449852], [32.0325998, -26.4493774], [32.0314675, -26.449097], [32.0304316, -26.4486009], [32.0297571, -26.4474793], [32.0288416, -26.4466381], [32.0279743, -26.4460126], [32.0268662, -26.4445027], [32.0251557, -26.4434026], [32.0241921, -26.4438987], [32.0239271, -26.4446321], [32.0230598, -26.4445674], [32.0221925, -26.4438772], [32.020988, -26.4426692], [32.0204098, -26.4425829], [32.0191571, -26.4424966], [32.0183323, -26.442211], [32.012646, -26.4458509], [32.0033937, -26.4518038], [31.9934499, -26.4578725], [31.9845743, -26.4634573], [31.9776633, -26.4676363], [31.9797389, -26.4761363], [31.9709231, -26.4775907], [31.961749, -26.4790801], [31.9606363, -26.4882457], [31.9674581, -26.5004034], [31.9742191, -26.5140247], [31.9807762, -26.5263047], [31.9822077, -26.5291282], [31.9821191, -26.5408798], [31.9840865, -26.5408007], [31.9854709, -26.5400702], [31.9849799, -26.5425748], [31.9852569, -26.5439479], [31.9883637, -26.5454992], [31.9893696, -26.5467459], [31.9906754, -26.5487595], [31.9941408, -26.5502316], [31.9988788, -26.5577445], [32.0056504, -26.5582382], [32.0075748, -26.5591779], [31.9906691, -26.574067], [31.9895958, -26.5791383], [31.9852915, -26.5798117], [31.9834757, -26.5845585], [31.9811447, -26.5834132], [31.9783047, -26.5814288], [31.9745902, -26.5794146], [31.9721603, -26.576295], [31.9712616, -26.5759112], [31.9678096, -26.5737588], [31.9658986, -26.5746472], [31.9647191, -26.5767985], [31.9637753, -26.5769499], [31.9632545, -26.5763876], [31.9622559, -26.576679], [31.9608408, -26.5763594], [31.9594552, -26.5768188], [31.95736, -26.5761055], [31.9551321, -26.5754383], [31.9537009, -26.5756102], [31.9523068, -26.5761137], [31.9511072, -26.576242], [31.9493213, -26.5760508], [31.9488657, -26.5761456], [31.9477785, -26.5770219], [31.9461316, -26.5753146], [31.9449897, -26.5739494], [31.9448564, -26.5723348], [31.9466336, -26.5709901], [31.9472073, -26.5693193], [31.9476145, -26.5686132], [31.9493715, -26.5680315], [31.9502335, -26.5667564], [31.9492501, -26.5657692], [31.9481584, -26.5651637], [31.948019, -26.5634393], [31.9493855, -26.5629861], [31.9484344, -26.5614774], [31.9467959, -26.5598034], [31.9446425, -26.5586284], [31.9432868, -26.5577744], [31.9432675, -26.5563581], [31.9410468, -26.5545072], [31.9397907, -26.5528003], [31.9362187, -26.5508011], [31.9309324, -26.5476997], [31.9298723, -26.5450072], [31.931295, -26.5420844], [31.9302751, -26.539027], [31.9298319, -26.5365604], [31.9302297, -26.5349671], [31.9301082, -26.5325906], [31.93043, -26.5299989], [31.9300867, -26.5285782], [31.9287992, -26.5276951], [31.9284345, -26.5263895], [31.9286276, -26.525276], [31.9285632, -26.5242969], [31.9263316, -26.5220505], [31.9251729, -26.5216665], [31.9243575, -26.5207642], [31.9242931, -26.5189018], [31.9232846, -26.5175578], [31.9227267, -26.5155033], [31.9226838, -26.5139096], [31.9221259, -26.5128152], [31.921053, -26.5123928], [31.9208599, -26.5104918], [31.9209243, -26.5091477], [31.9209028, -26.507842], [31.9212676, -26.5066899], [31.9219757, -26.5060754], [31.9235206, -26.5052305], [31.9244648, -26.504232], [31.9246579, -26.5031759], [31.9256235, -26.5016972], [31.9255162, -26.5003722], [31.9249369, -26.4987784], [31.924615, -26.4974341], [31.9248939, -26.4963971], [31.9242502, -26.4953025], [31.9240142, -26.4942271], [31.9241858, -26.4929404], [31.9236923, -26.4912888], [31.9228769, -26.4897716], [31.9226838, -26.4880431], [31.922598, -26.4864875], [31.9234134, -26.4854312], [31.9248939, -26.4842981], [31.9255162, -26.4828], [31.9264174, -26.4811675], [31.9274045, -26.4794965], [31.9288636, -26.4776335], [31.9295073, -26.4754054], [31.9297863, -26.4736575], [31.9309021, -26.4721978], [31.9319016, -26.4689263], [31.9328457, -26.4675241], [31.9335539, -26.4657953], [31.9344177, -26.4623599], [31.9355588, -26.4569578], [31.9321373, -26.4449875]]]]}}]}