{"type":"FeatureCollection","features":[{"type":"Feature","properties":{"name":"M\u00f6rbyl\u00e5nga","admin":"kommun","source":"\u00a9 OpenStreetMap contributors, ODbL 1.0","osm_relation":935518},"geometry":{"type":"Polygon","coordinates":[[[16.2194826,55.9141349],[16.324136,55.9451264],[16.4956645,55.9956246],[16.5071457,55.9978292],[16.5187612,56.0003143],[16.5302155,56.0030239],[16.5414958,56.0059558],[16.5525893,56.0091038],[16.5634815,56.0124672],[16.5741595,56.01604],[16.5832436,56.0193079],[16.5886762,56.0209508],[16.5994654,56.0244184],[16.6100341,56.0280946],[16.6203695,56.0319744],[16.6304585,56.0360533],[16.6402897,56.0403253],[16.6498503,56.0447863],[16.6591304,56.0494299],[16.6681153,56.0542521],[16.6767505,56.0592178],[16.6844098,56.0624537],[16.6941135,56.0668212],[16.7035417,56.0713742],[16.7126813,56.0761075],[16.7215224,56.0810169],[16.7300535,56.0860944],[16.7382647,56.0913349],[16.7461476,56.0967314],[16.7536891,56.1022788],[16.7608823,56.107969],[16.7677188,56.1137961],[16.7707843,56.1165604],[16.774816,56.1196846],[16.7818354,56.1254436],[16.7884914,56.1313359],[16.7947772,56.1373546],[16.8006857,56.1434909],[16.806207,56.1497385],[16.8113372,56.1560905],[16.8160695,56.1625371],[16.8203968,56.1690721],[16.8243137,56.1756877],[16.827815,56.1823758],[16.8308982,56.1891266],[16.8312529,56.1899741],[16.8359166,56.1946588],[16.8416404,56.2008525],[16.8469746,56.2071523],[16.8519138,56.2135523],[16.8564511,56.2200453],[16.8588058,56.223706],[16.862018,56.2272442],[16.8673576,56.2335441],[16.8722989,56.2399441],[16.8768397,56.2464363],[16.8791894,56.2500859],[16.8806908,56.2521983],[16.8850283,56.2587337],[16.8889547,56.265349],[16.8924661,56.272036],[16.894664,56.2767347],[16.8969803,56.2803225],[16.8997734,56.2838419],[16.9045207,56.2902886],[16.9088636,56.296824],[16.9127933,56.3034394],[16.9161349,56.3097762],[16.9176444,56.3125728],[16.9209487,56.3192928],[16.9238302,56.3260733],[16.9262851,56.3329053],[16.928311,56.3397807],[16.9299026,56.3466907],[16.9310607,56.3536282],[16.9317815,56.3605832],[16.9319856,56.3642653],[16.9353403,56.3681014],[16.9404996,56.3744523],[16.945259,56.3808991],[16.9496114,56.3874348],[16.9531826,56.3933968],[16.9540551,56.3949305],[16.9575774,56.4016184],[16.960678,56.4083694],[16.963353,56.4151765],[16.9646162,56.4188616],[16.9668215,56.4228884],[16.9701364,56.4296089],[16.9723478,56.4346987],[16.9741104,56.4372866],[16.9782641,56.4438623],[16.9820013,56.4505145],[16.9843489,56.4551751],[16.9857466,56.457234],[16.9899012,56.4638093],[16.9926138,56.468551],[16.9981796,56.4729493],[17.0050821,56.4787753],[17.0116136,56.484731],[17.0177686,56.4908093],[17.0235386,56.4970014],[17.0289149,56.5033012],[17.0338936,56.5097007],[17.036415,56.5131983],[17.0407678,56.5188512],[17.0438858,56.5229292],[17.0484585,56.5294211],[17.0526226,56.535997],[17.0563693,56.5426487],[17.0596932,56.5493686],[17.0625936,56.5561484],[17.0650633,56.5629802],[17.0671017,56.569855],[17.0687048,56.5767649],[17.0698703,56.5837019],[17.0705964,56.5906657],[16.720288,56.6622334],[16.7162524,56.662658],[16.7160964,56.6626744],[16.7156187,56.6626892],[16.7148039,56.6626992],[16.7139246,56.6627279],[16.7135502,56.6627415],[16.713095,56.662774],[16.7127364,56.662784],[16.7116459,56.6630724],[16.7113082,56.6631484],[16.7103992,56.6634354],[16.7100202,56.663545],[16.709636,56.663669],[16.7097583,56.6638462],[16.7073705,56.6647928],[16.7072506,56.6648269],[16.7061787,56.6651448],[16.7056258,56.6652964],[16.7057578,56.6657681],[16.7051918,56.6659309],[16.7046992,56.6660821],[16.7042394,56.6659193],[16.7022759,56.665761],[16.7018063,56.6657909],[16.7017102,56.6656555],[16.7003725,56.6658192],[16.6997558,56.666106],[16.6980544,56.6671916],[16.6955667,56.6689796],[16.695547,56.6692207],[16.6951359,56.6692605],[16.6939169,56.669256],[16.6923435,56.6690963],[16.6904663,56.6688557],[16.6883813,56.6686242],[16.6875905,56.6686152],[16.6870678,56.66873],[16.6864882,56.6689222],[16.6859178,56.6690084],[16.6844233,56.6689504],[16.6840357,56.668871],[16.6837955,56.6687082],[16.6835318,56.6684957],[16.6833296,56.6684517],[16.6824512,56.6683841],[16.6823059,56.6683453],[16.6816164,56.668194],[16.6807992,56.6685434],[16.6802117,56.6686708],[16.6795792,56.668944],[16.6791673,56.6688036],[16.6787221,56.6687731],[16.6776965,56.6688529],[16.6775654,56.668849],[16.6769948,56.6687375],[16.6768958,56.6686131],[16.6764566,56.6685151],[16.6762198,56.6684783],[16.6740444,56.6679861],[16.6733241,56.6677871],[16.6723655,56.6674732],[16.6715328,56.6673498],[16.6710494,56.667274],[16.6699929,56.667276],[16.6696535,56.6672504],[16.6692956,56.6671986],[16.6683094,56.666988],[16.6673635,56.6668757],[16.6664317,56.666833],[16.6658791,56.6667022],[16.6656631,56.6666207],[16.6655293,56.6665034],[16.6647185,56.6664884],[16.6637426,56.6663906],[16.6619933,56.6667862],[16.6609544,56.6670529],[16.6593026,56.6673811],[16.6572761,56.6677339],[16.6564103,56.6680124],[16.6504024,56.6691936],[16.6497487,56.6694157],[16.6480336,56.6697197],[16.64712,56.6699248],[16.6468103,56.6699528],[16.6464771,56.6699163],[16.6459206,56.6697563],[16.645715,56.6696996],[16.6451862,56.6698549],[16.6442422,56.6705659],[16.6441964,56.6709177],[16.6437464,56.6714528],[16.6433404,56.6720614],[16.6431354,56.672166],[16.642816,56.6723216],[16.6420961,56.6726239],[16.6410691,56.6731466],[16.6397125,56.673492],[16.6387367,56.6735478],[16.6378637,56.6733366],[16.6374528,56.6734266],[16.6372314,56.6735281],[16.6366811,56.67368],[16.6353195,56.673758],[16.6344832,56.6739679],[16.6339051,56.6738874],[16.6318244,56.674337],[16.6307211,56.6746337],[16.6297155,56.6748195],[16.6294999,56.6748806],[16.6281948,56.6752344],[16.6259988,56.675629],[16.6246012,56.6758569],[16.6235252,56.6760242],[16.6226628,56.6761705],[16.6206701,56.676493],[16.6205292,56.6765182],[16.6201064,56.6765842],[16.6200624,56.6765942],[16.6190239,56.6767609],[16.6181162,56.6769134],[16.6174287,56.6770006],[16.6177058,56.6779216],[16.6176683,56.6779958],[16.6174862,56.6784275],[16.6169631,56.6796382],[16.6128075,56.6814898],[16.6123126,56.6816104],[16.6118374,56.6817029],[16.6110185,56.6818702],[16.6103313,56.6820256],[16.6098627,56.6820602],[16.607404,56.682189],[16.6076431,56.6831455],[16.6078052,56.6837773],[16.6078303,56.6838948],[16.6083898,56.6861329],[16.608512,56.6865152],[16.608624,56.6871425],[16.6087897,56.6877223],[16.608927,56.6883638],[16.6090327,56.6884656],[16.6095311,56.688858],[16.609584,56.6889104],[16.6100385,56.6893887],[16.610452,56.6897699],[16.6105427,56.6898966],[16.6108829,56.6902425],[16.6109857,56.6903397],[16.6112479,56.6906647],[16.6114835,56.6909098],[16.6116983,56.691222],[16.6117915,56.6914677],[16.6121925,56.6921452],[16.6123305,56.6926788],[16.6123855,56.692956],[16.61305,56.6957928],[16.6133289,56.6970752],[16.6133971,56.6972743],[16.6134281,56.697451],[16.6135632,56.6980774],[16.6137529,56.6987929],[16.6140089,56.6998855],[16.6146735,56.7009322],[16.6149469,56.7013843],[16.6172347,56.7049129],[16.6199239,56.7093109],[16.6216534,56.7103203],[16.6228227,56.7109839],[16.6248335,56.7184744],[16.625886,56.7184087],[16.6291531,56.718182],[16.6318371,56.718006],[16.6334916,56.7179314],[16.6344753,56.7178958],[16.6350079,56.7198994],[16.6351319,56.7204353],[16.6354877,56.7218554],[16.6369841,56.727955],[16.6318498,56.728287],[16.6300467,56.7283955],[16.6283625,56.7285031],[16.6272475,56.7285844],[16.6279112,56.7333414],[16.6281705,56.7348648],[16.629082,56.7412348],[16.6291241,56.7419977],[16.628094,56.742158],[16.6262648,56.7424467],[16.6234375,56.7429064],[16.6213702,56.7432193],[16.6119927,56.7446644],[16.6077395,56.74483],[16.6003174,56.7399152],[16.5995783,56.7394239],[16.59956,56.7396846],[16.5991872,56.7397691],[16.5991533,56.7399584],[16.5986314,56.7399902],[16.5986489,56.7402378],[16.5972895,56.7401859],[16.5968052,56.7403287],[16.5963323,56.7402257],[16.5938594,56.7399926],[16.5928077,56.7400047],[16.5924287,56.7396632],[16.5922154,56.7393617],[16.591509,56.7394771],[16.5919788,56.7403024],[16.5926377,56.7403668],[16.5929959,56.7405882],[16.5931856,56.7408902],[16.5929162,56.7412733],[16.5930074,56.7414802],[16.59381,56.7420576],[16.5951432,56.7419725],[16.5955079,56.7421687],[16.5960376,56.742145],[16.59649,56.7419283],[16.5968548,56.7420364],[16.5970283,56.7426548],[16.5975871,56.7425965],[16.5977885,56.7428453],[16.5984389,56.7431139],[16.5982026,56.7436552],[16.5983895,56.7440975],[16.5974466,56.7442804],[16.5967889,56.7444613],[16.5968516,56.7446672],[16.5976555,56.7452171],[16.597749,56.7452873],[16.5980139,56.745413],[16.5982732,56.7456022],[16.5982919,56.745736],[16.5982649,56.7458396],[16.5981455,56.7459148],[16.5979411,56.7459282],[16.5973056,56.7458649],[16.5970691,56.7457547],[16.5969535,56.7457238],[16.5967895,56.7457029],[16.5965517,56.7456908],[16.5964357,56.7457121],[16.5958166,56.7456518],[16.5952043,56.7455134],[16.5951379,56.7454606],[16.5951782,56.7453159],[16.5873086,56.7456243],[16.5866107,56.7464588],[16.586219,56.7468631],[16.5859668,56.7470745],[16.5858358,56.7470877],[16.5854084,56.747095],[16.5850897,56.7470563],[16.5847971,56.7470448],[16.5845061,56.7470595],[16.5839741,56.7470777],[16.5833787,56.7471378],[16.5826277,56.7471889],[16.5820769,56.7471932],[16.5815177,56.7472378],[16.5805572,56.747235],[16.579379,56.747105],[16.5783556,56.7470734],[16.5769275,56.7465294],[16.5739507,56.7466116],[16.5720918,56.7466721],[16.5719745,56.7466579],[16.5694612,56.7467768],[16.5683797,56.7466599],[16.5677634,56.7464512],[16.5659253,56.7461656],[16.5638409,56.746045],[16.5625388,56.7463076],[16.5620275,56.7471125],[16.5609417,56.7480239],[16.559591,56.7490471],[16.5590994,56.7493545],[16.5576711,56.7504167],[16.5571918,56.7508343],[16.5561964,56.7509368],[16.5531179,56.7512489],[16.5525719,56.7511971],[16.550128,56.7515458],[16.5445507,56.7512441],[16.5429619,56.7507979],[16.5428168,56.7507618],[16.5427963,56.7509012],[16.5423995,56.7518662],[16.542205,56.7519151],[16.5421727,56.7520795],[16.5421355,56.7520783],[16.5400235,56.7520776],[16.5366987,56.7520714],[16.5365656,56.7520837],[16.5364961,56.7519531],[16.5362491,56.7517359],[16.5359957,56.7515245],[16.5356769,56.75133],[16.5356313,56.7513059],[16.5355645,56.7512602],[16.5354167,56.7511811],[16.5350522,56.7509912],[16.5350047,56.7510107],[16.5344441,56.7507813],[16.5342573,56.7507186],[16.5329373,56.7510368],[16.5323289,56.7511771],[16.5312792,56.7514308],[16.5313289,56.7516391],[16.5313772,56.7518863],[16.5314013,56.7521507],[16.5313827,56.7522596],[16.5313301,56.7523184],[16.5314499,56.7525579],[16.5319006,56.7531329],[16.5323387,56.7534816],[16.5326717,56.7537335],[16.5328439,56.7538809],[16.5330002,56.7540655],[16.5332365,56.7544669],[16.5332659,56.754573],[16.5326841,56.7546239],[16.5317991,56.7546347],[16.5314249,56.7546021],[16.5310259,56.7545543],[16.5298376,56.7543742],[16.5297328,56.7543567],[16.529057,56.7549306],[16.5277859,56.7543099],[16.527273,56.754383],[16.5225928,56.7550175],[16.5213374,56.7578525],[16.5039243,56.7640996],[16.4357829,56.7180337],[16.4259345,56.6731383],[16.4258642,56.6730273],[16.4166075,56.6433214],[16.3586981,56.6179078],[16.3192434,56.5912251],[16.250563,56.4255259],[16.223684,56.3052867],[16.2194826,55.9141349]]]}},{"type":"Feature","properties":{"name":"Borgholm","admin":"kommun","source":"\u00a9 OpenStreetMap contributors, ODbL 1.0","osm_relation":935406},"geometry":{"type":"Polygon","coordinates":[[[16.5563735,56.8766791],[16.5586496,56.8791023],[16.6000024,56.9231058],[16.7049983,57.0211782],[16.7624879,57.1119017],[16.7638907,57.1662209],[16.879292,57.2411693],[16.818581,57.3525764],[17.0226421,57.49445],[17.404782,57.4901845],[17.4345575,57.4658022],[17.4400451,57.4611653],[17.4466516,57.4551781],[17.4528629,57.4490698],[17.4586728,57.4428486],[17.4631975,57.4375903],[17.466843,57.4330537],[17.4716201,57.4265824],[17.4759749,57.4200249],[17.4799016,57.4133894],[17.4829306,57.4076305],[17.4863378,57.4010795],[17.4893947,57.3943125],[17.4920107,57.3874912],[17.4931236,57.3841523],[17.4959617,57.3802274],[17.5003103,57.3736698],[17.5042329,57.3670344],[17.507722,57.3603283],[17.5107751,57.3535616],[17.5133878,57.3467407],[17.5155577,57.3398739],[17.5172824,57.3329718],[17.5185609,57.32604],[17.5193909,57.3190892],[17.5197713,57.3121259],[17.5197031,57.3051608],[17.5191854,57.2982003],[17.5182192,57.2912549],[17.5168069,57.2843311],[17.5149492,57.2774387],[17.5126487,57.2705848],[17.5099111,57.263779],[17.5067357,57.2570296],[17.5031298,57.2503435],[17.4990974,57.2437297],[17.4946427,57.2371959],[17.4897713,57.2307504],[17.4859644,57.2261132],[17.4434107,57.175938],[17.4429272,57.1728992],[17.4426968,57.1683295],[17.4419569,57.1613757],[17.440772,57.1544395],[17.4391429,57.1475299],[17.4370722,57.1406559],[17.4345621,57.1338245],[17.4316169,57.1270455],[17.428239,57.1203261],[17.4244323,57.1136751],[17.4202043,57.1071004],[17.4155573,57.1006101],[17.4104985,57.094211],[17.4093954,57.0929095],[17.3946363,57.0695038],[17.3925236,57.065901],[17.3883003,57.0593261],[17.3875081,57.0581891],[17.3390255,56.9810302],[17.2561309,56.8483163],[17.214905,56.7819375],[17.2138863,56.7803183],[17.2094882,56.7737841],[17.207053,56.7704429],[17.203361,56.7655306],[17.1981462,56.7591802],[17.1930243,56.7534679],[17.1899651,56.7498956],[17.1871798,56.7455951],[17.1825789,56.739104],[17.1775696,56.7327043],[17.1721591,56.7264048],[17.1663547,56.7202127],[17.1601616,56.7141349],[17.1535904,56.7081801],[17.1466448,56.7023545],[17.1424237,56.6990223],[17.1008113,56.6568806],[17.0994471,56.6524473],[17.0969714,56.6456154],[17.0940641,56.6388355],[17.0907307,56.6321159],[17.0869752,56.6254643],[17.0858673,56.6236443],[17.0832765,56.6188422],[17.0793122,56.6122272],[17.0777487,56.6098126],[17.0744262,56.6042884],[17.0726083,56.5988829],[17.0707946,56.5941701],[17.0705964,56.5906657],[16.720288,56.6622334],[16.7162524,56.662658],[16.7160964,56.6626744],[16.7156187,56.6626892],[16.7148039,56.6626992],[16.7139246,56.6627279],[16.7135502,56.6627415],[16.713095,56.662774],[16.7127364,56.662784],[16.7116459,56.6630724],[16.7113082,56.6631484],[16.7103992,56.6634354],[16.7100202,56.663545],[16.709636,56.663669],[16.7097583,56.6638462],[16.7073705,56.6647928],[16.7072506,56.6648269],[16.7061787,56.6651448],[16.7056258,56.6652964],[16.7057578,56.6657681],[16.7051918,56.6659309],[16.7046992,56.6660821],[16.7042394,56.6659193],[16.7022759,56.665761],[16.7018063,56.6657909],[16.7017102,56.6656555],[16.7003725,56.6658192],[16.6997558,56.666106],[16.6980544,56.6671916],[16.6955667,56.6689796],[16.695547,56.6692207],[16.6951359,56.6692605],[16.6939169,56.669256],[16.6923435,56.6690963],[16.6904663,56.6688557],[16.6883813,56.6686242],[16.6875905,56.6686152],[16.6870678,56.66873],[16.6864882,56.6689222],[16.6859178,56.6690084],[16.6844233,56.6689504],[16.6840357,56.668871],[16.6837955,56.6687082],[16.6835318,56.6684957],[16.6833296,56.6684517],[16.6824512,56.6683841],[16.6823059,56.6683453],[16.6816164,56.668194],[16.6807992,56.6685434],[16.6802117,56.6686708],[16.6795792,56.668944],[16.6791673,56.6688036],[16.6787221,56.6687731],[16.6776965,56.6688529],[16.6775654,56.668849],[16.6769948,56.6687375],[16.6768958,56.6686131],[16.6764566,56.6685151],[16.6762198,56.6684783],[16.6740444,56.6679861],[16.6733241,56.6677871],[16.6723655,56.6674732],[16.6715328,56.6673498],[16.6710494,56.667274],[16.6699929,56.667276],[16.6696535,56.6672504],[16.6692956,56.6671986],[16.6683094,56.666988],[16.6673635,56.6668757],[16.6664317,56.666833],[16.6658791,56.6667022],[16.6656631,56.6666207],[16.6655293,56.6665034],[16.6647185,56.6664884],[16.6637426,56.6663906],[16.6619933,56.6667862],[16.6609544,56.6670529],[16.6593026,56.6673811],[16.6572761,56.6677339],[16.6564103,56.6680124],[16.6504024,56.6691936],[16.6497487,56.6694157],[16.6480336,56.6697197],[16.64712,56.6699248],[16.6468103,56.6699528],[16.6464771,56.6699163],[16.6459206,56.6697563],[16.645715,56.6696996],[16.6451862,56.6698549],[16.6442422,56.6705659],[16.6441964,56.6709177],[16.6437464,56.6714528],[16.6433404,56.6720614],[16.6431354,56.672166],[16.642816,56.6723216],[16.6420961,56.6726239],[16.6410691,56.6731466],[16.6397125,56.673492],[16.6387367,56.6735478],[16.6378637,56.6733366],[16.6374528,56.6734266],[16.6372314,56.6735281],[16.6366811,56.67368],[16.6353195,56.673758],[16.6344832,56.6739679],[16.6339051,56.6738874],[16.6318244,56.674337],[16.6307211,56.6746337],[16.6297155,56.6748195],[16.6294999,56.6748806],[16.6281948,56.6752344],[16.6259988,56.675629],[16.6246012,56.6758569],[16.6235252,56.6760242],[16.6226628,56.6761705],[16.6206701,56.676493],[16.6205292,56.6765182],[16.6201064,56.6765842],[16.6200624,56.6765942],[16.6190239,56.6767609],[16.6181162,56.6769134],[16.6174287,56.6770006],[16.6177058,56.6779216],[16.6176683,56.6779958],[16.6174862,56.6784275],[16.6169631,56.6796382],[16.6128075,56.6814898],[16.6123126,56.6816104],[16.6118374,56.6817029],[16.6110185,56.6818702],[16.6103313,56.6820256],[16.6098627,56.6820602],[16.607404,56.682189],[16.6076431,56.6831455],[16.6078052,56.6837773],[16.6078303,56.6838948],[16.6083898,56.6861329],[16.608512,56.6865152],[16.608624,56.6871425],[16.6087897,56.6877223],[16.608927,56.6883638],[16.6090327,56.6884656],[16.6095311,56.688858],[16.609584,56.6889104],[16.6100385,56.6893887],[16.610452,56.6897699],[16.6105427,56.6898966],[16.6108829,56.6902425],[16.6109857,56.6903397],[16.6112479,56.6906647],[16.6114835,56.6909098],[16.6116983,56.691222],[16.6117915,56.6914677],[16.6121925,56.6921452],[16.6123305,56.6926788],[16.6123855,56.692956],[16.61305,56.6957928],[16.6133289,56.6970752],[16.6133971,56.6972743],[16.6134281,56.697451],[16.6135632,56.6980774],[16.6137529,56.6987929],[16.6140089,56.6998855],[16.6146735,56.7009322],[16.6149469,56.7013843],[16.6172347,56.7049129],[16.6199239,56.7093109],[16.6216534,56.7103203],[16.6228227,56.7109839],[16.6248335,56.7184744],[16.625886,56.7184087],[16.6291531,56.718182],[16.6318371,56.718006],[16.6334916,56.7179314],[16.6344753,56.7178958],[16.6350079,56.7198994],[16.6351319,56.7204353],[16.6354877,56.7218554],[16.6369841,56.727955],[16.6318498,56.728287],[16.6300467,56.7283955],[16.6283625,56.7285031],[16.6272475,56.7285844],[16.6279112,56.7333414],[16.6281705,56.7348648],[16.629082,56.7412348],[16.6291241,56.7419977],[16.628094,56.742158],[16.6262648,56.7424467],[16.6234375,56.7429064],[16.6213702,56.7432193],[16.6119927,56.7446644],[16.6077395,56.74483],[16.6003174,56.7399152],[16.5995783,56.7394239],[16.59956,56.7396846],[16.5991872,56.7397691],[16.5991533,56.7399584],[16.5986314,56.7399902],[16.5986489,56.7402378],[16.5972895,56.7401859],[16.5968052,56.7403287],[16.5963323,56.7402257],[16.5938594,56.7399926],[16.5928077,56.7400047],[16.5924287,56.7396632],[16.5922154,56.7393617],[16.591509,56.7394771],[16.5919788,56.7403024],[16.5926377,56.7403668],[16.5929959,56.7405882],[16.5931856,56.7408902],[16.5929162,56.7412733],[16.5930074,56.7414802],[16.59381,56.7420576],[16.5951432,56.7419725],[16.5955079,56.7421687],[16.5960376,56.742145],[16.59649,56.7419283],[16.5968548,56.7420364],[16.5970283,56.7426548],[16.5975871,56.7425965],[16.5977885,56.7428453],[16.5984389,56.7431139],[16.5982026,56.7436552],[16.5983895,56.7440975],[16.5974466,56.7442804],[16.5967889,56.7444613],[16.5968516,56.7446672],[16.5976555,56.7452171],[16.597749,56.7452873],[16.5980139,56.745413],[16.5982732,56.7456022],[16.5982919,56.745736],[16.5982649,56.7458396],[16.5981455,56.7459148],[16.5979411,56.7459282],[16.5973056,56.7458649],[16.5970691,56.7457547],[16.5969535,56.7457238],[16.5967895,56.7457029],[16.5965517,56.7456908],[16.5964357,56.7457121],[16.5958166,56.7456518],[16.5952043,56.7455134],[16.5951379,56.7454606],[16.5951782,56.7453159],[16.5873086,56.7456243],[16.5866107,56.7464588],[16.586219,56.7468631],[16.5859668,56.7470745],[16.5858358,56.7470877],[16.5854084,56.747095],[16.5850897,56.7470563],[16.5847971,56.7470448],[16.5845061,56.7470595],[16.5839741,56.7470777],[16.5833787,56.7471378],[16.5826277,56.7471889],[16.5820769,56.7471932],[16.5815177,56.7472378],[16.5805572,56.747235],[16.579379,56.747105],[16.5783556,56.7470734],[16.5769275,56.7465294],[16.5739507,56.7466116],[16.5720918,56.7466721],[16.5719745,56.7466579],[16.5694612,56.7467768],[16.5683797,56.7466599],[16.5677634,56.7464512],[16.5659253,56.7461656],[16.5638409,56.746045],[16.5625388,56.7463076],[16.5620275,56.7471125],[16.5609417,56.7480239],[16.559591,56.7490471],[16.5590994,56.7493545],[16.5576711,56.7504167],[16.5571918,56.7508343],[16.5561964,56.7509368],[16.5531179,56.7512489],[16.5525719,56.7511971],[16.550128,56.7515458],[16.5445507,56.7512441],[16.5429619,56.7507979],[16.5428168,56.7507618],[16.5427963,56.7509012],[16.5423995,56.7518662],[16.542205,56.7519151],[16.5421727,56.7520795],[16.5421355,56.7520783],[16.5400235,56.7520776],[16.5366987,56.7520714],[16.5365656,56.7520837],[16.5364961,56.7519531],[16.5362491,56.7517359],[16.5359957,56.7515245],[16.5356769,56.75133],[16.5356313,56.7513059],[16.5355645,56.7512602],[16.5354167,56.7511811],[16.5350522,56.7509912],[16.5350047,56.7510107],[16.5344441,56.7507813],[16.5342573,56.7507186],[16.5329373,56.7510368],[16.5323289,56.7511771],[16.5312792,56.7514308],[16.5313289,56.7516391],[16.5313772,56.7518863],[16.5314013,56.7521507],[16.5313827,56.7522596],[16.5313301,56.7523184],[16.5314499,56.7525579],[16.5319006,56.7531329],[16.5323387,56.7534816],[16.5326717,56.7537335],[16.5328439,56.7538809],[16.5330002,56.7540655],[16.5332365,56.7544669],[16.5332659,56.754573],[16.5326841,56.7546239],[16.5317991,56.7546347],[16.5314249,56.7546021],[16.5310259,56.7545543],[16.5298376,56.7543742],[16.5297328,56.7543567],[16.529057,56.7549306],[16.5277859,56.7543099],[16.527273,56.754383],[16.5225928,56.7550175],[16.5213374,56.7578525],[16.5039243,56.7640996],[16.515511,56.780199],[16.5214742,56.8012689],[16.5563735,56.8766791]]]}}]}