{"type":"FeatureCollection","features":[{"type":"Feature","properties":{"name":"Ödeshög","admin":"kommun","source":"© OpenStreetMap contributors, ODbL 1.0","osm_relation":935434},"geometry":{"type":"MultiPolygon","coordinates":[[[[14.5204269,58.3559613],[14.6704877,58.3493967],[14.6696872,58.3462215],[14.6639321,58.3374401],[14.6903232,58.3285886],[14.6937383,58.3327525],[14.6958792,58.332908],[14.6975105,58.3335273],[14.7009328,58.334207],[14.7083933,58.3349509],[14.7110103,58.3336188],[14.714672,58.3310041],[14.7153019,58.3313777],[14.7197154,58.332147],[14.7546418,58.3379643],[14.7704895,58.3474711],[14.818185,58.3468017],[14.8345152,58.3549612],[14.8504765,58.3387267],[14.8521138,58.3365489],[14.8526602,58.336207],[14.8525747,58.3356824],[14.8532353,58.3350649],[14.8531273,58.3346443],[14.8534334,58.3343516],[14.8531453,58.3337146],[14.8536317,58.3332721],[14.8535962,58.3324784],[14.854412,58.3307563],[14.8564239,58.3274555],[14.8562271,58.3269392],[14.8580046,58.3251585],[14.8608055,58.3258817],[14.8601597,58.3234955],[14.8626823,58.3240677],[14.8631035,58.3235744],[14.8649941,58.3239111],[14.8722911,58.3238183],[14.8714879,58.3224914],[14.8694146,58.3205135],[14.8689806,58.3197499],[14.8675875,58.3182509],[14.8667326,58.3180742],[14.8680137,58.3168399],[14.8620382,58.3160044],[14.8619678,58.3169263],[14.8527909,58.3158169],[14.8527679,58.3149864],[14.8541359,58.3140023],[14.8591156,58.3143865],[14.858269,58.3124274],[14.8549649,58.3122613],[14.8547269,58.3106699],[14.8525597,58.3105338],[14.8528957,58.3064],[14.8540714,58.3026749],[14.8561909,58.297134],[14.8589517,58.2884929],[14.8634433,58.2884456],[14.8639082,58.2874949],[14.8638941,58.2863558],[14.864239,58.2848603],[14.8646907,58.28387],[14.8647418,58.2832862],[14.8643842,58.2826366],[14.8648647,58.2823955],[14.8646792,58.2820405],[14.8668777,58.2825138],[14.8699674,58.2836388],[14.8703442,58.2840053],[14.8702313,58.2849008],[14.870576,58.2856012],[14.8707374,58.286899],[14.8719063,58.2877977],[14.8728524,58.2881846],[14.8745889,58.2886639],[14.8747988,58.2882118],[14.8762031,58.2882671],[14.8777006,58.2880407],[14.87888,58.2880545],[14.8810904,58.2875755],[14.8808733,58.2873235],[14.8777514,58.2860904],[14.8746538,58.2845653],[14.872336,58.2831602],[14.8699016,58.2813317],[14.8681833,58.2797052],[14.8669333,58.27823],[14.8636574,58.2728663],[14.8633583,58.2727733],[14.8630428,58.2727046],[14.8633769,58.2732313],[14.8635302,58.2737496],[14.8635327,58.274031],[14.8633871,58.2745562],[14.8629474,58.274885],[14.8628546,58.2754571],[14.8626909,58.2757866],[14.8614617,58.2773369],[14.8612044,58.2781405],[14.8614111,58.2773313],[14.8626418,58.2757786],[14.8629005,58.2748734],[14.8633376,58.2745487],[14.8634791,58.273753],[14.8629861,58.272693],[14.8610672,58.2728962],[14.8601984,58.2779896],[14.8572952,58.2776059],[14.857257,58.2770812],[14.8543627,58.2771944],[14.8508192,58.2776737],[14.8467735,58.2773501],[14.8470003,58.2769304],[14.8571857,58.275897],[14.8569179,58.2703663],[14.8648701,58.2642141],[14.8643779,58.2640185],[14.864361,58.2634184],[14.8640839,58.263193],[14.864085,58.2628049],[14.8645456,58.2624919],[14.8643599,58.2620368],[14.8650704,58.2619348],[14.8658649,58.2625301],[14.8666292,58.2627911],[14.8700065,58.260109],[14.8900246,58.2634579],[14.8895598,58.263301],[14.8857694,58.2601461],[14.8860065,58.2588901],[14.8847565,58.2574396],[14.8844015,58.2568049],[14.8843822,58.2563434],[14.8850222,58.2546596],[14.8861478,58.2541817],[14.8873837,58.2539195],[14.8873935,58.2536197],[14.8865732,58.2524792],[14.8854965,58.243062],[14.8840052,58.2426591],[14.8834306,58.2418658],[14.8786319,58.2404642],[14.8758746,58.2389625],[14.8741171,58.2369574],[14.8720024,58.2349297],[14.8715152,58.2339445],[14.8795869,58.2310564],[14.8803208,58.2312165],[14.883805,58.2304223],[14.8837472,58.2303204],[14.8839975,58.2301515],[14.8832781,58.2294431],[14.8834762,58.2292943],[14.8833624,58.2291911],[14.8834992,58.2289053],[14.8833099,58.2287196],[14.8828935,58.2288053],[14.8823624,58.2283236],[14.881828,58.2282228],[14.8818185,58.2284903],[14.8813559,58.2284494],[14.8809239,58.2280658],[14.8799967,58.2285209],[14.8796724,58.2284744],[14.8787364,58.2279013],[14.8786737,58.2276984],[14.8784517,58.2277714],[14.8780126,58.2275448],[14.875899,58.2273],[14.8760826,58.2265175],[14.8752975,58.226053],[14.8747746,58.2259536],[14.8739904,58.2261486],[14.8734731,58.225839],[14.873388,58.225628],[14.8737259,58.2251812],[14.8742384,58.2249082],[14.8730999,58.2213377],[14.8728944,58.2211235],[14.8730586,58.221045],[14.8724142,58.2209081],[14.8717267,58.2211398],[14.8708758,58.2207943],[14.8701499,58.2198802],[14.869334,58.2195388],[14.8661028,58.2161051],[14.8664921,58.2145379],[14.86599,58.2140384],[14.865086,58.2124938],[14.8652446,58.2117885],[14.8654804,58.2114494],[14.8653322,58.2109413],[14.8642924,58.2105005],[14.8654996,58.203761],[14.8696034,58.1948753],[14.8716141,58.1915925],[14.8689302,58.1852421],[14.8790956,58.1824507],[14.8789318,58.1765957],[14.8768011,58.1710616],[14.8783492,58.1648222],[14.8808908,58.1652086],[14.8847059,58.1663922],[14.8859283,58.1663385],[14.886977,58.1655675],[14.8893746,58.1654134],[14.8892071,58.1634783],[14.890543,58.162388],[14.8912806,58.1623061],[14.8977943,58.1626986],[14.8987832,58.163104],[14.8991779,58.1662521],[14.9147018,58.1691841],[14.9142226,58.1653758],[14.9138047,58.164048],[14.9141818,58.1624212],[14.9151514,58.1607848],[14.9150341,58.1601298],[14.9119444,58.1570385],[14.915071,58.1569565],[14.9151613,58.1559491],[14.9153707,58.1556507],[14.9154191,58.1543231],[14.9151507,58.1526532],[14.9152933,58.1513623],[14.9162609,58.1513199],[14.9161917,58.1502968],[14.9172146,58.1503394],[14.918957,58.1448745],[14.9206941,58.1449228],[14.9215584,58.1440871],[14.9206562,58.1435136],[14.9212665,58.1431107],[14.9261677,58.1423115],[14.9327914,58.1401422],[14.9314175,58.1376045],[14.9272955,58.1368648],[14.923922,58.1417307],[14.9221608,58.1413407],[14.9209546,58.1405761],[14.9185401,58.1407882],[14.9185105,58.1414636],[14.9175331,58.1424494],[14.9172555,58.1429916],[14.9113035,58.1403097],[14.9076326,58.139541],[14.9054536,58.1395163],[14.8967305,58.1429245],[14.8943158,58.1416008],[14.8974782,58.1400207],[14.8987834,58.1387755],[14.9007678,58.1386159],[14.8986021,58.1377156],[14.8921258,58.1377583],[14.8937006,58.1331545],[14.8918475,58.131725],[14.8893713,58.1289459],[14.8911357,58.1278302],[14.8910575,58.1260971],[14.89232,58.123874],[14.895816,58.1235011],[14.899936,58.1203312],[14.9067849,58.1216311],[14.9077808,58.1219634],[14.907124,58.1228027],[14.9060907,58.123632],[14.9098641,58.1243221],[14.9106733,58.1234965],[14.9142591,58.1220139],[14.9155134,58.1207749],[14.9164191,58.1205335],[14.9167831,58.1202398],[14.9163679,58.1189798],[14.9153272,58.1186741],[14.9149257,58.1181935],[14.9147469,58.1174991],[14.9136437,58.117378],[14.9123495,58.1178122],[14.9119747,58.1168325],[14.9119689,58.1161482],[14.912912,58.114343],[14.9129227,58.1132872],[14.9148909,58.1112038],[14.912404,58.1107205],[14.9070807,58.112308],[14.9065436,58.1118336],[14.8994848,58.1126898],[14.898405,58.1121134],[14.8972933,58.1117739],[14.896157,58.1088947],[14.8968156,58.1066549],[14.894824,58.1048767],[14.8934496,58.1039944],[14.8920235,58.1026413],[14.8879268,58.1013009],[14.8865413,58.0988612],[14.8872805,58.09689],[14.8870773,58.0963786],[14.8878607,58.0945244],[14.8882897,58.0939692],[14.8882529,58.0936996],[14.8894086,58.0929919],[14.8914987,58.0928478],[14.8928332,58.0920481],[14.8933041,58.0915705],[14.8934699,58.0909455],[14.892774,58.0906166],[14.8930789,58.0901262],[14.8943135,58.0891253],[14.8947626,58.0890613],[14.8947147,58.0889101],[14.8951394,58.0885353],[14.8955382,58.0884441],[14.895658,58.0880478],[14.8964091,58.0876329],[14.8966431,58.0869575],[14.8965553,58.0865906],[14.8977771,58.0853324],[14.8945795,58.0856873],[14.8904891,58.0846997],[14.8868017,58.0852339],[14.8858215,58.0851116],[14.8858872,58.0856848],[14.8868139,58.0866488],[14.8866664,58.0878273],[14.8856442,58.0886204],[14.8853155,58.0892266],[14.8847423,58.0895975],[14.8834942,58.0910818],[14.8789824,58.0907262],[14.878303,58.0903925],[14.8748157,58.0897967],[14.8735349,58.0893794],[14.8717002,58.0890399],[14.8691989,58.087914],[14.8666851,58.0877414],[14.8652478,58.0874075],[14.8625622,58.0873123],[14.8603017,58.0868473],[14.8598134,58.0866329],[14.8590658,58.0859297],[14.858296,58.0856106],[14.8535486,58.0858598],[14.8534436,58.0863957],[14.8524166,58.0870313],[14.8517149,58.088106],[14.8500855,58.0884885],[14.8477417,58.0877676],[14.8468705,58.0870129],[14.8460583,58.0869644],[14.8455169,58.0867172],[14.8448949,58.0860169],[14.8450584,58.0858854],[14.8441276,58.0853026],[14.8432503,58.0853227],[14.8418682,58.0863123],[14.8369399,58.0862711],[14.8353143,58.0857916],[14.8341375,58.0858026],[14.8297446,58.0849301],[14.8232551,58.084737],[14.815968,58.0838451],[14.8135629,58.0836849],[14.8087831,58.0826874],[14.8081568,58.084094],[14.8082018,58.0845412],[14.8040454,58.0850773],[14.8033852,58.0853767],[14.8028466,58.0860612],[14.8019972,58.0864233],[14.7979307,58.0863643],[14.7963227,58.0861896],[14.7939399,58.0856576],[14.7935763,58.0853742],[14.7927155,58.0854685],[14.7910035,58.0851582],[14.7775498,58.0860896],[14.7711049,58.0856723],[14.7656447,58.0861423],[14.7657921,58.0909739],[14.7649403,58.0914026],[14.7658308,58.094965],[14.7642018,58.0971466],[14.7624551,58.0975165],[14.7601333,58.1002233],[14.7597482,58.1011147],[14.759101,58.1015775],[14.7591473,58.1019492],[14.759974,58.1027672],[14.7592294,58.1038234],[14.7458243,58.1013565],[14.7457878,58.1010099],[14.7455676,58.1008452],[14.7440891,58.100558],[14.7432616,58.100578],[14.7422288,58.1011513],[14.7404088,58.1002032],[14.7385184,58.1009273],[14.7339145,58.1006438],[14.7319057,58.0999726],[14.7312465,58.1000438],[14.7291407,58.0993127],[14.7271275,58.0989986],[14.7251365,58.0989017],[14.7228023,58.0979375],[14.7188074,58.0987826],[14.7183236,58.0991923],[14.7173786,58.0995425],[14.7135151,58.0986824],[14.7117606,58.0978761],[14.7086283,58.0983369],[14.7076454,58.0989318],[14.7053688,58.0994717],[14.7043425,58.0993963],[14.7036684,58.098932],[14.7013587,58.0984809],[14.6986703,58.0986304],[14.6981581,58.0983523],[14.6970432,58.0987506],[14.6941199,58.0989052],[14.6929571,58.099463],[14.6904529,58.0995305],[14.6876549,58.0987019],[14.6875656,58.0984679],[14.6862987,58.0985527],[14.6846762,58.0993228],[14.6749358,58.1002205],[14.671316,58.0994524],[14.6671615,58.1000216],[14.6622433,58.1002065],[14.6578218,58.1008687],[14.6575767,58.097366],[14.6550495,58.097271],[14.6519494,58.0958201],[14.6435398,58.0957139],[14.6431998,58.0962897],[14.6432225,58.0967297],[14.6382699,58.0966801],[14.6336559,58.0959845],[14.6318683,58.0962769],[14.6306668,58.0971175],[14.6288554,58.0974115],[14.6273552,58.0969392],[14.6251104,58.0966824],[14.620798,58.0971789],[14.6194762,58.0970238],[14.6174648,58.0964964],[14.6153264,58.0966759],[14.612937,58.0971618],[14.6124042,58.0979828],[14.6021107,58.0988077],[14.5933756,58.0985406],[14.5927532,58.0995851],[14.5916725,58.100451],[14.5915342,58.1008268],[14.5897344,58.1021922],[14.589049,58.1028985],[14.587582,58.1033568],[14.5867411,58.1041812],[14.5827817,58.1046228],[14.5809114,58.1056445],[14.5797586,58.1052832],[14.5791256,58.1052124],[14.5780196,58.1054298],[14.5761764,58.1050938],[14.5751817,58.1056251],[14.573459,58.1061237],[14.5729572,58.1069107],[14.5709616,58.107457],[14.5705093,58.1071006],[14.5701591,58.1063431],[14.568443,58.1065509],[14.5653788,58.1066198],[14.5637739,58.1054783],[14.5624328,58.1054329],[14.5599191,58.1056633],[14.5569636,58.1045606],[14.5550631,58.104515],[14.5526648,58.1048397],[14.5515334,58.1048088],[14.5496436,58.1051368],[14.5491686,58.1057246],[14.5492891,58.1061549],[14.5487104,58.1064132],[14.5474433,58.1066718],[14.5457004,58.1067713],[14.5455406,58.1077447],[14.5459261,58.1082584],[14.5456463,58.108595],[14.5456629,58.1088933],[14.5448341,58.1097039],[14.5444081,58.1108647],[14.5435432,58.1112319],[14.4682736,58.1310943],[14.4177376,58.1910562],[14.5204269,58.3559613]]],[[[14.8628042,58.2716049],[14.8615955,58.2702745],[14.8613519,58.2700611],[14.8608728,58.2710729],[14.8626152,58.2726148],[14.8636096,58.2727972],[14.8628042,58.2716049]]]]}}]}