{"type":"FeatureCollection","features":[{"type":"Feature","properties":{"name":"Jolo","admin":"island","source":"© OpenStreetMap contributors, ODbL 1.0","osm_relation":3813856},"geometry":{"type":"Polygon","coordinates":[[[120.87283,5.95292],[120.8758,5.94615],[120.87406,5.93661],[120.87878,5.92961],[120.87878,5.92235],[120.88019,5.92029],[120.89632,5.91845],[120.90158,5.91506],[120.90101,5.91328],[120.9021,5.91445],[120.90434,5.91362],[120.9059,5.91217],[120.90525,5.91098],[120.9062,5.91196],[120.90852,5.91075],[120.91383,5.90605],[120.91967,5.89402],[120.92275,5.89164],[120.93437,5.89164],[120.94059,5.88959],[120.95234,5.89923],[120.9655,5.90184],[120.96716,5.90426],[120.97082,5.90393],[120.97236,5.90667],[120.97622,5.90635],[120.97798,5.90338],[120.97929,5.90796],[120.98483,5.90782],[120.98707,5.91159],[120.98539,5.91286],[120.98864,5.91276],[120.99232,5.91688],[120.99523,5.91683],[120.99831,5.914],[121.00132,5.91624],[121.00533,5.92419],[121.00876,5.92367],[121.01467,5.92579],[121.0147,5.92707],[121.02007,5.92623],[121.02231,5.92719],[121.0225,5.92986],[121.02519,5.92999],[121.02668,5.92927],[121.02644,5.92303],[121.03275,5.93014],[121.03552,5.92775],[121.03357,5.92634],[121.03522,5.92403],[121.03401,5.92309],[121.03629,5.92297],[121.03713,5.91956],[121.04141,5.91763],[121.04309,5.91853],[121.04315,5.91502],[121.04618,5.91414],[121.04545,5.91163],[121.04968,5.91016],[121.05077,5.91202],[121.05244,5.90941],[121.05434,5.91083],[121.05395,5.90845],[121.0572,5.90765],[121.05641,5.9069],[121.06185,5.90294],[121.06277,5.90131],[121.06024,5.90242],[121.05886,5.89969],[121.06217,5.89969],[121.05882,5.89687],[121.06035,5.8951],[121.05831,5.89387],[121.05633,5.89468],[121.05929,5.88777],[121.05993,5.88974],[121.06531,5.88948],[121.06628,5.89337],[121.06839,5.89465],[121.06609,5.89769],[121.06803,5.89821],[121.06981,5.90157],[121.07308,5.89743],[121.07508,5.89819],[121.07583,5.90085],[121.08021,5.89904],[121.08017,5.90081],[121.08455,5.90202],[121.08784,5.89876],[121.09062,5.89946],[121.08995,5.90138],[121.09214,5.8999],[121.09294,5.90188],[121.09363,5.89961],[121.09995,5.89917],[121.10319,5.9012],[121.10334,5.90495],[121.10511,5.90612],[121.10392,5.90885],[121.10623,5.90977],[121.1084,5.90757],[121.11068,5.90794],[121.11122,5.91025],[121.11412,5.91018],[121.11452,5.90835],[121.11676,5.90913],[121.1148,5.90371],[121.12452,5.906],[121.12435,5.90742],[121.11893,5.90838],[121.12156,5.9101],[121.12422,5.90895],[121.12713,5.91043],[121.12744,5.909],[121.13046,5.90814],[121.13107,5.91353],[121.13863,5.91077],[121.13948,5.91308],[121.13701,5.91478],[121.13537,5.91926],[121.13756,5.92288],[121.14181,5.92392],[121.14209,5.92665],[121.14443,5.92674],[121.14771,5.93052],[121.14927,5.92923],[121.1504,5.93223],[121.15394,5.93407],[121.15521,5.93357],[121.15436,5.92663],[121.15834,5.92956],[121.15922,5.92515],[121.16227,5.9248],[121.16544,5.92959],[121.16311,5.93274],[121.1657,5.9346],[121.1659,5.93329],[121.16753,5.93553],[121.16508,5.93949],[121.16781,5.94235],[121.16682,5.94627],[121.16919,5.9439],[121.17437,5.94438],[121.17624,5.94167],[121.17637,5.93766],[121.17823,5.93712],[121.17702,5.93887],[121.1783,5.94029],[121.18265,5.93803],[121.18401,5.93966],[121.18178,5.93993],[121.18121,5.94233],[121.18665,5.94412],[121.18545,5.94529],[121.18881,5.94739],[121.18733,5.94959],[121.18934,5.95148],[121.19207,5.95132],[121.19523,5.95648],[121.1949,5.9492],[121.19622,5.95475],[121.19799,5.95465],[121.19905,5.95184],[121.20093,5.95143],[121.19952,5.95047],[121.20101,5.94754],[121.20609,5.94906],[121.2082,5.9471],[121.2149,5.94795],[121.21714,5.94629],[121.21588,5.94453],[121.21838,5.94547],[121.21909,5.94419],[121.21642,5.93939],[121.21936,5.93907],[121.21765,5.93803],[121.21926,5.93596],[121.22326,5.94071],[121.22469,5.93907],[121.22667,5.94036],[121.2266,5.94236],[121.22816,5.94123],[121.23243,5.94229],[121.23812,5.93629],[121.23901,5.93206],[121.24224,5.93256],[121.24319,5.92373],[121.24639,5.92699],[121.2472,5.92489],[121.24585,5.92227],[121.24792,5.9209],[121.24336,5.91698],[121.24133,5.91772],[121.24043,5.91138],[121.23797,5.9103],[121.23981,5.90892],[121.23577,5.9079],[121.23664,5.9058],[121.23319,5.90224],[121.23695,5.8959],[121.24035,5.89718],[121.24377,5.89431],[121.24386,5.8924],[121.24003,5.89244],[121.2392,5.89077],[121.24232,5.88875],[121.24392,5.88996],[121.24784,5.88846],[121.2458,5.89151],[121.2499,5.89001],[121.24827,5.89455],[121.25105,5.89374],[121.2499,5.89245],[121.25127,5.89069],[121.25416,5.8924],[121.25319,5.89317],[121.25502,5.89558],[121.25545,5.89332],[121.25685,5.89498],[121.25842,5.89269],[121.2609,5.89369],[121.26079,5.88528],[121.26313,5.88449],[121.26502,5.88091],[121.26785,5.88053],[121.26816,5.88436],[121.27228,5.87909],[121.28169,5.87779],[121.28391,5.87458],[121.28566,5.87589],[121.29281,5.87437],[121.30469,5.87811],[121.30555,5.88212],[121.31982,5.8943],[121.32917,5.89917],[121.33585,5.90004],[121.33784,5.90147],[121.33874,5.90279],[121.33688,5.90111],[121.33656,5.90149],[121.34951,5.91253],[121.34977,5.91548],[121.35384,5.9188],[121.36047,5.91867],[121.36914,5.91484],[121.37542,5.91681],[121.37706,5.9139],[121.37951,5.91407],[121.38029,5.91714],[121.38544,5.92192],[121.38469,5.92404],[121.38002,5.92458],[121.37821,5.92917],[121.3796,5.93028],[121.37877,5.93207],[121.38293,5.93249],[121.38396,5.93592],[121.38253,5.9373],[121.38435,5.94063],[121.39266,5.94088],[121.39933,5.94518],[121.40741,5.94213],[121.41374,5.94554],[121.42379,5.95652],[121.42687,5.96569],[121.42552,5.98308],[121.41851,5.99555],[121.41154,5.99932],[121.40732,5.99882],[121.40433,6.00125],[121.40614,6.00292],[121.40268,6.00328],[121.40211,6.00182],[121.39881,6.00587],[121.39625,6.00558],[121.39401,6.01056],[121.38702,6.01102],[121.37957,6.00894],[121.37672,6.00596],[121.37833,6.00444],[121.37726,6.00239],[121.3712,5.99621],[121.36983,5.9921],[121.37136,5.9908],[121.36779,5.98866],[121.36834,5.98664],[121.36193,5.98361],[121.36044,5.98455],[121.3591,5.98273],[121.35489,5.98669],[121.35583,5.98967],[121.35425,5.99034],[121.34962,5.98771],[121.3509,5.99265],[121.34789,5.99398],[121.34472,5.99245],[121.34675,5.99567],[121.34591,5.99705],[121.34862,5.99691],[121.35077,6.00061],[121.34808,6.00391],[121.34622,6.00259],[121.34833,5.99889],[121.34567,5.99849],[121.34388,5.99499],[121.3384,5.99736],[121.33581,5.99591],[121.33605,5.9938],[121.33156,5.99619],[121.33176,5.99788],[121.33051,5.99382],[121.32721,5.99365],[121.31905,5.99805],[121.31962,6.00095],[121.32201,6.00178],[121.32712,6.00017],[121.32695,6.00164],[121.31386,6.00279],[121.31003,6.00547],[121.3117,6.00728],[121.31071,6.0082],[121.30925,6.00648],[121.30721,6.00802],[121.30932,6.01195],[121.30719,6.01102],[121.30216,6.01302],[121.30123,6.01299],[121.30711,6.0107],[121.30661,6.00858],[121.30437,6.00968],[121.30323,6.00761],[121.30073,6.00788],[121.30085,6.01062],[121.29787,6.01413],[121.28019,6.01895],[121.2729,6.01829],[121.26082,6.01375],[121.24817,6.01449],[121.24493,6.01019],[121.24278,6.01073],[121.2411,6.00757],[121.2375,6.00848],[121.24032,6.00953],[121.24012,6.01006],[121.23573,6.00752],[121.23374,6.00835],[121.2303,6.00726],[121.23261,6.00561],[121.23128,6.00365],[121.21954,5.99584],[121.20625,5.99616],[121.20019,6.00206],[121.20069,6.0035],[121.19415,6.00829],[121.19257,6.01231],[121.18902,6.01481],[121.18899,6.01707],[121.18655,6.0174],[121.18732,6.0186],[121.1832,6.02515],[121.18196,6.03891],[121.1686,6.05285],[121.16178,6.05775],[121.15676,6.07435],[121.15385,6.07776],[121.15018,6.07833],[121.14723,6.07589],[121.13407,6.07893],[121.12989,6.084],[121.12115,6.09044],[121.11073,6.09075],[121.08838,6.08582],[121.06867,6.08582],[121.05917,6.09096],[121.05775,6.0893],[121.04359,6.08568],[121.03937,6.08573],[121.0279,6.09017],[121.01734,6.08685],[121.01406,6.0845],[121.01537,6.07913],[121.0136,6.06923],[121.0088,6.06541],[121.00679,6.06625],[121.00733,6.06402],[121.00897,6.06475],[121.00676,6.06332],[121.00826,6.06097],[121.00619,6.06083],[121.00343,6.05721],[121.00092,6.05745],[120.9981,6.05321],[120.99761,6.05469],[120.99623,6.05491],[120.99695,6.0532],[120.9958,6.05299],[120.99229,6.05491],[120.99356,6.05168],[120.99077,6.05032],[120.98954,6.05139],[120.99174,6.0524],[120.98977,6.05352],[120.98896,6.05166],[120.98564,6.05079],[120.98341,6.04456],[120.97933,6.04494],[120.97863,6.04255],[120.9751,6.04325],[120.97082,6.04276],[120.97499,6.04251],[120.97088,6.04011],[120.96493,6.04276],[120.96694,6.04381],[120.96516,6.04388],[120.96042,6.04119],[120.9591,6.03596],[120.95777,6.03741],[120.9486,6.03252],[120.94191,6.0352],[120.93796,6.03128],[120.92866,6.03043],[120.9194,6.02628],[120.91504,6.01788],[120.90759,6.01159],[120.90751,6.0098],[120.8989,6.00509],[120.89562,6.00079],[120.88995,5.989],[120.88867,5.97759],[120.88796,5.97584],[120.88645,5.97627],[120.88774,5.97473],[120.87963,5.9618],[120.87769,5.96191],[120.87844,5.96083],[120.87645,5.96013],[120.87283,5.95292]]]}}]}