{"type": "FeatureCollection", "features": [{"type": "Feature", "properties": {"name": "Tsengel", "admin": "sum", "source": "\u00a9 OpenStreetMap contributors, ODbL 1.0", "osm_relation": 7305002}, "geometry": {"type": "Polygon", "coordinates": [[[87.7345852, 48.8805953], [87.737033, 48.8797104], [87.738374, 48.8785857], [87.7381073, 48.8745433], [87.7384855, 48.8732616], [87.7391603, 48.872225], [87.7395861, 48.8714134], [87.7404641, 48.8696551], [87.7423438, 48.867535], [87.7480601, 48.8651665], [87.7521585, 48.8649971], [87.7588748, 48.8656182], [87.7718352, 48.8673685], [87.7780151, 48.8695704], [87.781281, 48.869462], [87.7848588, 48.8649829], [87.7885508, 48.8604658], [87.792499, 48.8555388], [87.7933358, 48.8525033], [87.7911042, 48.8496511], [87.7911901, 48.8467423], [87.7936577, 48.8443699], [87.7962434, 48.8440592], [87.7971982, 48.8442287], [87.7991655, 48.8442213], [87.8030562, 48.843438], [87.8080988, 48.8427177], [87.8131413, 48.8426471], [87.8116822, 48.840331], [87.8118954, 48.8393362], [87.8139996, 48.8363483], [87.8167891, 48.8337071], [87.8190422, 48.8301759], [87.8248357, 48.8276615], [87.823441, 48.8262064], [87.8220462, 48.8247514], [87.8186988, 48.8235365], [87.8145361, 48.8232822], [87.8078413, 48.8236778], [87.801164, 48.825393], [87.7966832, 48.8250905], [87.7922201, 48.8231692], [87.7939796, 48.8219259], [87.7997303, 48.8211913], [87.8038072, 48.8194959], [87.8090858, 48.8184645], [87.8115106, 48.8176592], [87.8124117, 48.816868], [87.8131198, 48.8150594], [87.8133713, 48.8121278], [87.8172397, 48.8099724], [87.8173463, 48.8043599], [87.8217458, 48.802652], [87.8298568, 48.7984684], [87.8339151, 48.7978724], [87.8368902, 48.7977003], [87.8409645, 48.7968368], [87.8452141, 48.7958947], [87.8471077, 48.7969145], [87.8481343, 48.7997288], [87.8518161, 48.8001714], [87.8547692, 48.8015778], [87.8570926, 48.8010148], [87.8613996, 48.7976203], [87.8638887, 48.796645], [87.8697466, 48.7958959], [87.8737695, 48.794462], [87.8757333, 48.7885168], [87.8804111, 48.7869334], [87.8844022, 48.7857175], [87.8870201, 48.7837382], [87.8897237, 48.779652], [87.8994655, 48.7743352], [87.9065251, 48.7726524], [87.9114389, 48.7678157], [87.9171466, 48.7656659], [87.9234981, 48.7619036], [87.9246139, 48.7594989], [87.9267597, 48.7583673], [87.9350423, 48.7556229], [87.9429817, 48.7602345], [87.94281, 48.7612529], [87.944591, 48.7617197], [87.9443979, 48.7623279], [87.9452562, 48.7630634], [87.9450631, 48.7639969], [87.948389, 48.7656517], [87.9567575, 48.768636], [87.9596114, 48.7702341], [87.9640531, 48.7704462], [87.9652762, 48.7714079], [87.9711771, 48.7701634], [87.9743957, 48.7671651], [87.978301, 48.7653547], [87.9825925, 48.764789], [87.9856824, 48.7648173], [87.9903602, 48.7620733], [87.9956388, 48.7614792], [87.9996299, 48.7603759], [88.0007028, 48.759018], [88.001604, 48.7582824], [88.0047798, 48.7568961], [88.0063676, 48.7544346], [88.00767, 48.752962], [88.012908, 48.750919], [88.017616, 48.749902], [88.0212593, 48.7495396], [88.0246925, 48.7502187], [88.0258083, 48.7495962], [88.0253791, 48.7469929], [88.0271387, 48.7433706], [88.0286407, 48.7425499], [88.0288124, 48.7414462], [88.032546, 48.7385594], [88.0354642, 48.7373707], [88.0413866, 48.732191], [88.0448627, 48.7282563], [88.0459356, 48.7257934], [88.0498409, 48.7208389], [88.0494976, 48.7180076], [88.0505275, 48.7159123], [88.0520725, 48.7152044], [88.054819, 48.7118065], [88.065977, 48.7148647], [88.0726718, 48.7167901], [88.0796885, 48.7161105], [88.0879068, 48.714893], [88.0903959, 48.7137037], [88.0910396, 48.7125993], [88.089893, 48.710979], [88.0879926, 48.7070206], [88.0862331, 48.7046982], [88.0866622, 48.7002516], [88.0804824, 48.6968526], [88.0753326, 48.69351], [88.0734872, 48.691527], [88.0748605, 48.6881274], [88.0724573, 48.6860592], [88.0716419, 48.6832259], [88.0677366, 48.6806475], [88.0565786, 48.6775022], [88.0513, 48.6735349], [88.0513858, 48.6702758], [88.0481243, 48.6686887], [88.0452489, 48.6677817], [88.042674, 48.6672999], [88.0334043, 48.663757], [88.029767, 48.660717], [88.0258512, 48.6580877], [88.0225038, 48.6575491], [88.0183839, 48.6510286], [88.0099725, 48.6487037], [88.0136203, 48.6470876], [88.0185985, 48.6464638], [88.021897, 48.640006], [88.024141, 48.637842], [88.0287265, 48.6348939], [88.0282116, 48.6309516], [88.02598, 48.628796], [88.0205297, 48.6276897], [88.0157232, 48.6283705], [88.0130624, 48.6248815], [88.0095434, 48.6226689], [88.0043077, 48.6193498], [88.0018186, 48.6184987], [88.0009603, 48.6173923], [87.9978919, 48.615846], [87.9964328, 48.6155339], [87.9943728, 48.6159595], [87.9904461, 48.6157467], [87.9826784, 48.612342], [87.981348, 48.6117462], [87.978301, 48.6116611], [87.976799, 48.6098735], [87.9730653, 48.608398], [87.9700613, 48.6076318], [87.9692244, 48.6054752], [87.9693532, 48.6043542], [87.9674005, 48.602538], [87.9657697, 48.6018143], [87.9618001, 48.6009771], [87.9604912, 48.5981817], [87.9587745, 48.596649], [87.9579806, 48.5951873], [87.9563284, 48.5946197], [87.954998, 48.5937823], [87.9576587, 48.5926754], [87.9597616, 48.5908303], [87.964611, 48.5879349], [87.9672288, 48.585011], [87.9673147, 48.5811499], [87.9688596, 48.5776577], [87.9688167, 48.5754714], [87.9704904, 48.5731714], [87.9767131, 48.5722344], [87.979652, 48.570293], [87.982522, 48.568859], [87.986351, 48.567425], [87.9909611, 48.5668672], [87.99475, 48.568843], [87.997334, 48.5697496], [88.0005312, 48.5676482], [88.0033636, 48.5662708], [88.0104232, 48.5636438], [88.0136418, 48.5628912], [88.0137706, 48.5607184], [88.0130839, 48.5590143], [88.0139851, 48.5565431], [88.0144143, 48.5550518], [88.0131912, 48.5538446], [88.0136418, 48.5527083], [88.015214, 48.551438], [88.018453, 48.549106], [88.0201435, 48.5485039], [88.0221605, 48.5480494], [88.0244565, 48.5492141], [88.0263448, 48.5492283], [88.029778, 48.5496829], [88.0321169, 48.5506346], [88.0342197, 48.549484], [88.0375886, 48.548234], [88.038919, 48.546913], [88.0406785, 48.5452935], [88.0439186, 48.5442707], [88.0453992, 48.5432905], [88.046, 48.5432053], [88.048768, 48.5411453], [88.050666, 48.541203], [88.0535745, 48.5419409], [88.0561924, 48.5431911], [88.0591106, 48.5447821], [88.0606341, 48.5451231], [88.0632949, 48.5450094], [88.0648184, 48.5442423], [88.0659556, 48.5459044], [88.0688739, 48.5477937], [88.0730581, 48.548305], [88.076206, 48.547915], [88.0794096, 48.5477511], [88.0808472, 48.543532], [88.083667, 48.541418], [88.0859971, 48.540776], [88.0885291, 48.542225], [88.0906105, 48.542978], [88.0919194, 48.5442423], [88.093941, 48.545195], [88.097687, 48.544517], [88.0994296, 48.5429922], [88.1001377, 48.5423529], [88.1009316, 48.5419267], [88.1007814, 48.5410459], [88.1060385, 48.5391848], [88.1074548, 48.5375083], [88.1076693, 48.5361017], [88.1071114, 48.5347519], [88.1067896, 48.5333595], [88.107358, 48.532369], [88.1079912, 48.532038], [88.1089139, 48.5303329], [88.109082, 48.528547], [88.1097293, 48.5269935], [88.1130981, 48.5252313], [88.113184, 48.5246486], [88.1141066, 48.5241512], [88.1140208, 48.5234975], [88.1158232, 48.5223037], [88.1183982, 48.5224174], [88.1240201, 48.5253876], [88.1277966, 48.5265813], [88.130393, 48.5270503], [88.1322598, 48.5278177], [88.1345987, 48.5275903], [88.1376028, 48.5280024], [88.1392979, 48.5278461], [88.1434392, 48.5280593], [88.1424737, 48.5273771], [88.1426668, 48.5255013], [88.1445551, 48.5211809], [88.1461, 48.5196033], [88.1485247, 48.5180541], [88.1500697, 48.5181821], [88.1524944, 48.5181394], [88.152473, 48.5171445], [88.1561422, 48.5128803], [88.1587171, 48.5115725], [88.1614208, 48.5077059], [88.1645107, 48.5065117], [88.167876, 48.503749], [88.1696176, 48.5028579], [88.1727934, 48.5018627], [88.1752395, 48.4989764], [88.1794238, 48.4980095], [88.1846809, 48.4963317], [88.1871485, 48.4961184], [88.1890154, 48.4962321], [88.1918263, 48.4950235], [88.1930494, 48.4950946], [88.1951093, 48.4971422], [88.1956029, 48.4990048], [88.2010531, 48.4993887], [88.2028341, 48.5003414], [88.2061171, 48.5003414], [88.2094002, 48.5020902], [88.21358, 48.502377], [88.2163095, 48.5019764], [88.2200861, 48.4996731], [88.2228327, 48.4989337], [88.2275319, 48.4989195], [88.2294845, 48.4980522], [88.23177, 48.497311], [88.2337117, 48.4968151], [88.2370591, 48.4977678], [88.2425952, 48.500839], [88.2451916, 48.4994883], [88.2469511, 48.4988484], [88.250041, 48.499147], [88.2530236, 48.4995594], [88.2530451, 48.4990191], [88.254354, 48.4978247], [88.2534313, 48.4965734], [88.2535815, 48.4946253], [88.2550406, 48.4929474], [88.257122, 48.4917813], [88.2611131, 48.4914827], [88.2624435, 48.491568], [88.2645893, 48.4892357], [88.2674646, 48.4879416], [88.2737302, 48.4868039], [88.2805967, 48.4864625], [88.2831716, 48.4852394], [88.2867336, 48.4847843], [88.2893514, 48.4851825], [88.293128, 48.4849265], [88.2945442, 48.4826082], [88.2967757, 48.4808872], [88.2999944, 48.48056], [88.3026981, 48.4814276], [88.3047581, 48.4809156], [88.3060026, 48.4805742], [88.306539, 48.4802329], [88.3076334, 48.4799768], [88.3105516, 48.4790665], [88.3119249, 48.4767906], [88.3129549, 48.4748275], [88.3158302, 48.4743154], [88.3182764, 48.4743154], [88.3221173, 48.4749413], [88.3224606, 48.4739598], [88.3244133, 48.4728502], [88.3267951, 48.4720677], [88.3293271, 48.4720393], [88.3307647, 48.4729071], [88.3310222, 48.4718828], [88.3310222, 48.4718686], [88.3324384, 48.4707874], [88.3319235, 48.4698769], [88.3354425, 48.4670599], [88.3396053, 48.465381], [88.3436822, 48.4655518], [88.3471584, 48.4657794], [88.3486604, 48.4648404], [88.3513641, 48.4629338], [88.3561277, 48.4591488], [88.3586168, 48.4585511], [88.3572006, 48.4584088], [88.355205, 48.4574981], [88.3532095, 48.4564735], [88.3529091, 48.4546235], [88.3522224, 48.4522326], [88.3504414, 48.4495286], [88.3483386, 48.4487315], [88.3462572, 48.4477352], [88.3464718, 48.4468101], [88.3459568, 48.4459703], [88.347373, 48.4444758], [88.3489179, 48.4437783], [88.350528, 48.440917], [88.3507418, 48.4392375], [88.3496904, 48.436974], [88.34939, 48.4353511], [88.3519649, 48.4330162], [88.3557844, 48.4314359], [88.3581447, 48.4310942], [88.3620715, 48.4319485], [88.3650541, 48.4313647], [88.3688307, 48.4300121], [88.3694744, 48.4290867], [88.3710837, 48.4284887], [88.3729291, 48.4263671], [88.3746457, 48.4258403], [88.3756757, 48.4250998], [88.3773279, 48.4237328], [88.3812761, 48.4223516], [88.3841514, 48.4183215], [88.3883571, 48.4160286], [88.3915543, 48.4135362], [88.3964252, 48.4127956], [88.4019184, 48.4104882], [88.4053087, 48.4081238], [88.4105014, 48.4056737], [88.4159088, 48.4041068], [88.42191, 48.403471], [88.426466, 48.4003174], [88.4290623, 48.3961146], [88.431015, 48.39412], [88.4333539, 48.3921394], [88.4338259, 48.3905578], [88.4360575, 48.3880215], [88.4371733, 48.386853], [88.4425163, 48.3865822], [88.444941, 48.3876225], [88.4510994, 48.3889192], [88.453567, 48.3905578], [88.454833, 48.3899594], [88.45788, 48.3900876], [88.4618926, 48.3907431], [88.4669351, 48.3934218], [88.4671068, 48.3942482], [88.4682226, 48.3947326], [88.4691667, 48.395502], [88.4743166, 48.395673], [88.4762477, 48.3966418], [88.4782648, 48.3995197], [88.4774065, 48.4023689], [88.4779644, 48.4036225], [88.4816551, 48.4051894], [88.4844875, 48.4071267], [88.4868478, 48.4070697], [88.4916973, 48.4063005], [88.4932851, 48.4052464], [88.497405, 48.403423], [88.4997654, 48.4030384], [88.5036063, 48.40348], [88.5061598, 48.4038646], [88.508048, 48.4025683], [88.5107946, 48.4009158], [88.514142, 48.4004314], [88.5162019, 48.4003744], [88.5159874, 48.3983229], [88.5165023, 48.3965278], [88.5180902, 48.3952455], [88.5204505, 48.3929374], [88.520708, 48.3895747], [88.5200643, 48.3880642], [88.5172319, 48.3876652], [88.5149574, 48.3869812], [88.5116958, 48.3854707], [88.5109663, 48.3838747], [88.5110521, 48.3822785], [88.5133695, 48.3793712], [88.5193777, 48.3754945], [88.5239267, 48.3728718], [88.5280036, 48.3710758], [88.5291624, 48.3677972], [88.5312652, 48.3662291], [88.536458, 48.3646039], [88.5377455, 48.3648462], [88.5402345, 48.3650173], [88.541801, 48.366728], [88.5427236, 48.3683389], [88.5436034, 48.3688093], [88.5459208, 48.370862], [88.5488391, 48.3713609], [88.551929, 48.3693652], [88.6278064, 48.4316283], [88.6211976, 48.519252], [88.7930242, 48.6394876], [88.837633, 48.6121864], [88.8458939, 48.5684738], [88.8359808, 48.5444158], [88.8607635, 48.519252], [88.8822418, 48.5815916], [88.8954593, 48.6089093], [88.9417203, 48.6220165], [88.9879813, 48.6263849], [89.0061552, 48.6427627], [89.0127639, 48.6787753], [89.1581556, 48.7746831], [89.2341558, 48.732201], [89.2457211, 48.7714165], [89.2638951, 48.7964548], [89.2985908, 48.8029844], [89.3101561, 48.8269193], [89.3266778, 48.8899655], [89.2027645, 49.0342373], [89.2341558, 49.0656396], [89.1746774, 49.0721342], [89.0788511, 49.1273037], [89.0342423, 49.1456799], [89.0127639, 49.1273037], [88.9846769, 49.1554057], [88.9169376, 49.1543251], [88.8938071, 49.1067575], [88.7963286, 49.0840387], [88.7550241, 49.1251413], [88.6872848, 49.1348712], [88.6344151, 49.1316281], [88.5931106, 49.1229789], [88.5171104, 49.1662099], [88.4658929, 49.1543251], [88.3700665, 49.1618885], [88.3254577, 49.1543251], [88.272588, 49.1370331], [88.1387615, 49.1327091], [88.1007614, 49.1154095], [88.0545004, 49.1067575], [87.8661043, 49.1103689], [87.8654325, 49.1099963], [87.8643384, 49.1095704], [87.8593033, 49.1075313], [87.8567251, 49.1058977], [87.8562033, 49.1049601], [87.8559923, 49.1042189], [87.8555884, 49.1032002], [87.8554344, 49.1025893], [87.8559493, 49.1014092], [87.8553427, 49.1001738], [87.8529192, 49.0979657], [87.8502029, 49.0971499], [87.8482272, 49.096698], [87.8452508, 49.0972328], [87.840414, 49.0975597], [87.8388475, 49.0971242], [87.8382682, 49.0942157], [87.8374413, 49.0915031], [87.8349062, 49.0889963], [87.8360805, 49.0876353], [87.8360318, 49.0840488], [87.8365016, 49.0817684], [87.8388796, 49.0803884], [87.8401985, 49.0789376], [87.840795, 49.0786165], [87.8431883, 49.0782613], [87.84618, 49.0789527], [87.8475863, 49.0786287], [87.8503108, 49.0778462], [87.8518679, 49.0752799], [87.8520739, 49.0730042], [87.852352, 49.0708627], [87.8519154, 49.0688897], [87.8514331, 49.0679857], [87.8511553, 49.0676041], [87.8505503, 49.0672367], [87.850996, 49.0649632], [87.8510217, 49.0644463], [87.8504459, 49.0637937], [87.8496805, 49.063436], [87.8478184, 49.0635278], [87.8440189, 49.0634884], [87.8399752, 49.0625287], [87.8353272, 49.0604366], [87.8340625, 49.0593011], [87.832883, 49.0578006], [87.8315215, 49.0571564], [87.8313397, 49.0562444], [87.8318319, 49.0554468], [87.8318738, 49.0542812], [87.8311229, 49.0534937], [87.8288983, 49.0524315], [87.8271532, 49.0508921], [87.8260987, 49.049783], [87.8262235, 49.0492013], [87.8281714, 49.0483918], [87.8290044, 49.0457219], [87.828886, 49.0445551], [87.8306112, 49.0418414], [87.8361284, 49.0384593], [87.8382411, 49.0382594], [87.840898, 49.0371295], [87.8436183, 49.0367343], [87.8473618, 49.0367088], [87.8494423, 49.0361382], [87.8553924, 49.0375928], [87.8573588, 49.0373563], [87.8595524, 49.036506], [87.8605385, 49.0348439], [87.8608562, 49.0330758], [87.860782, 49.0322527], [87.8621917, 49.0304826], [87.8619083, 49.0278168], [87.8621688, 49.027031], [87.8634207, 49.0253961], [87.8719433, 49.0251019], [87.8741542, 49.0239491], [87.8762483, 49.0221107], [87.8775324, 49.0201538], [87.8815423, 49.0191398], [87.8835654, 49.0181002], [87.8839328, 49.017122], [87.8835583, 49.0165269], [87.8822136, 49.0158978], [87.8773534, 49.0137446], [87.874271, 49.0113593], [87.8726554, 49.0100713], [87.8696083, 49.0078985], [87.8664896, 49.0057886], [87.8668004, 49.0043197], [87.868999, 49.0028101], [87.8743889, 49.0003538], [87.8729822, 48.999082], [87.8691459, 48.9977614], [87.8689098, 48.996959], [87.8714203, 48.993566], [87.876823, 48.9905446], [87.8852176, 48.9890745], [87.8876209, 48.9868216], [87.8910604, 48.9862931], [87.8942548, 48.9865424], [87.8971855, 48.9867648], [87.899359, 48.9851371], [87.9000466, 48.983983], [87.9011855, 48.9829805], [87.9008651, 48.9820183], [87.8996712, 48.9806874], [87.8991353, 48.979354], [87.8977681, 48.978721], [87.8968833, 48.9770273], [87.8944876, 48.9762483], [87.8919179, 48.976751], [87.8898552, 48.9755049], [87.887137, 48.9749796], [87.88378, 48.9755888], [87.8803253, 48.975344], [87.8747579, 48.9722764], [87.873935, 48.9709898], [87.8711118, 48.9700238], [87.8683862, 48.9699545], [87.866984, 48.9686277], [87.8665968, 48.9670313], [87.8679904, 48.964192], [87.8671503, 48.9620465], [87.8664189, 48.9590532], [87.8670644, 48.9565518], [87.8705835, 48.9540719], [87.8709268, 48.9518174], [87.8706264, 48.9503519], [87.8677511, 48.94821], [87.8605413, 48.9472517], [87.8545332, 48.9468853], [87.8519154, 48.9458142], [87.8489112, 48.9465189], [87.8425598, 48.9460961], [87.8375172, 48.946843], [87.8348377, 48.9459515], [87.829771, 48.9454479], [87.822415, 48.9471051], [87.8098797, 48.9513665], [87.8083023, 48.9465197], [87.8093239, 48.9441867], [87.8057753, 48.941187], [87.800172, 48.939106], [87.7963304, 48.9366965], [87.7861187, 48.9304774], [87.7801608, 48.9287168], [87.7753543, 48.9278568], [87.7666854, 48.9283079], [87.7640461, 48.9286604], [87.7593469, 48.9300138], [87.7556347, 48.930479], [87.7535748, 48.9296754], [87.7614497, 48.9215406], [87.7622379, 48.9202283], [87.7615815, 48.9182218], [87.7607795, 48.9171295], [87.7590825, 48.9159477], [87.7540804, 48.9146925], [87.7527829, 48.9145185], [87.7546084, 48.9108027], [87.7541398, 48.9073895], [87.7470564, 48.9024884], [87.7478385, 48.9011921], [87.7462632, 48.8985913], [87.7421543, 48.8961238], [87.7412657, 48.8948828], [87.7408232, 48.8924619], [87.7384767, 48.8894307], [87.7373941, 48.8874537], [87.7366439, 48.8852031], [87.7354527, 48.8839078], [87.7345852, 48.8805953]]]}}]}