{"type": "FeatureCollection", "features": [{"type": "Feature", "properties": {"name": "Kolarivska", "admin": "hromada", "source": "\u00a9 OpenStreetMap contributors, ODbL 1.0", "osm_relation": 12313142}, "geometry": {"type": "Polygon", "coordinates": [[[36.49298, 47.01285], [36.49334, 47.01174], [36.48265, 47.00969], [36.48557, 47.0058], [36.45766, 47.00313], [36.46549, 46.98705], [36.42621, 46.98366], [36.42672, 46.98248], [36.42537, 46.98118], [36.42933, 46.97406], [36.44003, 46.96694], [36.44121, 46.96464], [36.44003, 46.96279], [36.44077, 46.96187], [36.43496, 46.95854], [36.43538, 46.9566], [36.43104, 46.95276], [36.41935, 46.93546], [36.42752, 46.93475], [36.42783, 46.93162], [36.42229, 46.93119], [36.42677, 46.92843], [36.42928, 46.92343], [36.43456, 46.91944], [36.44828, 46.92008], [36.44943, 46.91384], [36.46302, 46.90333], [36.44964, 46.90151], [36.44498, 46.90241], [36.44438, 46.90375], [36.43376, 46.90308], [36.4368, 46.90018], [36.41173, 46.90875], [36.3337, 46.86162], [36.29052, 46.90813], [36.28411, 46.90794], [36.28119, 46.90981], [36.27829, 46.90872], [36.27143, 46.91152], [36.24797, 46.91202], [36.22747, 46.90101], [36.1615, 46.93185], [36.16856, 46.96451], [36.16736, 46.9742], [36.18001, 46.97475], [36.17558, 47.02068], [36.21931, 47.02321], [36.21761, 47.03937], [36.22008, 47.03942], [36.21827, 47.04805], [36.21636, 47.04903], [36.21726, 47.05196], [36.22068, 47.05308], [36.22868, 47.06034], [36.24255, 47.06382], [36.26161, 47.07651], [36.28026, 47.08252], [36.32619, 47.08665], [36.32493, 47.08953], [36.42505, 47.1032], [36.45791, 47.04909], [36.47259, 47.0515], [36.47259, 47.04884], [36.47498, 47.0481], [36.47525, 47.04503], [36.48154, 47.04341], [36.47757, 47.04006], [36.4858, 47.03653], [36.48445, 47.03517], [36.48537, 47.03049], [36.48887, 47.03245], [36.49198, 47.0305], [36.49511, 47.03134], [36.49344, 47.03], [36.49568, 47.02773], [36.49315, 47.02694], [36.49207, 47.02444], [36.49377, 47.022], [36.49266, 47.02094], [36.49412, 47.02071], [36.49285, 47.01784], [36.49298, 47.01306], [36.49298, 47.01285]]]}},{"type":"Feature","properties":{"name":"Kherson","admin":"hromada","source":"\u00a9 OpenStreetMap contributors, ODbL 1.0","osm_relation":12323074},"geometry":{"type":"Polygon","coordinates":[[[32.4821395,46.627173],[32.4815709,46.6306507],[32.4721825,46.6309768],[32.4716894,46.6238227],[32.4636898,46.6369578],[32.4486414,46.6398442],[32.4500618,46.6481679],[32.4395648,46.6468208],[32.4372072,46.6570354],[32.427284,46.6555847],[32.4140123,46.7075822],[32.4285821,46.7078282],[32.4263608,46.7170297],[32.4517401,46.7197478],[32.462601,46.6992686],[32.5318175,46.6909937],[32.5330203,46.6808637],[32.54683,46.6806693],[32.5491327,46.6737879],[32.5599432,46.6751241],[32.5585087,46.669686],[32.5643198,46.6784257],[32.5681286,46.6782188],[32.5636857,46.6824129],[32.5680725,46.6789124],[32.5739182,46.6802797],[32.5701659,46.6823035],[32.5706882,46.6913425],[32.5657014,46.6987926],[32.5731993,46.6997681],[32.5655544,46.7188453],[32.5981344,46.7224172],[32.5876413,46.7648545],[32.5960157,46.7658602],[32.594398,46.7729015],[32.6489367,46.7794049],[32.6447082,46.7969533],[32.627065,46.7950133],[32.6146147,46.8457035],[32.6432847,46.8466835],[32.6412969,46.8568294],[32.6878845,46.8620814],[32.6979802,46.8228321],[32.7073259,46.8210153],[32.6909373,46.7742698],[32.7234427,46.7765424],[32.7249313,46.7662077],[32.73365,46.7664804],[32.7282042,46.7621623],[32.7320574,46.7546389],[32.7489795,46.7597977],[32.7389828,46.7485632],[32.7389828,46.739533],[32.7625554,46.7172816],[32.7766705,46.7125498],[32.8123985,46.7119851],[32.826116,46.7081877],[32.8276531,46.6949726],[32.8119353,46.6838744],[32.8155459,46.6801429],[32.8230619,46.6822164],[32.8284915,46.677055],[32.827675,46.6711228],[32.8161455,46.66423],[32.7939428,46.6600201],[32.79154,46.6548539],[32.7825509,46.6515453],[32.7785486,46.6571894],[32.7293933,46.6520325],[32.7247404,46.6492568],[32.7278925,46.6476553],[32.725302,46.6451798],[32.7065881,46.6335627],[32.7118848,46.6298583],[32.6863811,46.6199024],[32.668051,46.6183133],[32.6450738,46.6074608],[32.6375077,46.6018969],[32.6415476,46.5940911],[32.6353375,46.5948323],[32.6223287,46.5834008],[32.6174329,46.5878295],[32.599535,46.5774266],[32.5797399,46.5725129],[32.5692503,46.5546015],[32.5557103,46.559491],[32.5321055,46.552766],[32.5124528,46.5539845],[32.4934071,46.5693623],[32.4709653,46.5700566],[32.4789871,46.5833334],[32.4714918,46.6096625],[32.4821395,46.627173]]]}}]}