{"type":"FeatureCollection","features":[{"type":"Feature","properties":{"name":"Qaghiliq","admin":"nahiyisi","source":"\u00a9 OpenStreetMap contributors, ODbL 1.0","osm_relation":2748424},"geometry":{"type":"Polygon","coordinates":[[[78.4516522,38.3769231],[78.3860772,38.376116],[78.361358,38.382037],[78.2460015,38.3750394],[78.0070489,38.3852664],[77.7736885,38.387716],[77.7772396,38.3365064],[77.7765813,38.3320314],[77.7379631,38.3115461],[77.7346717,38.3060365],[77.7373048,38.295877],[77.7357688,38.2924328],[77.7287473,38.2872661],[77.7057081,38.257637],[77.6914457,38.2464368],[77.6804746,38.2393712],[77.6706006,38.2366137],[77.5924864,38.2329943],[77.5674724,38.2331666],[77.5385087,38.2302365],[77.5126169,38.2247207],[77.4916332,38.2227248],[77.4777506,38.2253668],[77.4725368,38.2206605],[77.4662,38.2221874],[77.4627397,38.2210002],[77.4629827,38.2188902],[77.4668426,38.2161035],[77.4676772,38.2136446],[77.4661123,38.2113495],[77.4627741,38.2106938],[77.4565148,38.2105298],[77.4532809,38.2078248],[77.4535939,38.2028243],[77.4511945,38.2010208],[77.4460828,38.1988893],[77.4463957,38.1965117],[77.4495254,38.194626],[77.4482735,38.1895427],[77.444205,38.1876568],[77.4435791,38.1859349],[77.4458741,38.1815069],[77.4466044,38.1788008],[77.4448309,38.1782268],[77.441284,38.1780628],[77.4399279,38.1765046],[77.4408667,38.1747825],[77.4429532,38.1737163],[77.4433704,38.1724861],[77.4410754,38.1708459],[77.4372155,38.1687135],[77.4350248,38.166499],[77.4343989,38.1642025],[77.4329384,38.1637103],[77.4310606,38.162644],[77.43346,38.1605114],[77.4327297,38.1590349],[77.4294958,38.1586248],[77.4283483,38.1575584],[77.4286612,38.1559178],[77.4299131,38.1542772],[77.4301217,38.1500934],[77.4289742,38.1477963],[77.4277223,38.1459914],[77.4283483,38.145089],[77.4304347,38.1454992],[77.4333557,38.1461555],[77.4355464,38.1459094],[77.4371112,38.1431199],[77.4370069,38.1413969],[77.4355464,38.1412328],[77.4333557,38.1424635],[77.4315822,38.1422174],[77.4304347,38.1400021],[77.430852,38.1380329],[77.4324168,38.1351611],[77.4356507,38.1349149],[77.435755,38.1311403],[77.4348161,38.1295812],[77.4332513,38.1297453],[77.4324168,38.1311403],[77.4310606,38.1310583],[77.4289742,38.1300736],[77.42501,38.125396],[77.4249057,38.1230982],[77.4232365,38.1216209],[77.4234452,38.1185022],[77.4270964,38.1173532],[77.4283483,38.1157117],[77.4278267,38.1139881],[77.4251143,38.1139881],[77.4232365,38.1099662],[77.4214631,38.1080782],[77.4188551,38.1070932],[77.4179162,38.105944],[77.4203156,38.1045485],[77.4206285,38.103153],[77.4192724,38.1023321],[77.4155168,38.1039739],[77.4140563,38.1041381],[77.4138477,38.1027425],[77.4149952,38.1011828],[77.4129088,38.1003619],[77.4107181,38.0985558],[77.4074841,38.096996],[77.4076928,38.0946972],[77.4067539,38.0942867],[77.4034156,38.0941225],[77.403207,38.0932194],[77.4042502,38.0906742],[77.4023724,38.0901816],[77.4001817,38.0914132],[77.3979909,38.0904279],[77.3962175,38.0894427],[77.3920447,38.0899353],[77.3915231,38.0888679],[77.3917317,38.0847625],[77.3897496,38.084352],[77.3882891,38.0868153],[77.3864114,38.0864868],[77.3842206,38.0828739],[77.3769182,38.0824634],[77.3741015,38.0792609],[77.3693028,38.0810674],[77.3679466,38.0799999],[77.3696157,38.0777828],[77.3678423,38.0767973],[77.3653386,38.075894],[77.364817,38.0740873],[77.3614787,38.0717057],[77.3585577,38.0711309],[77.3545936,38.0721164],[77.3526115,38.0708845],[77.3526115,38.0692419],[77.3526115,38.0671887],[77.3513596,38.0664495],[77.3500034,38.0671066],[77.3497948,38.0696526],[77.3483343,38.0703096],[77.3469781,38.0702275],[77.3459349,38.0689134],[77.3478127,38.0666959],[77.3464565,38.065464],[77.3441615,38.0657925],[77.3424924,38.0680921],[77.3411362,38.0675172],[77.3405103,38.0648069],[77.3365461,38.0629178],[77.3362331,38.0610287],[77.3373806,38.0588109],[77.334564,38.0560181],[77.3334165,38.0532252],[77.326427,38.0489535],[77.3262183,38.0450923],[77.323819,38.0443529],[77.31829,38.0458317],[77.3163079,38.0427919],[77.312448,38.0390947],[77.3110918,38.0373693],[77.3113005,38.0353973],[77.3097357,38.0334253],[77.306919,38.0321928],[77.306606,38.0303029],[77.3042067,38.0290703],[77.2988863,38.0291524],[77.2989906,38.0270981],[77.2974258,38.0243862],[77.2970085,38.021099],[77.293253,38.0194554],[77.2912709,38.0172364],[77.2866808,38.0172364],[77.2867851,38.0147707],[77.285429,38.0141954],[77.2822993,38.0141954],[77.2822993,38.0117297],[77.2841771,38.0104968],[77.2831339,38.0088529],[77.2735364,38.0031811],[77.2716586,38.0036744],[77.2588272,37.9986599],[77.2573667,37.9966047],[77.2495426,37.9958648],[77.2486038,37.9986599],[77.2445353,38.0001396],[77.2392149,37.9991531],[77.2357723,37.9996464],[77.2328513,37.9981666],[77.2303476,37.9940561],[77.2256532,37.9915897],[77.2168903,37.9892054],[77.2060409,37.9845189],[77.1993644,37.9841077],[77.1923749,37.9842722],[77.1876805,37.9928229],[77.172241,37.9931518],[77.0871154,37.9954537],[77.0630173,37.9951249],[77.0476822,37.9859166],[77.0044842,37.950877],[76.978404,37.9321192],[76.9620715,37.9190275],[76.9337736,37.894621],[76.9031918,37.868662],[76.8854593,37.8538679],[76.8740897,37.8439501],[76.8668466,37.8361575],[76.856179,37.8297067],[76.8480571,37.8159188],[76.8372502,37.7913694],[76.8299781,37.7850755],[76.8207373,37.7717347],[76.8164384,37.7564607],[76.8029018,37.7261973],[76.8015498,37.7130911],[76.7956484,37.706234],[76.8033136,37.7013285],[76.7977319,37.6984154],[76.7902249,37.6972946],[76.7885252,37.6953894],[76.7907747,37.6881795],[76.7847255,37.6824305],[76.7877975,37.6718977],[76.7958256,37.6634802],[76.7929142,37.6608784],[76.7942927,37.6544936],[76.7908628,37.6496889],[76.783827,37.6480149],[76.765319,37.6481525],[76.7574871,37.6484519],[76.7524025,37.6435259],[76.7419296,37.6416362],[76.7260859,37.6431303],[76.7144318,37.6379549],[76.7060853,37.6382484],[76.6965568,37.6353414],[76.6814878,37.6267469],[76.6710588,37.6201784],[76.6655268,37.6147154],[76.6591493,37.6101799],[76.6484453,37.6045264],[76.6383275,37.6022537],[76.6316456,37.5962102],[76.6248638,37.5903194],[76.6165055,37.5846697],[76.6113155,37.578583],[76.60634,37.5713193],[76.6016253,37.5650235],[76.5894903,37.5612573],[76.5769543,37.5618231],[76.5655283,37.5533308],[76.5510611,37.5454161],[76.5411642,37.5408164],[76.5317347,37.5483118],[76.5203931,37.5539125],[76.5004032,37.5513831],[76.4922797,37.5472129],[76.4886015,37.5503326],[76.4828263,37.5517389],[76.4728667,37.5554042],[76.4543587,37.5480685],[76.4442598,37.5475999],[76.4361573,37.5414579],[76.4290719,37.5377584],[76.4145955,37.5387688],[76.412191,37.5201479],[76.4066393,37.5143394],[76.3978712,37.5121685],[76.3835293,37.5110071],[76.3748716,37.499403],[76.3778944,37.4868563],[76.3802568,37.4789504],[76.3751418,37.4736194],[76.3770655,37.4686352],[76.3800542,37.4616558],[76.3677443,37.4544904],[76.362652,37.4505451],[76.3621415,37.4498762],[76.3619426,37.4486035],[76.3580422,37.447151],[76.3581927,37.4429206],[76.3576577,37.4414251],[76.3588524,37.4384176],[76.3579047,37.435995],[76.3584193,37.4340832],[76.358365,37.432847],[76.3590314,37.4316915],[76.3602983,37.4310516],[76.3612427,37.42937],[76.3598671,37.4266448],[76.3604904,37.423118],[76.359913,37.420345],[76.3616733,37.4160779],[76.3614715,37.4155192],[76.3632855,37.4150595],[76.3656954,37.4139158],[76.3660888,37.4128182],[76.3676361,37.4111619],[76.3696512,37.4097151],[76.3709381,37.4089686],[76.3720592,37.4072945],[76.3721594,37.4064016],[76.3724492,37.4048155],[76.3734781,37.4042393],[76.3740606,37.4042373],[76.3742282,37.403235],[76.3751419,37.4030027],[76.3757887,37.4028163],[76.3764342,37.4025584],[76.3783726,37.4018919],[76.3792409,37.4015599],[76.3801296,37.4011202],[76.382186,37.4007743],[76.383168,37.4005303],[76.3837917,37.4003083],[76.3847265,37.3999397],[76.3858569,37.3992289],[76.3865438,37.3987916],[76.3877635,37.3980618],[76.3893134,37.3970062],[76.3897765,37.3965894],[76.3927433,37.3945691],[76.3937881,37.3940918],[76.3943636,37.3936915],[76.3951619,37.393217],[76.3960916,37.39258],[76.3968869,37.3919446],[76.3975527,37.391579],[76.3987332,37.3911716],[76.3992655,37.3908612],[76.3997796,37.3907836],[76.4004262,37.3905971],[76.4011177,37.39041],[76.4022326,37.3900927],[76.403169,37.3898133],[76.4034583,37.3897026],[76.4037463,37.3895203],[76.4040113,37.3893025],[76.4048987,37.388809],[76.4054938,37.3882654],[76.406201,37.3877204],[76.4071349,37.3873158],[76.4076447,37.3870056],[76.4079073,37.3866627],[76.4083515,37.3864427],[76.4092366,37.385824],[76.4096754,37.385318],[76.4103845,37.3848803],[76.4111143,37.3843529],[76.4117582,37.3840232],[76.4124689,37.3836749],[76.413974,37.3826553],[76.4142359,37.3822765],[76.4145432,37.381933],[76.415477,37.3815283],[76.4161222,37.3812702],[76.4168998,37.3809032],[76.4177653,37.3804456],[76.4179161,37.3801219],[76.4180462,37.3798878],[76.4182692,37.3798314],[76.4187853,37.379861],[76.4194352,37.3798532],[76.4200084,37.3793455],[76.4203109,37.3787516],[76.4205232,37.3781231],[76.4207572,37.3774585],[76.4211752,37.377042],[76.4214136,37.3766099],[76.4218127,37.3751921],[76.4218932,37.3747082],[76.422172,37.374043],[76.4226399,37.3727138],[76.4230294,37.3719758],[76.4232169,37.3712223],[76.4232027,37.3704712],[76.4230343,37.3698651],[76.4229642,37.3685245],[76.4229633,37.3672903],[76.4228789,37.3663792],[76.4229115,37.3657348],[76.4229731,37.3642495],[76.4230475,37.3634437],[76.4229325,37.3621036],[76.4229414,37.3613881],[76.4227249,37.3606036],[76.4225169,37.3602663],[76.4215208,37.3585433],[76.4211008,37.357654],[76.421073,37.3573682],[76.4211341,37.3570455],[76.4213751,37.3567564],[76.4218615,37.3564107],[76.4225047,37.3560631],[76.4228146,37.3558627],[76.4229898,37.3556459],[76.4230068,37.3553595],[76.4228436,37.3550216],[76.4225782,37.3540232],[76.4225898,37.3534507],[76.4226974,37.3532169],[76.4228067,37.3530724],[76.423028,37.3529267],[76.4234071,37.3528327],[76.4241691,37.3528414],[76.4259448,37.353142],[76.4265044,37.3531173],[76.4274632,37.3528732],[76.4290546,37.3529077],[76.4300396,37.35286],[76.4310462,37.3527763],[76.432209,37.3526549],[76.4331498,37.3526435],[76.4344697,37.3525381],[76.4353843,37.3523302],[76.4357841,37.3521465],[76.4361177,37.3520173],[76.4366315,37.3519395],[76.4373256,37.3519132],[76.4383549,37.351847],[76.4390917,37.3517128],[76.4400925,37.351325],[76.4404234,37.3510527],[76.4407567,37.3509056],[76.4414734,37.3508968],[76.4423877,37.3506711],[76.4435012,37.3503176],[76.4439916,37.3501865],[76.4444813,37.3500195],[76.4449048,37.349907],[76.4460465,37.3498573],[76.4466481,37.349689],[76.4473601,37.3494299],[76.4479814,37.3491182],[76.4485766,37.3486101],[76.4490604,37.3481391],[76.4490997,37.3478525],[76.4493189,37.3475994],[76.4497603,37.3472541],[76.4500556,37.3463025],[76.4504446,37.3455644],[76.4509233,37.3448252],[76.4511092,37.3444313],[76.4511835,37.3443174],[76.4513085,37.3438904],[76.4512792,37.3423704],[76.4512,37.3417454],[76.4510304,37.3410856],[76.4509226,37.340139],[76.450934,37.3395665],[76.4509901,37.3389934],[76.4511328,37.3382583],[76.4516124,37.3375728],[76.4517183,37.3374904],[76.4517715,37.3374063],[76.4521941,37.337039],[76.4524692,37.3367037],[76.4528806,37.3359654],[76.4532369,37.3358537],[76.4537838,37.3359942],[76.4543096,37.3362991],[76.4553932,37.3363203],[76.455869,37.3362799],[76.4568015,37.3358292],[76.4571541,37.3344163],[76.4590695,37.3324421],[76.4609952,37.3309881],[76.461815,37.3302304],[76.4629607,37.3294849],[76.4635034,37.3291369],[76.4639833,37.3286921],[76.4640978,37.3283006],[76.4641465,37.3276662],[76.4636937,37.3263554],[76.4636824,37.3257704],[76.4636043,37.3248938],[76.463372,37.3239337],[76.4633599,37.3233122],[76.4635775,37.3227244],[76.4641591,37.3220225],[76.4653819,37.3207366],[76.4662613,37.3200401],[76.4668284,37.3191828],[76.4673005,37.3187382],[76.4676696,37.3182948],[76.4681412,37.3178227],[76.4693665,37.317259],[76.4712075,37.3165779],[76.4718872,37.3162129],[76.472429,37.3158222],[76.4730749,37.315485],[76.4748858,37.3150236],[76.476384,37.3143741],[76.4780249,37.3139971],[76.4787399,37.3136865],[76.479213,37.3132966],[76.4797842,37.3126587],[76.4811032,37.3116274],[76.4823969,37.3110627],[76.4834895,37.3107473],[76.4845799,37.3103222],[76.4860082,37.3096187],[76.4865198,37.3094477],[76.4874048,37.3090526],[76.4877078,37.3087471],[76.4877957,37.3079781],[76.4881168,37.3068496],[76.4885095,37.3041295],[76.4886761,37.3021253],[76.4890147,37.3001463],[76.4894023,37.2954242],[76.4896402,37.2935562],[76.4896064,37.290101],[76.4894148,37.2890886],[76.4889385,37.2875588],[76.4883822,37.2854539],[76.4880442,37.2839772],[76.4875706,37.2825844],[76.4871259,37.280917],[76.4868196,37.2793027],[76.4861418,37.2779948],[76.4856377,37.2767944],[76.4847919,37.275224],[76.4835226,37.27387],[76.4826449,37.2728194],[76.4818583,37.2720416],[76.4811655,37.2716735],[76.4809018,37.2713344],[76.480891,37.2707866],[76.4807411,37.2696926],[76.480417,37.2662719],[76.4801754,37.2648709],[76.47982,37.2642246],[76.4794498,37.2628251],[76.478972,37.2602969],[76.4786447,37.2588968],[76.4786253,37.2579039],[76.4789526,37.2571122],[76.4793247,37.2564226],[76.4795308,37.256009],[76.4801171,37.2553168],[76.4814556,37.2536562],[76.4822105,37.2528248],[76.4830858,37.251581],[76.4846424,37.2501231],[76.4865856,37.2487288],[76.4885167,37.2467183],[76.4907195,37.2454576],[76.4918991,37.2444496],[76.4932017,37.2431661],[76.4939176,37.2425406],[76.4941135,37.2416135],[76.4944038,37.2411304],[76.4956255,37.2400875],[76.4961571,37.2388137],[76.4967181,37.2368545],[76.4971968,37.2350676],[76.4973865,37.2338324],[76.4970149,37.2323645],[76.4964291,37.2308993],[76.4961941,37.2306689],[76.4958686,37.2306311],[76.4950736,37.2303124],[76.4943982,37.2299479],[76.4933993,37.2294368],[76.49278,37.2292391],[76.4923095,37.2290195],[76.491783,37.2286331],[76.4912847,37.2283182],[76.4907003,37.2278599],[76.4898479,37.2274456],[76.4889357,37.2270542],[76.4881422,37.2266644],[76.4875549,37.2263484],[76.486413,37.2255744],[76.485606,37.2243775],[76.4849243,37.2228499],[76.4845441,37.2210889],[76.484195,37.219257],[76.4841331,37.2179035],[76.4841191,37.2171202],[76.484187,37.2166939],[76.4842247,37.2162909],[76.4845285,37.2159389],[76.4848036,37.2155389],[76.4848767,37.2148516],[76.4847872,37.214664],[76.4848674,37.2145602],[76.4851409,37.2140535],[76.4853904,37.2139173],[76.4856538,37.2138162],[76.4859022,37.213738],[76.4860495,37.2136354],[76.4862131,37.2134401],[76.4863191,37.2132208],[76.4864832,37.2130022],[76.4868376,37.2127048],[76.4871798,37.2122911],[76.4879248,37.2112032],[76.48827,37.2109572],[76.4883817,37.2108171],[76.4885224,37.2105903],[76.4886639,37.2103199],[76.4887762,37.2101472],[76.488873,37.2100722],[76.4890244,37.209987],[76.4893797,37.2099154],[76.4897353,37.2098328],[76.4901347,37.2094296],[76.4904174,37.2090739],[76.4904712,37.2089358],[76.4904665,37.2087324],[76.4904949,37.2084965],[76.490559,37.2082685],[76.4906691,37.208127],[76.4908276,37.2079479],[76.491144,37.2076183],[76.4912907,37.2074295],[76.4914146,37.2071928],[76.4915518,37.2068896],[76.4916781,37.206529],[76.4918016,37.2063113],[76.4919533,37.2058748],[76.4927217,37.2043881],[76.4930165,37.2039439],[76.4932784,37.2033563],[76.4934072,37.2028718],[76.4934116,37.2026526],[76.4934277,37.2024431],[76.4935391,37.2022348],[76.4936981,37.2020272],[76.4937756,37.2017231],[76.4937339,37.2014271],[76.4936668,37.201207],[76.4936815,37.2010643],[76.4937312,37.20096],[76.4938765,37.2008475],[76.4940567,37.2007735],[76.4943789,37.200749],[76.4947121,37.2007724],[76.4949968,37.2008332],[76.4958284,37.2009581],[76.4961514,37.2008955],[76.4963562,37.2007837],[76.4965235,37.2007572],[76.4967143,37.2007501],[76.4970117,37.2007729],[76.4972258,37.2007947],[76.4974769,37.2007503],[76.4977057,37.2006292],[76.4979107,37.2005079],[76.498068,37.200386],[76.4984775,37.2001624],[76.4986356,37.2000024],[76.4987929,37.1998805],[76.4989847,37.1998257],[76.4991403,37.1997896],[76.4993453,37.1996683],[76.4995395,37.1994896],[76.4996979,37.1993105],[76.4998707,37.1990077],[76.5001274,37.1986868],[76.5002368,37.1985833],[76.5004433,37.1984047],[76.5007073,37.1983317],[76.5008816,37.1982576],[76.500941,37.1982584],[76.500952,37.198255],[76.5009609,37.1982481],[76.5009658,37.1982115],[76.5009778,37.198196],[76.5010055,37.1981777],[76.5010406,37.1981719],[76.5010565,37.1981596],[76.5010529,37.198144],[76.5010377,37.1981251],[76.5010604,37.1980924],[76.5011531,37.1980182],[76.5011748,37.1979966],[76.5012272,37.1979632],[76.5012798,37.1979176],[76.5013171,37.1978791],[76.5013684,37.1977484],[76.5013699,37.1976705],[76.5013319,37.1975897],[76.5013329,37.1975435],[76.5013393,37.1975265],[76.5013517,37.1975121],[76.5013671,37.197505],[76.5014218,37.1975057],[76.5014532,37.1974861],[76.5014504,37.1974211],[76.5014631,37.1973953],[76.5015248,37.1973571],[76.5015534,37.1973445],[76.5015615,37.1973445],[76.5015739,37.197335],[76.5015709,37.197283],[76.5015875,37.1972637],[76.501641,37.1972254],[76.5016573,37.1972223],[76.5016901,37.1972065],[76.5017082,37.1971774],[76.5017249,37.1971255],[76.5017309,37.197086],[76.5017389,37.1970736],[76.5017422,37.1970403],[76.5017067,37.1969941],[76.5016916,37.1969668],[76.501692,37.1969439],[76.5017265,37.196911],[76.5017399,37.1968924],[76.5017408,37.1968466],[76.5017359,37.1968299],[76.5017363,37.1968091],[76.5017974,37.1967495],[76.5018818,37.1966943],[76.5020208,37.1966398],[76.5020654,37.1966279],[76.5021201,37.1966223],[76.5021568,37.1966103],[76.5021703,37.1965876],[76.5021716,37.1965658],[76.5021407,37.1964779],[76.5021481,37.1964594],[76.502172,37.1964299],[76.5021802,37.1963667],[76.5021993,37.1963446],[76.5022067,37.1963204],[76.5022076,37.1962776],[76.5022034,37.1962533],[76.5021898,37.1962345],[76.5021623,37.19621],[76.5021329,37.1961686],[76.502087,37.1961345],[76.5020688,37.196112],[76.502051,37.1960708],[76.5020215,37.196035],[76.501999,37.1959956],[76.5020001,37.195936],[76.5019958,37.1959211],[76.5020364,37.1958676],[76.5021238,37.1958035],[76.5021996,37.1957393],[76.5022405,37.1956709],[76.502295,37.195625],[76.5023209,37.1956067],[76.5023701,37.1955924],[76.5023983,37.1955797],[76.5024999,37.1955046],[76.5025451,37.1954568],[76.5025595,37.1954328],[76.502588,37.1954071],[76.5026171,37.1953478],[76.5026553,37.1952999],[76.5026838,37.1952704],[76.5027499,37.1952228],[76.5027601,37.1951783],[76.5027796,37.1951357],[76.502801,37.1951117],[76.5028021,37.1950577],[76.5028094,37.1950411],[76.5028617,37.1949877],[76.5028737,37.1949674],[76.5029285,37.1949048],[76.5029593,37.1948753],[76.5029692,37.1948494],[76.503012,37.1948015],[76.5030599,37.1947351],[76.5030543,37.1946642],[76.5030561,37.194573],[76.5030494,37.194558],[76.5030496,37.1945468],[76.5030663,37.1945303],[76.5031842,37.1944535],[76.5032406,37.1944263],[76.503271,37.1944211],[76.5033201,37.194405],[76.5033933,37.1943537],[76.5034622,37.1942857],[76.5035117,37.1942547],[76.5035716,37.1941698],[76.5035837,37.1941438],[76.5036025,37.1941366],[76.5037096,37.194138],[76.5037652,37.1941517],[76.5038443,37.1941527],[76.5038935,37.1941366],[76.5039496,37.1941261],[76.5040494,37.1941404],[76.5041095,37.1941635],[76.5041816,37.1941681],[76.5042534,37.1941858],[76.5043208,37.1941904],[76.5044326,37.1941899],[76.5045144,37.1941742],[76.5045544,37.1941542],[76.5045778,37.1941471],[76.5046758,37.194147],[76.5047584,37.1941298],[76.504907,37.1941189],[76.5050332,37.1940858],[76.5051432,37.1940671],[76.5051985,37.1940422],[76.5052378,37.1940189],[76.5052815,37.1940012],[76.5053274,37.1939908],[76.5055556,37.1939937],[76.5055946,37.1939869],[76.5056313,37.1939782],[76.505659,37.1939621],[76.5057146,37.1939208],[76.5057264,37.1939027],[76.5057518,37.1938866],[76.5058115,37.1938709],[76.50586,37.1938441],[76.5059106,37.1938228],[76.5059932,37.1938056],[76.5061462,37.1938039],[76.5061988,37.1937954],[76.5062242,37.1937811],[76.5062313,37.1937703],[76.5062568,37.1937505],[76.5062826,37.1937143],[76.5063147,37.193711],[76.5064354,37.1937272],[76.5065061,37.1937281],[76.5065337,37.1937175],[76.5065753,37.1936924],[76.506619,37.1936802],[76.5066601,37.193677],[76.5067537,37.19368],[76.5067789,37.1936749],[76.5068203,37.193659],[76.5068707,37.1936505],[76.5070102,37.1936413],[76.5072096,37.1935999],[76.5072443,37.1935784],[76.5072537,37.1935658],[76.5072883,37.193548],[76.5073524,37.193536],[76.5073984,37.1935183],[76.5074654,37.1934826],[76.5076459,37.1933588],[76.5076828,37.1933374],[76.5078271,37.1933173],[76.5078755,37.1932923],[76.5079169,37.1932764],[76.5080037,37.1932757],[76.5080267,37.1932687],[76.5081381,37.1931787],[76.5081966,37.1931064],[76.5082128,37.1930938],[76.5082339,37.1930649],[76.5082829,37.1930143],[76.5083128,37.1930038],[76.5083451,37.1929841],[76.5083956,37.1929719],[76.5084279,37.1929559],[76.5084811,37.1929182],[76.5085536,37.1928333],[76.5086277,37.1927794],[76.5086646,37.1927579],[76.5087039,37.1927365],[76.5087406,37.1927242],[76.5087727,37.1927209],[76.5088959,37.1927243],[76.508928,37.1927192],[76.5089835,37.1926816],[76.5090325,37.1926292],[76.5090532,37.1926203],[76.5091924,37.1926257],[76.5092223,37.1926115],[76.5092455,37.1925917],[76.5092574,37.1925718],[76.5092766,37.1925209],[76.5093073,37.1924719],[76.5093282,37.1924521],[76.5094416,37.1923732],[76.5094697,37.1923406],[76.5095254,37.1922938],[76.5095722,37.1922342],[76.5095795,37.1922142],[76.5095803,37.1921703],[76.5095672,37.1921446],[76.5095673,37.1921355],[76.5095815,37.1921101],[76.5095978,37.1920938],[76.5096791,37.1920254],[76.5097506,37.1919862],[76.5097554,37.1919753],[76.5097762,37.1919646],[76.5098357,37.1919543],[76.5098752,37.1919238],[76.5099322,37.1919011],[76.5099969,37.1918613],[76.5100389,37.1918273],[76.5101212,37.1917486],[76.5101348,37.1917278],[76.5101359,37.1916692],[76.5101455,37.1916587],[76.5101532,37.1916513],[76.5101664,37.1916485],[76.5103056,37.1915465],[76.5103308,37.1915047],[76.5103349,37.1914883],[76.5103328,37.1914025],[76.5103444,37.1913891],[76.5103977,37.1913507],[76.5104342,37.1913121],[76.5104401,37.1912987],[76.510441,37.191277],[76.5104551,37.1912397],[76.510479,37.1912186],[76.5104959,37.1912108],[76.5105541,37.1911445],[76.5105647,37.1911179],[76.5106336,37.1910143],[76.5106543,37.1909851],[76.5106987,37.1909402],[76.5107393,37.1909166],[76.5107767,37.1908876],[76.5108006,37.1908638],[76.5108248,37.1908239],[76.5108384,37.1908134],[76.510862,37.190803],[76.5109058,37.1907928],[76.5109396,37.1907745],[76.5109634,37.1907561],[76.5109937,37.1907457],[76.5110613,37.1907118],[76.5110818,37.1906933],[76.511156,37.1906621],[76.5112263,37.190663],[76.5112695,37.1906796],[76.5113324,37.1907125],[76.5113951,37.1907561],[76.511435,37.19077],[76.5115585,37.1907903],[76.5115917,37.1908014],[76.5116215,37.1908179],[76.5116841,37.1908695],[76.5117601,37.1909187],[76.511883,37.1909658],[76.5119365,37.1909691],[76.5120031,37.190986],[76.5121534,37.1910067],[76.5122739,37.1910028],[76.5123143,37.1909953],[76.5123983,37.1909749],[76.5124861,37.1909359],[76.5125568,37.190918],[76.5126006,37.1909025],[76.5126341,37.1909002],[76.5128248,37.1909026],[76.5131699,37.1908882],[76.5132577,37.1908465],[76.5133182,37.1908338],[76.5133584,37.1908343],[76.513439,37.1908193],[76.5136096,37.1908214],[76.5136634,37.1908087],[76.5137753,37.1907351],[76.5138325,37.1907225],[76.5138628,37.1907121],[76.5138935,37.1907078],[76.5140725,37.1907128],[76.514208,37.1907379],[76.5142493,37.1907398],[76.5143864,37.1906836],[76.5145055,37.1906659],[76.5145761,37.1906654],[76.514609,37.1906534],[76.5146874,37.190584],[76.5147125,37.1905663],[76.5147876,37.1905241],[76.5148306,37.1905102],[76.5148533,37.1904979],[76.514947,37.1904235],[76.5149897,37.1904258],[76.51503,37.1904353],[76.5150598,37.1904087],[76.5151301,37.1903772],[76.5152418,37.190303],[76.5152668,37.1902907],[76.5153075,37.1902804],[76.5153417,37.1902556],[76.5153621,37.1902505],[76.5153893,37.1902364],[76.515419,37.1902134],[76.5154463,37.1902012],[76.5154899,37.1901567],[76.5155035,37.1901497],[76.5155401,37.1901195],[76.515592,37.190113],[76.5156124,37.1901043],[76.5156647,37.1900725],[76.5157083,37.1900335],[76.5157467,37.1900231],[76.5157828,37.1900182],[76.5158145,37.1900078],[76.5158716,37.1899635],[76.5159283,37.1899408],[76.5159899,37.1898948],[76.5160556,37.1898704],[76.5161283,37.1898372],[76.5162238,37.1897843],[76.516364,37.1896845],[76.5163865,37.1896848],[76.5163928,37.1896926],[76.5164472,37.189701],[76.5165274,37.1897045],[76.5166088,37.1896465],[76.5166316,37.1896339],[76.5166962,37.1896141],[76.5167515,37.1895763],[76.5168674,37.1895721],[76.5168911,37.1895653],[76.5169061,37.1895538],[76.5169123,37.189535],[76.5169129,37.1895044],[76.5169279,37.1894928],[76.5169456,37.1894883],[76.5169868,37.1894888],[76.5170425,37.1895013],[76.5170631,37.1895015],[76.5170838,37.1894971],[76.5171137,37.1894763],[76.5171287,37.18946],[76.5171331,37.189387],[76.5171519,37.1893307],[76.5171525,37.1892977],[76.5171769,37.1892533],[76.517189,37.1892393],[76.5171952,37.1892229],[76.5171928,37.1891969],[76.5171623,37.1890976],[76.5171609,37.1890175],[76.5171554,37.1889986],[76.5171375,37.1889636],[76.5171191,37.1889445],[76.5170939,37.1889065],[76.5170777,37.1888874],[76.5170452,37.1888625],[76.5170433,37.1888417],[76.5170556,37.1888154],[76.5170558,37.1888003],[76.5170467,37.1887851],[76.5169976,37.1887656],[76.5169698,37.1887408],[76.5169681,37.1887049],[76.5169808,37.1886579],[76.5169798,37.18859],[76.5169755,37.1885711],[76.5169481,37.1885236],[76.5169324,37.1884837],[76.5169408,37.1884122],[76.516942,37.1883518],[76.516933,37.1883291],[76.5169147,37.1883024],[76.516911,37.1882477],[76.516902,37.1882287],[76.5169025,37.1880834],[76.5169194,37.188061],[76.5169653,37.188025],[76.5169792,37.1880036],[76.5170641,37.1879421],[76.5171131,37.1879168],[76.5171218,37.1878867],[76.5171358,37.1878631],[76.5171578,37.1878397],[76.5171879,37.1878163],[76.5172535,37.1877761],[76.5172728,37.1877548],[76.5173604,37.1876868],[76.5174211,37.1876185],[76.5174765,37.1875436],[76.5175068,37.1875116],[76.5175342,37.1874904],[76.5175646,37.1874541],[76.5175661,37.1873743],[76.5175774,37.1873507],[76.5176326,37.1872866],[76.5176439,37.1872608],[76.5176556,37.1872157],[76.5176567,37.1871574],[76.5176714,37.1870971],[76.5177018,37.1870565],[76.5177591,37.187027],[76.5178193,37.1869825],[76.5178991,37.1869036],[76.517962,37.1868591],[76.5179895,37.1868335],[76.5180798,37.1867656],[76.5181156,37.1867315],[76.518151,37.1867103],[76.518184,37.1866805],[76.5182442,37.1866381],[76.5182795,37.1866256],[76.5183177,37.1866023],[76.5183671,37.1865598],[76.5185095,37.1864515],[76.5186298,37.186371],[76.5186707,37.1863478],[76.5187282,37.1863032],[76.5187882,37.1862694],[76.5188103,37.1862437],[76.5188143,37.1861769],[76.5188043,37.1861358],[76.5187833,37.1861074],[76.5187836,37.1860902],[76.5188183,37.1860784],[76.5188556,37.186071],[76.5189105,37.186044],[76.5189703,37.1860249],[76.5190099,37.1860215],[76.519067,37.1860103],[76.5191245,37.1859774],[76.5191672,37.1859443],[76.5192173,37.1859133],[76.5192944,37.1858905],[76.5193444,37.1858654],[76.519367,37.1858498],[76.5193772,37.1858321],[76.5193804,37.1857926],[76.5193883,37.1857709],[76.5194765,37.1856889],[76.5194893,37.1856673],[76.5194947,37.1856436],[76.5194967,37.1855388],[76.5194775,37.1855108],[76.5194468,37.1854333],[76.5194474,37.1854056],[76.5194386,37.18535],[76.5194395,37.1853006],[76.5194302,37.1852728],[76.5194236,37.1852291],[76.5194256,37.1851263],[76.5194358,37.1851086],[76.5194623,37.1850855],[76.5194793,37.1850812],[76.5195133,37.1850816],[76.5195418,37.1850662],[76.5195425,37.18503],[76.5195658,37.1849963],[76.5196118,37.1849584],[76.5196892,37.1849051],[76.519865,37.1847354],[76.5199118,37.1846568],[76.519947,37.1845871],[76.5200079,37.1845087],[76.5200309,37.1844908],[76.5200599,37.184455],[76.5200659,37.184437],[76.5200629,37.1844198],[76.5200667,37.1843811],[76.5200825,37.1843498],[76.520126,37.1842899],[76.520145,37.1842442],[76.5201637,37.1842178],[76.5202281,37.1841702],[76.5203374,37.1841474],[76.5204556,37.1841343],[76.5205165,37.1841157],[76.5205806,37.1840826],[76.5206024,37.1840515],[76.5206152,37.1840177],[76.5206161,37.1839693],[76.5206044,37.1839474],[76.5205781,37.1839147],[76.5205737,37.1838914],[76.5205771,37.183841],[76.5205922,37.1838121],[76.5206169,37.1837853],[76.5206419,37.1837468],[76.5207157,37.1836934],[76.520799,37.1836479],[76.5207931,37.1836199],[76.5207969,37.183575],[76.5208607,37.1834882],[76.5208704,37.1834504],[76.5208777,37.1833771],[76.5209087,37.1833041],[76.5209185,37.1832592],[76.5209189,37.183084],[76.5209074,37.1830697],[76.520896,37.1830435],[76.5208728,37.1830219],[76.5208672,37.1830053],[76.5208634,37.1828939],[76.5208585,37.1828465],[76.5208393,37.1827658],[76.5208374,37.1827137],[76.5208292,37.1826757],[76.5208327,37.1826497],[76.5208902,37.1825865],[76.5209501,37.1825494],[76.5210155,37.1825336],[76.5210871,37.1825014],[76.5211052,37.1824874],[76.5211233,37.1824663],[76.5211152,37.1824259],[76.5211131,37.1823809],[76.5211195,37.1823573],[76.5211347,37.1823362],[76.5211918,37.1822919],[76.5212342,37.1822451],[76.5212913,37.1821985],[76.5213243,37.1821752],[76.5213811,37.1821451],[76.5214504,37.1820821],[76.5214928,37.1820305],[76.5215024,37.1819951],[76.5215385,37.1819648],[76.5215712,37.1819557],[76.5216009,37.1819514],[76.5216423,37.1819519],[76.5217047,37.1819384],[76.5217407,37.1819152],[76.5217711,37.1818706],[76.5218052,37.1817906],[76.5218357,37.181746],[76.5218838,37.1817087],[76.5219982,37.1816059],[76.522097,37.1815456],[76.5221508,37.1815202],[76.5221866,37.1815041],[76.5222461,37.1814906],[76.5223416,37.1814445],[76.5223774,37.1814331],[76.5224425,37.1814339],[76.5225849,37.1814144],[76.5226559,37.1814153],[76.5227154,37.1813994],[76.5227663,37.1813669],[76.5228234,37.1813226],[76.5228622,37.1813066],[76.522883,37.1813021],[76.5229422,37.1813005],[76.5229661,37.1812889],[76.5230584,37.1812569],[76.5231981,37.1812255],[76.5233371,37.1812273],[76.5234321,37.1812142],[76.523456,37.1812027],[76.5235897,37.1811736],[76.5236492,37.1811554],[76.523685,37.1811416],[76.523766,37.1810834],[76.5238985,37.1809643],[76.5239312,37.1809576],[76.5239581,37.1809461],[76.5240587,37.180945],[76.5241766,37.1809702],[76.5242387,37.1809686],[76.5242625,37.1809618],[76.5243761,37.1809063],[76.5243941,37.1808924],[76.5244033,37.1808759],[76.5244435,37.1808374],[76.5244623,37.1807849],[76.5244728,37.1807668],[76.5244783,37.1807425],[76.5246576,37.180823],[76.5249583,37.180924],[76.5252427,37.1810038],[76.5254108,37.1810631],[76.5255988,37.1810807],[76.526035,37.1810419],[76.5262303,37.1810444],[76.5263192,37.1810374],[76.5264202,37.1810956],[76.526535,37.1810757],[76.526622,37.1810142],[76.5267696,37.1809703],[76.5269175,37.1809156],[76.5270969,37.1808065],[76.5272361,37.1807091],[76.5273503,37.1806235],[76.5276198,37.1804896],[76.5277788,37.1804504],[76.5279032,37.180429],[76.5280119,37.1804288],[76.5281116,37.1804011],[76.5281903,37.18037],[76.5282669,37.1803572],[76.5285569,37.1803471],[76.5288955,37.1802888],[76.5291009,37.1802232],[76.5291882,37.180148],[76.5292497,37.1800496],[76.5292316,37.1799997],[76.5291671,37.1798944],[76.5291618,37.17987],[76.5291851,37.179836],[76.5292346,37.1798051],[76.5293288,37.1797642],[76.5295158,37.1796582],[76.529599,37.1795966],[76.5296652,37.1795227],[76.529739,37.1794534],[76.529939,37.1793659],[76.5300428,37.1793245],[76.5300899,37.1792579],[76.5302277,37.1792276],[76.5302959,37.1791552],[76.5304152,37.1790011],[76.5305978,37.1788264],[76.5306508,37.1787447],[76.5307265,37.1786754],[76.5308948,37.1785509],[76.5309668,37.1784785],[76.5310312,37.178403],[76.5310707,37.1783288],[76.5310384,37.1782277],[76.5310344,37.1781376],[76.5310723,37.1780527],[76.5311461,37.1779834],[76.5312423,37.1779358],[76.5314627,37.1778775],[76.5315153,37.1778217],[76.5315422,37.1778083],[76.5316292,37.1777483],[76.5317787,37.1776098],[76.5318731,37.1775606],[76.5319619,37.1775007],[76.5320656,37.1774639],[76.5321783,37.1774515],[76.5322276,37.1773697],[76.5322501,37.1771885],[76.5323032,37.1771083],[76.5324014,37.1770561],[76.5325159,37.1770545],[76.5326302,37.1770574],[76.5327502,37.177065],[76.5329337,37.1770973],[76.5330565,37.1770986],[76.5331881,37.1770941],[76.5332937,37.1770573],[76.5333594,37.1770093],[76.5333863,37.1769028],[76.5333975,37.1768175],[76.533392,37.1766099],[76.5333939,37.1765108],[76.5334192,37.1763841],[76.5334334,37.1763389],[76.5334986,37.1762207],[76.5335413,37.1760839],[76.5335451,37.1759863],[76.5336023,37.1758894],[76.5338132,37.1756296],[76.5340532,37.175142],[76.5340825,37.175097],[76.5341374,37.1749699],[76.5342811,37.1746857],[76.5343977,37.1745746],[76.5344695,37.1745564],[76.5346005,37.1745637],[76.5347339,37.1745654],[76.535032,37.1745538],[76.5352136,37.1745294],[76.5352815,37.1744692],[76.5353459,37.1743422],[76.5354384,37.1742404],[76.535542,37.1741825],[76.5356881,37.1741462],[76.5357626,37.1741147],[76.5359912,37.1740031],[76.5361096,37.1739187],[76.5362566,37.1738347],[76.5363929,37.1738078],[76.536567,37.1738042],[76.5367526,37.173818],[76.5368361,37.1738152],[76.5369054,37.1738046],[76.5369703,37.1737768],[76.5370428,37.1737205],[76.5371182,37.1736452],[76.5372214,37.1735967],[76.5372433,37.1735941],[76.5372801,37.1735799],[76.5373278,37.1735688],[76.5373864,37.1735608],[76.5375068,37.1735681],[76.5375867,37.1735465],[76.5376862,37.1735294],[76.5377781,37.1735062],[76.5379058,37.1734116],[76.5379664,37.1733315],[76.5380448,37.1732226],[76.5381262,37.1730126],[76.5381836,37.1729345],[76.5382298,37.1728855],[76.5382947,37.1728577],[76.5383928,37.1728361],[76.5385577,37.1728114],[76.5386607,37.1728049],[76.5387218,37.1728145],[76.5388595,37.1727964],[76.5389923,37.1727324],[76.5391181,37.1726317],[76.5395086,37.172372],[76.5396748,37.1722816],[76.5398498,37.1721564],[76.5399439,37.1720946],[76.5400534,37.1720525],[76.5401366,37.1720341],[76.5402012,37.1720246],[76.5402261,37.1720334],[76.5403727,37.1720417],[76.5404517,37.1720267],[76.5406499,37.1719788],[76.5407688,37.1719665],[76.5409021,37.1719274],[76.5409938,37.1718882],[76.5410402,37.1718351],[76.541075,37.1718092],[76.54109,37.171775],[76.5411076,37.1717501],[76.5412189,37.171371],[76.5414628,37.1710784],[76.5417553,37.1707387],[76.5419778,37.1703219],[76.5420535,37.1701035],[76.5423839,37.1696499],[76.5425463,37.169261],[76.5427665,37.1689585],[76.542787,37.1689049],[76.5429244,37.1687466],[76.5429467,37.1686737],[76.5429564,37.1685685],[76.5429411,37.1685007],[76.5428364,37.1683626],[76.5427615,37.16829],[76.5427194,37.168201],[76.5427096,37.1681154],[76.542722,37.1678604],[76.5427397,37.1678399],[76.5427531,37.1678158],[76.5427537,37.1677846],[76.5427411,37.1677671],[76.542742,37.1677186],[76.5427553,37.1677049],[76.5427687,37.1676808],[76.5427995,37.1676569],[76.5428128,37.1676398],[76.5428392,37.1676193],[76.5428613,37.1675953],[76.5429096,37.1675613],[76.542923,37.1675406],[76.5429891,37.1674791],[76.5431544,37.1673614],[76.543267,37.1672364],[76.5433728,37.1671567],[76.5434794,37.1670364],[76.5435202,37.1669273],[76.5435376,37.1667988],[76.5435458,37.166682],[76.5434844,37.1666217],[76.5433805,37.1665053],[76.5433366,37.1664053],[76.5433382,37.1663219],[76.5433663,37.1662531],[76.5434771,37.1662173],[76.5435426,37.1660694],[76.5435977,37.1659914],[76.5437377,37.1659658],[76.5438328,37.1657434],[76.5438259,37.1655889],[76.5437316,37.1653827],[76.5436946,37.1652917],[76.5436855,37.1651462],[76.5437,37.1650105],[76.5437404,37.1649204],[76.5438964,37.1647101],[76.5439606,37.1644678],[76.5439043,37.1642274],[76.5438686,37.1639651],[76.543882,37.1637801],[76.5439365,37.1636759],[76.5439647,37.1635695],[76.5440665,37.1634543],[76.5441526,37.1633391],[76.5441809,37.1632308],[76.5441729,37.1631487],[76.544258,37.163062],[76.5442881,37.1629823],[76.5442141,37.1628669],[76.5442566,37.1627625],[76.5442517,37.1626462],[76.544298,37.1624675],[76.5444143,37.1622439],[76.5445572,37.1621236],[76.5446274,37.1621104],[76.5448921,37.1621174],[76.544967,37.1621272],[76.5450749,37.1621108],[76.5451877,37.1621337],[76.5452857,37.1621468],[76.5454584,37.1621513],[76.545575,37.1621265],[76.5456921,37.1620755],[76.5457466,37.1620332],[76.5458345,37.1619509],[76.5458932,37.1618443],[76.5459882,37.1617049],[76.5460111,37.1615955],[76.5460481,37.1615316],[76.5460817,37.1614867],[76.5460858,37.1614271],[76.5460408,37.1613951],[76.5461497,37.1612718],[76.5462077,37.1612324],[76.5463299,37.1611939],[76.5465751,37.1610384],[76.5467442,37.160903],[76.5468024,37.1607839],[76.5468573,37.1606549],[76.5468951,37.1605467],[76.5469467,37.1604691],[76.5471043,37.1603242],[76.5471957,37.1602796],[76.5473591,37.1602072],[76.5474999,37.1601956],[76.547572,37.1602],[76.5476912,37.1601675],[76.5478107,37.160148],[76.5479281,37.1601113],[76.5480429,37.1600917],[76.5482526,37.1600885],[76.5483497,37.1601202],[76.5484135,37.1601477],[76.5484775,37.1601676],[76.5486776,37.1601681],[76.5487731,37.1601598],[76.5488665,37.1601361],[76.5489695,37.1601069],[76.5490275,37.1600637],[76.5492022,37.160022],[76.5494778,37.1599414],[76.5496642,37.1599151],[76.5497914,37.1598652],[76.5499269,37.1597562],[76.5499832,37.1596768],[76.5500611,37.159592],[76.5501382,37.1595471],[76.5502575,37.1595391],[76.5503621,37.1595537],[76.5505984,37.1596557],[76.5507647,37.1596902],[76.5509529,37.1595584],[76.5511693,37.1594568],[76.5514167,37.1593511],[76.5519273,37.1590778],[76.5524541,37.1590327],[76.5525224,37.1590957],[76.5525935,37.1591195],[76.5526978,37.1591474],[76.552793,37.1591486],[76.553068,37.1591166],[76.553187,37.1590428],[76.5532911,37.1589582],[76.5534332,37.1588799],[76.5535072,37.1588732],[76.5536191,37.1588745],[76.5537689,37.1588916],[76.5538705,37.1589348],[76.553944,37.1589586],[76.5539912,37.1589801],[76.5540672,37.1589944],[76.5545555,37.1590042],[76.5546885,37.1590268],[76.554743,37.1590427],[76.5547994,37.1590834],[76.5548554,37.1591413],[76.5549288,37.159167],[76.5549456,37.1592135],[76.5553682,37.1591865],[76.5558001,37.1590297],[76.5561129,37.1588714],[76.5567601,37.1586695],[76.5571809,37.1584649],[76.557436,37.1582105],[76.5583116,37.1578463],[76.5583604,37.1577623],[76.5584267,37.157663],[76.5584976,37.1575008],[76.5586525,37.157251],[76.5587837,37.1571181],[76.5589353,37.1570248],[76.5591622,37.1569802],[76.5593144,37.1569216],[76.5595168,37.1568771],[76.5595857,37.1568586],[76.5595937,37.1568076],[76.5596166,37.1567335],[76.5596179,37.156662],[76.5596723,37.1566226],[76.5597764,37.1565981],[76.5599049,37.1566054],[76.5600189,37.1566268],[76.5600933,37.156662],[76.5601645,37.1566743],[76.5603599,37.1566857],[76.5605158,37.1566864],[76.5606153,37.1567163],[76.5607254,37.1567548],[76.5612095,37.1568459],[76.5629342,37.1568036],[76.5650113,37.1574733],[76.5716723,37.1572325],[76.5749156,37.1563811],[76.5770229,37.1565818],[76.5783086,37.1565923],[76.5801243,37.1553776],[76.5816088,37.1536874],[76.5832201,37.1528998],[76.5834068,37.1527696],[76.5835224,37.1527023],[76.5835906,37.1526249],[76.5836522,37.1525255],[76.5838123,37.1523625],[76.583878,37.1522889],[76.5839831,37.1522711],[76.5840998,37.1522744],[76.5842564,37.1523087],[76.5843362,37.1523745],[76.5844227,37.1524632],[76.5845449,37.1525543],[76.5850217,37.1528216],[76.5851281,37.1528634],[76.5853298,37.1529087],[76.5854428,37.1529172],[76.5855948,37.1529095],[76.5857108,37.1529156],[76.5858089,37.1530405],[76.5859782,37.153163],[76.5860512,37.1532341],[76.5860992,37.1533185],[76.5861974,37.1533655],[76.586284,37.1534245],[76.5863764,37.1534759],[76.5864825,37.1535108],[76.5867066,37.1535531],[76.5868211,37.1535469],[76.5869321,37.1535253],[76.5870412,37.1534991],[76.5871798,37.153426],[76.587245,37.1534024],[76.5873634,37.1533931],[76.5874676,37.1534264],[76.5875416,37.1534425],[76.5876576,37.1534592],[76.587778,37.1534438],[76.5878851,37.1534253],[76.5879774,37.1533935],[76.5883626,37.1531764],[76.5885578,37.1530929],[76.5888802,37.153049],[76.5891634,37.1530357],[76.5893769,37.1530787],[76.5894678,37.1531474],[76.5895955,37.1532004],[76.5897844,37.1532904],[76.5899641,37.153365],[76.5902365,37.1534541],[76.5903971,37.1535265],[76.5905394,37.1535645],[76.5907866,37.1535979],[76.5910285,37.1536561],[76.5911925,37.1536771],[76.5914756,37.1535699],[76.5917151,37.1535424],[76.5918012,37.1534879],[76.59193,37.1534799],[76.5920896,37.1534818],[76.5921843,37.1535116],[76.5922813,37.1535528],[76.5923028,37.1536201],[76.5923062,37.1536972],[76.592392,37.153849],[76.5927362,37.1538612],[76.5930854,37.1538926],[76.5930967,37.1538565],[76.5931215,37.1538294],[76.5931753,37.153792],[76.5932085,37.1537596],[76.5932679,37.1537168],[76.5933315,37.1536833],[76.5934247,37.1536672],[76.5935304,37.1536708],[76.5936128,37.1536969],[76.593706,37.1537598],[76.5937624,37.1538051],[76.5938506,37.153829],[76.5939267,37.1538082],[76.5939999,37.153793],[76.5940729,37.1537664],[76.5942503,37.1537777],[76.5943714,37.1538001],[76.5944543,37.1538297],[76.5944989,37.1538646],[76.5945724,37.1538864],[76.5946772,37.1538858],[76.5949067,37.1539237],[76.5949987,37.1539479],[76.5951718,37.1539419],[76.5953164,37.1539207],[76.5957515,37.1538716],[76.595885,37.1538675],[76.5959784,37.1538457],[76.5961072,37.1538377],[76.5962286,37.1538448],[76.5963432,37.1538271],[76.5964607,37.1537885],[76.5966239,37.1537096],[76.596877,37.1535481],[76.5970839,37.1534719],[76.5974146,37.1534386],[76.5974589,37.1534813],[76.5976292,37.1535203],[76.5976534,37.1535302],[76.5976876,37.1534584],[76.5976989,37.1534182],[76.5978674,37.1533944],[76.5980216,37.1533648],[76.5981824,37.1533667],[76.5983114,37.1533453],[76.5984732,37.1532929],[76.5986017,37.1533001],[76.5987484,37.1532904],[76.5990065,37.1532477],[76.5992119,37.1532015],[76.5993901,37.1531864],[76.5995516,37.1531483],[76.5996734,37.1531326],[76.5997669,37.1530994],[76.5998186,37.1530113],[76.599931,37.1529211],[76.5999971,37.1528274],[76.6000787,37.1526682],[76.6000987,37.1525483],[76.6001866,37.1523785],[76.6004594,37.1523537],[76.6006639,37.1523104],[76.600847,37.1522639],[76.6012842,37.1521975],[76.6016291,37.1521522],[76.6017996,37.1520837],[76.6019163,37.152085],[76.6020254,37.1521111],[76.6021394,37.1521315],[76.602246,37.1521633],[76.6023428,37.1522102],[76.6024493,37.1522496],[76.6025637,37.1522491],[76.6026715,37.1522179],[76.6027815,37.1521925],[76.603105,37.1520933],[76.6032106,37.1520526],[76.6033068,37.1520042],[76.603424,37.1519769],[76.6035202,37.1519285],[76.60371,37.151843],[76.6038502,37.151736],[76.6040021,37.1516348],[76.6041256,37.1515275],[76.6042013,37.1514273],[76.6044145,37.151365],[76.6045474,37.1512636],[76.6047714,37.1511289],[76.6049645,37.1509958],[76.6051879,37.1507638],[76.6052804,37.1506619],[76.6054535,37.1505724],[76.6056124,37.1505599],[76.6057402,37.1505172],[76.6059758,37.1505359],[76.6062051,37.1505035],[76.6064562,37.1504272],[76.6066695,37.1503305],[76.6068369,37.1502253],[76.6071451,37.1499934],[76.6072787,37.1499578],[76.6074243,37.1499669],[76.6075145,37.1499571],[76.6079046,37.1498491],[76.6080587,37.1498134],[76.6083708,37.1498388],[76.6084902,37.1498768],[76.608558,37.1499234],[76.6087014,37.1499983],[76.6088329,37.1500029],[76.6090636,37.1499949],[76.6093015,37.1499123],[76.6095399,37.1498007],[76.6096933,37.1496423],[76.6097946,37.1494222],[76.6100034,37.1490452],[76.6101496,37.1488371],[76.610238,37.1487272],[76.6103991,37.1483629],[76.6105515,37.1479598],[76.6106643,37.1477237],[76.6106987,37.1474891],[76.6106979,37.1471367],[76.6107403,37.147006],[76.6108383,37.1469629],[76.6111248,37.1469313],[76.6114034,37.1468393],[76.6118535,37.1466514],[76.6123756,37.146598],[76.6128803,37.146651],[76.6133021,37.1467502],[76.6136179,37.1468355],[76.6139876,37.1468353],[76.6142161,37.1467418],[76.6146274,37.1465465],[76.615121,37.1463738],[76.6154535,37.1463001],[76.6158185,37.1461411],[76.615895,37.1460183],[76.6158963,37.1456386],[76.6159385,37.1453764],[76.6162017,37.1451905],[76.6166462,37.1449577],[76.6174213,37.1446374],[76.6179887,37.1443551],[76.6183968,37.1441196],[76.6185334,37.1440058],[76.6186149,37.1437836],[76.6186841,37.1437119],[76.6187913,37.1436464],[76.6189073,37.1435572],[76.6189737,37.1434407],[76.6191605,37.1432535],[76.6193391,37.1431812],[76.6196566,37.1430934],[76.6198641,37.1430307],[76.6200102,37.1429041],[76.62033,37.1426915],[76.620855,37.1424255],[76.6211207,37.1422108],[76.6211964,37.1421238],[76.6212896,37.1419521],[76.6214534,37.1417416],[76.6215322,37.1416585],[76.6217458,37.1415443],[76.6220914,37.1414053],[76.6224954,37.1413551],[76.6227168,37.1413588],[76.6232281,37.1412132],[76.6234056,37.1411466],[76.6235791,37.1411677],[76.6236848,37.141249],[76.6238479,37.1413177],[76.6240928,37.1413434],[76.6242851,37.141427],[76.6244523,37.1414887],[76.6247495,37.1415208],[76.6250384,37.141486],[76.6253684,37.1414173],[76.6256544,37.1415408],[76.6259029,37.1416295],[76.6260427,37.1416731],[76.6261954,37.1416577],[76.6263201,37.1415941],[76.6265346,37.141345],[76.6267539,37.1412007],[76.6270595,37.1410326],[76.6273642,37.1409122],[76.6276035,37.1408558],[76.6278204,37.140845],[76.6280972,37.1408196],[76.628299,37.1407266],[76.6286556,37.1405019],[76.6297209,37.1400813],[76.6299768,37.140027],[76.6301037,37.1399884],[76.6302773,37.1398722],[76.6305368,37.1397531],[76.6308403,37.1396495],[76.630944,37.139619],[76.631028,37.1395786],[76.6311043,37.1395287],[76.6312636,37.1394755],[76.6314303,37.1392104],[76.6316225,37.1389895],[76.631976,37.1388067],[76.6326664,37.1382959],[76.6333454,37.137843],[76.633545,37.1377137],[76.6337905,37.1372542],[76.633988,37.1369968],[76.6342455,37.1367494],[76.6344287,37.1366551],[76.6346718,37.1365652],[76.634814,37.136528],[76.6349448,37.1364849],[76.6350788,37.1364292],[76.6352249,37.1363313],[76.6353065,37.1362442],[76.6354107,37.1360119],[76.6355074,37.1359416],[76.6356512,37.1359106],[76.6357583,37.135913],[76.6359422,37.1359309],[76.6361458,37.1359849],[76.6362802,37.1360597],[76.6364574,37.1364577],[76.636558,37.136587],[76.6367288,37.1366301],[76.6371252,37.1367571],[76.6372381,37.1367596],[76.6373413,37.1367424],[76.6374721,37.1366993],[76.6375706,37.1366449],[76.6376282,37.1366027],[76.6377717,37.1365746],[76.6379113,37.1365167],[76.6383093,37.1363245],[76.6384498,37.1362975],[76.638557,37.1363051],[76.6388198,37.1362509],[76.6390498,37.1361556],[76.6393956,37.1359193],[76.6395503,37.1359005],[76.6397328,37.1359243],[76.6401439,37.1360309],[76.6404536,37.1360596],[76.6405953,37.1361253],[76.6407962,37.1362397],[76.6409685,37.1363527],[76.6410103,37.1364962],[76.6417375,37.1369281],[76.6418073,37.1370031],[76.6418456,37.1372093],[76.6418587,37.1374065],[76.6423402,37.1377358],[76.6428899,37.1380888],[76.6433636,37.1384524],[76.6436688,37.1385669],[76.644185,37.1387135],[76.6445113,37.1388497],[76.6447322,37.1389747],[76.64512,37.1391007],[76.6456086,37.1391729],[76.6459001,37.1392],[76.6460846,37.1391918],[76.646358,37.1392487],[76.6465481,37.1392509],[76.6467296,37.1391683],[76.646879,37.1391254],[76.64708,37.1391551],[76.6472586,37.1392396],[76.6475005,37.1393808],[76.6480889,37.1396112],[76.64822,37.1396877],[76.6482658,37.1397873],[76.6482843,37.1399294],[76.6482546,37.1400969],[76.6482013,37.1402001],[76.6481158,37.1403977],[76.6481122,37.1406036],[76.6481854,37.1407699],[76.6482372,37.1409664],[76.6483633,37.1411616],[76.648566,37.1413378],[76.6488906,37.141517],[76.6492319,37.1416139],[76.6495282,37.141567],[76.6497205,37.1414669],[76.6501395,37.1412688],[76.650495,37.1412103],[76.650693,37.1412202],[76.6513375,37.1413114],[76.6516455,37.1413515],[76.6518933,37.1414535],[76.6521964,37.1415607],[76.6524452,37.1416093],[76.6526172,37.1416167],[76.6527329,37.1416111],[76.6528249,37.1416884],[76.6529586,37.1418867],[76.6530895,37.1421338],[76.6532439,37.1423361],[76.6533344,37.1424036],[76.6535768,37.1424933],[76.6539456,37.1425433],[76.6547035,37.1424695],[76.6550905,37.1424602],[76.6554687,37.1425209],[76.6558725,37.1426415],[76.6561618,37.1427729],[76.65639,37.1429082],[76.6565997,37.1430143],[76.6567877,37.1430485],[76.6574715,37.1429617],[76.6580032,37.1428594],[76.6583851,37.1428133],[76.6588068,37.1426762],[76.6591102,37.1425515],[76.6594691,37.1423008],[76.6599185,37.1421045],[76.6601986,37.1420961],[76.6602798,37.1421566],[76.6604036,37.142222],[76.6606045,37.1424341],[76.6608323,37.1425908],[76.6612235,37.1427768],[76.6614611,37.1429214],[76.6618541,37.1431165],[76.6624218,37.1432389],[76.6632102,37.1432706],[76.663359,37.1432647],[76.6635125,37.1432039],[76.6637906,37.1431033],[76.6639205,37.1430895],[76.6641253,37.1431467],[76.664314,37.1431443],[76.6645325,37.143075],[76.664908,37.1428519],[76.6650455,37.1428352],[76.6654056,37.1429536],[76.6662993,37.1430674],[76.6665626,37.1431589],[76.6668039,37.1433561],[76.6669491,37.143505],[76.667064,37.1435826],[76.6672182,37.143595],[76.6673744,37.1435967],[76.6675545,37.1436506],[76.6676752,37.1437252],[76.6679208,37.1437887],[76.668415,37.1439635],[76.6692457,37.1442017],[76.6696152,37.1442569],[76.6699797,37.1442582],[76.6703684,37.1443026],[76.6706872,37.1442575],[76.6710695,37.1442618],[76.6712938,37.1443072],[76.6714783,37.1443837],[76.671634,37.1444713],[76.6717662,37.1446787],[76.6719753,37.1449814],[76.6720622,37.1451616],[76.6721178,37.1454073],[76.6722761,37.1456189],[76.6726307,37.1459108],[76.6729566,37.1462139],[76.6730788,37.1463125],[76.6731735,37.1463441],[76.6733043,37.1463551],[76.6734305,37.1463584],[76.6735525,37.1463312],[76.6736791,37.1463135],[76.673803,37.1463149],[76.6738976,37.1463503],[76.6740885,37.1464726],[76.6741858,37.1464946],[76.6743004,37.1464769],[76.6747382,37.1462395],[76.6748974,37.1462604],[76.6750423,37.1462849],[76.6751733,37.1462883],[76.67546,37.1462381],[76.6755674,37.1462297],[76.6756976,37.146277],[76.6758226,37.1463508],[76.6759626,37.1463791],[76.6760791,37.1463938],[76.6762391,37.1463707],[76.6763521,37.1463129],[76.6765072,37.146164],[76.6766031,37.1461273],[76.676679,37.1461201],[76.6767746,37.1461303],[76.6771606,37.1462102],[76.6773189,37.1462291],[76.6774504,37.1462317],[76.6776894,37.1462115],[76.6779044,37.1461796],[76.6780789,37.14609],[76.6782493,37.1459923],[76.6783601,37.1459489],[76.6785732,37.1459433],[76.6788625,37.1459923],[76.6790995,37.1460109],[76.6792913,37.1459948],[76.6794291,37.1459631],[76.6798036,37.1457144],[76.6799922,37.1456353],[76.680367,37.1455388],[76.680465,37.1454929],[76.6806031,37.1453594],[76.6808287,37.1452086],[76.6812553,37.1447614],[76.6815056,37.1445868],[76.681886,37.1442466],[76.6820991,37.1441609],[76.6830075,37.1438677],[76.6833361,37.1437112],[76.6835807,37.1436212],[76.6837914,37.143587],[76.6841528,37.1435967],[76.6843812,37.1436164],[76.6847471,37.1435369],[76.6851212,37.1433935],[76.6858548,37.1432094],[76.6864385,37.1430945],[76.6870912,37.1429599],[76.6885011,37.1424343],[76.6886318,37.1423945],[76.6887971,37.142259],[76.6891859,37.1417633],[76.6893221,37.1416561],[76.6895378,37.1415667],[76.6896141,37.1415266],[76.6903758,37.1412785],[76.6904371,37.1412408],[76.6906593,37.1413876],[76.6907229,37.1414203],[76.6908734,37.1416699],[76.69087,37.1420304],[76.6908883,37.1421898],[76.6909999,37.1424532],[76.6915894,37.142977],[76.6919524,37.143167],[76.6924042,37.1433889],[76.6927364,37.1436381],[76.6932217,37.1442371],[76.6935045,37.144686],[76.6935961,37.1449015],[76.6935753,37.145044],[76.6935025,37.1451484],[76.6934672,37.1452958],[76.6934832,37.1454057],[76.6935557,37.1455161],[76.6937328,37.1456282],[76.6939158,37.1462257],[76.6937403,37.1476698],[76.6936891,37.1480371],[76.6938726,37.1484539],[76.6941384,37.1487548],[76.6943164,37.1489689],[76.694478,37.1492687],[76.6945854,37.149606],[76.6947066,37.1498314],[76.6949095,37.1499815],[76.6951739,37.1501894],[76.6953289,37.150358],[76.6956159,37.15064],[76.6958808,37.1508218],[76.6961325,37.1509056],[76.6962815,37.1508977],[76.6964184,37.1509063],[76.6966338,37.1510231],[76.696846,37.1511518],[76.697103,37.1513334],[76.6972127,37.1514554],[76.6972936,37.1515993],[76.6973332,37.1517943],[76.6973344,37.1520003],[76.6973035,37.1521073],[76.6973131,37.1523942],[76.6975336,37.1527375],[76.698012,37.152974],[76.6985391,37.1531467],[76.6991493,37.1532573],[76.7002326,37.1533016],[76.7007439,37.1533549],[76.7012896,37.1534944],[76.7018749,37.1536801],[76.7022269,37.1537183],[76.702653,37.1537173],[76.7045116,37.1535335],[76.7048202,37.1535979],[76.7052946,37.1539054],[76.7054565,37.1540824],[76.7055869,37.1541897],[76.7058868,37.1542044],[76.70622,37.1541565],[76.7064102,37.15411],[76.7066904,37.1540301],[76.7070722,37.1538511],[76.7073401,37.1536538],[76.7074978,37.1534152],[76.707645,37.153168],[76.707942,37.1529338],[76.7086195,37.1526065],[76.7084532,37.1524446],[76.7075992,37.1520411],[76.7069232,37.151862],[76.7062583,37.1518194],[76.7058863,37.1518936],[76.7054773,37.1520977],[76.7052339,37.1519219],[76.7048048,37.1515433],[76.7045873,37.1513866],[76.704445,37.1510143],[76.7044757,37.1508965],[76.7046354,37.1507405],[76.704731,37.1506859],[76.705119,37.1505133],[76.7051986,37.1504712],[76.7053138,37.1503841],[76.7053842,37.1503242],[76.7057399,37.1500097],[76.7059062,37.1498878],[76.7059544,37.1498327],[76.7059868,37.1497876],[76.7060003,37.1497321],[76.7060077,37.1496691],[76.7064684,37.1487493],[76.7057249,37.1483843],[76.7051942,37.1483205],[76.7049812,37.1481824],[76.7049564,37.1480178],[76.7049348,37.1479898],[76.7049325,37.1479392],[76.7049618,37.1478865],[76.7050257,37.1478392],[76.7051085,37.1477971],[76.7054447,37.1476997],[76.705531,37.1476375],[76.7056744,37.1475557],[76.7059196,37.1474321],[76.7060179,37.1474028],[76.7061382,37.1473839],[76.7062334,37.1473546],[76.7062941,37.1473124],[76.7063705,37.1472728],[76.7064847,37.1472386],[76.7066183,37.1471795],[76.7067147,37.1470769],[76.7068263,37.1470099],[76.7068935,37.1469551],[76.7069865,37.1468702],[76.707063,37.1468255],[76.7071235,37.1467959],[76.707165,37.1467685],[76.7072036,37.146726],[76.7072527,37.146623],[76.7073237,37.1465302],[76.7074456,37.1464128],[76.7075525,37.1462498],[76.7076052,37.146124],[76.7076847,37.1459],[76.7076579,37.1456066],[76.70747,37.1454482],[76.7070947,37.1452419],[76.7069446,37.145103],[76.7069417,37.1448636],[76.7070817,37.1446067],[76.707206,37.144446],[76.7073316,37.1443405],[76.7075356,37.1442531],[76.7077167,37.1442494],[76.7080752,37.1441865],[76.7084706,37.1440459],[76.7087412,37.1438257],[76.7089912,37.1436949],[76.7093743,37.1435809],[76.7096268,37.1434406],[76.7102719,37.1429098],[76.7105418,37.1427278],[76.7107918,37.142597],[76.7111506,37.1425055],[76.7115056,37.1425075],[76.7119365,37.1426609],[76.7123894,37.1427898],[76.7125795,37.1427597],[76.7126178,37.1427348],[76.7126502,37.1426872],[76.7126766,37.1426218],[76.7132151,37.1421427],[76.7138514,37.1415641],[76.7141491,37.141287],[76.7141555,37.1411331],[76.7137655,37.1400818],[76.7137133,37.1400287],[76.7136987,37.1399962],[76.7136945,37.1399456],[76.7137005,37.1398911],[76.7136844,37.1397999],[76.714067,37.1392417],[76.7143569,37.1390026],[76.7145824,37.1389116],[76.7148618,37.1388689],[76.7152388,37.1388329],[76.7153405,37.138733],[76.7157032,37.1382773],[76.7159322,37.1381177],[76.7162142,37.1380635],[76.7167598,37.1380561],[76.7172168,37.1380763],[76.7174441,37.1380196],[76.7174537,37.1378729],[76.7174009,37.1376997],[76.7174473,37.1374961],[76.7175196,37.1369334],[76.7176733,37.1367214],[76.7177697,37.1366538],[76.7179363,37.1366613],[76.718605,37.136851],[76.7187696,37.1369717],[76.7188909,37.1369787],[76.719065,37.1369407],[76.7192324,37.136929],[76.7195025,37.1371589],[76.7197389,37.1374036],[76.7199094,37.1376095],[76.7199557,37.1378255],[76.7199512,37.1380982],[76.7199194,37.1384941],[76.7199173,37.1386432],[76.719987,37.1387498],[76.7201258,37.1387799],[76.7203873,37.1387427],[76.7207912,37.1385211],[76.7212753,37.1382087],[76.7215749,37.1380289],[76.7218185,37.1379886],[76.7220927,37.1380459],[76.7231671,37.1384654],[76.7232474,37.1384925],[76.7241631,37.138842],[76.7242623,37.1389482],[76.7243468,37.1390259],[76.7244163,37.1390994],[76.7247268,37.1394039],[76.7248463,37.1395042],[76.7249057,37.1395716],[76.7249705,37.1396248],[76.725045,37.1396984],[76.7250725,37.1397169],[76.7251101,37.1397294],[76.7251429,37.1397298],[76.7254588,37.1398465],[76.726378,37.1397006],[76.7265376,37.1396535],[76.726676,37.1395461],[76.7268734,37.1387937],[76.7268607,37.1384121],[76.7268152,37.1381691],[76.7267719,37.1378897],[76.7269072,37.1376849],[76.7273213,37.1374223],[76.7276202,37.1373248],[76.727886,37.1373857],[76.7281527,37.1375045],[76.7288035,37.1380165],[76.7292189,37.1382467],[76.7296417,37.1382635],[76.7303262,37.1382418],[76.7305235,37.1382029],[76.7306068,37.1382038],[76.7306549,37.1381921],[76.7307625,37.1381023],[76.7309459,37.1380012],[76.7310661,37.1379115],[76.7313193,37.1377466],[76.7314399,37.1375877],[76.7315178,37.1374169],[76.7315227,37.1371223],[76.7315062,37.1368274],[76.7314294,37.1367208],[76.7313092,37.1366423],[76.7311357,37.1365431],[76.7310921,37.1363767],[76.7312483,37.135792],[76.7313558,37.1355643],[76.731361,37.1354671],[76.7314629,37.1353509],[76.731621,37.1353011],[76.7318568,37.1353036],[76.7324445,37.1354157],[76.7331669,37.1355894],[76.7335612,37.1357252],[76.7338704,37.135809],[76.7349144,37.1358982],[76.735581,37.1360149],[76.7361151,37.1361236],[76.7366307,37.1362721],[76.7371422,37.1364578],[76.737667,37.136698],[76.7379013,37.1367892],[76.7380339,37.1369246],[76.738086,37.1370743],[76.7379451,37.1373789],[76.737751,37.1376629],[76.7376634,37.137991],[76.737654,37.1381282],[76.7377343,37.1382406],[76.7379263,37.138297],[76.7381626,37.1382709],[76.7384925,37.1382],[76.7388169,37.1381576],[76.7394076,37.1381011],[76.7405555,37.1380446],[76.7408815,37.1379909],[76.7412406,37.1378888],[76.7415648,37.1377264],[76.7419808,37.137419],[76.7422182,37.1371955],[76.7422908,37.1371389],[76.7423639,37.1370583],[76.7425531,37.1368163],[76.742722,37.1367224],[76.7427709,37.1366559],[76.7428805,37.1365234],[76.7427849,37.1363526],[76.7426977,37.1362229],[76.7426136,37.1361248],[76.7425075,37.136055],[76.7423015,37.1359842],[76.7421165,37.1359336],[76.7419411,37.13574],[76.7419288,37.1356197],[76.7419615,37.1353698],[76.7420711,37.1352236],[76.7422254,37.1351824],[76.7423683,37.1351839],[76.7426464,37.1352183],[76.7428847,37.1352866],[76.7431406,37.1353666],[76.7433362,37.135423],[76.7435609,37.1355064],[76.7437906,37.1355587],[76.7438557,37.1355572],[76.7441851,37.1353455],[76.7441914,37.1353264],[76.7442523,37.1352601],[76.7444099,37.135123],[76.7444469,37.1350564],[76.746027,37.1334278],[76.7471495,37.1335252],[76.7472087,37.1335593],[76.7472681,37.1335838],[76.7474824,37.1336339],[76.7475537,37.1336586],[76.7475773,37.133678],[76.7476246,37.1337072],[76.7476481,37.1337362],[76.7476834,37.1337653],[76.7477308,37.1337897],[76.7478007,37.1339053],[76.747866,37.1339299],[76.7479257,37.1339305],[76.7479916,37.1339216],[76.7481067,37.1338319],[76.7482753,37.1337524],[76.7484373,37.1337158],[76.7485631,37.133698],[76.749791,37.1338928],[76.7498611,37.1339892],[76.7499296,37.1341861],[76.7499766,37.1342345],[76.7500532,37.1342975],[76.7501823,37.1344424],[76.7502749,37.13463],[76.7505227,37.134824],[76.7506116,37.134868],[76.7508846,37.1349278],[76.7512081,37.1349117],[76.7512456,37.1348997],[76.7513555,37.1348974],[76.7514083,37.1348927],[76.7515495,37.1348537],[76.751589,37.1348541],[76.7516283,37.1348721],[76.7516632,37.134883],[76.7517204,37.1348836],[76.7517775,37.134879],[76.7520424,37.1347991],[76.7521525,37.1347827],[76.7522537,37.1347732],[76.7523309,37.1347547],[76.7523906,37.1347324],[76.7524504,37.1346996],[76.7525144,37.134681],[76.7525782,37.1346781],[76.7527811,37.1346275],[76.7528913,37.134604],[76.7532861,37.1345027],[76.7533393,37.1344786],[76.7534585,37.1343929],[76.7550729,37.1339396],[76.7563966,37.1336531],[76.7577681,37.1333624],[76.7579547,37.1332404],[76.7581799,37.1329376],[76.7587003,37.1328],[76.7598532,37.132762],[76.7604867,37.1326184],[76.7609738,37.1323657],[76.7610288,37.1323592],[76.7610664,37.1323438],[76.7611819,37.1322623],[76.7612319,37.1321626],[76.7612565,37.1321365],[76.7612767,37.1321051],[76.761379,37.1320305],[76.7614349,37.1319678],[76.761537,37.1317701],[76.7616107,37.1316918],[76.7616445,37.1316446],[76.7616937,37.1315906],[76.7617322,37.1315154],[76.7617873,37.13137],[76.7626165,37.1310837],[76.7635728,37.1308435],[76.7638619,37.1307586],[76.7638907,37.130743],[76.7639524,37.1307331],[76.7640117,37.1307338],[76.7640513,37.1307289],[76.7640623,37.1307255],[76.7640669,37.130715],[76.7642309,37.1306252],[76.7642815,37.1306187],[76.7644204,37.130585],[76.7644845,37.1305611],[76.7645687,37.1305145],[76.7646044,37.1304849],[76.7647616,37.1304039],[76.7648351,37.1303414],[76.7648728,37.1303189],[76.7649258,37.1303036],[76.7649967,37.1302639],[76.7650419,37.1301905],[76.7650707,37.1301715],[76.7652633,37.1300768],[76.7653455,37.1300196],[76.7654143,37.1299798],[76.765428,37.1299483],[76.7654335,37.129878],[76.7654829,37.1298117],[76.7655521,37.1297421],[76.7664636,37.129064],[76.7665856,37.1289949],[76.7666239,37.128932],[76.7666574,37.1288989],[76.7667039,37.128873],[76.7668304,37.1285736],[76.7668452,37.1282488],[76.7667271,37.1278951],[76.7666892,37.127408],[76.7667795,37.127251],[76.7674139,37.1271394],[76.7678185,37.1272138],[76.7682465,37.1273397],[76.7687672,37.1274647],[76.7690374,37.1274843],[76.7693246,37.1273988],[76.7698419,37.1269907],[76.7699643,37.1268455],[76.7699802,37.1265695],[76.7699878,37.1263361],[76.7700587,37.1262383],[76.7703895,37.1256104],[76.7706075,37.1253661],[76.7709478,37.1251353],[76.7710014,37.1251126],[76.7710628,37.1251145],[76.7711547,37.1251245],[76.7712371,37.1251241],[76.7715077,37.1250743],[76.7716188,37.1248352],[76.7716241,37.1238397],[76.7715691,37.123267],[76.7717684,37.1230256],[76.7729173,37.1229577],[76.7738806,37.1231182],[76.7739043,37.1231345],[76.773958,37.1231478],[76.774028,37.1231357],[76.774054,37.123136],[76.7741116,37.1231558],[76.7742171,37.1231713],[76.7742494,37.1231951],[76.7743182,37.1232171],[76.7743714,37.1232198],[76.7744676,37.1231994],[76.7745608,37.1231983],[76.7748864,37.1232561],[76.774963,37.1232654],[76.7750888,37.1232701],[76.7753235,37.1232591],[76.7754891,37.1232608],[76.7762273,37.1231711],[76.7770634,37.1229481],[76.7774236,37.1229861],[76.7780328,37.1233128],[76.7786179,37.123582],[76.7790386,37.1239121],[76.7791915,37.1239055],[76.779245,37.1236886],[76.7793582,37.1233122],[76.7795211,37.1231783],[76.7815774,37.1232692],[76.7821136,37.1232518],[76.7824507,37.1231695],[76.7827168,37.1230635],[76.7828882,37.1228914],[76.7830367,37.1227149],[76.7831264,37.1224727],[76.7832962,37.1223648],[76.7839411,37.1220681],[76.7842761,37.121838],[76.7847844,37.1215542],[76.7850068,37.1214964],[76.785252,37.1213502],[76.7851586,37.1211604],[76.7843819,37.1205861],[76.7844101,37.120163],[76.7846361,37.1194329],[76.7845439,37.1191659],[76.7842357,37.1187823],[76.7836927,37.1183333],[76.7833691,37.1180182],[76.7833182,37.1178546],[76.783389,37.1176458],[76.7834139,37.1176128],[76.7835367,37.117417],[76.7839492,37.1169373],[76.7845654,37.1165986],[76.784792,37.1164427],[76.7850742,37.1162677],[76.7851089,37.1162394],[76.7851638,37.1162045],[76.7852979,37.1161258],[76.7853986,37.1160811],[76.7855268,37.1160149],[76.7856289,37.1159782],[76.7856664,37.1159557],[76.7857185,37.1159139],[76.7857919,37.1158757],[76.7858953,37.1158436],[76.7859396,37.1158441],[76.7859837,37.1158548],[76.7860534,37.1158971],[76.7866277,37.1159306],[76.7872623,37.1160115],[76.787786,37.1160969],[76.7880183,37.1160936],[76.788262,37.1160446],[76.7886988,37.1159494],[76.7887382,37.1159342],[76.7888591,37.1159249],[76.7889555,37.1159233],[76.7889964,37.1159133],[76.7890194,37.1159031],[76.7891043,37.1159026],[76.7892579,37.1158898],[76.7893331,37.1158775],[76.7894197,37.1158705],[76.789782,37.1158729],[76.7898242,37.1158825],[76.7898615,37.1158973],[76.7899627,37.1159009],[76.7901016,37.1158854],[76.7901522,37.1158859],[76.7902173,37.115897],[76.7903172,37.115941],[76.7904148,37.1159619],[76.7905086,37.1159538],[76.7907976,37.1159489],[76.7908219,37.1159525],[76.7908343,37.1159627],[76.7908686,37.1160176],[76.7909171,37.1160598],[76.7909527,37.1160757],[76.7910031,37.1160917],[76.7912023,37.1163616],[76.7914748,37.1167478],[76.7916182,37.1168376],[76.7919863,37.117081],[76.7922658,37.1171754],[76.792585,37.1171691],[76.7928469,37.1170511],[76.7930456,37.1169129],[76.7933307,37.1165039],[76.7934427,37.1159787],[76.7935738,37.1151447],[76.7935555,37.1147221],[76.7934718,37.1139908],[76.7935031,37.1136688],[76.7935332,37.113425],[76.7934551,37.113243],[76.793249,37.1130235],[76.7929027,37.1127892],[76.792754,37.1127076],[76.7926864,37.112541],[76.7926851,37.1123979],[76.7927838,37.1122678],[76.7935714,37.1116918],[76.7940435,37.1114305],[76.7943932,37.1112626],[76.7948063,37.1110807],[76.7950405,37.1109543],[76.7952397,37.1107902],[76.7953521,37.1104483],[76.7954625,37.1102435],[76.7954943,37.1100378],[76.795408,37.1096278],[76.7953473,37.1091752],[76.7951525,37.1088452],[76.7951873,37.1086015],[76.7953744,37.1082105],[76.7956389,37.107601],[76.7958724,37.1072906],[76.7961904,37.1071527],[76.7965356,37.1070647],[76.7970192,37.1070486],[76.7973408,37.1070949],[76.797493,37.1072002],[76.7976149,37.1073721],[76.7977848,37.1075732],[76.7979232,37.1077024],[76.7984665,37.1079806],[76.7988179,37.1081939],[76.7990988,37.1083513],[76.7992768,37.1083912],[76.7995748,37.1082868],[76.8003364,37.1079404],[76.801008,37.1073911],[76.8013104,37.1070589],[76.8017124,37.1065396],[76.8018087,37.1065248],[76.8022565,37.1067679],[76.802554,37.1068666],[76.8027035,37.1068734],[76.8027753,37.1068838],[76.8028572,37.1069049],[76.8028938,37.1069185],[76.8029159,37.1069386],[76.8030904,37.1068158],[76.8034017,37.106323],[76.8036445,37.1060299],[76.803613,37.1057578],[76.8034455,37.1050552],[76.8034503,37.1047501],[76.8034786,37.1044644],[76.8035887,37.1042795],[76.8038207,37.1041924],[76.8041301,37.1041126],[76.8045811,37.104021],[76.8053338,37.1039449],[76.8054043,37.1039414],[76.8056162,37.1039101],[76.8057768,37.1039044],[76.8058423,37.1038936],[76.8065443,37.1036902],[76.8069674,37.1035801],[76.8072387,37.1034379],[76.8075418,37.1032426],[76.8078553,37.1031655],[76.8080189,37.1030963],[76.808041,37.1030767],[76.808166,37.1030257],[76.8082146,37.1030107],[76.8082529,37.1029884],[76.8082831,37.1029648],[76.8083099,37.1029515],[76.8083898,37.1029465],[76.8086177,37.1029597],[76.8088395,37.1029352],[76.809093,37.1028788],[76.8092612,37.1027659],[76.8095503,37.1025514],[76.8097945,37.1023135],[76.8098874,37.10216],[76.8099889,37.1019131],[76.8100244,37.1016197],[76.8100646,37.101336],[76.8101002,37.1011895],[76.8101933,37.1010207],[76.8103788,37.1008833],[76.8105586,37.1008031],[76.8108867,37.1006843],[76.8112488,37.1005163],[76.8116221,37.1004018],[76.812001,37.1003789],[76.8123603,37.1003921],[76.8126892,37.1004989],[76.8131098,37.1005807],[76.8133901,37.1006217],[76.8135605,37.1005588],[76.8138118,37.1004524],[76.8140624,37.1002565],[76.8142727,37.0999058],[76.8143439,37.0996109],[76.8142728,37.099286],[76.8142214,37.0990738],[76.814115,37.0988687],[76.813427,37.0977957],[76.8130417,37.0971625],[76.8129253,37.0968352],[76.8128875,37.096667],[76.8129215,37.0964728],[76.8130487,37.0962528],[76.81334,37.0958934],[76.8137494,37.095598],[76.8138559,37.0954866],[76.8139626,37.0953599],[76.8141666,37.0952551],[76.8148244,37.0950538],[76.8156075,37.0949167],[76.8161848,37.0948443],[76.8165795,37.0948179],[76.8167235,37.094802],[76.8168669,37.0947672],[76.8170191,37.0946825],[76.8171864,37.0945796],[76.8176122,37.0942959],[76.8180323,37.0939187],[76.8184917,37.093311],[76.8187327,37.0931227],[76.8188943,37.0929889],[76.8190977,37.0927716],[76.8192496,37.0924947],[76.8193519,37.0921887],[76.8194229,37.0919147],[76.8194914,37.0917934],[76.8196264,37.0916805],[76.8197215,37.091542],[76.8197343,37.0913078],[76.819837,37.091156],[76.8199673,37.0910391],[76.8201258,37.0909491],[76.820317,37.0909033],[76.8205026,37.0909109],[76.8206776,37.090987],[76.8207995,37.0911065],[76.8209519,37.091404],[76.8210024,37.0916882],[76.8211293,37.0919451],[76.8212653,37.0920818],[76.821483,37.0921679],[76.8215703,37.0922203],[76.8217059,37.0922254],[76.8218512,37.0922231],[76.8220183,37.0921885],[76.8221174,37.0921227],[76.8224471,37.0918666],[76.8231395,37.0914253],[76.8234792,37.0911712],[76.8239399,37.0907829],[76.8240587,37.0906449],[76.824215,37.0905415],[76.8244726,37.090432],[76.8245781,37.0904003],[76.8247972,37.0903791],[76.8249988,37.0903507],[76.8251097,37.0903472],[76.8252237,37.0903343],[76.8253515,37.0903659],[76.8254126,37.0903759],[76.825474,37.0903671],[76.8255503,37.0903328],[76.825644,37.0903081],[76.8257522,37.0902928],[76.8258865,37.0902848],[76.8260731,37.0902843],[76.8264408,37.0902716],[76.8268169,37.0902823],[76.8269482,37.0902742],[76.8271786,37.0902742],[76.8272487,37.0902679],[76.8273569,37.0902502],[76.8274853,37.0902492],[76.8275729,37.0902407],[76.8276691,37.0902416],[76.8277479,37.0902378],[76.8280252,37.0902751],[76.8291031,37.0902285],[76.8310812,37.090093],[76.8314683,37.090073],[76.8317954,37.0900906],[76.8320397,37.0900691],[76.8322911,37.089967],[76.8330303,37.0895115],[76.8345597,37.0889377],[76.8349542,37.0888248],[76.8352044,37.0888105],[76.8353528,37.0888358],[76.8354764,37.0889252],[76.8355456,37.0890761],[76.8355669,37.0892384],[76.83554,37.0894384],[76.8354716,37.0896332],[76.8353952,37.0897612],[76.8352062,37.0898643],[76.8350554,37.0899755],[76.834994,37.0901173],[76.8352958,37.0902299],[76.8357888,37.0902919],[76.8360711,37.0903162],[76.8363032,37.0903184],[76.8365473,37.0902518],[76.8369734,37.0900842],[76.837429,37.0898694],[76.838041,37.0895464],[76.8389626,37.0892121],[76.8393284,37.0890322],[76.8395096,37.0888599],[76.8395791,37.088596],[76.8396084,37.0882363],[76.83962,37.0878645],[76.8396958,37.0875768],[76.8398476,37.0873804],[76.8400623,37.0871512],[76.8402641,37.0869959],[76.840489,37.0868813],[76.8409331,37.0867194],[76.8417081,37.0863544],[76.8420902,37.0862795],[76.8425189,37.0862622],[76.8429882,37.0863168],[76.8434993,37.0864764],[76.8437234,37.0865043],[76.8438308,37.0865404],[76.844008,37.0865842],[76.8440745,37.0866199],[76.8443173,37.0867648],[76.8450619,37.0870005],[76.8452738,37.0870956],[76.8457513,37.0874002],[76.8458181,37.0874149],[76.8459084,37.0874251],[76.8459812,37.0874305],[76.8460863,37.0874269],[76.8461501,37.0874462],[76.8462259,37.0874469],[76.8462965,37.0874079],[76.8463882,37.0873247],[76.8464615,37.0872973],[76.8465169,37.0872979],[76.8480752,37.0865269],[76.8484154,37.0862656],[76.8486846,37.0861333],[76.8491532,37.0860845],[76.849626,37.0861289],[76.850381,37.0863515],[76.8506329,37.0864206],[76.8508116,37.0864128],[76.8509215,37.0863214],[76.851374,37.0852287],[76.8515596,37.0849587],[76.851762,37.0847557],[76.8521117,37.0844539],[76.8526066,37.0838031],[76.8526657,37.0836344],[76.8526755,37.0833794],[76.8527818,37.0830372],[76.8529325,37.0829075],[76.8530755,37.0828673],[76.8537697,37.0828393],[76.8544482,37.0828292],[76.8558639,37.0828715],[76.8569188,37.0829071],[76.8576047,37.0828644],[76.8579847,37.0829229],[76.8584019,37.0830795],[76.8593247,37.0834555],[76.8599123,37.0836714],[76.8603531,37.0837252],[76.8606688,37.0837092],[76.860898,37.0837019],[76.8610652,37.0836653],[76.8611373,37.0835297],[76.8611691,37.0826889],[76.8613839,37.0824478],[76.8616014,37.0822329],[76.8617113,37.0820433],[76.8618946,37.0819282],[76.8620951,37.0818515],[76.8623122,37.0818583],[76.8626396,37.0820036],[76.8630381,37.0822658],[76.8632703,37.082454],[76.8633221,37.0825713],[76.8634315,37.0826224],[76.863613,37.0826194],[76.8637473,37.0825921],[76.8639089,37.0825316],[76.8640608,37.0824102],[76.8640678,37.0822542],[76.8642147,37.0819767],[76.8643244,37.0812054],[76.8640193,37.0805182],[76.864026,37.080268],[76.8640474,37.0800298],[76.8641138,37.0797682],[76.8642047,37.079657],[76.8645095,37.0795717],[76.8649738,37.0795595],[76.8654201,37.0795903],[76.8656135,37.0795608],[76.8656991,37.0794685],[76.8660073,37.0788947],[76.8663678,37.0782593],[76.8665951,37.0779801],[76.8673551,37.0776051],[76.8674951,37.0775211],[76.8675863,37.0774599],[76.8676876,37.0773756],[76.8675896,37.0771338],[76.8675031,37.076947],[76.8673846,37.0767122],[76.8673489,37.0765093],[76.8673563,37.0760159],[76.8673168,37.0756722],[76.8673661,37.0751577],[76.8674414,37.074696],[76.8676579,37.0743428],[76.8679155,37.0740258],[76.8681468,37.0738731],[76.8683386,37.0737843],[76.8685986,37.0737057],[76.8688453,37.0737255],[76.8694442,37.0738616],[76.8700536,37.0740963],[76.8706468,37.074419],[76.8712504,37.0746488],[76.8716531,37.074779],[76.8721583,37.0748613],[76.8723772,37.0748918],[76.8727213,37.0749752],[76.8729044,37.0750261],[76.873152,37.0750827],[76.8734068,37.0750929],[76.8735821,37.0751049],[76.8739942,37.0750142],[76.8741755,37.0750737],[76.8743812,37.0751615],[76.8750318,37.0753479],[76.8752351,37.075367],[76.8753831,37.075254],[76.8759889,37.0746103],[76.8761503,37.0743143],[76.8762375,37.074215],[76.8768177,37.0740889],[76.8771688,37.0740065],[76.8774843,37.0739179],[76.8777278,37.0738687],[76.8779806,37.073914],[76.8782727,37.0739597],[76.878518,37.0740335],[76.8789692,37.0741785],[76.879107,37.0742302],[76.8791747,37.0742869],[76.8793325,37.0742843],[76.8793372,37.074209],[76.879359,37.0741033],[76.8793877,37.0740121],[76.8794392,37.073918],[76.8794859,37.0738439],[76.8795685,37.0737578],[76.8796971,37.073656],[76.8800916,37.07344],[76.8804711,37.0732742],[76.8808024,37.0731744],[76.8810746,37.0731151],[76.881222,37.0730948],[76.8813791,37.0730917],[76.8816146,37.0731031],[76.8826113,37.0732052],[76.8828355,37.073205],[76.8830001,37.0731825],[76.8831778,37.0731418],[76.8833672,37.0730761],[76.8835994,37.072957],[76.88377,37.0728461],[76.8840661,37.0726162],[76.8844394,37.0723165],[76.884889,37.0720079],[76.8852729,37.0718017],[76.8855936,37.0716751],[76.8858878,37.0715806],[76.8861918,37.0714633],[76.8870357,37.0712061],[76.8880453,37.0708513],[76.888452,37.0707025],[76.8888473,37.070527],[76.8891303,37.0703789],[76.8894044,37.0701889],[76.8896835,37.0699855],[76.8904822,37.069232],[76.8906689,37.0689973],[76.8908271,37.0687604],[76.8908892,37.0685798],[76.8909476,37.0683267],[76.8909621,37.0681513],[76.8909673,37.0679588],[76.8908941,37.06759],[76.8907636,37.0670628],[76.8907492,37.0669173],[76.8907653,37.0667935],[76.8908145,37.0666833],[76.890868,37.0666056],[76.8909621,37.066515],[76.8910799,37.066436],[76.8912284,37.0663687],[76.8916131,37.0662617],[76.892084,37.0661211],[76.8924356,37.0660043],[76.8927252,37.0658868],[76.8930104,37.0657522],[76.8932647,37.0656115],[76.8937017,37.0653467],[76.8948561,37.0646792],[76.8953801,37.0643855],[76.8958065,37.0641274],[76.8961381,37.0639119],[76.8962837,37.0637697],[76.8963681,37.0636756],[76.8965109,37.0635057],[76.8966292,37.0633283],[76.8968468,37.0628909],[76.8969561,37.062639],[76.8970555,37.0624786],[76.8972939,37.0621902],[76.8974399,37.062068],[76.8976982,37.0618792],[76.8989818,37.061102],[76.9002641,37.0603052],[76.9006529,37.0600762],[76.9009903,37.0597837],[76.9012665,37.059484],[76.9021305,37.0583572],[76.9023885,37.0579948],[76.9025122,37.0578768],[76.9026445,37.0577779],[76.9028126,37.0576698],[76.9030218,37.0576026],[76.9032692,37.0575715],[76.9034863,37.0575735],[76.9037417,37.0575997],[76.9048373,37.0577409],[76.9050838,37.0577646],[76.9052624,37.0577615],[76.9054352,37.0577393],[76.9056084,37.0576908],[76.9058152,37.0575949],[76.907975,37.0565254],[76.9084217,37.0562864],[76.9086797,37.056129],[76.9089296,37.0559215],[76.9092161,37.0556476],[76.9095602,37.0552932],[76.9100468,37.0547541],[76.9102768,37.0544844],[76.9105562,37.054077],[76.9110164,37.0533016],[76.9116787,37.0521252],[76.9121455,37.0512641],[76.9125,37.0506967],[76.9125834,37.0505861],[76.912697,37.0504971],[76.9128602,37.0504025],[76.9131933,37.0502667],[76.9133887,37.050183],[76.9134982,37.0501093],[76.9136248,37.0500463],[76.9137251,37.0499511],[76.9139999,37.0496363],[76.9145838,37.0488666],[76.9149502,37.0483984],[76.9150736,37.0482867],[76.9152026,37.0481841],[76.9153756,37.0480697],[76.9155729,37.047983],[76.9158037,37.0479485],[76.9160782,37.0479175],[76.9164043,37.0478732],[76.9166148,37.0477957],[76.916711,37.0477264],[76.9168056,37.0476327],[76.9168948,37.047516],[76.9169849,37.0473383],[76.9170619,37.0471407],[76.9171248,37.0468727],[76.9171383,37.0467203],[76.9171383,37.0465891],[76.9170866,37.0463414],[76.9170023,37.0461133],[76.9168773,37.0456667],[76.9168299,37.0455197],[76.9168311,37.0454374],[76.9168552,37.0453445],[76.916908,37.0452489],[76.9169854,37.0451596],[76.9170853,37.0450949],[76.9171848,37.0450546],[76.9173282,37.0450117],[76.9175381,37.0449739],[76.9177711,37.0449211],[76.9179777,37.0448436],[76.9181255,37.044758],[76.9182395,37.0446431],[76.9183153,37.0445309],[76.9183835,37.0444171],[76.9185012,37.0440367],[76.9185758,37.0438741],[76.9186541,37.0437284],[76.9187357,37.0436055],[76.9188826,37.0434512],[76.9191945,37.0432023],[76.9193537,37.0431138],[76.9197638,37.0429146],[76.9205866,37.042475],[76.9209311,37.0423378],[76.9219164,37.0419791],[76.9221596,37.0418775],[76.9223071,37.0418102],[76.9224473,37.0417184],[76.9225724,37.0416204],[76.9227731,37.0414254],[76.92291,37.0413061],[76.9231037,37.0411964],[76.92319,37.0411515],[76.9233277,37.0411085],[76.9235298,37.0410798],[76.9237394,37.0410649],[76.9241445,37.0410899],[76.9243326,37.041113],[76.9245696,37.0411777],[76.9248234,37.0412609],[76.9257232,37.0416978],[76.9258972,37.0417787],[76.9260736,37.041823],[76.9262846,37.0418402],[76.9264255,37.0418353],[76.9266087,37.0418004],[76.9275408,37.0415693],[76.9279788,37.0414222],[76.9280709,37.0413635],[76.9281847,37.0412623],[76.9284596,37.0409291],[76.9285677,37.0408187],[76.9291088,37.0403781],[76.9300959,37.0396088],[76.9302207,37.0395322],[76.9303357,37.0394783],[76.9304387,37.0394594],[76.930591,37.0394562],[76.9307622,37.0394638],[76.930962,37.0394671],[76.9311621,37.0394476],[76.9314293,37.0393951],[76.932065,37.0392604],[76.9322999,37.039203],[76.9324681,37.0391527],[76.9326825,37.0390646],[76.9332573,37.0387936],[76.9335381,37.0386794],[76.9336629,37.038637],[76.9342205,37.0385078],[76.9344915,37.0384553],[76.934801,37.0383696],[76.9350155,37.0382754],[76.935137,37.0381574],[76.9351974,37.0380573],[76.9352484,37.0379494],[76.9353239,37.0377227],[76.9354087,37.0373772],[76.9356048,37.0366893],[76.9357205,37.0363104],[76.9357839,37.0361516],[76.9358639,37.0359898],[76.9360438,37.0357823],[76.9362926,37.0354092],[76.9363558,37.0352465],[76.9364118,37.0347741],[76.9364443,37.0346184],[76.9364796,37.0344757],[76.936577,37.0343183],[76.9366788,37.0341819],[76.9368116,37.0340439],[76.9370801,37.0337239],[76.9371678,37.033576],[76.9372171,37.0334524],[76.937245,37.0333287],[76.9372567,37.0331724],[76.9372495,37.032831],[76.9372639,37.0323105],[76.9372064,37.0321688],[76.9371222,37.0320651],[76.9370069,37.0319763],[76.9368039,37.0318639],[76.9366312,37.0317937],[76.9364404,37.0316565],[76.9363425,37.0315145],[76.9362947,37.0313634],[76.9362893,37.0312375],[76.9363169,37.0311367],[76.9363925,37.031],[76.9365011,37.0308904],[76.936676,37.0307966],[76.937004,37.030646],[76.9371553,37.0305444],[76.9372458,37.0304536],[76.9377181,37.0298457],[76.93783,37.0297173],[76.9381224,37.0293534],[76.9382121,37.0292207],[76.9382966,37.0290441],[76.9383317,37.0288327],[76.9382378,37.0276275],[76.938156,37.02684],[76.9381233,37.0263706],[76.9381041,37.0262131],[76.9380594,37.0260954],[76.9379826,37.0259745],[76.9378522,37.0258532],[76.9368965,37.0250522],[76.936721,37.0248389],[76.9366449,37.0246666],[76.936641,37.0244348],[76.9366681,37.0242863],[76.9367231,37.0241752],[76.9368216,37.0240216],[76.9369879,37.0238686],[76.9372359,37.0237364],[76.9375476,37.0236419],[76.9390258,37.0233119],[76.9394049,37.0232409],[76.9399047,37.0230499],[76.9416592,37.0222569],[76.9418296,37.0221459],[76.9418972,37.0220759],[76.9419271,37.0219808],[76.9419453,37.0218646],[76.941916,37.0217518],[76.9416801,37.0210975],[76.9415433,37.0206671],[76.9415033,37.0204627],[76.9415051,37.020333],[76.9415563,37.0199006],[76.9415791,37.0196337],[76.9416192,37.0194815],[76.9416993,37.0193697],[76.9418124,37.0192716],[76.9420559,37.0192051],[76.9422731,37.0191517],[76.9426117,37.0190899],[76.9430102,37.0189981],[76.9437711,37.0186654],[76.9441949,37.0184612],[76.9444994,37.0182866],[76.9446054,37.0181884],[76.9447732,37.0179727],[76.9451752,37.0173515],[76.9452254,37.0172155],[76.9452683,37.0170385],[76.9452653,37.0169088],[76.9452118,37.016647],[76.9451563,37.0165321],[76.9451025,37.0164668],[76.9448123,37.0162982],[76.9446639,37.0161939],[76.9445684,37.01605],[76.9445161,37.015876],[76.9444992,37.0157214],[76.9445371,37.0155615],[76.9446298,37.0153945],[76.944769,37.0152536],[76.9449303,37.0151607],[76.9451123,37.0150708],[76.9453656,37.0149872],[76.9457444,37.0149362],[76.9467518,37.0148422],[76.9474131,37.0147422],[76.9479071,37.0146236],[76.9485989,37.0143837],[76.9488177,37.0142969],[76.9489795,37.0142097],[76.949124,37.0140765],[76.9493064,37.0137863],[76.9495901,37.0133883],[76.9498501,37.0131589],[76.9501743,37.01293],[76.9506231,37.0126374],[76.9509224,37.0124913],[76.9513835,37.0123333],[76.951708,37.0122579],[76.9518775,37.0122098],[76.9522074,37.0120571],[76.952967,37.0114974],[76.9535146,37.0111097],[76.9536521,37.0109645],[76.9536931,37.0108927],[76.9537205,37.0107682],[76.9537414,37.0105899],[76.9537355,37.0103976],[76.9537792,37.0103155],[76.9538845,37.0102177],[76.9540739,37.0101088],[76.955221,37.0096955],[76.9558939,37.0094468],[76.9562191,37.0093162],[76.9564384,37.0091941],[76.9566246,37.0090546],[76.9567705,37.0089081],[76.9568746,37.0087698],[76.9569548,37.0086475],[76.9570304,37.0084271],[76.9570608,37.0082351],[76.9570953,37.0077968],[76.9571658,37.0067094],[76.9571904,37.0057646],[76.9572139,37.0056421],[76.9572446,37.0055333],[76.9573545,37.0054414],[76.9574542,37.005345],[76.9575723,37.0052671],[76.9579727,37.0050967],[76.9585786,37.004828],[76.9587799,37.0047123],[76.9589267,37.0045488],[76.9590242,37.0043773],[76.9590645,37.0042113],[76.9590442,37.0040057],[76.9588816,37.0033721],[76.9588194,37.0029653],[76.958815,37.002765],[76.9588994,37.0025912],[76.959114,37.002287],[76.9593851,37.0020233],[76.9597627,37.0017949],[76.960326,37.0015567],[76.9608483,37.0014045],[76.9615851,37.0012052],[76.9619242,37.0010983],[76.962234,37.0009789],[76.9624679,37.0008452],[76.9626641,37.0006928],[76.9628317,37.0005325],[76.9629519,37.0003703],[76.9630413,37.0002277],[76.9631159,36.9999958],[76.9633258,36.9991676],[76.9635005,36.9984998],[76.9635752,36.998328],[76.963665,36.9981564],[76.9637887,36.9979893],[76.9639665,36.9978096],[76.9643268,36.9975386],[76.9650753,36.9971351],[76.9666521,36.9959282],[76.9674756,36.9952721],[76.9676976,36.9951005],[76.9678427,36.9949182],[76.9681341,36.9944702],[76.9684264,36.9939554],[76.9686176,36.9936567],[76.9689387,36.9933462],[76.9693146,36.9931073],[76.9694682,36.9929584],[76.9703876,36.9924288],[76.9707046,36.9922016],[76.9710833,36.992063],[76.9712495,36.9920183],[76.9714404,36.9920179],[76.9716221,36.9919953],[76.971779,36.9919334],[76.9721835,36.9914466],[76.9724301,36.9912876],[76.9726951,36.9911484],[76.9729139,36.9910742],[76.973214,36.9908637],[76.9736442,36.9904779],[76.973863,36.99017],[76.9738319,36.9900368],[76.9738008,36.9899036],[76.9736732,36.989585],[76.9736904,36.9892291],[76.9737076,36.9888732],[76.9739887,36.9887766],[76.9744285,36.9886575],[76.9751719,36.9885273],[76.9754593,36.9883674],[76.9757961,36.9880402],[76.9762192,36.9876736],[76.9764204,36.9875532],[76.9767258,36.9873403],[76.9768465,36.9870389],[76.9775155,36.9863634],[76.9778722,36.9860695],[76.9781476,36.9856977],[76.9783,36.9851005],[76.9781673,36.9848181],[76.9777908,36.9846006],[76.9777531,36.9840747],[76.978369,36.9832566],[76.9791312,36.9826464],[76.9801373,36.9820363],[76.981615,36.981478],[76.9828082,36.9807899],[76.984032,36.9797906],[76.9849518,36.9791213],[76.985394,36.978617],[76.9859636,36.9782258],[76.9879465,36.9777524],[76.9884213,36.9771255],[76.9889913,36.9770157],[76.9894623,36.9767588],[76.9899994,36.9763667],[76.9927874,36.9762856],[76.9944146,36.9759501],[76.9952918,36.9753384],[76.9979953,36.9744666],[76.9991785,36.9745044],[77.0003081,36.9743028],[77.0009932,36.9741567],[77.0011828,36.9740333],[77.002005,36.9732116],[77.0031104,36.9724803],[77.005143,36.9718537],[77.0072464,36.9717134],[77.0086915,36.9714317],[77.0101856,36.9705331],[77.0110669,36.9706388],[77.0113313,36.9703114],[77.0115957,36.9697672],[77.0116069,36.9688563],[77.0113906,36.9684894],[77.0110019,36.9681225],[77.0106131,36.9677655],[77.0104954,36.96731],[77.0109345,36.9649264],[77.0124458,36.9631434],[77.0124807,36.9613732],[77.0133289,36.9608241],[77.0136842,36.9600781],[77.0146629,36.9589271],[77.0153212,36.958426],[77.0163235,36.9578523],[77.0168575,36.9567665],[77.0177099,36.9561547],[77.0185623,36.9559565],[77.0188478,36.9553742],[77.0193641,36.9545677],[77.0198934,36.9540856],[77.020472,36.9538202],[77.0218763,36.9537666],[77.0233299,36.9539493],[77.0238223,36.9536691],[77.023674,36.9527412],[77.0240681,36.9520693],[77.0248963,36.9517226],[77.0252314,36.9510215],[77.0255297,36.9503695],[77.0260251,36.9497176],[77.0265821,36.9493611],[77.0281744,36.9493001],[77.0282125,36.9490086],[77.0281398,36.9480917],[77.0283594,36.9475585],[77.0286776,36.9473012],[77.0298031,36.9471178],[77.0309408,36.9470426],[77.0323554,36.9484703],[77.0342832,36.9501622],[77.0361461,36.9512563],[77.0410422,36.9543141],[77.0424372,36.9543305],[77.0430168,36.9552385],[77.0449914,36.9570203],[77.0462364,36.9589563],[77.0470093,36.9607552],[77.0469888,36.96377],[77.0485956,36.9671127],[77.0511894,36.9698039],[77.0544913,36.9716893],[77.0580507,36.9723747],[77.064955,36.9757684],[77.0730432,36.9753354],[77.0806809,36.9758624],[77.0820056,36.9750642],[77.0848323,36.9749516],[77.0905072,36.9774693],[77.0926631,36.9790956],[77.0940174,36.9794936],[77.0954147,36.9796173],[77.0991248,36.9791082],[77.1015904,36.9776392],[77.1046568,36.9755702],[77.1084099,36.9756611],[77.1155726,36.9732888],[77.1221677,36.9707443],[77.1254153,36.9701542],[77.1268996,36.9707592],[77.1279548,36.9716041],[77.1304944,36.9730541],[77.1322416,36.9736633],[77.1355552,36.9738782],[77.1374832,36.9726624],[77.140012,36.9741637],[77.1454775,36.9733262],[77.1493261,36.9747417],[77.1505887,36.9745641],[77.1507049,36.9737725],[77.1512933,36.9731866],[77.154548,36.9724887],[77.1596518,36.9735699],[77.1638115,36.9716854],[77.1664477,36.9729124],[77.1683401,36.9722401],[77.1696306,36.971228],[77.1717803,36.9709622],[77.1719959,36.9719261],[77.1713522,36.9729199],[77.1718106,36.9736601],[77.1726426,36.9741315],[77.1743907,36.973597],[77.1746297,36.9726433],[77.1756905,36.9716597],[77.1796724,36.971516],[77.1851144,36.970348],[77.1884144,36.9707191],[77.1936293,36.969909],[77.1971333,36.9689666],[77.201123,36.9688302],[77.2014923,36.9697531],[77.2029451,36.9697806],[77.2053649,36.9688206],[77.2088596,36.9672888],[77.2116425,36.9669401],[77.2178689,36.9675901],[77.2194577,36.9670497],[77.2208319,36.965995],[77.2231512,36.9641598],[77.2279489,36.9630189],[77.2333088,36.9628256],[77.2351949,36.9615974],[77.2366303,36.960815],[77.2405848,36.9604503],[77.2444106,36.9610629],[77.2515623,36.9583064],[77.2634667,36.9587161],[77.268709,36.9572044],[77.2729927,36.9569262],[77.2751585,36.9560758],[77.2768364,36.9546795],[77.2798803,36.9549337],[77.2830217,36.9545901],[77.2881826,36.9545006],[77.2972922,36.9555084],[77.301025,36.9559553],[77.3028915,36.9573872],[77.303662,36.9584281],[77.3046519,36.9557501],[77.3051268,36.9533123],[77.3086272,36.9518518],[77.3099016,36.9507818],[77.3137509,36.9503292],[77.3191321,36.9501098],[77.3245133,36.9514166],[77.327397,36.9509554],[77.3373147,36.9482897],[77.3409285,36.9464642],[77.3454699,36.9459742],[77.3500113,36.9454842],[77.3601172,36.9408375],[77.3691613,36.9433504],[77.3699707,36.9446457],[77.3697929,36.9459411],[77.3715833,36.9462337],[77.3723497,36.9455226],[77.3724724,36.9443313],[77.3725092,36.9432943],[77.3733615,36.9424288],[77.375483,36.9417622],[77.3772622,36.9412125],[77.3842344,36.9404538],[77.3886848,36.9390232],[77.3973266,36.9387633],[77.4024414,36.9374018],[77.405901,36.9365013],[77.4052211,36.9341846],[77.4055125,36.9324055],[77.4061588,36.9316342],[77.4058095,36.930502],[77.4052613,36.9301001],[77.4054976,36.9292802],[77.4040508,36.9277223],[77.4026041,36.9261644],[77.402684,36.9232462],[77.4033989,36.920776],[77.4070093,36.9193811],[77.4182644,36.9211769],[77.4234628,36.9222979],[77.4275577,36.9216992],[77.4326933,36.9209184],[77.4370971,36.9190976],[77.4447304,36.9160809],[77.4485471,36.9145726],[77.4490614,36.9139639],[77.4495757,36.9133552],[77.4511849,36.9106767],[77.4526975,36.9102982],[77.4542531,36.9105716],[77.4575573,36.907994],[77.4624278,36.9089507],[77.4671967,36.9064703],[77.4730814,36.9053626],[77.4760237,36.905375],[77.4787086,36.9047697],[77.4807497,36.9039241],[77.4869401,36.9043801],[77.49011,36.9030695],[77.4923833,36.9013706],[77.4930594,36.8991861],[77.4953047,36.8979278],[77.4959808,36.8960421],[77.5011421,36.8947078],[77.5054814,36.8925369],[77.5083609,36.8912274],[77.5113152,36.8889019],[77.5139425,36.8852317],[77.5176265,36.8814491],[77.5169068,36.8919524],[77.5190123,36.8988039],[77.5155413,36.9132764],[77.5162658,36.9231224],[77.5184633,36.9354744],[77.549743,36.9323306],[77.5751488,36.9356237],[77.6081078,36.9361726],[77.6197808,36.9603177],[77.6445,36.9784215],[77.6499932,37.0020049],[77.6582333,37.0154383],[77.647247,37.0431208],[77.6523968,37.0696975],[77.6671597,37.0779152],[77.6644131,37.0902401],[77.6767727,37.1113247],[77.6778027,37.1274764],[77.6616665,37.1477297],[77.6637265,37.1646945],[77.646217,37.1832966],[77.65789,37.1912285],[77.6582333,37.2016207],[77.6489636,37.2180266],[77.6520535,37.2265016],[77.6403805,37.2349756],[77.6420971,37.2571129],[77.6431271,37.2642173],[77.6283642,37.2759654],[77.6070782,37.2825218],[77.5964352,37.3010949],[77.6094815,37.3142025],[77.6180723,37.3269004],[77.6253968,37.3357509],[77.6307223,37.3446274],[77.6337738,37.3551329],[77.6351013,37.3651994],[77.6361618,37.3761864],[77.6410672,37.3919822],[77.6523968,37.4075285],[77.6551434,37.4211629],[77.6671593,37.4437908],[77.6644128,37.4775833],[77.6602929,37.5440334],[77.6530835,37.563358],[77.6657864,37.5867588],[77.6901623,37.5859426],[77.7038952,37.5954641],[77.710075,37.6066164],[77.7220913,37.62239],[77.7385708,37.6343539],[77.733421,37.6449567],[77.7310488,37.6543884],[77.7371975,37.6658859],[77.7464672,37.6743103],[77.7924725,37.7175043],[77.8027722,37.7267375],[77.9246518,37.8683493],[77.9637906,37.9165763],[78.0063626,37.9680197],[78.1368252,38.0905263],[78.1999966,38.1491378],[78.2411953,38.1874664],[78.3623883,38.2955955],[78.4516522,38.3769231]],[[77.2893632,37.1360365],[77.2902409,37.1368773],[77.2887262,37.1389087],[77.2873105,37.1398792],[77.2845145,37.1407425],[77.2819663,37.1416171],[77.2816265,37.1410924],[77.2831838,37.1396761],[77.2855763,37.1382315],[77.2878626,37.137402],[77.2893632,37.1360365]],[[77.3177976,37.3031255],[77.3208548,37.3023539],[77.3244748,37.3074778],[77.3367486,37.3055833],[77.3549352,37.336719],[77.3334646,37.3441283],[77.3275423,37.3437019],[77.3241305,37.3425504],[77.3228216,37.3388313],[77.3221886,37.3327577],[77.3206865,37.3246359],[77.3177976,37.3031255]],[[77.3431621,37.3729007],[77.342398,37.3717352],[77.3413627,37.3716079],[77.3412518,37.3723718],[77.3388609,37.3729105],[77.3353732,37.3751239],[77.3287058,37.3789336],[77.3272639,37.3799129],[77.3262656,37.3821849],[77.3272392,37.3840162],[77.33016,37.3870518],[77.3314911,37.390244],[77.3363098,37.3951397],[77.3382324,37.3970686],[77.3407342,37.396765],[77.3436932,37.3808126],[77.3438219,37.3748787],[77.3431621,37.3729007]],[[77.3807096,37.4075184],[77.3791691,37.4078365],[77.3777949,37.4086784],[77.3759956,37.4094126],[77.3765625,37.4102643],[77.3772465,37.4108321],[77.3778751,37.4106754],[77.3785406,37.4116543],[77.3786145,37.4122025],[77.3793047,37.4129856],[77.3819913,37.4125941],[77.3807096,37.4075184]],[[77.3693734,37.4481098],[77.3743731,37.4477351],[77.3741799,37.4449753],[77.3762399,37.4447538],[77.3761433,37.4409035],[77.3716855,37.4412422],[77.3716331,37.43872],[77.3705825,37.4387567],[77.3701625,37.439894],[77.368951,37.4398053],[77.3683341,37.4416312],[77.3710523,37.4414454],[77.3698278,37.4448676],[77.3695595,37.4470567],[77.3693734,37.4481098]]]}}]}