{"type":"FeatureCollection","features":[{"type":"Feature","properties":{"name":"Dinant","admin":"comene","source":"\u00a9 OpenStreetMap contributors, ODbL 1.0","osm_relation":2268360},"geometry":{"type":"Polygon","coordinates":[[[5.0025573,50.2999982],[4.9981916,50.3017702],[4.9947931,50.3013222],[4.9934611,50.3008002],[4.9932186,50.3011824],[4.9931615,50.3011612],[4.9931312,50.3011963],[4.9927217,50.3015908],[4.9925704,50.3015599],[4.9923981,50.3017513],[4.9924323,50.3018113],[4.992409,50.3018042],[4.9921953,50.3017906],[4.9913475,50.3015727],[4.9878696,50.3007795],[4.9857935,50.3000878],[4.9828276,50.2997734],[4.9759073,50.2987044],[4.9759073,50.2978869],[4.9748661,50.2979323],[4.9686905,50.2982013],[4.9685916,50.299962],[4.9666144,50.2998363],[4.9650327,50.2990817],[4.9648153,50.2992642],[4.9612783,50.3020755],[4.9600896,50.3032319],[4.9537624,50.3046782],[4.9514887,50.3030433],[4.9459524,50.3031062],[4.9458997,50.3030866],[4.9423934,50.3017857],[4.9403174,50.3035464],[4.9351766,50.300528],[4.9324085,50.3006538],[4.9284539,50.2988302],[4.9249833,50.2976799],[4.9249327,50.2976371],[4.9249221,50.2976248],[4.924876,50.2975332],[4.9248732,50.2975156],[4.9248776,50.2974356],[4.924901,50.2973179],[4.9249433,50.2971013],[4.9248265,50.2966011],[4.9248533,50.296495],[4.9249045,50.2962806],[4.9249499,50.2960815],[4.9249685,50.2958414],[4.9249252,50.2957153],[4.9253417,50.2956765],[4.9253417,50.2956764],[4.9251521,50.2950976],[4.9249487,50.294925],[4.9249009,50.2949271],[4.9246066,50.2944439],[4.9244665,50.294338],[4.9243672,50.2942488],[4.9241577,50.2941052],[4.9240548,50.2940018],[4.923977,50.2939913],[4.9237144,50.2938514],[4.9235564,50.2938542],[4.9234197,50.2938574],[4.9233262,50.2938429],[4.9230982,50.2937877],[4.9228206,50.2937439],[4.9226122,50.2937317],[4.9224226,50.2937338],[4.9221473,50.2937099],[4.9217237,50.2936552],[4.9212345,50.2935347],[4.9210618,50.2934873],[4.9208924,50.293444],[4.9203149,50.2933359],[4.9198848,50.2932311],[4.9196722,50.2931966],[4.9193553,50.2931703],[4.9191845,50.2931577],[4.9188088,50.2930187],[4.9187585,50.2930167],[4.918653,50.2929765],[4.9185773,50.2929376],[4.9184111,50.2928198],[4.9182117,50.2926593],[4.917788,50.2925834],[4.9177271,50.2925327],[4.9177843,50.2924249],[4.9178496,50.2923781],[4.9179988,50.2922708],[4.9180197,50.2921239],[4.9181109,50.2915313],[4.9181658,50.2911966],[4.9182146,50.290899],[4.9181871,50.2909181],[4.9181086,50.2909541],[4.9179191,50.2909952],[4.9177555,50.2910432],[4.9174364,50.2911062],[4.9172355,50.2911223],[4.917052,50.2911088],[4.9169102,50.2910827],[4.9167797,50.2910432],[4.9166416,50.2909903],[4.9165343,50.2909413],[4.9164403,50.2908944],[4.9163662,50.2908509],[4.9162974,50.2908052],[4.9162324,50.290756],[4.9161325,50.2906721],[4.9160148,50.2905738],[4.9159568,50.2905288],[4.9158978,50.2904897],[4.9157943,50.2904407],[4.9157196,50.2904211],[4.9156635,50.2904135],[4.9155785,50.290413],[4.9155181,50.2904188],[4.9154656,50.2904267],[4.9153574,50.2904453],[4.9152527,50.2904714],[4.9151846,50.2904918],[4.9151156,50.2905138],[4.9150248,50.2905419],[4.9148974,50.290576],[4.9147265,50.2906014],[4.9145827,50.290612],[4.9144536,50.2906135],[4.9142697,50.2906111],[4.9141115,50.290602],[4.9139696,50.2905893],[4.913812,50.2905645],[4.9137073,50.2905455],[4.9136029,50.2905192],[4.9134727,50.290477],[4.9133271,50.2904249],[4.9131834,50.2903722],[4.9129963,50.2902985],[4.912551,50.290122],[4.9124945,50.2901058],[4.9124316,50.2900885],[4.9123921,50.2900793],[4.9123514,50.2900738],[4.912227,50.2900537],[4.9121165,50.2900419],[4.9120413,50.2900355],[4.9118817,50.2900163],[4.9117972,50.2900045],[4.911719,50.289997],[4.9116809,50.2899943],[4.9116503,50.2899949],[4.9116068,50.2900012],[4.9115329,50.2900116],[4.9114224,50.2900278],[4.9112808,50.2900473],[4.9111646,50.2900621],[4.9110656,50.2900726],[4.9110169,50.2900779],[4.9108345,50.2900899],[4.9107531,50.2900912],[4.9106804,50.290088],[4.9105686,50.2900827],[4.9105266,50.2900817],[4.9104314,50.2900736],[4.9103242,50.2900602],[4.9102365,50.2900458],[4.910162,50.290033],[4.9100719,50.2900194],[4.9100158,50.290009],[4.9058201,50.2892778],[4.9041485,50.2890432],[4.9033596,50.288914],[4.9018699,50.2884273],[4.9010609,50.2882352],[4.9005108,50.2880803],[4.8978621,50.2886645],[4.8969081,50.288875],[4.8968843,50.2888802],[4.8968216,50.2887102],[4.8967872,50.2886174],[4.8966411,50.2882232],[4.8964285,50.2876682],[4.8963835,50.2874844],[4.8963668,50.287348],[4.8963616,50.287229],[4.8963705,50.2870723],[4.8964041,50.2868812],[4.8964591,50.2867046],[4.8965425,50.2863887],[4.8965593,50.2862721],[4.8965962,50.2856319],[4.8966223,50.2850638],[4.8966535,50.2843857],[4.8967126,50.2831407],[4.8967537,50.2822439],[4.8967906,50.281698],[4.896834,50.2812479],[4.8968493,50.2811277],[4.8966346,50.2811091],[4.8950801,50.2809794],[4.8941903,50.2809052],[4.8941627,50.2810027],[4.8933952,50.2837175],[4.8931445,50.2849524],[4.8930168,50.2861808],[4.8929828,50.2873957],[4.8930215,50.2879741],[4.8932585,50.2890332],[4.8933184,50.2892804],[4.8935772,50.2903485],[4.8945573,50.2917188],[4.8949753,50.2925921],[4.8956275,50.2940324],[4.8938876,50.2937257],[4.8936547,50.2936738],[4.8933017,50.29309],[4.8825681,50.2920569],[4.8851813,50.2904848],[4.8851106,50.2899009],[4.8838396,50.2894518],[4.8838396,50.2893619],[4.882851,50.289317],[4.8830438,50.2890311],[4.8827804,50.2888229],[4.8812975,50.2885984],[4.8812975,50.288239],[4.8827097,50.2879695],[4.8845457,50.2874754],[4.8850401,50.2870263],[4.8835571,50.2864424],[4.8838393,50.2859033],[4.8860849,50.2865771],[4.8899405,50.2825615],[4.8899829,50.2825615],[4.8918894,50.2768214],[4.8919318,50.2768214],[4.893669,50.2742342],[4.8937537,50.2715393],[4.892991,50.2712159],[4.892525,50.2717278],[4.8914658,50.2721321],[4.8904912,50.2721321],[4.8903642,50.2725903],[4.8893473,50.2725903],[4.8893897,50.2731292],[4.8862968,50.2733449],[4.8859578,50.2736413],[4.8838393,50.2737221],[4.88335,50.2735198],[4.8728233,50.2691677],[4.8707472,50.2680628],[4.8691271,50.2675545],[4.8691133,50.2675377],[4.8686288,50.2669312],[4.8693067,50.2667156],[4.8681203,50.2655568],[4.8695609,50.2648022],[4.8687135,50.2639129],[4.8728261,50.2625169],[4.875411,50.2616422],[4.8770124,50.261184],[4.8780608,50.260965],[4.8787071,50.2608991],[4.8794672,50.2608539],[4.8808735,50.2608676],[4.8807765,50.2607125],[4.8794753,50.2591698],[4.8787974,50.2591967],[4.8774416,50.2577145],[4.8774839,50.2576876],[4.8749418,50.2572833],[4.874391,50.2561245],[4.8731623,50.2555047],[4.8725268,50.2554508],[4.8722302,50.2551274],[4.8737555,50.2545884],[4.8744333,50.2537245],[4.8744758,50.2537514],[4.8779924,50.2529969],[4.8779924,50.2521884],[4.8787126,50.251865],[4.8829072,50.2514337],[4.8851104,50.2510835],[4.8850681,50.2510835],[4.8852363,50.2507472],[4.8852776,50.2506645],[4.8853646,50.2504905],[4.8854069,50.2504905],[4.8840936,50.2492508],[4.883458,50.2484154],[4.883119,50.2474722],[4.8822553,50.2470677],[4.8848397,50.2474181],[4.8874243,50.2460706],[4.8937796,50.2456394],[4.8984826,50.2451005],[4.9003468,50.2447501],[4.9001525,50.2446149],[4.8996689,50.2442919],[4.8969149,50.2436721],[4.8942139,50.2431717],[4.8928885,50.2422964],[4.8931665,50.2411731],[4.8931736,50.2411336],[4.8897545,50.2397375],[4.8886476,50.2389586],[4.8885914,50.2376158],[4.8888225,50.2363419],[4.8889072,50.236288],[4.8882293,50.2347249],[4.8879751,50.2312754],[4.8880174,50.2312754],[4.8888648,50.2286347],[4.8908562,50.2254008],[4.8919577,50.2243497],[4.8923391,50.2234335],[4.8924238,50.2234335],[4.8922544,50.2224364],[4.8914917,50.2212506],[4.891534,50.2212506],[4.8908985,50.2206577],[4.8887801,50.2192833],[4.8874666,50.2184209],[4.8864074,50.2180166],[4.8850516,50.2178549],[4.8772133,50.2171543],[4.8772557,50.2171004],[4.8755185,50.2168308],[4.8742051,50.2164266],[4.8725104,50.2155103],[4.871324,50.2142976],[4.8695868,50.2096354],[4.8706461,50.2093932],[4.8704343,50.2083152],[4.8708155,50.2082074],[4.8708155,50.2081535],[4.8711122,50.2086117],[4.8719172,50.2082613],[4.8714935,50.207911],[4.8719595,50.2062671],[4.8718324,50.2039494],[4.8713664,50.2040033],[4.8708155,50.2032757],[4.8684853,50.2019013],[4.8684429,50.2018204],[4.8691208,50.2015779],[4.8695868,50.2007694],[4.8692479,50.1993142],[4.8686124,50.1983709],[4.8686548,50.1983709],[4.8671719,50.1983439],[4.8671719,50.198317],[4.8649687,50.1979936],[4.8590899,50.1939003],[4.8583237,50.1933247],[4.8579673,50.1929383],[4.8577061,50.1925891],[4.8578385,50.192541],[4.857905,50.192565],[4.8580193,50.192538],[4.8581148,50.1924426],[4.8582244,50.1924432],[4.8583696,50.1923779],[4.8584979,50.1923737],[4.8586545,50.1921866],[4.8587845,50.1919011],[4.8588252,50.1914453],[4.8587827,50.1904752],[4.8568761,50.1893702],[4.8570033,50.1892085],[4.8567914,50.1886157],[4.855139,50.1875916],[4.8551814,50.1875916],[4.8547153,50.1865944],[4.8547577,50.1865944],[4.8548001,50.1860824],[4.8544268,50.1856685],[4.8563837,50.1853017],[4.8574693,50.1851392],[4.8613515,50.1846509],[4.8603928,50.1829563],[4.8599267,50.1812045],[4.8599691,50.1811507],[4.8614197,50.1812887],[4.8631568,50.1808575],[4.8719272,50.1822858],[4.8723509,50.1816121],[4.8731559,50.1817199],[4.8737067,50.1813426],[4.8751049,50.1818546],[4.8774352,50.1817199],[4.8783673,50.1811808],[4.8793842,50.1820163],[4.8792147,50.1825014],[4.88074,50.1826631],[4.8836634,50.1820432],[4.8837482,50.181666],[4.8876462,50.1817738],[4.8898069,50.1824205],[4.8927305,50.1819354],[4.8938321,50.1819085],[4.8954422,50.1816121],[4.8993825,50.1818546],[4.9007452,50.181503],[4.9028991,50.1814773],[4.9077715,50.1824744],[4.9104408,50.1802376],[4.9282783,50.1991019],[4.9303543,50.1989941],[4.9302696,50.199398],[4.9289138,50.2000178],[4.9282359,50.2011227],[4.9289138,50.2008801],[4.9300577,50.2008262],[4.9327694,50.2020389],[4.9328458,50.2034243],[4.9328541,50.2035751],[4.9353963,50.2037907],[4.9355233,50.2047609],[4.935481,50.2048148],[4.9372605,50.205758],[4.9359047,50.206809],[4.935947,50.2071864],[4.9347608,50.2080218],[4.9345065,50.2117408],[4.933532,50.2119833],[4.9336591,50.2126571],[4.9331507,50.2128996],[4.9336591,50.2138159],[4.9329389,50.2143549],[4.9328329,50.2145339],[4.931583,50.2166456],[4.9320361,50.2169799],[4.9326423,50.2174271],[4.9336591,50.217481],[4.9347608,50.2171306],[4.9362437,50.2171576],[4.9373876,50.2178853],[4.9395061,50.2183973],[4.9408195,50.2187746],[4.9417516,50.21961],[4.941784,50.2196435],[4.9427685,50.2206611],[4.9439972,50.2207689],[4.9451412,50.2210923],[4.9469206,50.2217121],[4.9482765,50.2218199],[4.9501407,50.2213887],[4.9510304,50.2209575],[4.9509881,50.2209575],[4.9514117,50.21643],[4.9503102,50.2141932],[4.948912,50.2141123],[4.9488696,50.2134386],[4.949378,50.2121989],[4.9486578,50.2108784],[4.9492086,50.2102047],[4.9509457,50.2096387],[4.9536997,50.2093154],[4.9550978,50.2093692],[4.9557758,50.210528],[4.95603,50.2112018],[4.9567079,50.21325],[4.9575553,50.2140045],[4.9586146,50.2140315],[4.9578519,50.2151903],[4.9606906,50.2159179],[4.9619193,50.215379],[4.9623007,50.21484],[4.9606906,50.2136812],[4.9608601,50.2118486],[4.9612838,50.2118486],[4.9621735,50.2106089],[4.9617075,50.2101508],[4.9620464,50.209477],[4.9619617,50.2079679],[4.9621735,50.205219],[4.9621312,50.205219],[4.9617075,50.2044914],[4.9623007,50.2041949],[4.9606906,50.203656],[4.9607753,50.2030361],[4.9585298,50.202012],[4.9568774,50.2007454],[4.9562419,50.2006376],[4.9572587,50.1995327],[4.9618345,50.201985],[4.9621735,50.2025241],[4.9630633,50.2031169],[4.9647581,50.2037368],[4.9647157,50.2037638],[4.9652664,50.2042758],[4.9651817,50.2050573],[4.9647157,50.2063509],[4.9646733,50.2063509],[4.9644614,50.2074558],[4.9635294,50.208992],[4.9632751,50.2118486],[4.9645462,50.2114444],[4.9669188,50.2113366],[4.96819,50.2117947],[4.968995,50.2124954],[4.969122,50.2129265],[4.9696305,50.2140045],[4.9700746,50.2142248],[4.9685917,50.2159855],[4.9704701,50.2271785],[4.9824322,50.2300082],[4.9814437,50.2316432],[4.9829266,50.232775],[4.9832072,50.2326712],[4.9871777,50.2312029],[4.9867822,50.2305741],[4.9898469,50.2293794],[4.9906378,50.2266126],[4.9920218,50.2261724],[4.9939002,50.2271156],[4.9948888,50.2247261],[4.9948888,50.2246003],[4.9967671,50.2254178],[4.999041,50.2256693],[4.999041,50.2257322],[5.0000295,50.2268012],[5.0000295,50.2268641],[5.0015125,50.2279331],[5.0003262,50.228499],[4.9993375,50.2300082],[4.9973603,50.2314545],[4.9978546,50.2320204],[4.9995641,50.2320116],[4.9993375,50.2341584],[5.0003262,50.2351646],[5.0001284,50.2362964],[5.0009194,50.2369881],[5.0015125,50.2401951],[5.0000295,50.2420187],[5.0010182,50.2422073],[5.0000297,50.24466],[4.9979537,50.246232],[5.0012161,50.2460433],[5.0029956,50.2469866],[5.0033253,50.2470372],[5.0085464,50.2478389],[5.0087295,50.247867],[5.0084329,50.2486844],[5.0124862,50.250005],[5.0154521,50.250508],[5.0230644,50.2469866],[5.0267222,50.247867],[5.0296881,50.247867],[5.0349278,50.2495648],[5.035422,50.2489359],[5.0407606,50.2513883],[5.0423392,50.2496807],[5.0439591,50.2503624],[5.0451486,50.2510233],[5.0455377,50.2525201],[5.0472002,50.2542493],[5.047919,50.2547121],[5.0380243,50.2649708],[5.032609,50.2704305],[5.0223054,50.280817],[5.0190598,50.2851156],[5.0185191,50.2858317],[5.0176059,50.2875574],[5.0170983,50.2886983],[5.0168103,50.2894698],[5.0162334,50.2896956],[5.0158697,50.2898397],[5.015397,50.2899995],[5.0153355,50.2900276],[5.0153409,50.2900323],[5.0152191,50.2900738],[5.0151159,50.290079],[5.0149338,50.2900582],[5.0143828,50.2899392],[5.014288,50.2899211],[5.0141581,50.2899163],[5.0140541,50.289939],[5.0140028,50.2899714],[5.0138936,50.2900232],[5.0136204,50.2901343],[5.0134427,50.2902108],[5.0132169,50.2904153],[5.0111206,50.2921067],[5.0105314,50.2926345],[5.010364,50.2928108],[5.0091126,50.2947491],[5.0090245,50.2948704],[5.0088882,50.2950185],[5.0087371,50.2951577],[5.0085178,50.2953441],[5.0083489,50.2954589],[5.0080136,50.2957609],[5.0077778,50.2959927],[5.007548,50.2961872],[5.0073682,50.29632],[5.0071425,50.2964649],[5.0067683,50.2966808],[5.0065684,50.2968057],[5.0062353,50.2970333],[5.0060488,50.2971724],[5.0057235,50.2974471],[5.0054106,50.2977237],[5.0049494,50.2980688],[5.0046929,50.2982785],[5.0041611,50.2987813],[5.0038517,50.2990177],[5.00359,50.2992119],[5.0032842,50.2994296],[5.0030292,50.2995965],[5.002476,50.2999542],[5.0025573,50.2999982]]]}}]}